DataType=double
version=3
OpenSimVersion=4.5
endheader
time	pelvis_tilt	pelvis_list	pelvis_rotation	pelvis_tx	pelvis_ty	pelvis_tz	hip_flexion_r	hip_adduction_r	hip_rotation_r	knee_angle_r	knee_adduction_r	knee_angle_r_beta	ankle_angle_r	subtalar_angle_r	mtp_angle_r	hip_flexion_l	hip_adduction_l	hip_rotation_l	knee_angle_l	knee_adduction_l	knee_angle_l_beta	ankle_angle_l	subtalar_angle_l	mtp_angle_l	lumbar_extension	lumbar_bending	lumbar_rotation	arm_flex_r	arm_add_r	arm_rot_r	elbow_flex_r	pro_sup_r	wrist_flex_r	wrist_dev_r	arm_flex_l	arm_add_l	arm_rot_l	elbow_flex_l	pro_sup_l	wrist_flex_l	wrist_dev_l
0	-0.08717011653481531	0.06889816034589061	0.02848082316852594	1.053131571390157	0.9500368675865606	0.4329063907334257	0.6041279196527758	-0.2393231426237938	0.1318800125447317	0.3743043772926865	0.03879643001440361	0.3484251164524865	-0.03910826285855004	-0.3842499596220347	-0.04237228992711711	-0.02671021548204094	0.05854572980295385	-0.0928643254820781	0.1701310889104942	0.09396746454545897	0.1563783269951612	0.2560672974007011	-0.05619202480693952	-0.03539987579571074	-0.1720481195749421	-0.01671153675623751	0.06247601866307927	-0.2175617308207768	-0.1661225742003514	-0.4759779960058643	0.2351362584450197	1.570796326969429	0	0	0.5142820137567472	-0.3314988015297102	-0.0451534638809673	1.407580708390527	1.570796326969429	0	0
0.009512856113114032	-0.09139579243859082	0.06724594103249493	0.0308743173490704	1.054900386080273	0.9480037022321094	0.4347447877741679	0.6032669901878395	-0.2349448064256404	0.1201840111199794	0.3767566326451019	0.03879643001440362	0.3352255525811833	-0.03808290650506208	-0.3878782457311398	-0.04634331927269813	-0.03042331349376959	0.05335017971750673	-0.09335557583439308	0.1760769449577409	0.093967464545459	0.1608688073584537	0.264211662213154	-0.04991944260780196	-0.03746291171731607	-0.1641474069409932	-0.01801004894179473	0.05792216554847969	-0.237709947035264	-0.1665055387112712	-0.4705375401984395	0.2440561544647475	1.570796326969429	0	0	0.533632482488225	-0.3294850617022925	-0.04875499314366956	1.438542162346714	1.570796326969429	0	0
0.02645588447305514	-0.0975709187476644	0.06303899498704046	0.03594047599724359	1.058767885952904	0.9445982702771251	0.4382782144470613	0.5983187361993606	-0.2249582664171645	0.1013965925365635	0.3894929986037749	0.03879643001440364	0.3279258688304888	-0.0346296345401621	-0.396060971224065	-0.05238566893293951	-0.03699784945646617	0.04200547248006194	-0.09379269462219583	0.1907576735668055	0.09396746454545904	0.1763614874309316	0.2780198333951303	-0.04014521102554419	-0.04213271197690689	-0.1496016701306597	-0.01887813344659089	0.04943155400420304	-0.2711039373455162	-0.167061261253613	-0.4540615399716005	0.2603975748384152	1.570796326969429	0	0	0.5596335423207556	-0.3250112002260271	-0.05549114376304768	1.489661121145935	1.570796326969429	0	0
0.04083125941383081	-0.1008872836783031	0.05841729265030268	0.04102790440266201	1.06276546872456	0.9420729947083205	0.4414398653601774	0.5893112176799635	-0.2148719929170547	0.0933453153945998	0.4038097863689039	0.03879643001440364	0.3361017332090348	-0.03439418599584967	-0.4038906737782674	-0.05646273905475752	-0.04235689750907251	0.03079424468601933	-0.09218123100547448	0.2090623781728934	0.09396746454545907	0.1983482882394516	0.2918547539220755	-0.0350383389487702	-0.04696804833355157	-0.1376756273103907	-0.01793785162896261	0.04176331494949612	-0.2980529405942665	-0.1674013359134776	-0.4355681879814428	0.2700941136221369	1.57079632696943	0	0	0.5714345027052707	-0.3201640828286476	-0.06173671470477896	1.528248109056022	1.57079632696943	0	0
0.04479999999999995	-0.101514598057701	0.05701790171528003	0.04254272496623163	1.063953867279807	0.9414291958939989	0.4423334235925124	0.5859305514371653	-0.2119357587059998	0.09349403079982524	0.4071152713545761	0.03879643001440364	0.3403153175072408	-0.03519377051002956	-0.4057111239562029	-0.05744236013205151	-0.04369450228144239	0.02753203502280887	-0.09139523594532756	0.2148894854403365	0.09396746454545907	0.2060214459245196	0.2944149635185533	-0.03496857233627743	-0.04801575938399611	-0.1344969508319998	-0.01745911731552091	0.03956762685844821	-0.3048700473552334	-0.1674966614994454	-0.4306918010792005	0.2717122012296501	1.570796326969431	0	0	0.5738503330469287	-0.318704631914578	-0.06340130923740012	1.538653724282568	1.570796326969431	0	0
0.05431285611311398	-0.1028319834051134	0.05335342401345976	0.04637350912156658	1.066904557833767	0.9399421928756237	0.4445308944375572	0.5765272874550402	-0.20467269487758	0.09556780100458769	0.4122078753008764	0.03879643001440364	0.3532275253426	-0.03434851933945357	-0.4119737051082296	-0.06066245682305708	-0.0463261901753651	0.01929094380562326	-0.08884390817211599	0.2304582376461258	0.09396746454545908	0.2274597179529609	0.3010199453279006	-0.03576545033856152	-0.05090698023569235	-0.1268711325740469	-0.01595383384683136	0.03417737656873677	-0.3200674010598706	-0.1677511271310516	-0.4187882134258066	0.2751856152602383	1.570796326969431	0	0	0.5783131465858247	-0.3150099051357155	-0.06727259909922317	1.563229867025055	1.570796326969431	0	0
0.07125588447305514	-0.1041254520248647	0.04564281141619384	0.05168908295035149	1.072196338571029	0.9377561799633279	0.448832795842981	0.5589135778862366	-0.1894172965340284	0.1007139578136195	0.4215823651169009	0.03879643001440362	0.3833153567823612	-0.02003604047194713	-0.431220919591403	-0.06932545969442583	-0.04848773705444775	0.003266136961226157	-0.08352292297832484	0.2644686979698833	0.09396746454545898	0.2769414838037666	0.3091863873668131	-0.044324386183175	-0.06029835259098396	-0.1142794615593281	-0.01194509442016221	0.02397423873260321	-0.3358185529651628	-0.1678732695300385	-0.4000542901069851	0.2776071040609036	1.570796326969429	0	0	0.5781260854482416	-0.307457584111656	-0.0745920822163596	1.602402962726246	1.570796326969429	0	0
0.08563125941383082	-0.1044725843062316	0.03728441835397029	0.05349005296246014	1.076354915285582	0.9365902565194464	0.452992017696015	0.5474718761345565	-0.1728946015996951	0.1036852486613625	0.4370332688204113	0.03879643001440364	0.412026053934314	0.003730816741381385	-0.4499142475770353	-0.07526433228505505	-0.04591999712895461	-0.0124791284152824	-0.08022544912361081	0.3020179829074371	0.09396746454545904	0.3308064363104889	0.3119086178154648	-0.0579549407415049	-0.0740929431126565	-0.1049053492643009	-0.006718681416625873	0.01489311862012086	-0.3341031790755333	-0.1673444852287478	-0.3879530177557243	0.2757068657472812	1.570796326969429	0	0	0.56928525410438	-0.3001102567674593	-0.08155477059745732	1.629275721025686	1.570796326969429	0	0
0.08960000000000001	-0.1046113452493554	0.03460889648740362	0.05363636747225022	1.077414444655438	0.9363903853233048	0.4542173473849059	0.5452054780186502	-0.1677355172271672	0.1046846261187168	0.4423873079870478	0.03879643001440364	0.4199149394272091	0.01103199350747458	-0.4537888792575119	-0.07555515633112403	-0.04407700000907261	-0.01733103935056063	-0.0798888973024643	0.3142092444227936	0.09396746454545905	0.3476083824678753	0.3119193074728915	-0.0620425417555352	-0.07838089341491887	-0.1023939796732323	-0.00495420329412191	0.01241332613625202	-0.3316585731572425	-0.1671138028179418	-0.3851887576999747	0.2749789799393384	1.570796326969429	0	0	0.5662447139696252	-0.2980216231737601	-0.08347901835759136	1.636036119659544	1.570796326969429	0	0
0.0991128561131141	-0.1048002312201993	0.02792801084241735	0.05389127238295648	1.079934439953936	0.9361092783293949	0.4572047528111056	0.5398854493156398	-0.1548524457472301	0.1070079725636376	0.4558383574275031	0.03879643001440362	0.4380457699112437	0.0297333282614772	-0.46436650412291	-0.0775755904292372	-0.03828185694788383	-0.02936172177805018	-0.07890681196411117	0.3458145334465474	0.09396746454545904	0.3911827230090199	0.3094422368603779	-0.07378648214614525	-0.0882596348129184	-0.09644832557708377	-0.0004731855366027907	0.006681445783113965	-0.3248738749450916	-0.1665399569405996	-0.3789842793037206	0.2716059779802792	1.57079632696943	0	0	0.5571296767974652	-0.2929561348341594	-0.08822471522987947	1.651326779326539	1.57079632696943	0	0
0.1160558844730551	-0.1047083186095401	0.01502971707798242	0.05402394162666908	1.084433754151647	0.9362697798794354	0.4626115146844469	0.5273065260228424	-0.1306253808719285	0.1110221882312611	0.4739992009868737	0.03879643001440364	0.4653720532456865	0.05830063059684287	-0.4837959894076841	-0.0813078342658925	-0.02293145850694955	-0.05215422520796056	-0.07661346127563429	0.4111707725271305	0.09396746454545907	0.4794281241452035	0.298097631600076	-0.100374663033821	-0.1043224656255186	-0.08560884860500367	0.00851329116395903	-0.002348534894366106	-0.3083248419557638	-0.1657781813438205	-0.3720554573458142	0.2603525584842872	1.57079632696943	0	0	0.535659395353268	-0.2834881777401653	-0.09729611888666558	1.674810169678147	1.57079632696943	0	0
0.1304312594138309	-0.1038441021121936	0.003401954260194008	0.05428522852784353	1.088326768344481	0.9369711728765929	0.4670826721269353	0.5100325526589401	-0.1100635566366988	0.1132573483662467	0.4774067413403946	0.03879643001440364	0.4814445210910061	0.07070800252264249	-0.4992393192430094	-0.085465354340535	-0.005488581741058707	-0.07220153604207133	-0.07289629066705226	0.4750478672284477	0.09396746454545905	0.563034013756934	0.2818390207913462	-0.1283478231145834	-0.113236442388175	-0.07645504892710402	0.01718580982501251	-0.008357172213889706	-0.2913217678817521	-0.1657199328965037	-0.3701562930641836	0.2472051431359214	1.57079632696943	0	0	0.5126067107052937	-0.2749728906337555	-0.1053594998251813	1.689598249507785	1.57079632696943	0	0
0.1344	-0.1034587608663978	0.0001379918966408556	0.05449262380348775	1.089392875506478	0.937232967688342	0.468270729155059	0.5041674482206659	-0.1046017893532403	0.1134803993635977	0.4764311815616061	0.03879643001440364	0.4845776293842117	0.07207678084822933	-0.5030977403864632	-0.0867818078728632	5.546930834726682e-05	-0.07779084735474102	-0.0716394556187421	0.4939638192365149	0.09396746454545905	0.5871566515903593	0.2766223947257947	-0.1366928609681912	-0.114205054223462	-0.07405858812078413	0.0197358235385173	-0.009729296359397782	-0.2866644784583513	-0.1658246692569639	-0.3697266506888706	0.2438816541663216	1.57079632696943	0	0	0.5057325615720092	-0.272595309537398	-0.1074610145415218	1.692763089072836	1.57079632696943	0	0
0.1439128561131141	-0.1024683708911572	-0.007997937974814271	0.05498518587273262	1.091844974959548	0.9379483935250885	0.4710504530046583	0.4893671330913988	-0.09138915474819889	0.1138319840987654	0.4725384394372062	0.03879643001440363	0.489776957653244	0.07637994979235459	-0.5114500367931726	-0.09051348404645398	0.01474160053289147	-0.09132453353353609	-0.06787125036257362	0.541378316493714	0.09396746454545903	0.6461754949386566	0.2633564383478353	-0.1589003676932149	-0.1141692305456654	-0.06849763418594007	0.0263934409195017	-0.01267210963140937	-0.2740765477788376	-0.1660840789274762	-0.3682825730829408	0.236532751483608	1.570796326969429	0	0	0.4882139279553424	-0.2668656183985318	-0.1124392030811824	1.698743239591263	1.570796326969429	0	0
0.1608558844730551	-0.09964562690049016	-0.02353848097890605	0.05644475767299655	1.095711480227224	0.9394553581516215	0.4756385387921551	0.4600072303450421	-0.06765768422313376	0.11389118602438	0.4609742606596961	0.03879643001440365	0.4915658001752486	0.08636828530145993	-0.5234845433084649	-0.1014797777002123	0.04663026061616446	-0.1157094678816964	-0.05678832914114053	0.6368507198594258	0.0939674645454591	0.7527490485008804	0.2358463723846951	-0.20349218780535	-0.09831745608743594	-0.06058860765045812	0.04034379377645769	-0.01646092828306648	-0.2495037795851456	-0.1673858200522658	-0.3631536134738064	0.2304313822922993	1.57079632696943	0	0	0.4545130267861082	-0.2561344757405428	-0.120067482786302	1.6986065880679	1.57079632696943	0	0
0.1752312594138309	-0.0958273536216525	-0.03735348097404749	0.05805622456972535	1.098365585791173	0.9408171329223308	0.479159440537502	0.4326234717846185	-0.04755018189555414	0.113790038746617	0.4475896416040696	0.03879643001440365	0.4870073248711306	0.0941498408484886	-0.5314846337006015	-0.1145279784753007	0.07782051520763567	-0.1366737979928695	-0.0447618394726459	0.7230127451417079	0.09396746454545901	0.8407928562247766	0.236063033347004	-0.2443077728336147	-0.07988628792870499	-0.05663803353948194	0.05371558597437767	-0.01836114229286858	-0.2267204888726853	-0.1698590848684203	-0.3559755490711742	0.2365571096698906	1.570796326969428	0	0	0.4241975425423068	-0.2461965423899831	-0.1243663081788167	1.68434947879307	1.570796326969428	0	0
0.1792	-0.09464715433018395	-0.04108033054809661	0.05848469063138478	1.099015862297494	0.9411800426771655	0.4800825028344046	0.4248582955092646	-0.04217541281981155	0.1137761730679902	0.4434086802131706	0.03879643001440365	0.485015409086006	0.0956696065482483	-0.5335374975198579	-0.1180305450244969	0.08584214829713044	-0.1424812563941242	-0.04226284012092218	0.7426188918782636	0.093967464545459	0.8641866533942432	0.2470752818829158	-0.2558836136143234	-0.07820549706855888	-0.05581708699125813	0.05736722397975724	-0.01881763041895974	-0.2195351514645915	-0.1707737521239652	-0.3536638202613684	0.2404237398032134	1.570796326969428	0	0	0.4159226866052583	-0.2433162737660568	-0.1250495654196414	1.678484855620018	1.570796326969428	0	0
0.1887128561131141	-0.09171045997491553	-0.04995993611438734	0.05980153073066014	1.100436758865307	0.9419941654481848	0.482179539507015	0.4062586893032398	-0.02967994090435901	0.1134486475603823	0.4333564512537325	0.03879643001440364	0.4793092799431573	0.09971573878921018	-0.5371756008830907	-0.1266532193085241	0.1054641515008675	-0.1564260903497522	-0.03651374607916795	0.7907044445839484	0.09396746454545898	0.9179741706970704	0.2486643518700623	-0.2784122929471504	-0.06532539877292554	-0.05428272354413598	0.06620495811534323	-0.01975518706196384	-0.2030381711924895	-0.1732144185140334	-0.3474898807314603	0.2513132851836141	1.570796326969428	0	0	0.3954578767664908	-0.2362675152834803	-0.1261215386341593	1.662160540586133	1.570796326969428	0	0
0.2056558844730552	-0.08587676481591677	-0.06413851414793939	0.06316722830572807	1.102365717838089	0.9433920358401928	0.485455812239363	0.373135867164478	-0.01024682202820524	0.1121003047614132	0.4154612433613011	0.03879643001440364	0.467122312274925	0.1073276936166789	-0.5399372244396627	-0.1414093322261594	0.1392009152892378	-0.1788398461888509	-0.02674564522964533	0.8601874975137414	0.09396746454545903	1.003582163257851	0.2326572769185479	-0.2985623745094321	-0.02268732623636025	-0.05359155830766606	0.08062146053086193	-0.02121905822105303	-0.1729541851286114	-0.1794809685970663	-0.3345522529702781	0.2823987847996998	1.570796326969429	0	0	0.3604088051896855	-0.2226476405214529	-0.1250067026084508	1.620976643898589	1.570796326969429	0	0
0.2200312594138309	-0.08037711574988853	-0.07367579398313136	0.06731198212440759	1.103287013303764	0.9445654412353149	0.4877323385979219	0.3456458389341586	0.002486790022564388	0.1100332857094278	0.4010843835864517	0.0387964300144036	0.4560561479351946	0.1124933814136288	-0.5395217334895921	-0.1513237820005167	0.1680778745414417	-0.193534558442721	-0.01786757944658075	0.9054704541858412	0.09396746454545903	1.063668698373304	0.2212900462909539	-0.308009760634884	0.02305695701453434	-0.05547983198928425	0.09058257427197554	-0.02229132900974838	-0.1478724896174272	-0.186896562747903	-0.3222999494921945	0.3196589151839546	1.570796326969429	0	0	0.332530316890172	-0.2100540612044476	-0.1211471180903397	1.572542231008635	1.570796326969429	0	0
0.224	-0.07888076548104897	-0.07592579763906397	0.06864588466041457	1.103431168455272	0.9448821425111326	0.4882904894985735	0.3382984442523619	0.005461182776298671	0.1093451493970381	0.3973030818334792	0.0387964300144036	0.4530077597625574	0.1136057926835227	-0.5391395035631552	-0.1532290862291437	0.1763513026701523	-0.196906293838409	-0.015561039268924	0.9163585867043027	0.09396746454545903	1.078003530531132	0.220072065012427	-0.3121155957991397	0.03408963309572948	-0.05627995375318415	0.09296443384850001	-0.0225436262229687	-0.1411199136744427	-0.189119180695123	-0.3188373431194188	0.3305925410020203	1.570796326969429	0	0	0.3248890946400156	-0.2065320624417467	-0.1198083174625155	1.557739438403309	1.570796326969429	0	0
0.2335128561131141	-0.07527329222424248	-0.08099277907905948	0.07211935651565271	1.103612682037226	0.9456518130862656	0.4895135582853043	0.321049633538581	0.01207190253517271	0.1075863590446131	0.3886625739326237	0.03879643001440358	0.4458022787441963	0.1168805024508906	-0.5376535820289771	-0.1573370985882089	0.1962613431708735	-0.204309931897092	-0.01027498234180617	0.9385771100739853	0.09396746454545903	1.108215278784868	0.2185733704777262	-0.3204274930582928	0.06115607445887148	-0.05872166075890974	0.09846454159676546	-0.02308024868278967	-0.1251959048842428	-0.1946987893039114	-0.3100974933052717	0.3580037939329102	1.570796326969429	0	0	0.3063946215078546	-0.1979953935534021	-0.1161069465268565	1.520017368629414	1.570796326969429	0	0
0.2504558844730551	-0.06878523824440205	-0.08723940719621399	0.07986777632690541	1.103247351708729	0.9470711553913055	0.4912397803596171	0.2915484990736034	0.02013397590445695	0.1037708558954901	0.3748355108555688	0.03879643001440362	0.4333847925262553	0.1240007293870908	-0.5329877973362188	-0.1608985259612499	0.232843901889528	-0.2126166648365529	-0.001739830475220893	0.9669603999723795	0.09396746454545901	1.147292291014472	0.2243057796706155	-0.3392811843238347	0.09656447215815975	-0.0652487051930368	0.1055221871727817	-0.02432943094624474	-0.09703133232006911	-0.2059540614211555	-0.2950920971136853	0.4097309007911328	1.570796326969429	0	0	0.2752933611203263	-0.1823091140421003	-0.1077615432479941	1.443213662372283	1.570796326969429	0	0
0.2648312594138309	-0.06337076601347752	-0.08941616037485868	0.08809032933313361	1.1022548553316	0.9483419856512361	0.4923017188284101	0.2675983634598998	0.0230866080021301	0.1000198211848929	0.3640358514285638	0.03879643001440362	0.4230557844559663	0.1296800770849322	-0.5284602878673675	-0.1596698103185663	0.2649237725524571	-0.2146014520777055	0.004282118036976181	0.9800284879323586	0.09396746454545896	1.165782531971648	0.232029565436851	-0.3557430934884632	0.1104724667461357	-0.07289722248579381	0.1081834414098293	-0.02594123200624875	-0.0730322570446181	-0.2168409481369361	-0.2845885969885447	0.4552405152374318	1.570796326969429	0	0	0.2519036668632629	-0.1685909628042289	-0.09918595201662829	1.368360677014091	1.570796326969429	0	0
0.2688	-0.06196906444005056	-0.08976745649312595	0.09051615066708402	1.101901499449518	0.9487018767709853	0.492557400498683	0.2611288379398479	0.0236301673504209	0.09901573331226909	0.3609479180030744	0.03879643001440362	0.420177281475399	0.1310273011584117	-0.5275364815914194	-0.1587971791182652	0.2738257987808546	-0.2148204456822947	0.005477717124483039	0.9816432713173167	0.09396746454545897	1.168576321574191	0.2329419105404053	-0.3585787875772877	0.1127157865518726	-0.07517179968334693	0.1086347039728189	-0.02643904693979806	-0.0663966290781618	-0.2199213554126943	-0.2820572961362008	0.4676755690459703	1.570796326969428	0	0	0.245748658549117	-0.1648260177671866	-0.09670656950611377	1.34687429846205	1.570796326969428	0	0
0.2783128561131141	-0.05869087507658057	-0.09027767853058026	0.09654971601998633	1.100923746071492	0.9495738451336534	0.4930978595138953	0.2459070990264755	0.02452094312602406	0.09654282158351513	0.3537755716397789	0.03879643001440362	0.4131188954103553	0.1346348118866502	-0.5248583376587637	-0.1560786905163652	0.295110243677413	-0.2147569121350059	0.007747581274642643	0.9823648705484208	0.09396746454545903	1.171311945166582	0.2369852582935906	-0.3632203717319101	0.1163582343262941	-0.08102019799100872	0.1093834628143864	-0.02770512198655391	-0.05050647986313225	-0.2274456828991742	-0.2760653733936351	0.4978304001309166	1.570796326969429	0	0	0.2312452685472696	-0.1557951892402707	-0.09043674616292971	1.293864125244162	1.570796326969429	0	0
0.2952558844730552	-0.05334847907413409	-0.08973941159677196	0.1080933682995161	1.098736243548726	0.9511474237346331	0.4938569306123198	0.2194110947158235	0.02443565242413414	0.09184948155889616	0.3405675331518763	0.03879643001440364	0.3995195937683619	0.1409798583102753	-0.5199014538833827	-0.1488818162755044	0.3320191341354786	-0.2125484479918631	0.009147667517408354	0.9711321562689146	0.09396746454545901	1.16273899049728	0.2458926356313477	-0.3668441761244552	0.1137918127116643	-0.09249546067075673	0.1090598832202947	-0.03040108418953764	-0.0207127031615324	-0.241204250351496	-0.2678476236338944	0.5518040011231283	1.570796326969429	0	0	0.2086437844368227	-0.1399869913794769	-0.07903385661558875	1.19394059807	1.570796326969429	0	0
0.3096312594138309	-0.04954755215265964	-0.08806549685866306	0.1184081432301546	1.09650481427928	0.9524595516275002	0.494361958951288	0.1974705332459233	0.0230537117884301	0.0876436012207962	0.3282260517941711	0.03879643001440364	0.3863096194200766	0.1450955997590468	-0.5163419134436399	-0.1409516984678385	0.3618311687971767	-0.2089934880049483	0.008000593419826549	0.9490145299819563	0.0939674645454591	1.142369676288503	0.2510241065132121	-0.3642226014016051	0.1052725734926263	-0.1028367608943364	0.1072450938027967	-0.0330153088466217	0.006305359032103164	-0.2530029746487867	-0.2643324300854397	0.5981476328964579	1.570796326969431	0	0	0.193282133305286	-0.1271525656410372	-0.06982674076996413	1.104010048775376	1.570796326969431	0	0
0.3136000000000001	-0.04866423731477642	-0.08763348181017055	0.1212231320770235	1.095856928181965	0.9528105587504457	0.4944946339171973	0.1914899531137068	0.02273830609526644	0.08651937274284643	0.3245113250057222	0.03879643001440363	0.3823091029723429	0.1460757839127196	-0.5154947082166227	-0.13867019553581	0.3697501420197541	-0.208067076971109	0.007341350696340028	0.9409090506096585	0.0939674645454591	1.134663178843068	0.2508924840675456	-0.3619015415257734	0.1034287069222189	-0.1056463408377959	0.1067391003738997	-0.03371208097850882	0.01389327247028957	-0.2561968410812965	-0.2637031524377607	0.6111756778258461	1.570796326969431	0	0	0.1893406593115655	-0.1237488580228251	-0.06739879643923062	1.078853859761157	1.570796326969431	0	0
0.3231128561131141	-0.04673116438979077	-0.08660882420443598	0.1279329462180337	1.094242505345889	0.9536223660133941	0.4947840021127032	0.177280702876713	0.02198950048952679	0.08377037429821595	0.3153905133329679	0.0387964300144036	0.3719993034195553	0.1485677450549505	-0.5131377129742981	-0.1328351833676229	0.3880233669371956	-0.2056929541232548	0.005413647603045042	0.918166433724839	0.09396746454545903	1.112542646389564	0.2509528553480654	-0.3536804474272877	0.09863466412425716	-0.112432896478103	0.1055036142003328	-0.03537982991856102	0.03269608436245344	-0.2638022739488757	-0.2623368170852172	0.6430750983772098	1.57079632696943	0	0	0.1804201996683422	-0.115744637856984	-0.06157215285948767	1.017967794946835	1.57079632696943	0	0
0.3400558844730551	-0.04436461804227686	-0.0851303731259751	0.1391228661334769	1.091223469025723	0.9549123379585968	0.4952524518717217	0.1524981712659593	0.02105613629659675	0.07883726920081581	0.2974376329789771	0.0387964300144036	0.3508486545037596	0.151956887340257	-0.5086337213529941	-0.122335756960035	0.4178246055304086	-0.2013287320293008	0.0009240583167309764	0.8656654505915351	0.09396746454545903	1.060437309502603	0.2506563860264607	-0.3356010984775337	0.09064767465854444	-0.1240536224578113	0.1035943070630016	-0.03779286498685366	0.06801250155986296	-0.276595020319246	-0.2616963785248444	0.703340839248615	1.570796326969429	0	0	0.1661794039107606	-0.1028473375604196	-0.05287888304252054	0.9077512060776665	1.570796326969429	0	0
0.3544312594138309	-0.04363231460359764	-0.08433205680579441	0.1474415026558529	1.088606317095653	0.9557964592020409	0.495619866382341	0.1321788978055814	0.02073586023473456	0.07470687208557381	0.2805084814654148	0.03879643001440365	0.3299271837989142	0.1537457486253739	-0.5042761310335665	-0.114352769802133	0.4403559110170632	-0.1973724602310361	-0.002856691555581679	0.8099575672175259	0.09396746454545904	1.003629078277924	0.2446299536629188	-0.3188920547826512	0.08543561420896971	-0.1330341148473893	0.1023606426217825	-0.03888529117360073	0.09884507431544157	-0.2863573419111719	-0.2632816806884322	0.7584966952477608	1.570796326969429	0	0	0.1546808157338241	-0.09371361270456319	-0.0480233720570244	0.8133968711539793	1.570796326969429	0	0
0.3584000000000001	-0.04361885108508228	-0.08424628963188134	0.1495324391833605	1.087893427706291	0.9560037126837809	0.4957136373764899	0.1266729234599936	0.02077315014187459	0.07358267522074653	0.2756521060821441	0.03879643001440364	0.3236760643051148	0.1544046155398023	-0.5027329082386974	-0.1123911720565399	0.4461108543659068	-0.1962680589805251	-0.003665380224247242	0.7929510319608984	0.09396746454545904	0.9859666055758773	0.2405411145424228	-0.3138302855044264	0.08460663046422601	-0.1353401260525925	0.102145636511058	-0.03901591600036283	0.1073330735026879	-0.2888752133120088	-0.2637772500371375	0.774314853345023	1.570796326969429	0	0	0.1512945648920514	-0.09144934628240854	-0.04696988402352244	0.7875966680244847	1.570796326969429	0	0
0.3679128561131141	-0.04381288065208042	-0.08425821328500198	0.1542336276213823	1.086178835311213	0.9564276395975569	0.4959118025078042	0.1135909837326258	0.02106384378169337	0.07097380218362662	0.2637013240716474	0.03879643001440364	0.3079120413827463	0.1561504612963371	-0.4987006870676308	-0.1078829721207206	0.4590279471329445	-0.1934952022275089	-0.00495531370073933	0.749630604450199	0.09396746454545905	0.9403100741581607	0.2309157788995857	-0.2993976872791649	0.08280851743048247	-0.1407385026455382	0.1018638794047331	-0.03912069519048268	0.1282624699023661	-0.2946797673607296	-0.2647276840560707	0.8132571266191089	1.570796326969429	0	0	0.1430526468006945	-0.0863619216878522	-0.04475635193276355	0.725929180972826	1.570796326969429	0	0
0.3848558844730551	-0.04507536682668236	-0.08506691910263545	0.1609347087958129	1.083246411778465	0.9568938348057003	0.4962224648399021	0.09075349775091132	0.02238023585706495	0.06709995902871567	0.2413600511945026	0.03879643001440364	0.2775176601602136	0.1592269010330115	-0.4905237037128123	-0.1033447667669621	0.4787992161971469	-0.1885406289983462	-0.004850352177915392	0.6643960197934929	0.09396746454545903	0.8484775010881738	0.2110228085305653	-0.2716154863184471	0.07871421355158616	-0.1495494183857148	0.1020881774195847	-0.03801174879473134	0.1656349470960071	-0.3036024938688567	-0.2666621098725546	0.8864879111958354	1.570796326969428	0	0	0.1255658022501222	-0.07931800396047362	-0.04336261920096657	0.6200215274709391	1.570796326969428	0	0
0.3992312594138309	-0.04693249698336088	-0.08633154199662539	0.1648090932143319	1.080987962797849	0.9569702013103425	0.4964475544535272	0.07179336818105778	0.02408185508753132	0.0649003874442757	0.2218140388362358	0.03879643001440364	0.2502072575514788	0.1618238760092588	-0.482523207422024	-0.1043635617089845	0.4923542162011007	-0.1844571623920137	-0.001688953644464824	0.5863535120864857	0.09396746454545904	0.762212092564987	0.1876721566022646	-0.2483857286091912	0.07315860720255993	-0.1561288802812535	0.1026569122351264	-0.03566211171826458	0.1962699906327101	-0.309556128611971	-0.268892993439338	0.9517964049968345	1.570796326969429	0	0	0.1067941005474117	-0.07560229699239078	-0.04499873955274317	0.5369164006973389	1.570796326969429	0	0
0.4032	-0.04750798871778717	-0.08675014075970996	0.1656641445030627	1.080410912946753	0.9569400766947406	0.4964916446414659	0.06658599934332132	0.0246002099184747	0.06443733664117277	0.2164526575837171	0.03879643001440362	0.2425657756580658	0.1627130057153533	-0.4800171756464467	-0.1052271485938689	0.4955389675211199	-0.1833467201342996	-0.0001834287816720525	0.5642541750783641	0.09396746454545904	0.737464653864881	0.1791314987453	-0.2421410402777072	0.07143509945075509	-0.1578119017764727	0.1028539540595795	-0.03486900471854591	0.2047078966037162	-0.3110102642559057	-0.2693637001558705	0.9700887575085894	1.570796326969429	0	0	0.1011455335557343	-0.07482367772824924	-0.04563587972434179	0.5152766317284242	1.570796326969429	0	0
0.4127128561131141	-0.04896051996894968	-0.08788328216648948	0.1673536965646847	1.079080440986012	0.9567665249315592	0.4965559716504384	0.0541913903762854	0.02597135466840216	0.06372626747675549	0.2036381016617208	0.03879643001440361	0.2243070517100583	0.1647819483056109	-0.4741523518450866	-0.1079772501541844	0.5024784284744728	-0.1807943655777121	0.004359214596007324	0.5114408938383292	0.09396746454545905	0.6772355510101513	0.1600328480064158	-0.2257199330173859	0.06697921331246462	-0.1616916595850934	0.1034753519474293	-0.03277548489578086	0.2256390538178095	-0.3142298543155285	-0.2700975169821526	1.014704977609925	1.570796326969429	0	0	0.08722494131156994	-0.07332119419234792	-0.04741397915917316	0.4650635712561259	1.570796326969429	0	0
0.4296558844730551	-0.05151870378625845	-0.09009110317280661	0.1689496504980663	1.077049561534767	0.9561431252580825	0.4965349599545824	0.03210423290925302	0.02858350877738654	0.06417461290965988	0.1815187138182172	0.03879643001440364	0.1929725391427548	0.1692787968916143	-0.463503556992223	-0.1172188921106036	0.5127431011782608	-0.1768752496197308	0.01437104109369866	0.4229769309842771	0.093967464545459	0.5700195389028211	0.1290781385402305	-0.1929476542334757	0.05526113770721224	-0.1680718952443431	0.1046843074419853	-0.02824231084903893	0.2635317372774204	-0.3186895808762136	-0.2708754154802042	1.094929817442927	1.57079632696943	0	0	0.05800857197822279	-0.07232980173173194	-0.05180082434379966	0.3873027732749954	1.57079632696943	0	0
0.4440312594138309	-0.05353998988215866	-0.09189648311436795	0.1690674722424372	1.075742228238841	0.9553339952061225	0.4963398421530406	0.0133038165287791	0.03064799822735017	0.06615704501941345	0.1639022681691598	0.03879643001440363	0.1689269967082804	0.1736369988907621	-0.4543489575899686	-0.128760818664702	0.5205566588348997	-0.1741379236092311	0.02258373080266554	0.3596454798394791	0.09396746454545905	0.4838277634280166	0.1028426755124419	-0.1639727772037099	0.04181570262732361	-0.1729000910996024	0.1055954336286925	-0.02370417196260637	0.2945273718735436	-0.3211739152829714	-0.271618974734443	1.162141138772434	1.57079632696943	0	0	0.02735686423350334	-0.07315866655985928	-0.05632526121017236	0.3357553976400567	1.57079632696943	0	0
0.448	-0.05407975993726823	-0.09236999652898847	0.1690022896118173	1.075443795205069	0.955068153841802	0.4962382718886624	0.008166537653524097	0.03114876144532546	0.06681369951278886	0.1593517340736669	0.03879643001440363	0.162880112389575	0.1749343836310746	-0.4518041727799658	-0.1319209234610572	0.5227653455192962	-0.1734207445243136	0.02440419556912775	0.3447114972649611	0.09396746454545905	0.4614741228091199	0.09453599418442486	-0.1565320546114955	0.03819864961735586	-0.1741100783730423	0.1058735601149689	-0.02242243767005169	0.302872495687508	-0.3217377595700582	-0.2717336676719054	1.180479245926911	1.57079632696943	0	0	0.01828598392122402	-0.07353031199384749	-0.05743631681535953	0.3234304975488466	1.57079632696943	0	0
0.457512856113114	-0.05538980441525437	-0.09343759068421198	0.1686118227215121	1.074817126955544	0.9543423129951367	0.495924575251782	-0.003886921635273433	0.03225381021008846	0.06877480950020928	0.1491198892301664	0.03879643001440361	0.1496515960188401	0.178285749705217	-0.4461721327777158	-0.1396927784223571	0.5281287219242774	-0.1717339805163834	0.02772679365999096	0.3129574154740905	0.09396746454545903	0.4113097752077458	0.07690359806775302	-0.1382097303613314	0.02947054476599397	-0.1767393350681746	0.1065466121796154	-0.01928956291708448	0.323384234054537	-0.3228897371114732	-0.2717337028717651	1.224601053772945	1.570796326969429	0	0	-0.003983979376893917	-0.07468197754133897	-0.05995126722085924	0.2965571526783344	1.570796326969429	0	0
0.4744558844730551	-0.05781829980851015	-0.09488566827165716	0.1672369828025418	1.074103042976476	0.9527459288618667	0.4950597966072915	-0.02429537627688827	0.0335247370416854	0.07319996427696115	0.1337943674759953	0.03879643001440362	0.1311917636176944	0.1848416396086269	-0.4374952918701096	-0.1521949556938552	0.5375234931295263	-0.1682238274359836	0.02653119265661193	0.2704773099825335	0.09396746454545904	0.336715071080621	0.05683436641113115	-0.1098391766270075	0.01434543123478968	-0.1802154079113136	0.1076200611102913	-0.01358946527328587	0.3606656026736456	-0.324104129669593	-0.2712983527343978	1.30062814071679	1.570796326969429	0	0	-0.04751297550753925	-0.07773984568459164	-0.06320058974070251	0.2627255253970223	1.570796326969429	0	0
0.4888312594138309	-0.05998384160738064	-0.09554643433590027	0.1655447130925657	1.073907293596965	0.9511211172017837	0.4939911723037075	-0.04022031300257445	0.03376745433915628	0.07729476242241112	0.1244371341002526	0.03879643001440368	0.1212637197729959	0.1910175759212351	-0.431149156050127	-0.1591672898880629	0.5450206584448947	-0.1642170131523711	0.01708433114370433	0.2476829558827749	0.09396746454545905	0.2909460492754369	0.04631425665059566	-0.09547078952501115	0.003186596963693545	-0.1819017334418958	0.1083434061548045	-0.008685689910808446	0.3924328765713657	-0.3242850967734837	-0.2708202899883628	1.360749649251158	1.570796326969429	0	0	-0.08798411986226279	-0.08126825667464585	-0.06416651315813379	0.2491119342321632	1.570796326969429	0	0
0.4928	-0.06058670918628623	-0.09567688888382039	0.1650234168781804	1.073902048419807	0.9506380573752372	0.4936401137482261	-0.04430462783869266	0.03373698198640897	0.07827911899018955	0.1226248538242318	0.03879643001440368	0.1194883791194223	0.1930112706435572	-0.429434763059669	-0.1601736488244801	0.5470482671976016	-0.1629386197306689	0.01347326498577438	0.2434901892197932	0.09396746454545905	0.2813375882835045	0.04219622090465823	-0.09367778911847233	0.0008435280028833312	-0.182221040108172	0.1085844302229382	-0.007330798294936156	0.4012309171028232	-0.3242474545586685	-0.2705159980739623	1.376769516983104	1.570796326969429	0	0	-0.09916361302912541	-0.0823200437118722	-0.06406462596705025	0.2468669493490377	1.570796326969429	0	0
0.502312856113114	-0.06215697603161491	-0.09581735363105062	0.1635239601362425	1.073984315465902	0.9494037366905486	0.4927280009069546	-0.05339737044148374	0.03343163072123337	0.08070917559249347	0.1196789364443165	0.03879643001440364	0.1169197482865424	0.19832667460786	-0.4255913493547753	-0.1618619368442143	0.5518660483430612	-0.1596512012556685	0.003536491899666058	0.2369343828155104	0.09396746454545907	0.2636256312833621	0.03541308995709766	-0.08917970964433777	-0.004027631502704132	-0.1825637585958571	0.1090425151865229	-0.004064336012122366	0.4230263324562605	-0.3239972583977662	-0.2693611060148576	1.414850427286166	1.570796326969429	0	0	-0.126017098850335	-0.08502158063226306	-0.06332831629969149	0.2438335997604553	1.570796326969429	0	0
0.519255884473055	-0.06578336103494883	-0.09515252542014932	0.1599952591860065	1.074472051667807	0.9469498656843294	0.4908613297381114	-0.06668224648256738	0.03167471812768714	0.0850618159639662	0.1195646239570046	0.03879643001440363	0.1179505756808617	0.2099616884272355	-0.4196614733486473	-0.1599253861060259	0.560279381994796	-0.1526539560971714	-0.01929643130001339	0.2367091611000307	0.09396746454545894	0.2495528774285526	0.03294401008890296	-0.08626281511907818	-0.00865662016663764	-0.1813785644998707	0.1089213601232524	0.001840064296457617	0.4626349054742346	-0.322865113585765	-0.2661348100974987	1.478190251203934	1.570796326969429	0	0	-0.1736614667902567	-0.09042132981158847	-0.05966697701742327	0.2474454525666297	1.570796326969429	0	0
0.5336312594138308	-0.06992089926989288	-0.09330413922053278	0.1561676729393985	1.075223456076339	0.9446437730380893	0.4890718846550323	-0.07492953047362527	0.02857828817746643	0.08861327733638455	0.12440163985328	0.03879643001440362	0.1238190352243616	0.2217977974998971	-0.4153646160916705	-0.1532972346097188	0.5669477317499093	-0.1454822700034135	-0.04146403081191921	0.2457130359401538	0.09396746454545897	0.252461656630431	0.0338142747916941	-0.09079591072101528	-0.00770948524932386	-0.1784371472729664	0.1072194726915209	0.006919569012166778	0.4958293554370951	-0.3212151860706327	-0.2630133388135801	1.526458957639847	1.570796326969428	0	0	-0.2126410549530665	-0.095431503237627	-0.05418150545744056	0.2584121529675221	1.570796326969428	0	0
0.5376	-0.07117373624382028	-0.09263783285425248	0.1549899783644546	1.075475454527727	0.9439833347896761	0.4885509238681868	-0.07682063051197879	0.02752263759141431	0.08946772574979589	0.1264403363918161	0.03879643001440362	0.1261352837335508	0.2252960412148433	-0.4141834818103755	-0.1510368444276692	0.5685915397381862	-0.1434312208099163	-0.04701343611749009	0.2492305433734137	0.09396746454545898	0.2551665650610491	0.03238033794962458	-0.09292017451983156	-0.006622480390093366	-0.1774367997370993	0.1065524871945336	0.008335868021088187	0.504943268734721	-0.3206883156206811	-0.2620906467893059	1.539342195322574	1.570796326969428	0	0	-0.2227951080864772	-0.09683132064090838	-0.05238238085881679	0.2618706421335711	1.570796326969428	0	0
0.547112856113114	-0.07433310899166221	-0.09085217269391008	0.1519093019768993	1.076171061205098	0.9423486703665545	0.4872610338999904	-0.08086327241486713	0.02473500700291282	0.09152017468974087	0.1322312759325913	0.0387964300144036	0.1327495981902986	0.2341891076290356	-0.4114253041557598	-0.1450277814534434	0.5721019192798649	-0.1385286481110906	-0.05929173503677936	0.259090707650198	0.09396746454545897	0.2642244020052788	0.02757747614705949	-0.0969239142323314	-0.003437595640510395	-0.1746840977042432	0.1047127868435524	0.01176900170728843	0.527761695397994	-0.3192933020431338	-0.259503242285692	1.569863780888976	1.570796326969428	0	0	-0.2462329824391425	-0.1002744919074553	-0.04759943367947701	0.2713335129502006	1.570796326969428	0	0
0.5640558844730551	-0.08080073314357988	-0.08626272400573992	0.1451259129911798	1.077719515620882	0.9393092452084313	0.4849250756536714	-0.08592664640130532	0.01814649499279506	0.09584045862760507	0.1459509726592009	0.03879643001440362	0.1476937686854823	0.2508510437547491	-0.407667904368097	-0.1352517268931681	0.5771125048443493	-0.1295468674653552	-0.07188580536057003	0.2814684712975727	0.09396746454545897	0.2864881169461991	0.00716711311549878	-0.1033691651611031	0.00320833560098909	-0.1685278751331113	0.09928895157923574	0.01827772291352494	0.568504351181912	-0.316210119266755	-0.254186071583607	1.621633916072549	1.570796326969429	0	0	-0.2836231842484553	-0.1065381775787256	-0.03784078209065726	0.28810133654848	1.570796326969429	0	0
0.5784312594138308	-0.08698785966949242	-0.08084039061824647	0.1377706312532352	1.079379173195872	0.9366746122083623	0.482949156641476	-0.08833767195628556	0.01084719202368902	0.100401485720735	0.1607208680996849	0.03879643001440358	0.1630514314319746	0.2646987113304794	-0.4057171467777601	-0.1308612258960593	0.5793443308345199	-0.1217981310980351	-0.06928191086628797	0.301829144905978	0.09396746454545887	0.3082391550004854	-0.01586417284275535	-0.1099634406907828	0.008381493744421055	-0.1623089882691381	0.09229528678034048	0.02435574868042247	0.6006113436043814	-0.3130011354855038	-0.2496822532985	1.6632942411844	1.570796326969427	0	0	-0.3114325085501582	-0.1117756173400722	-0.02887822699226801	0.2980880074549514	1.570796326969427	0	0
0.5823999999999999	-0.08870158081113717	-0.0792667854308107	0.1354782316138628	1.079900705847441	0.9359511584780973	0.4823927889842918	-0.08891931449046286	0.008708729418430849	0.101674921153425	0.1650601174302825	0.03879643001440357	0.1677021664318245	0.2682657934034938	-0.4052114508165963	-0.1305311404431156	0.579286324972629	-0.1197631430351576	-0.06626212490537364	0.3065213008750229	0.09396746454545887	0.3143573308438608	-0.0207745501525434	-0.1125459540030549	0.009652233470377974	-0.1605437466922243	0.0902574559718143	0.02612454916972512	0.6091015192557991	-0.3120587117401907	-0.2484158734632024	1.674942941292582	1.570796326969427	0	0	-0.318775897381252	-0.1131828930744487	-0.02638711688713296	0.299607598665388	1.570796326969427	0	0
0.5919128561131139	-0.09297499655195671	-0.07551210368819029	0.1298671667676329	1.081217695039021	0.9342164554434171	0.4809883038639265	-0.08974293009277712	0.003475018569483338	0.1045529628529021	0.1763498361241488	0.03879643001440357	0.1796237741446834	0.2764890279511186	-0.4039404839444193	-0.1303616475810555	0.5786555866005024	-0.1149434905753786	-0.05886957789425584	0.3167805000206727	0.09396746454545891	0.3289052280320409	-0.03170684125537951	-0.1220423437424931	0.01241870449780373	-0.1560099500513524	0.08550958961783579	0.03042519621777659	0.629378750982749	-0.309718882983972	-0.2454344631244976	1.702867489940109	1.570796326969427	0	0	-0.335356500558932	-0.1165363262299275	-0.02020704966402099	0.3026565389624971	1.570796326969427	0	0
0.6088558844730551	-0.1006780175925447	-0.06875972104364994	0.1205064231795464	1.083616521686589	0.9313239865729543	0.4781832993337217	-0.08942501436744432	-0.006164343439030034	0.1081617948341318	0.1997990404363241	0.03879643001440364	0.2040883399802862	0.2881917702657076	-0.4024581377430123	-0.136957782793567	0.580098795905554	-0.106597237924086	-0.05029787538503335	0.3406139853813656	0.09396746454545907	0.3537331437803738	-0.04837963792375835	-0.1560149474530772	0.01211600328036631	-0.1478006835605909	0.07741209981724791	0.03836531143307666	0.6569401750069264	-0.3052857949162749	-0.2421190423752431	1.749935170294906	1.57079632696943	0	0	-0.3589070431368356	-0.1218081978502887	-0.009330942853964797	0.3020199573326181	1.57079632696943	0	0
0.6232312594138308	-0.1070198677256927	-0.06269304846941685	0.1142071975475685	1.085537477597527	0.9292912327343567	0.4754173849017614	-0.08664528773366426	-0.01489254767151951	0.1082701235960924	0.2249657405468569	0.03879643001440365	0.2292090763027966	0.2948727089192786	-0.4016016600596236	-0.1482851552232585	0.5844117725608209	-0.09927688187429079	-0.04929524775410664	0.3660524417887439	0.09396746454545908	0.3732100950133992	-0.06356299124259046	-0.1938250884540919	0.005720208069342402	-0.1412080211453577	0.0708026874330282	0.04520027840662657	0.668838954267022	-0.3013190953009591	-0.2420909673827416	1.785298124044219	1.570796326969429	0	0	-0.3698973013596619	-0.1252458828785227	-0.0006951001274375865	0.2967668593426914	1.570796326969429	0	0
0.6272	-0.108706765830973	-0.06094844576522004	0.1127668943730739	1.086039759347228	0.9288216927809958	0.4745817307681174	-0.08540097683978581	-0.01743748239389401	0.1075130566876178	0.2330255682397703	0.03879643001440364	0.2370519514787201	0.2963690550585155	-0.4010671313230033	-0.1512867812915071	0.5856809770450857	-0.09720325089131183	-0.04978176392584464	0.3734762070924131	0.09396746454545907	0.378278074374543	-0.06586714675972916	-0.2022335165820169	0.003675791631411509	-0.1394771304028904	0.06907845634847196	0.04705961325803964	0.6709926259295059	-0.300209631953614	-0.2422553771227809	1.794490368902605	1.570796326969428	0	0	-0.3714178112294965	-0.1260659187214911	0.001624536308198212	0.2955321675405916	1.570796326969428	0	0
0.636712856113114	-0.1127473720091966	-0.05666292613545044	0.1095063496449625	1.0871725624956	0.9278800354354191	0.472481140311172	-0.08114829646219462	-0.02373782390439813	0.1051319919496056	0.2545514071584568	0.03879643001440362	0.2577674331595384	0.2987455085665846	-0.4003785350616271	-0.1590922180857388	0.588957039552902	-0.09220772886717071	-0.05215478037548013	0.3930807136142531	0.09396746454545904	0.3897838600223451	-0.05830697253304659	-0.2177507136572414	-0.0008707002083974678	-0.1355248017946822	0.0651021502514576	0.05148051422564116	0.6739362994618142	-0.2975180732744052	-0.2429610961581666	1.815971005847597	1.570796326969428	0	0	-0.3744972539478749	-0.1279258822109267	0.007276504818185668	0.2923682219127252	1.570796326969428	0	0
0.6536558844730551	-0.1195347607262483	-0.0483409413287577	0.1053509704496687	1.088814892158414	0.9270219172286075	0.4683522953357321	-0.06892873221061779	-0.03597988478239424	0.09796475078729035	0.3018066089631543	0.03879643001440364	0.302565945346418	0.2975778251026742	-0.4011858474927767	-0.1753521778386903	0.5945362202122111	-0.08206614035927805	-0.05607172854791844	0.4305799041536589	0.09396746454545907	0.4074801564838444	-0.0187781797806994	-0.233135065178025	-0.007816401504431424	-0.1298511899071709	0.05817095032329934	0.05894657691595229	0.6676043615016852	-0.2926588957718899	-0.2459011796431524	1.850341679351871	1.570796326969429	0	0	-0.3754015580258106	-0.1304799899144923	0.01689531867511395	0.2880378333786152	1.570796326969429	0	0
0.6680312594138309	-0.1243050314688643	-0.04062755278446448	0.1033682623087887	1.089997244704043	0.9270407106137687	0.4645118329148235	-0.05456568624703045	-0.04740545076747638	0.08931461213051674	0.3508950203259265	0.03879643001440364	0.3499088199633064	0.2906274913857725	-0.4038140218156639	-0.1889502715794574	0.5955070412153737	-0.07179231813727233	-0.0567969122658078	0.4559327285286228	0.09396746454545904	0.4187719948108924	0.007143450804034224	-0.2422475805952743	-0.01305222415117819	-0.1263335363030933	0.05241173869864377	0.06455173921591255	0.6517785388376508	-0.2885147854011124	-0.2503778657631117	1.875547132419411	1.570796326969429	0	0	-0.3711206423950618	-0.1319779491221941	0.0242432977953715	0.2860158157835726	1.570796326969429	0	0
0.672	-0.1254041931328657	-0.03849032418142317	0.1028468315064747	1.090352121053441	0.9271175145082814	0.4634147158316295	-0.05012575085293397	-0.05067575564388787	0.08651714962359641	0.3657288208783387	0.03879643001440364	0.3646276863178333	0.2879267121772163	-0.404680572816923	-0.1917415436615206	0.5943420847982446	-0.0688051804955957	-0.05683808193298651	0.4600730618536562	0.09396746454545904	0.4211581826533685	0.008620784952269228	-0.2455883359813948	-0.01437567296892896	-0.1254182199407628	0.05097706846749033	0.06596280571339622	0.6470811121220645	-0.2873679016904524	-0.2516970843000083	1.882312694544604	1.570796326969429	0	0	-0.3694813774049489	-0.1324086314788731	0.02620835849198157	0.285691263029591	1.570796326969429	0	0
0.6815128561131141	-0.1278405588262399	-0.03338267741193478	0.1016455564802055	1.091194423215814	0.9274346864233823	0.4607461532674179	-0.03795833728807446	-0.05865929943968366	0.07980866994621975	0.4043030493104216	0.03879643001440364	0.4028959056930166	0.2796980359557212	-0.4075449891057003	-0.1974994995622535	0.5893155050015705	-0.06145880953192077	-0.05672045248974028	0.4674743678919873	0.09396746454545903	0.4254497303673688	0.02109814965409576	-0.2501414792664564	-0.01665637882412893	-0.123283104854724	0.04774793868280029	0.0691368583813889	0.6346848880623259	-0.2845875483373643	-0.2551112900724857	1.898311176512396	1.570796326969429	0	0	-0.3644540234801197	-0.133507957699331	0.03096015501802329	0.2857535094632617	1.570796326969429	0	0
0.6984558844730551	-0.1306615720564331	-0.02415609017297325	0.09968080097991575	1.092696963560387	0.9284540608353175	0.4559459198375815	-0.01236071507208536	-0.07353581902118306	0.06781664394431516	0.4820555454550602	0.03879643001440361	0.4813079678361907	0.2581872966933085	-0.415969473251441	-0.2012012823954992	0.572573187669069	-0.04756502298628926	-0.05537396598615675	0.4695818929007022	0.09396746454545898	0.4278802123822255	0.04428575102056911	-0.2555206319427152	-0.02079472377470272	-0.1204991474856528	0.04222841311355252	0.07379401905266525	0.6064928553581321	-0.2794951350450658	-0.2614255959979346	1.923282659497232	1.570796326969429	0	0	-0.3524819756348319	-0.1358737046637399	0.03896543720784602	0.2911129309909424	1.570796326969429	0	0
0.712831259413831	-0.1313784518139006	-0.01604520618573067	0.09824486627696159	1.093884848883702	0.9297383067020309	0.4518891875500956	0.01276231824187418	-0.08716919811851458	0.05810049723006033	0.5552552251092951	0.03879643001440363	0.5571596762683767	0.2313939080433909	-0.4261488947582465	-0.1954542445701731	0.5521270968181697	-0.03477500976077199	-0.0527412138723688	0.462679477847932	0.09396746454545903	0.4249269192105249	0.06169092452432023	-0.2604439784079648	-0.02540807024157368	-0.1195355923342571	0.0374055220394116	0.07667015468497855	0.5752301857002229	-0.2750171452557699	-0.266720647318725	1.939087136851675	1.570796326969429	0	0	-0.3394277151118854	-0.1383316626388718	0.04513304933215669	0.3029909141180667	1.570796326969429	0	0
0.7168000000000001	-0.1314257383227935	-0.01380556095328012	0.09780122374439683	1.094180046611914	0.9301364384497529	0.4507769534835684	0.02028172248928312	-0.09115157702162957	0.05534508723170835	0.5762693730314917	0.03879643001440363	0.5793751852913058	0.222578637351232	-0.4290236650508367	-0.1922930625426428	0.5459617890357999	-0.03114853975733026	-0.05173774858530725	0.4599371205403667	0.09396746454545904	0.423402369946461	0.06601364510755671	-0.2622196239178158	-0.0267245655865157	-0.1193998076997057	0.03612384246317809	0.07735699461644811	0.5659243208339129	-0.2737508007819232	-0.2680052064499319	1.942738436129853	1.570796326969429	0	0	-0.3355895468554449	-0.1390945481196118	0.04683900243259426	0.3073351738221278	1.570796326969429	0	0
0.7263128561131141	-0.1312882171105498	-0.008488120108873967	0.09669147744406602	1.094818906380905	0.9311584202569709	0.4481455196523304	0.03961026480809787	-0.1008611690474825	0.04941685813291245	0.6290776864693093	0.03879643001440364	0.6344272298679993	0.2012927422252004	-0.436237119853629	-0.1825328725680131	0.5304477681297008	-0.02244446641971585	-0.04905876398654135	0.4522678455064146	0.09396746454545908	0.418719309929407	0.07639205605720889	-0.2665174295323404	-0.02954213785092738	-0.1193197985491222	0.03313340589219806	0.0787692414833968	0.5419083335680518	-0.2706685996693118	-0.2712033305914512	1.950715006770616	1.570796326969429	0	0	-0.3259277776999621	-0.1410393574348605	0.05105084377273966	0.3188930241508013	1.570796326969429	0	0
0.7432558844730551	-0.1300367213598752	0.001184031270083392	0.09464102116590449	1.095579941073366	0.9331513240513576	0.4436393831295918	0.07772920053470586	-0.119009228656866	0.04159171435948551	0.7300701735800106	0.03879643001440364	0.7367499582527371	0.1650577962338104	-0.448253196780748	-0.1522314947108425	0.5012231167918897	-0.006757321470796617	-0.04364587075878913	0.436245206239498	0.09396746454545898	0.4077763738244887	0.09215279268678897	-0.2749504380014632	-0.03458320265578425	-0.1205306269503671	0.02755972953670036	0.08038570745149122	0.4943235647220487	-0.2649474824941667	-0.2769404989266498	1.958886974678813	1.570796326969429	0	0	-0.3054181418026226	-0.1452603713801774	0.05826614249636676	0.3460680853062952	1.570796326969429	0	0
0.757631259413831	-0.1279812420296281	0.009554765125936511	0.09311402983934362	1.095790500737742	0.9349238179780318	0.4400634494984315	0.1120994236397465	-0.1350074996384298	0.03816785431265981	0.8176892459640621	0.0387964300144036	0.8248386576224215	0.1358089209042735	-0.454048676648158	-0.1146385854508353	0.4755727388420196	0.006305470601416593	-0.03936479916474964	0.4214746146148373	0.09396746454545897	0.3972006992092782	0.1024698223580395	-0.2813613855388361	-0.03924267028097159	-0.122967686208917	0.02243802102285268	0.08081135869216081	0.4515397647781649	-0.2598384162995828	-0.2819314982913749	1.957853005421968	1.570796326969429	0	0	-0.2833199396134038	-0.1498093621222954	0.06361170023027045	0.3754204672465318	1.570796326969429	0	0
0.7616000000000002	-0.1273374900544461	0.01176661669592757	0.09272419014013882	1.095791269669257	0.9354061273846929	0.4391166405297686	0.1215367434840604	-0.1394617898093344	0.03740540260429796	0.8406227932032403	0.0387964300144036	0.8489244530262845	0.1275827813240075	-0.4541075777575531	-0.1037077703360912	0.4684954995126763	0.009685288192774219	-0.03838346470868945	0.4173797536777227	0.09396746454545897	0.3942316126114628	0.1052877492682185	-0.2824856756143043	-0.04041753009901791	-0.1237171402842833	0.02111931331716213	0.08084456289962361	0.4401036654358018	-0.2583819718281233	-0.2831812450137061	1.956496971396707	1.570796326969429	0	0	-0.2765513186913706	-0.1512290215990205	0.06500037587764521	0.3838561180137552	1.570796326969429	0	0
0.7711128561131142	-0.1256824808463194	0.01684206843741731	0.09183012849338514	1.095691531895849	0.9365652685907641	0.4369388663654279	0.1442730125393625	-0.1499009692249882	0.03667324266633853	0.8940473838282935	0.03879643001440362	0.9056425424713709	0.1119276139783164	-0.4481269994527571	-0.07764985402174558	0.4517042372446936	0.01730545745398874	-0.03639458580759018	0.4077171115961519	0.09396746454545903	0.3871873781589626	0.1113632364306273	-0.2845709533426966	-0.04297243741718407	-0.1256712842228422	0.01810603469802918	0.08078663121095628	0.4116748407767997	-0.2548098788646891	-0.2859643372656662	1.951403874761143	1.570796326969429	0	0	-0.2591032040259816	-0.1548378303146712	0.06835031930647016	0.4046164756319576	1.570796326969429	0	0
0.7880558844730552	-0.1222321273444099	0.02474135518531757	0.09040560759502217	1.095107100616919	0.9387208161932712	0.4334636589796834	0.1848490539818321	-0.1665948811200221	0.03875960292654673	0.9781875571069868	0.03879643001440364	1.000975382329629	0.09063717055571233	-0.4293437528640772	-0.0356202315709182	0.4223817050610449	0.02856714333688978	-0.03470865470795453	0.3912565586050426	0.09396746454545905	0.3752098103886795	0.120712618498849	-0.2842053702108817	-0.04685985526633366	-0.1299712020300535	0.01349822875297457	0.08035303304624249	0.3583622397439179	-0.2480312500818267	-0.2893121363791213	1.930419276039233	1.57079632696943	0	0	-0.221655455413439	-0.162655661462484	0.07313153964053912	0.4412772840890543	1.57079632696943	0	0
0.802431259413831	-0.1187273578010868	0.03019627806974691	0.08924146654741746	1.094214842798025	0.9406896923118658	0.4309754405427051	0.2196259106033308	-0.1781049698055854	0.04359723517093998	1.038052589617196	0.03879643001440361	1.073603152602344	0.07536009767418297	-0.4185813400104859	-0.007723376966934946	0.39773879531874	0.03557802702082062	-0.03562056696198281	0.3775595009342715	0.09396746454545896	0.3656613958967751	0.1266139386678664	-0.2798794057308179	-0.0493629443889218	-0.1346404268043386	0.01031790494728042	0.07965729974274446	0.3108470788914354	-0.2419226680401929	-0.2909340348057988	1.898282560685504	1.570796326969427	0	0	-0.1839034894632851	-0.1707346328044288	0.07560715987668236	0.4700495447501892	1.570796326969427	0	0
0.8064000000000002	-0.1177212490045458	0.03152334334782045	0.08885912128336423	1.093923958063032	0.9412472920765107	0.4303528773350299	0.2292690195279869	-0.1809463472713422	0.04505653830863914	1.052721400479129	0.0387964300144036	1.092019685078007	0.07127899208727756	-0.417845994917409	-0.001404029828534322	0.3909418678353327	0.03715726549495056	-0.03623384911372009	0.3737363837666824	0.09396746454545897	0.3630853206338517	0.1281233375252627	-0.278235793805055	-0.04973096301290707	-0.1360168662876568	0.009564579807311794	0.07943818066800745	0.2977938460306988	-0.240215911767201	-0.2913173819966272	1.887844957522924	1.570796326969427	0	0	-0.1731852153179216	-0.173081736007607	0.07620368102439684	0.4773572977859759	1.570796326969427	0	0
0.8159128561131141	-0.1152612486965197	0.03444305052005298	0.08786355696306025	1.093133302923962	0.9426148190541893	0.4289724348540387	0.2526386350027979	-0.1872410221883702	0.04895978634424603	1.084671202564093	0.03879643001440362	1.132954209585384	0.06185478097399319	-0.4136985422378751	0.01221507395436107	0.3747881927548671	0.04039601571234413	-0.03828946641033636	0.3646238152388661	0.09396746454545904	0.356917844311412	0.1312352301125737	-0.2734337785685393	-0.05023421632890634	-0.1395487453990299	0.00790923374216866	0.07885089691853439	0.2661579414930285	-0.2360759371328019	-0.2920517571889216	1.860504128259584	1.570796326969429	0	0	-0.146712897882968	-0.1788994276067447	0.0776171533529643	0.494290080523018	1.570796326969429	0	0
0.8328558844730553	-0.1104313350556535	0.03869111331272081	0.08545465155270295	1.091426253901634	0.9451832219193248	0.4269404968448308	0.2946030715972142	-0.1964724814737347	0.05643611689564262	1.13023563229681	0.03879643001440362	1.193714004995972	0.04869662525884171	-0.4095833369592495	0.02631078854306964	0.3459057167860567	0.04410132559349243	-0.04430205511238651	0.3483256989002163	0.09396746454545903	0.3455104078176766	0.1363813236941251	-0.2615001731112745	-0.04960249485750835	-0.146906086659114	0.00552681273484153	0.07786790145270081	0.2108469351369265	-0.2285742674159321	-0.2923400938795638	1.798659349292494	1.570796326969429	0	0	-0.09704684520321574	-0.1901800747483559	0.07912718713562533	0.520309960909449	1.570796326969429	0	0
0.8472312594138312	-0.1058887851861078	0.04137048469446013	0.08261626765676229	1.089714421037379	0.9474879994126258	0.4256247556415267	0.3303648093991933	-0.2025202841144455	0.062788688347167	1.157353971042351	0.03879643001440363	1.232206534643965	0.03848782707146389	-0.4081760847985422	0.02803373739255679	0.3208485228134693	0.04531513143610866	-0.05179654183621819	0.3336395754451556	0.09396746454545904	0.3348220880644299	0.1397884637344326	-0.2486696330917173	-0.04765666466077483	-0.1541813093143335	0.004101298218961116	0.0772311144802714	0.1672734502340893	-0.2221602157790047	-0.2915003279981844	1.730884145910916	1.570796326969429	0	0	-0.05312124529519854	-0.2006748767170072	0.07906868255334612	0.5383071597314014	1.570796326969429	0	0
0.8512000000000002	-0.1046388120471956	0.04199391936796906	0.0817025036774022	1.089213654944673	0.9481323953962413	0.4253062785238382	0.340221565958976	-0.2040783430932303	0.06433133702097459	1.162834473318708	0.03879643001440363	1.240649920793513	0.03527302742152629	-0.4075835854956493	0.02794314488617823	0.3138672161705063	0.04545665830619286	-0.05410329978732444	0.3293751722000429	0.09396746454545904	0.3316397296344429	0.1406223680812346	-0.2449410328894515	-0.04681861044975438	-0.1562448284329546	0.003818107669172376	0.07710008386955114	0.1561321770176389	-0.2204019241741622	-0.2911226188969063	1.710617846062481	1.570796326969429	0	0	-0.04113514650192901	-0.2036331328728014	0.0790016625863772	0.5430062034872979	1.570796326969429	0	0
0.8607128561131143	-0.1016264950350668	0.04328911126230606	0.07930321523057622	1.087953450776369	0.9496844190270566	0.4246242719188437	0.3638196480655757	-0.2075424481896918	0.06784648043468293	1.172762497878917	0.03879643001440362	1.256995632324599	0.02831323918716443	-0.4064071680992967	0.0266153712259006	0.2971076202799112	0.04546732456189254	-0.06002005542874908	0.3189825550075424	0.09396746454545904	0.3235397914466266	0.1425357411521625	-0.2355150100342754	-0.04429666387754707	-0.161389258821773	0.003333124066011244	0.07687642972562311	0.1303050084683545	-0.2161715113558491	-0.2897280312419975	1.659701960070733	1.570796326969429	0	0	-0.01232688950638341	-0.210869250496364	0.07881512288081757	0.5539505405552706	1.570796326969429	0	0
0.8776558844730553	-0.0961336825776397	0.04497080746162605	0.0739585533369783	1.085512931585209	0.9524584979371239	0.423677572125605	0.4051026872769229	-0.2129213690887861	0.07312416544072128	1.178486308627731	0.03879643001440367	1.272473733852829	0.01881735051956879	-0.4053944273274294	0.02120550036789851	0.2668150526669521	0.04454421247101945	-0.07173908531445697	0.299397844715893	0.09396746454545905	0.3073627189847795	0.1454817188769418	-0.2177131632546905	-0.03851687894352019	-0.1711708969738903	0.003141541144691814	0.07707808644755759	0.09318363443779813	-0.2087224916519136	-0.2856559359306912	1.556639262369653	1.570796326969429	0	0	0.03789116399844309	-0.2243079833044601	0.07737784432849268	0.5745702639096383	1.570796326969429	0	0
0.8920312594138311	-0.0914928990455514	0.0458155580572915	0.06837226719815118	1.083257722844893	0.9547685063347282	0.4230985890154741	0.4390352349663877	-0.2167517909127712	0.07670480886518471	1.171354471041604	0.03879643001440364	1.271999892941949	0.01203089071746777	-0.4054511162049572	0.01600605912176371	0.2406853155421354	0.04313153455668042	-0.08235341147685848	0.2813262655711463	0.093967464545459	0.2919392047234119	0.1466777756902814	-0.2030127320356804	-0.03352143075428195	-0.179878301356234	0.003679367718144748	0.07789854917666748	0.07382059097320652	-0.2026017416199357	-0.2812310095150996	1.455744379671427	1.570796326969429	0	0	0.07806960872646902	-0.2361584482044635	0.07460992403021886	0.5953327344029753	1.570796326969429	0	0
0.8960000000000002	-0.09029289138053713	0.04595907763077668	0.06672345815351129	1.082613905364857	0.9553853213704633	0.422957090476109	0.4482030163687684	-0.217760373247591	0.07750862805561434	1.1674612630283	0.03879643001440363	1.269692611959782	0.009906467799175658	-0.4051878521804724	0.01526779107340531	0.2335140744108039	0.04272684679054309	-0.08517181354120734	0.2761556890188258	0.093967464545459	0.2874402049593636	0.1468220304965387	-0.1992908194302221	-0.03222625497035039	-0.1822428639559563	0.003974390435891579	0.07820422846081294	0.07032804367885714	-0.2009471690957047	-0.2799245190758765	1.426759400014658	1.570796326969429	0	0	0.08857905543537839	-0.2394442278691614	0.07373762160070617	0.6018038813632473	1.570796326969429	0	0
0.9055128561131143	-0.08749855312318555	0.04614473429683444	0.06260926934948106	1.081115787393618	0.9568275139384386	0.422663895172682	0.4694134966057913	-0.2199417081019405	0.0792649213313432	1.154687908549234	0.03879643001440363	1.260370023063517	0.005754685981956789	-0.4044771231697154	0.01349986711520831	0.216167234458553	0.04166985964916994	-0.09185840008618318	0.2633338397646722	0.09396746454545904	0.2763081340576269	0.1468994102467732	-0.1904588632149343	-0.02884448263954061	-0.1877850399653443	0.004917015730580974	0.07907632930000186	0.06014111146930519	-0.1970019156075578	-0.2764251655953822	1.355640648354846	1.570796326969429	0	0	0.1140407318141072	-0.2473960565733627	0.07152410462481942	0.6182563365338216	1.570796326969429	0	0
0.9224558844730553	-0.08314682661316321	0.04603699915339278	0.05484616783784796	1.078746836133085	0.9592082481390959	0.4222432009704006	0.5041318389580072	-0.2231728353018879	0.08195393510245505	1.119709660646422	0.03879643001440364	1.230693520263177	0.00204093419756958	-0.4046315949508609	0.01244023977708782	0.1850679225439747	0.03979405664656643	-0.1030574936387636	0.2393785747479846	0.09396746454545898	0.255632176550097	0.1469865452439061	-0.1755424475002206	-0.0237674930288186	-0.1966361056910563	0.007339873137241423	0.08107389379736381	0.03127116959477252	-0.1903475664568373	-0.2711772299199728	1.221250620767082	1.570796326969429	0	0	0.1595264241772393	-0.2615304539581698	0.06596392137081393	0.65539998460829	1.570796326969429	0	0
0.9368312594138312	-0.08040392572970337	0.04568915316555024	0.04812129215892301	1.07674420989245	0.9609263171300453	0.4219501714793404	0.5312933431381955	-0.2253085643783339	0.08442301140798671	1.078786722274096	0.0387964300144036	1.192674910283138	-7.73329923075966e-05	-0.4057940456951913	0.01447186382646265	0.1600939566885552	0.03846738626375204	-0.1115527749556359	0.2195309469913407	0.09396746454545893	0.2377877741603824	0.1461662466570814	-0.1650680665377218	-0.02165148611131109	-0.2034508294768321	0.009942421579180943	0.08301383028890452	0.01023518510161234	-0.1852644917723837	-0.2697060255166097	1.1002144295484	1.570796326969429	0	0	0.194701248714842	-0.2731933094321168	0.05925201234632604	0.6962618576525474	1.570796326969429	0	0
0.9408000000000003	-0.07983372583652244	0.0455733522394761	0.04630357353041746	1.076109412927573	0.9613338246592308	0.4218759463930156	0.5386332452317659	-0.2258082993023811	0.0852363880350155	1.065930005876236	0.03879643001440359	1.180154472712768	-0.00106433878859577	-0.405731080965877	0.01557530610518326	0.1537657290261086	0.03817407638411995	-0.1136468274760789	0.2145057314493247	0.09396746454545893	0.2328915795917144	0.1458426933710963	-0.1626678736622156	-0.02132794902132226	-0.2053493697175381	0.0107339451902345	0.08354399897180927	0.008850717663321683	-0.1839379954041759	-0.2698109698569407	1.066681474431764	1.570796326969428	0	0	0.2032045024320609	-0.2763268952242579	0.05727093195246045	0.7085680986972629	1.570796326969428	0	0
0.9503128561131143	-0.07867800630423823	0.0452767077076997	0.04199789379168483	1.074669538930018	0.9622124885748764	0.4217271069676792	0.5550667128231118	-0.2267348446077865	0.08758638938286083	1.031916715442444	0.03879643001440359	1.146678000285356	-0.002375500234535768	-0.4054226978059574	0.0184236010558155	0.1386895101197773	0.03755842201865613	-0.118353789230182	0.2023913733805843	0.09396746454545893	0.2213141524241892	0.1453391924537313	-0.1571511460122367	-0.02054200173368172	-0.2096122319213593	0.01271062122986774	0.08482041181939722	0.002388519962984725	-0.1808541722200748	-0.2707613190564275	0.9859605613887013	1.570796326969427	0	0	0.2238097574855866	-0.283749520346936	0.05239191484094615	0.7396047593211825	1.570796326969427	0	0
0.9672558844730554	-0.07781255227540752	0.04529628941105231	0.03508665621638456	1.072075919576219	0.9633374700301554	0.4214909647498394	0.5813940490650286	-0.2283635404127122	0.09329881753134948	0.961020706083016	0.03879643001440364	1.075504380959868	-0.003391848758066973	-0.4055705712246808	0.02328417639345411	0.1140502754355923	0.03753587967168198	-0.1247498990022566	0.1821750439405292	0.09396746454545901	0.2016062582937705	0.143491126041694	-0.1499412103869002	-0.0206818006510065	-0.2163933686795398	0.01581639220824885	0.08665398362316253	-0.005231465476400049	-0.176111876094164	-0.2788093037477642	0.8434498178424248	1.570796326969429	0	0	0.2569020362364673	-0.2959962775704639	0.04232355828964581	0.8023753149833818	1.570796326969429	0	0
0.9816312594138312	-0.07837071523577871	0.04621414424882738	0.03029718542125583	1.069911024780976	0.963813024466275	0.4213248281365101	0.600534799132358	-0.2300816184599011	0.1002262786810817	0.8908318909303428	0.03879643001440365	1.004627728990982	-0.007733999509819844	-0.4047125463640716	0.02651769017083528	0.09559781993461972	0.03884162156568415	-0.1280404943817147	0.1669549297558739	0.09396746454545904	0.1862109172814109	0.1425039503259522	-0.1459658515421222	-0.02265912590304849	-0.2211370540966042	0.0175495660790109	0.08744258295262085	-0.01076732647458184	-0.1730271813488451	-0.2935442556870917	0.7266145802833653	1.57079632696943	0	0	0.2809537367255699	-0.3050114698775186	0.03242271300968104	0.8624378879101974	1.57079632696943	0	0
0.9856000000000004	-0.07868183752374171	0.04657407104077251	0.02912424274914992	1.069332073070979	0.9638681721032979	0.4213001932772423	0.6052015932929641	-0.2305134209582013	0.1026036878453777	0.8699129709508414	0.03879643001440364	0.9835808195940687	-0.01015482208439056	-0.4035548610423708	0.02731413171178452	0.09083882619127501	0.03932465084527916	-0.1286876975769941	0.1631192901968375	0.09396746454545904	0.1822218645842423	0.1425076424940011	-0.144971387253223	-0.02320362819909981	-0.2223068339998805	0.01790635191953256	0.08753818139213976	-0.01266999465706395	-0.1722817782587754	-0.2984329783217695	0.6956197342065865	1.57079632696943	0	0	0.2872075338635776	-0.3073063998027968	0.02972711833142678	0.8793495575607425	1.57079632696943	0	0
0.9951128561131144	-0.07966249086029058	0.04757288476886327	0.02655682649241211	1.067964042154977	0.9638625324867517	0.4212917723514634	0.6152440384073081	-0.231380567849526	0.1091789260008105	0.817442854939183	0.03879643001440363	0.9309289469079557	-0.0154683602944352	-0.4000898305372991	0.02882831175659776	0.08002661853200879	0.0406388576956123	-0.1297325196684751	0.1544674758989199	0.09396746454545901	0.1731731384401618	0.1420705080675841	-0.1435693108884831	-0.02432467926675595	-0.2249005815921844	0.01856722458731376	0.08759125726953325	-0.01701630942112659	-0.170659374703211	-0.3116089641210604	0.6229241433505049	1.570796326969429	0	0	0.301779556537821	-0.3125406323667976	0.02336355406585319	0.9208941459924064	1.570796326969429	0	0
1.012055884473055	-0.08222262969015982	0.05055500927336959	0.02339997126686724	1.065730841636224	0.9633498328343656	0.4214195776413772	0.6293149553138135	-0.2336176076595643	0.1236632127679552	0.718588174989074	0.03879643001440364	0.8314015585006146	-0.02570378076805245	-0.3934555997665359	0.02770215114787738	0.06296964507643285	0.04426564858617654	-0.1289540964747024	0.1419214695059642	0.09396746454545898	0.1590155841446902	0.1428615275809869	-0.1435254006494976	-0.02603552810116366	-0.228384593226978	0.01821608502091714	0.08652466815864782	-0.02821368811958297	-0.1686207383904739	-0.3414048068432405	0.5053810868204701	1.570796326969429	0	0	0.3260757442695292	-0.3202093612141267	0.01189495353235058	0.9963200915043385	1.570796326969429	0	0
1.026431259413831	-0.08493040177787514	0.05430252143854807	0.0222965597252181	1.064153719153437	0.9624221197122405	0.4217180724452049	0.6379393041618446	-0.2364491328209327	0.1381640486962782	0.6341350494917072	0.03879643001440364	0.7443320890384558	-0.03715868848845363	-0.3880045079436629	0.02279457522587507	0.05060736753191786	0.04839359031464792	-0.1260736791900013	0.1349687114584637	0.09396746454545903	0.1491699088366374	0.1460618490016939	-0.1447913470642029	-0.02727647422849523	-0.2300165316366818	0.01620457233201054	0.0842817561122385	-0.04273510577151923	-0.1678049614432043	-0.3714801040006916	0.4211477807411877	1.570796326969429	0	0	0.3451367915386548	-0.3247803030728835	0.00221041132506051	1.059608850400866	1.570796326969429	0	0
1.0304	-0.08567077333932759	0.05536024386917648	0.02216397875521458	1.063777909434088	0.9620946260417311	0.4218567041198416	0.639875600383021	-0.2371415107546831	0.1424134437135121	0.6116201670002436	0.03879643001440364	0.7203700719591937	-0.04118023948465616	-0.386246705391802	0.02127751503627684	0.04746244352240556	0.04944599220899724	-0.1251930342016385	0.1337703043420119	0.09396746454545903	0.146828408894505	0.1475602656698573	-0.1449232809288015	-0.02742782800446904	-0.2302857185277092	0.01551925099008217	0.08351878262826683	-0.04723977610447308	-0.1676656713765565	-0.3797024245020145	0.4002475011641247	1.570796326969429	0	0	0.3503522103970445	-0.3258238094147919	-0.0002682692805899109	1.076627902099793	1.570796326969429	0	0
1.039912856113114	-0.08745631024155145	0.05796351689748971	0.02211431848107306	1.062977618664595	0.9611899503648442	0.4222915586593551	0.6440333717975859	-0.2387065772814955	0.1525695026967633	0.5601877883293176	0.03879643001440362	0.6638165295100444	-0.05020389054767554	-0.3818005274687262	0.01704171784630557	0.04040814369849599	0.05188413928565728	-0.1227928366723542	0.1320046248587854	0.09396746454545903	0.1419169351228956	0.1516288333933381	-0.1458523537620667	-0.0273594391133845	-0.2305439788529402	0.01357767044876573	0.0814628394066379	-0.05805195623224405	-0.1674933625116814	-0.3999561330661454	0.3536485092211027	1.570796326969429	0	0	0.3629207925813738	-0.3280004691804898	-0.00591572803645361	1.117522866191591	1.570796326969429	0	0
1.056855884473055	-0.09067914235889395	0.06275331875420075	0.02328617183779587	1.062024703233946	0.9591815119669905	0.4234293300848254	0.650536735632546	-0.2413002492605499	0.1672984052993699	0.4816510535138757	0.03879643001440362	0.5690426014778315	-0.06313270343846011	-0.3750559003634757	0.006564778080484679	0.02950817799664557	0.05568925955560856	-0.1175866429695019	0.1333175282573508	0.09396746454545896	0.1357720275154592	0.1624958107958718	-0.1472534885437392	-0.02648346787754301	-0.229200819584043	0.009097588884915818	0.07680624518547872	-0.08119530601576053	-0.1677975522670072	-0.4338194885870575	0.2886350222927462	1.570796326969429	0	0	0.385984005464599	-0.330274083383964	-0.01520860919439267	1.187315650375353	1.570796326969429	0	0
1.071231259413831	-0.09345061411978409	0.06655679819823609	0.02546900992184212	1.061772510149455	0.9571457169189781	0.4247899161308271	0.6558824264512826	-0.2427356692489145	0.1730718041204865	0.4316614836751251	0.03879643001440364	0.4982183860502796	-0.07325878218984619	-0.3714303605872885	-0.004143419901207893	0.02167559967216798	0.05779202853929771	-0.1130659840475315	0.1386722049021458	0.09396746454545896	0.1333966318787044	0.1750352670148081	-0.1469768173633897	-0.02601300859171774	-0.2259047961704392	0.004635752333280417	0.0719506210960148	-0.1058537975336705	-0.1686303481914485	-0.4569012265343728	0.2533299919514265	1.570796326969429	0	0	0.4066216832258049	-0.3305197633774801	-0.02241692200433093	1.242235967064173	1.570796326969429	0	0
1.075200000000001	-0.09419845807666791	0.06740529356877828	0.02614111761239663	1.061788273863021	0.9565446952021419	0.4252453305570871	0.6574012473406501	-0.2427178899450846	0.1733323503037818	0.4208606009636173	0.03879643001440364	0.4806540979456614	-0.07681432599304208	-0.3705799323530716	-0.006806741750809634	0.01967470058136697	0.05800136880236358	-0.111969314576587	0.1407169730063511	0.09396746454545896	0.1332335462958228	0.1787384715654508	-0.1466788725057551	-0.0259815200151309	-0.224666580112646	0.003452280775335068	0.07056147982091228	-0.1129200816049701	-0.1689019113158167	-0.4619820721027415	0.2460135364923512	1.570796326969429	0	0	0.412579446644523	-0.3304374102357557	-0.02422833488297379	1.256982520597731	1.570796326969429	0	0
1.084712856113115	-0.09601522553344337	0.06928486767306326	0.02795497615654587	1.06197448389088	0.955045239801863	0.4264549206045538	0.6610020507291356	-0.2421658761946053	0.1723487995702587	0.3997249059749367	0.03879643001440363	0.4425326366608183	-0.08382072949976374	-0.3689053780880206	-0.01347539927425978	0.0153378996283717	0.05811007588224095	-0.1094090084340863	0.1468653910133399	0.09396746454545897	0.1337630868912836	0.188490936357577	-0.1458469412822237	-0.02589143043448171	-0.221089984079422	0.0005175280452913945	0.06708160545079817	-0.1300235350933943	-0.1696657498526753	-0.4731045556057125	0.2322968073156863	1.570796326969429	0	0	0.4273660804859962	-0.3299742513134684	-0.02824381308298315	1.292241188544138	1.570796326969429	0	0
1.101655884473056	-0.0998138608882367	0.07132564611138328	0.03210218619125307	1.063002596433569	0.9521326822901021	0.4290165355136422	0.667343304390468	-0.2387564540379641	0.1620880700746091	0.3790019857675461	0.03879643001440365	0.3897446357837214	-0.09191630469691667	-0.3683789534422107	-0.0257215938299909	0.009276431565009818	0.05599470593042061	-0.1052831172170032	0.1616598992993188	0.09396746454545904	0.1381463777315065	0.2081067439854018	-0.1426463423054347	-0.0280458835818773	-0.2115289616929666	-0.004182128544185549	0.06054175407706474	-0.1665681835157415	-0.1713812084530039	-0.4838488192268787	0.222971511769263	1.57079632696943	0	0	0.4556062886140699	-0.3279819799230748	-0.03490008792828339	1.353145850065006	1.57079632696943	0	0
1.116031259413831	-0.103596397605215	0.0715274723471072	0.03653387940187629	1.064731197321024	0.9494273552375755	0.4315689517629293	0.6717663369856965	-0.2332867800878766	0.1461349762978948	0.3760988663054425	0.03879643001440363	0.3608457915977786	-0.09598719046511445	-0.3718409257463839	-0.03483987332266454	0.005223375569350514	0.05157030392537783	-0.1029729187700609	0.1773893256671764	0.09396746454545901	0.1456927549941688	0.2272082113688299	-0.1370495674126513	-0.03213407617031699	-0.1998909256601555	-0.007247263694720561	0.05473068692503447	-0.2069331666815656	-0.173152148378361	-0.4826642095969148	0.2286723337567906	1.570796326969429	0	0	0.4808966891057407	-0.325043976275711	-0.04025833015555527	1.402000765952777	1.570796326969429	0	0
1.12	-0.1046276888637561	0.07136014319646011	0.03782537104964619	1.065346547010822	0.9486541086949024	0.4323323545149347	0.6725997606275896	-0.2313353270931325	0.1416454912048577	0.3770084237104187	0.03879643001440362	0.3554362130447108	-0.09685714909607016	-0.3733318314563566	-0.03667119464776093	0.004104098110457644	0.0499550902244198	-0.1025992725884229	0.1821317867711358	0.093967464545459	0.1484462017454991	0.2330178343730543	-0.1350108162880245	-0.03308969094615009	-0.1962559918011245	-0.007933350989656822	0.05310741542761764	-0.2191743444341542	-0.1736579574027629	-0.4812668882517007	0.2313804556776057	1.570796326969429	0	0	0.4879668524689301	-0.3241151888776884	-0.04161208686354689	1.415252095120905	1.570796326969429	0	0
