DataType=double
version=3
OpenSimVersion=4.5-2024-01-10-34fd6af
endheader
time	pelvis_tilt	pelvis_tx	pelvis_ty	hip_flexion_r	knee_angle_r	ankle_angle_r	subtalar_angle_r	hip_flexion_l	knee_angle_l	ankle_angle_l	subtalar_angle_l	lumbar_extension	arm_flex_r	arm_flex_l
0	1.307803555631235	2.23745805413033	-0.1702439475065884	-8.054807046443946	44.43029413426631	16.19608640495216	5.699385736807907	3.725852161518955	-0.9668325583497472	-101.7799481572944	-29.56582168996378	7.442816228057008	31.65793026323501	4.705975414461611
0.009512856113114032	3.923710687739108	3.2288040547284	0.7596735252717207	-12.70658555017219	38.01812988243615	16.28188629256296	-9.349117604234564	2.558650811616122	20.41536774982858	9.012662535292414	0.2321019021899353	4.846643037133457	10.21578487930277	-37.90079938228315
0.02645588447305514	8.813968841919515	3.268486145415486	1.749941261660199	-22.42875483929167	16.78246414512554	-19.96900800408626	-1.606676504356471	1.496087717565697	25.55253167780882	-5.246496615000755	-21.12451865475814	-1.686188907324006	6.888506963916043	-45.71132981235493
0.04083125941383081	5.684959831637658	2.017599204244382	1.087716050343674	-22.13876329182157	-32.86196653215133	0.3378130776645776	1.434629208545853	6.222636417793162	24.02595452342148	-8.270868060041714	-25.90846236065833	-1.57515586673443	17.57551997918884	-19.38713975445389
0.04479999999999995	0.1314681194090991	1.479287208679843	0.5831572510393424	-23.78563309455539	-59.20080457058374	32.73480181561887	-14.74039057124593	14.20844491361555	26.69540064629344	-7.19731291379744	-7.495149729954353	3.414987987962599	11.89441282361136	1.117173442189023
0.05431285611311398	5.616419631189351	0.7290094886590675	1.763453855546607	-9.543786996716788	-4.207912826714306	65.8388163952161	-50.20117631138401	7.988450028479412	24.33575330205968	-17.72652932294991	-36.18878151973023	-4.462759781705958	43.49868357923062	-39.10785791117915
0.07125588447305514	2.312820356621981	-2.0230805767512	3.134130681238436	20.71189409381639	37.39671524752237	43.05907969784391	1.361673778672128	22.63033642127856	41.53229526120497	-17.79498594174125	-24.3815179843241	-5.736472481787436	76.63521807033797	-33.92665693438459
0.08563125941383082	0.8176533738671261	-1.562610799962912	3.231534462923169	15.04912078110858	21.05480672792831	14.04097284180213	13.22034625593292	26.50002436798919	46.13453817505482	-27.22353039601509	-17.47706533380638	-2.303832084403798	37.85240276551622	-21.39793239974934
0.08960000000000001	0.08371637300128246	-0.7964557599573636	3.005409817049228	10.62060060373791	21.46042486744078	19.74980419357638	-9.375809273372125	22.71211387969558	22.02260328560963	-44.43868469893678	-16.42886517222161	-0.1223652301125338	12.51733346083571	-13.56621800106699
0.0991128561131141	1.595857463731375	-0.2470147305763129	2.963435936092704	-8.577282076718515	-16.91763738126095	-8.527212890589052	-3.59316717930618	25.35156648144402	50.14306406335977	-27.03822114499778	-28.56013706191496	0.8952889460726433	24.96864926841161	-25.06533640718549
0.1160558844730551	4.398509055614857	0.6066306372427713	2.535484745107149	-33.39384350263528	-58.34886359605329	-59.75474538601495	5.817859872531624	15.70961373889782	25.25648633059888	-38.05450868321701	-21.70552217011188	-0.6545202440610509	9.64868387553982	-18.8202689356811
0.1304312594138309	3.707577810124328	-1.069648508238976	1.637199703113756	-23.42012050462237	-42.05941448241359	-34.35528486541412	14.27987971798602	28.60970348757201	68.32700707320355	5.499742761531927	-23.40910170090539	-5.114229670375783	5.073708702230885	-18.98463508119752
0.1344	-1.808970757560615	-0.4882703242054065	1.597730610887072	-12.38554840507375	-29.46536328352812	14.78363013185454	7.936376225646386	-15.89667341382495	-134.9440629086067	211.2547607658202	-41.33011086534479	4.270779734338573	46.64318896358905	0.8319000393639248
0.1439128561131141	5.023162617714982	-2.14924894364267	1.150246358085342	-13.7980230151219	-19.95177882487652	12.99484701629395	14.79972058542132	32.16891397381492	86.12207549337428	-157.8393417929005	-21.41057758157172	-9.192565561543685	2.806024300493497	-14.92668785745139
0.1608558844730551	7.186157715430164	-2.767046540229893	0.5019438843471266	-12.17138595911544	-17.15338488292264	-6.811472868807765	7.824056240953146	10.31808742617964	-16.4322273664546	254.2473581311802	-15.7651134615199	-12.74521318794148	16.36805010127458	-4.11901810990394
0.1752312594138309	3.271710852739901	-2.193987722085962	-0.7238457639178961	-2.79334935604366	-6.919313910433369	-13.62541675705732	9.961773269995508	-4.899757178091805	-29.00126682757711	-64.82865625909371	7.299477196077703	-7.973592783640768	2.183070880162141	-6.089101697722683
0.1792	-1.034345613225463	-1.67174641873614	-0.7519456141385101	0.6396084650637963	-4.0898090767464	10.13590940309203	18.72663255283248	-7.026730469035838	-68.97732063404122	-187.1202401839807	82.3171053267036	-0.8852089313402929	7.927547690473837	-4.905122476803607
0.1887128561131141	3.515267834669871	-2.495203145900343	-0.08677626293190399	-1.434308803960024	-0.8969074146280258	2.479621486926812	17.396871707906	-9.393461694345946	-79.41869239165105	-93.77977946151285	110.5994165454192	-9.43120793275372	3.377631974703267	5.43365816661369
0.2056558844730552	2.535315820485101	-3.233920855330597	0.04974448375445384	2.47563203387608	3.484882893030151	-5.723466978792874	12.65207049353644	2.500182355388487	-57.08007732545203	15.49239362767352	14.33850965023286	-11.05895007902565	-3.837385328656158	9.107189154788088
0.2200312594138309	-0.214981713309408	-2.851389711237647	0.02079744644397807	6.576095561464966	6.297849827169416	-2.985802512320989	7.720104197344355	5.258223018173401	-51.57180721593208	42.59028998757019	-7.034412137641628	-8.471768130314402	-7.448499860970749	-2.289883638286248
0.224	-1.638077365250721	-2.037683235324522	0.1351956315414606	5.685963448048591	2.046154751280963	12.34216223548778	3.33315830547964	-0.6661811744568951	-67.19781387108652	3.977690415606379	13.53712303995916	-3.340255650689895	-3.183120324115702	-6.290266023559834
0.2335128561131141	0.8372645495716268	-3.127755721335493	0.2204780899444853	5.308837068993228	8.053921164223745	6.631437054995878	12.12119227975607	5.269908863386711	-48.22575950830603	53.72696445912164	-23.80964735936533	-10.87914434553134	-4.248766618138781	6.193982255301101
0.2504558844730551	-0.7481552208628279	-3.001113124948368	0.3128814472993027	4.159173934958732	1.795384776018793	-3.96892711944375	-0.7018561801233876	4.124112876642231	-51.09125679745717	0.2369659187003563	-2.309581043781535	-9.207725860247745	-1.408991730439457	13.90169408668491
0.2648312594138309	-2.170509790017992	-2.15363023296034	0.1260098453869126	4.764954262685883	0.2706985232276784	-3.458481315651056	-3.748729528116291	1.647717221409453	-49.65171996857044	0.2768044986449922	52.38015098596278	-5.668452717721088	-3.210786409199763	4.22199314894496
0.2688	-2.493424776290346	-1.519239983123421	0.205152827458463	2.837391965595994	-2.276516416570837	9.669631739628267	5.225428021484181	-3.909013552111187	-59.33828189268923	-9.111983548970898	30.79476441315927	-2.811192096377396	-1.302523795011222	-1.597325595961681
0.2783128561131141	-1.808361176049221	-2.130384030107413	0.06870398439135983	2.856550616297284	-0.826505418589738	0.006278038474265557	1.950281187815153	-3.742161757532193	-54.80754293515206	15.97931430321472	19.79928060707829	-5.906681376466405	5.276950528670167	13.71043765268253
0.2952558844730552	-3.919804958184706	-1.601058495773678	-0.1679145299162516	2.385349491869095	-6.684204315067172	-6.637290719395772	-4.251331118727924	-6.891978349507331	-57.21349934738052	-16.36804706256907	22.44423383846879	-1.881056294447344	7.040867442468333	16.57181924090909
0.3096312594138309	-4.043713259586929	-0.9537228777805491	-0.4442379478209073	2.951849350522668	-5.261202814752039	-0.9761419974897088	-0.7383073897061037	-8.372663945578903	-51.83540842733591	-19.70028311471134	52.7355608544675	0.2410227372247808	3.823045292740343	6.788685557054613
0.3136000000000001	-3.047978676784252	-0.6249291027531756	-0.3450139766234681	0.3407108363897882	-5.393576773310539	7.814309134490818	9.470583124602758	-13.7439172219658	-58.08232513615933	-25.10998861821518	29.65921054822724	0.4478205771761057	8.702528690286051	4.390846380523605
0.3231128561131141	-4.809808290784225	-0.8581252122198324	-0.7061797504539638	2.649132863666241	-7.487219733910715	-4.769761155362357	0.2672175676392192	-11.53916363355255	-53.63499582084879	9.309984375806479	23.19763988397085	1.342774155397763	9.515587211484192	8.738545977576919
0.3400558844730551	-6.432449381357229	-0.1891906191898062	-1.004612246323665	4.092375750068088	-7.1520170188953	-4.536264783733595	2.82640232055452	-11.95770561652223	-50.31498196496138	-38.9898578710069	0.9521302979151969	4.68722848305061	2.572153274802989	0.7687555609033235
0.3544312594138309	-4.698040493307497	0.02461959191148455	-1.117550903245215	2.950623498085362	-4.496244595331161	4.9762371531054	7.777632102656641	-11.99459435876788	-41.52605556471361	-34.65888592502086	33.75044237036469	3.543600235416567	2.747791915455633	-4.830576716000795
0.3584000000000001	-3.045652646979367	0.07342244943972701	-1.022108111347608	0.9029069722882763	-3.490483846440732	9.37611846541127	11.61369964757422	-17.39140125749153	-46.88225395502258	-36.91145062363312	18.24081318195178	2.62598626144379	13.35025981397516	1.368849315235214
0.3679128561131141	-4.590985031922183	0.3184369599170513	-1.33354365191732	2.769744710517239	-5.411349986820285	-2.523722501206143	2.098147623761342	-13.21986475373439	-36.90232926260119	-4.774179971486245	17.21077051439914	3.658468450462493	3.175808984667938	-11.2922067460298
0.3848558844730551	-3.487370883045697	1.157827243117838	-1.447539541407848	2.146354383038567	-1.195608479445145	2.636781235819044	6.891466811176418	-14.81734641760143	-25.16471103280367	-44.735608689477	-4.312828889437704	4.748257372571226	-3.854673937728709	-18.35342736776624
0.3992312594138309	-1.542926237746457	1.027692645153403	-1.504001814778856	1.154760479018469	0.5230567332679437	-0.1668605121095137	3.095788092223585	-12.79397198629858	-8.105786984750049	-25.3793264937056	11.12524901528313	3.453097634118861	4.945733174624003	-9.608347663772353
0.4032	-0.8982737982119045	0.780501295455901	-1.561570046526007	1.755112691628234	3.300772985205006	7.570945507522444	3.932352430708929	-12.08339675723803	0.565028230959659	-12.05510647106944	4.950434692520698	2.781040599954306	14.33425825611599	2.386165885529662
0.4127128561131141	0.1335432187042709	1.407866962771708	-1.409495234550032	-0.3752207164664609	1.987607411018976	3.143933245639319	0.07626729588132886	-9.614985992362229	22.35449175605186	5.783254547235252	25.42459082084756	2.553938686235196	7.301893528128115	-17.93989633966628
0.4296558844730551	1.041987571999196	1.932826559183109	-1.163608074617847	-0.7294690018808057	5.495598015955522	2.870112096962846	2.176004855289321	-2.444313246294814	60.67741320120032	-3.867891167196657	-3.334432990681478	2.467487817212767	-6.714545933293646	-27.95910112794018
0.4440312594138309	0.2469468336432662	1.54753830461389	-1.2186255893594	2.097730941019036	8.520266260702861	1.911149143413619	-2.940710790480645	1.477541541005771	67.22727799281186	-1.938086458806872	-5.876992157485699	4.145012936882052	1.164981234827788	-11.58223845239981
0.448	0.5683708170019393	1.016634453828572	-1.217204882589559	4.56844229446072	13.13379845895621	9.409505468721553	-3.517010253955681	2.047436039311568	66.71978773687241	10.39986262714621	-14.17654294860024	1.775639610003524	6.953631829832453	0.2868320548084639
0.457512856113114	-0.7077875332870143	1.820054601481724	-1.438945957578407	4.648686928886695	12.10169132302885	2.525908153738239	-6.829443404204856	-0.3217031871101907	62.74014525665486	68.8810929970509	-9.602488498215884	6.160467100366967	7.182743081448411	-17.86788944411919
0.4744558844730551	-0.1179104167451437	1.759366360744256	-1.113161695131727	6.048491858407923	16.61243029349358	2.410630952458931	-3.888857601123592	-2.546815993296445	58.78872624456726	15.78274240324552	-56.57858625656391	5.022046638163634	0.6469682232444249	-14.67605822960245
0.4888312594138309	-1.125062660464716	1.392260190514235	-1.032601386302926	9.910082279475553	21.64462369402045	8.014436440093904	-2.434534561856319	-0.3646851931794686	55.83469963273858	-13.78449172920715	-33.12687208426782	5.989678932421514	5.773200478788723	1.137874068764567
0.4928	0.1822440458452981	1.122469122259945	-0.8879934459842254	9.10974724886167	22.16863538421451	7.169519802496941	-1.77218058060816	-1.89661791273781	56.43692306647021	17.44563223426166	-14.9566230620495	2.357229616776582	10.81209271411623	4.358629827060918
0.502312856113114	-3.594576401899344	1.562826063601621	-1.182226632699617	12.98964349972859	23.02684168521846	10.03273982415431	-4.537077655845785	-0.1533542212171417	53.34677659029565	49.81114754375353	-18.91268612909936	8.372883970809944	7.337891258502921	-1.242514362556656
0.519255884473055	-4.970814428490646	1.487476026667727	-0.9162709329426142	13.5781882750185	21.82475176836208	8.358120454141588	-2.99708398588216	-2.513402333992611	39.40819275096812	6.36805245295826	-36.98660017541383	8.682808684408418	-4.290202085456496	7.587986749488367
0.5336312594138308	-2.410387918993352	1.378327034099751	-0.6908166806598079	9.548859822984864	18.69348927153009	8.346044793757361	0.8749778099428194	-5.713329268991789	27.25833592666497	-24.58922637668697	2.159567515145014	5.441984995286613	4.519941231863246	15.74848244589601
0.5376	-1.188995037791654	1.245499953715717	-0.6979168015824784	6.35896329155562	12.96970915469153	3.967653258785865	0.219213016971505	-7.435342524499037	25.47504674100977	14.87851425921033	-0.08471351395356663	3.021008381232245	16.20799073052394	9.329395707720286
0.547112856113114	-4.53466567553053	1.321395844770112	-0.6690055363828789	11.18271620755106	16.84787592635177	5.460967859853122	-5.225106837019972	-5.218355924835677	19.12148999057245	-80.27319333892252	-3.846845739092949	6.792020797867599	4.056045259772414	21.30292187472775
0.5640558844730551	-2.475386318425386	1.679156627133831	-0.1623349185745723	6.631151121103104	11.93708214534779	-3.392360910079555	-5.627058614561442	-9.112986049507988	9.381922736095685	-7.240488446003305	1.728935311685287	3.664908777503401	-16.71624612122699	14.79919968105874
0.5784312594138308	-1.366798692294212	1.632094450588498	0.03066551916758486	6.081765244665597	11.79644334898791	-4.702787284736614	0.4927864352056686	-23.65521232532837	-55.66502894711428	-5.632226736836827	-30.18552909305829	3.525501680313001	-2.032539292597932	13.60672806805688
0.5823999999999999	-1.405165416719415	1.26173907092456	-0.1767160479906484	4.19459257093172	8.947623012403383	-2.41322529866498	10.49826792246655	-6.374416623607948	13.13659958463208	105.9693949000764	-30.87951730784187	3.773250686627294	10.21530214802906	10.14539964628978
0.5919128561131139	-0.6682719082637752	0.5240503427563921	0.629445688903284	7.096007366749303	12.5143646298071	-13.73809035703785	-5.997591793368347	10.34621102591716	24.6823692394874	21.14973062615059	-80.60027776364036	1.440395066281096	-37.90139750945595	21.25138582109357
0.6088558844730551	1.245587373182387	-0.5606138249834919	2.020433960053983	10.65484322149358	23.88534891447157	-13.92138311501813	0.7382562121103451	12.25715214974429	18.27695212184151	-24.32352403987319	-41.74385325067138	-1.779273314601039	-52.95427184969301	47.92382745209651
0.6232312594138308	1.771514000758551	-0.588250829114356	2.409138076366367	14.66604731701678	32.51378449009749	-11.51969265422368	2.577147263242276	0.8800470208878113	15.17798549302749	98.80255382181387	68.9425638566959	-2.083668288456937	-30.84119956413585	31.27816508088877
0.6272	-0.007987183420018806	-0.5031981708368769	2.251886078719886	16.84712474230538	29.98249504364538	-9.702524667034073	-0.2289334102232168	-0.1473413817154121	14.40813551547716	142.1693938750616	48.7495341958938	-1.163487627900922	-10.01303098552346	2.234539882091076
0.636712856113114	1.081490279867492	-1.981828433159945	3.77869397538749	23.28068698244768	42.79944990367872	-24.63855947216773	-10.57688091952131	2.891900503402337	26.65859194093273	193.879738556492	78.39778093816832	-6.243425849188641	-57.56291758028711	25.46233456162955
0.6536558844730551	5.334114919279548	-0.8224522678492659	3.318554666942664	16.37757304154126	39.52077272906488	-25.30621499202254	-7.011714294457121	-16.34066685885329	-35.11264602604447	-102.0907802361063	-2.604091336978822	-6.213009138052325	-47.28338921617382	20.66225744493913
0.6680312594138309	4.936453305005846	0.4553673964661282	2.106863622714182	18.55352860116076	41.99945339923154	-26.5500106105908	-9.144234813123278	-40.76989399238577	-60.25232490739145	24.01125326559773	21.34450913865704	-1.177396133478601	-13.37585544985495	16.62443660691254
0.672	1.049216670070666	0.06609558561490708	1.475795430519798	21.03278228483222	36.04603676807722	-23.46358621273587	0.01872105924654122	-28.70251249395134	-47.55493415218773	19.25433534369586	20.93476454549786	2.252708490754169	2.969432528287545	5.245656072612719
0.6815128561131141	7.114751804568409	0.09424311756270973	2.116590412423935	18.72720424841037	45.33271873349607	-29.4301362391059	-18.21828649429551	-37.59778584985843	-54.63285813188983	-4.279389205183943	13.85669637321613	-4.697464559934337	-30.1969374591344	13.30923024880521
0.6984558844730551	7.61239999375003	-0.3812636604495347	1.795766982883977	13.05748532748688	25.87882004733861	-42.9270214701949	-12.11746588435146	-26.81814680971832	-36.94363744591734	-11.56591841036698	-4.424630472001716	-6.274316496871076	-31.1744233391378	11.01835377110193
0.712831259413831	4.304790081646924	-0.97251354184543	1.139172433417624	18.50803137835473	31.82461514994534	-28.37938284392682	-4.399626163704191	-14.24066746495533	-21.6012641430484	-3.724719919661666	-6.771899971174509	-3.879850621830031	-23.01778089166891	6.19002813676591
0.7168000000000001	1.280518542096402	-0.7446238824090732	0.7237467209622339	13.74333969967268	4.240655357291022	-22.22897609107389	-7.111271183013766	-8.195914598163924	-14.48056005945856	10.89507141323442	5.282543979900288	0.230130130809198	-6.499131543519145	0.09541426381468709
0.7263128561131141	4.935315310123594	-1.617992007718287	0.8522287855700327	18.61046275520134	41.44086984928814	16.02054645246166	5.11413332587342	-8.774175487330297	-12.69625088322896	-12.91507015250782	-6.04973620826771	-6.444789294944024	-28.01551806519114	13.03366494117591
0.7432558844730551	4.28146161935601	-1.948094633788377	0.2205706091718879	6.593206081293314	-2.420531011219877	-6.102823465052012	15.81700011261533	-3.697195912822119	-5.066094377298427	-11.90839010918421	6.041241790444642	-5.914634682431593	-1.508877774692692	20.32261147239626
0.757631259413831	2.273448024839601	-1.612385373419398	-0.1492961501703689	0.588477405155472	-21.70955515630526	33.62228482073036	75.19936458940975	0.9859697974641244	-0.2203776381686282	-13.31074611491169	12.32335049088007	-2.696641424094163	-2.042539310976011	17.74205364663183
0.7616000000000002	-0.3966618048583689	-1.14387322857329	-0.308859529362421	-5.223795203651656	-51.22183337538104	59.37261645910787	60.26861335781659	4.952069617404011	5.720060609131585	8.775604185461891	11.33115720559192	1.160148625582502	3.455036127707086	6.020656924228165
0.7711128561131142	2.346340744241972	-1.928547229604249	0.4189662124126438	0.8215906841909435	-48.10066125871173	37.24066449318711	63.55623089149648	3.412160965406795	4.987611460504084	-3.985115366114581	19.49329355986274	-4.135483569325374	-14.67028434242118	29.24993415292747
0.7880558844730552	2.598735952662358	-1.679056331938707	0.6290103918518117	1.034586310912293	-51.9196229963396	8.110911666992385	-50.67188778884273	0.5714297261919059	0.7495155445647947	-8.277974057028992	17.58192556067061	-4.369326391738445	-6.578368414757886	23.54259275013015
0.802431259413831	0.7745389064656425	-1.37743889085795	0.4405591326608953	3.854391218544063	-48.67912157420294	-6.300433379085696	-0.7491088591299686	0.7906578088709164	-2.424973338456287	-15.46492671588646	10.09247142451757	-3.168759045298379	-1.590352979343308	9.141880575029607
0.8064000000000002	-0.8671611858921096	-1.055730098691812	0.3054258159605413	0.2739930276348801	-59.10094557295534	17.05679684966586	-1.550297003357262	4.473061784778674	4.178498939992468	4.906760600221869	11.02256773023609	-0.4722083915829238	2.481512658040636	0.6528005670962427
0.8159128561131141	2.141665139079966	-1.425489672443645	0.635324464400723	2.069212483475363	-49.35537486672122	20.69846983383421	-17.57699516606217	0.1377174809889441	1.544572793612141	3.323371123912107	17.76142922850989	-5.422682892788376	0.4002155011922426	12.18406839777311
0.8328558844730553	1.763243469675021	-1.083212865654621	0.5542003517848144	0.2507153350850277	-52.83034164880725	1.654925251703252	-6.82600609247049	-3.026540016484311	-5.208374648239919	-5.55058135712715	11.19193033840787	-4.176862938404245	19.74578473975306	6.13917601206942
0.8472312594138312	-0.2064335784359819	-0.8901170535567546	0.1500795909160937	0.5684143636883237	-51.85824176896571	-7.508437519671723	-0.05200731149498239	-1.393777061935153	-6.403240351170755	-9.783133768116429	4.065540132191295	-2.49822617894081	17.71014785008744	-2.475735944023824
0.8512000000000002	-1.292984494658137	-0.6254428740765119	0.04754750188152079	-0.9265700411150211	-54.20451878151652	9.710056750671198	9.538496751752605	1.474816104168746	-0.5366665096634163	10.00890236391396	7.387143190887697	-0.3181535692798416	12.55593826390226	-2.306206432684772
0.8607128561131143	0.8188134676920672	-0.9500621613465157	0.1028834520566627	-3.036998427039272	-53.18203078619469	14.0469735856961	-5.833465018600032	-1.810331637781512	-3.718777796895485	0.8371062177215194	7.355376065446773	-3.583855264148954	35.74840904476363	-2.740734533867834
0.8776558844730553	-0.4910858647098549	-0.8089443665798354	-0.2480057761572436	-4.698502683600928	-53.51664034336958	3.281059000142541	-3.148881935889758	-1.806512155821736	-6.961397979834926	-4.69233128043911	-2.496783205595392	-1.393970528024405	59.75912978213643	-12.23527201310108
0.8920312594138311	-2.107772195188767	-0.6896340155413609	-0.6641734897994027	-5.974621221822285	-51.77792236154286	-6.018978681206121	7.038381947402198	1.400675556682549	-5.615813655630133	-14.22914802407559	-10.3673060792634	0.1739635869160818	45.46703596883996	-12.74017957391213
0.8960000000000002	-1.906268685620377	-0.3561412163543441	-0.6415888238816483	-8.506523176778465	-52.00631808360605	15.62993108661746	10.60061243479462	1.760582304363684	-2.110683287197665	0.4000128597057788	-0.9777190121814385	0.8774068385278579	27.93169231790826	-3.802878166909198
0.9055128561131143	-2.345623741710155	2.245874594593683	-0.6495120737832603	-16.53142508921923	-57.03493974881806	20.02333461452391	-7.770716169599369	-4.681248409652579	-8.296023449235667	5.937763646125429	0.3476231876764508	5.781782416881005	-91.97777609642752	10.57234612919358
0.9224558844730553	-4.871914543879659	-0.9341007503863274	-1.493308352082593	-7.069361381811765	-47.69355741872701	0.5968350439031465	-4.079104355283659	10.40718293122335	5.616881015496628	-9.755425135189412	-13.28008748502882	1.742880477778343	62.22872146694434	-23.15955989668473
0.9368312594138312	-4.366325272519961	-0.318153462090031	-1.649643384949066	-11.31740751377123	-46.92994158862668	-6.666447838922775	10.92906104583807	7.993104914863412	5.974932748722435	10.95996310629034	-5.954258885979208	2.300907272406458	27.64640096738194	-13.8520262340624
0.9408000000000003	-2.836064122044154	-0.1293108464403619	-1.599249247512504	-14.56568980260254	-46.24506108438973	11.83858287626994	12.12428822088598	5.335795064779673	4.087281849339085	-1.194535579153893	-1.625855076908646	1.329482960913478	19.98971535687084	-3.102680996355169
0.9503128561131143	-5.433539136000451	-0.2556998570367172	-1.895728461624618	-12.87768663076302	-46.41811310015692	13.94361523223561	-6.632813599821546	10.22147571574461	4.766345883588883	-13.85068542107754	-16.32860710234957	3.261316643711792	21.17164567745975	-14.78937621818947
0.9672558844730554	-5.913207551271359	0.3197568330447046	-2.123085839692426	-14.44420241296427	-44.23282491610195	-24.34210579806032	6.592340656381491	10.87290452558392	10.4442969892744	15.62414959888182	-3.994227831479826	4.786210591614143	-2.882249851000008	-16.12427310739374
0.9816312594138312	-4.140920812155494	0.4487015036290425	-2.126094399325976	-17.49641643674533	-41.56000497794412	-14.14694780352658	23.20531273653408	8.67996059979464	5.223129149828633	-20.19706934035759	-14.14238098815111	3.383344963044839	-6.525341302524168	-8.653527290209231
0.9856000000000004	-2.516485303499113	0.3092580691015081	-2.134212424203176	-18.36694874698963	-32.84466690109481	-6.059179476096752	18.13202495640073	6.772393622692357	9.699959949504501	14.55744330132766	1.160871182902763	2.257517466975159	7.1606429963254	-0.291323773187302
0.9951128561131144	-4.116813783559447	0.8680200635987855	-2.26688243422359	-17.40480558633574	-28.09418499188038	2.886139390301041	1.829703079505899	9.913279509648186	11.85642809975902	8.365838796078311	-13.30293196715921	5.210482579163528	-15.11718330324139	-5.729309492024596
1.012055884473055	-2.144910285527659	1.543176744228891	-2.209098765441667	-14.82389260228806	-0.3027250834314481	-15.34255529563269	-1.65412387461156	8.925701972654418	16.73358748454041	12.89074713111586	-2.655011314310446	5.87155956212152	-26.47006557786796	-4.354690288341463
1.026431259413831	0.1735824902561704	1.663556504059551	-1.914544842647229	-10.74095100562519	28.0940035944307	-14.25609939552006	7.792346512859241	6.772436477492511	17.71137663155232	11.72145066905939	0.4515905101659605	5.272105099668464	-8.183870778011016	0.4358821507488024
1.0304	0.5480027343331539	1.276669049316577	-1.836252388989144	-7.945699171484224	39.24977134728726	-5.133484596554817	11.24264605807474	5.914439253621486	15.28554007931095	7.911899713967145	-7.342611683630018	4.69988926718843	12.5656635542797	4.384194684187722
1.039912856113114	-0.2809415088004805	2.080498178257538	-1.836216866978683	-4.964125368379904	54.33312494674941	20.59691506092043	-5.844880552310977	7.575966919732757	19.94197661512925	17.05077961520514	-0.3348031100798359	7.733430279894929	-17.53954093433693	4.371746401953317
1.056855884473055	-0.157666820836547	2.494769937702485	-1.459957251783791	0.1638811611418935	77.51430960165374	-1.999793519595535	-8.387947742706341	5.511268185777176	17.50655078313353	14.59922585733973	8.320650719332741	9.556869551445342	-23.42232348756438	6.716733685313629
1.071231259413831	0.4516310338414424	2.343316341805254	-0.9678963455331111	0.5510162285439693	80.27963884975576	-9.984866024319654	-7.448682710659039	4.285293821856371	15.06490529859001	5.513680878477594	3.914660655957306	8.64032481555177	-3.374264063081625	7.133381172639088
1.075200000000001	0.7247271291308277	1.753614528685894	-0.6321732730230842	-1.549041251326585	70.35584135198641	5.971276881312745	-2.86070447920141	5.405006721670855	13.06271795788602	-15.06002995022268	12.28730102383188	6.614412872125333	13.81913182186485	8.700829974380667
1.084712856113115	-2.539759288976185	2.958360517363116	-1.129326850054328	0.9933417945365264	79.01479257243518	30.9635975159474	-6.83165838992838	7.598898458103404	19.15242351057357	25.9286500908048	1.656031749016847	13.68437709449522	-23.41243456447602	10.16991497838281
1.101655884473056	-2.696573411898484	3.795399733019388	-0.9033163840577687	-4.840104539665189	63.52682440219935	0.8849397860438888	-23.00732205455782	3.716661136656953	8.711479270201741	-11.11090529508103	20.79639517180822	15.41691274740801	-42.48054014667288	5.105763488830879
1.116031259413831	1.166445016204124	3.857472168007988	-0.6738405370810647	-11.40501090521357	45.43210633535833	40.20933144934089	2.948607739651486	-1.868831155684084	14.78745501151102	59.64262489367865	-8.970629299096146	10.56087135353857	-22.77484364804435	4.225185525210356
1.12	2.681813377495728	3.85152153445699	-0.6046527749068495	-13.46333176809793	39.68696369165341	60.62202198583532	15.77805107750293	-3.746402219177247	18.95573008970235	93.37954599301918	-23.78704610084623	8.387144479106627	-11.84638522873979	4.323955515920618
