DataType=double
version=3
OpenSimVersion=4.5-2024-01-10-34fd6af
endheader
time	right_leg_1	right_leg_2	right_leg_3	right_leg_4	right_leg_5	left_leg_1	left_leg_2	left_leg_3	left_leg_4	left_leg_5
0	0.08590642284726081	0.03863424672465321	0.2576336817197609	1.386151780186652	1.043997588793379	0.164807054459307	1.014114913148727	2.262226936892024	0.0449455905605971	0.1113874295952311
0.009512856113114032	0.03268482782975469	0.05226712221231367	0.197439972231809	1.336755691715315	1.161690912427717	0.149415274536441	1.225799243061354	2.313581986277087	0.08454865170768322	0.1190396096842692
0.02645588447305514	0.0506075626146112	0.0165861799572955	0.3976002081356418	1.355203785244131	1.101699281186275	0.06738999211951223	1.392769855754871	2.287445442282176	0.08704142290396888	0.1030777355735344
0.04083125941383081	0.1670319524927902	0.03601888571110567	0.1890831801866479	1.21529425966253	0.9734322543170411	0.05422911294954424	1.603259707982057	2.090058721899059	0.154216660731751	0.1176400061185294
0.04479999999999995	0.346682011120981	0.02987402470362799	0.08789578854160673	1.016792678366514	0.9765822984066315	0.06404404805398477	1.632068093253965	2.107127883242657	0.1677681271658074	0.1609101807386111
0.05431285611311398	0.4371256957329478	0.0003952478997559794	0.006132083160613533	0.9866647070467502	1.136381809411735	0.03698430356405513	1.756629507689691	1.870965850935491	0.115417594851789	0.1359292123328917
0.07125588447305514	0.6256000545839094	0.001121436996041503	0.004122532102014631	1.016729742236881	0.8339368215018368	0.02485377820068812	1.889809457752296	1.603983647799621	0.02950402735913116	0.2263575077490607
0.08563125941383082	0.8898863054414534	0.02975053847473408	0.005984815604362481	1.191403277854835	0.5651851705178217	0.02410245185244086	1.953715442875029	1.341596141421592	0.01694297052498772	0.3530722326497351
0.08960000000000001	0.9750679306172618	0.02444955237037849	0.01486437179463707	1.158533947506631	0.5091657190056376	0.04446093845111587	1.994844843547044	1.33214755941535	0.03963628797496987	0.4018471913898995
0.0991128561131141	1.284292086905409	0.001836268528868423	0.003168958567653313	1.169211561552852	0.4526291828806546	0.01723899743242629	2.001205511569639	1.045399142805964	0.007560495562400682	0.4912134702631796
0.1160558844730551	1.850418193537457	0.02612171264447394	0.003569957774751664	0.8459050451708912	0.5371062171275955	0.07942954793873101	2.016377468135416	0.7069645293067816	0.003876828523865505	0.7328737155448719
0.1304312594138309	2.202133416659291	0.1470911106041504	0.04082241969313216	0.5986212929169392	0.5923062458211872	0.03746549552567657	1.809555604355215	0.414939038841493	0.007091333737159644	0.9900037055605768
0.1344	2.210077503356633	0.1720835666659912	0.1026846381160382	0.5915973043319038	0.6180763175997415	0.4898791603129968	1.843379424852554	0.2801773100886419	0.01160556335155327	1.058580521717801
0.1439128561131141	2.348147389306249	0.197616289023955	0.09787301943542293	0.4611372468614245	0.574937204107159	0.001748298946854021	1.574368954892144	0.1203364891790555	0.005312115794962935	1.179772373827523
0.1608558844730551	2.524424143842669	0.2254275524162317	0.2185123632293191	0.3145292692458117	0.5396824917266505	0.001091356006440058	1.002648529906073	0.007209727810790766	0.003422806516338639	1.474827370460443
0.1752312594138309	2.600984290858723	0.2667643252860268	0.4167954833913239	0.2301052245434647	0.5143371955732947	0.1061101711861365	0.1307968960058803	0.005136396419125332	0.004153302811150894	2.024256787182277
0.1792	2.585660703467466	0.2694237542704299	0.5301814649901431	0.2619536683064441	0.5015252303211373	0.2503407357204636	0.2710061653097409	0.008425513811502581	0.0115278171001254	2.055427502365215
0.1887128561131141	2.559398861154824	0.2895732471777945	0.6130893283352306	0.1778067170970363	0.475049832247719	0.2164960602479997	0.4269301574464288	0.008186720324315109	0.002633824433041276	2.118965582519647
0.2056558844730552	2.483913564757592	0.3304289289613322	0.9014435678952477	0.126444070750396	0.3818344368899949	0.1187740433565008	0.471002342654586	0.007914397804776206	0.002038296461163824	2.180820932388547
0.2200312594138309	2.371254614677394	0.3830225740008855	1.182697747732847	0.1271261358875009	0.30586549714792	0.0747192440963431	0.3587983905602101	0.01206738725353151	0.003117412846974865	2.196899595956487
0.224	2.332379563596083	0.3776042499151329	1.339844283938253	0.1969407850275147	0.2751263565029403	0.2215347829676242	0.3398083719029801	0.06350968949083223	0.01094125365559684	2.128572335906092
0.2335128561131141	2.236690399440664	0.3948471294141767	1.403175015988428	0.09895483832552809	0.2358170429405702	0.057803227017434	0.2632062167987304	0.01416515896961989	0.001898058559218541	2.184867393256682
0.2504558844730551	2.108854845101122	0.4349372700252099	1.652076885086176	0.06285113871131287	0.1533172002374714	0.07363761989169769	0.1763456532250993	0.07066833236598578	0.001387721496915795	2.090437759905304
0.2648312594138309	2.017075788462432	0.4800733754054676	1.814534666109499	0.05171500419364516	0.1012013909287068	0.09402187136958594	0.1585086726313607	0.1390715860511351	0.002424042320367192	1.979216145737912
0.2688	1.997644048774924	0.4787541645273343	1.925802804653762	0.1035783759322886	0.1121097307711096	0.1659448988804	0.1339926461246046	0.1847205294637044	0.008205552868058241	1.903264441506944
0.2783128561131141	1.937868632048897	0.5021232931032991	1.917169658329066	0.03710436939961781	0.08659334477487413	0.131407681447488	0.09905339363997001	0.2075718753805375	0.00140960840335147	1.867991417340408
0.2952558844730552	1.885184960306569	0.5617002003026244	1.994856164451512	0.02869763451309026	0.09461439361266599	0.1679271827316073	0.05433432420662054	0.2961599125213183	0.001074360688094522	1.716960564214602
0.3096312594138309	1.843596964004648	0.6124813578714443	1.985713466869052	0.03101597210834939	0.1299416139633074	0.1694084013973667	0.04939784899939692	0.3402721716103398	0.001998973204959675	1.601660379569407
0.3136000000000001	1.83027850681272	0.616678600559486	2.013871830883301	0.05131281341774407	0.1641843220276478	0.2139695820953804	0.04226751883109969	0.3422994387229731	0.008411187867164216	1.538616106507595
0.3231128561131141	1.822599749139687	0.646298391544005	1.96768530470492	0.02395689604295281	0.2078889370507255	0.1657453636305188	0.02076037457912694	0.3298769122087259	0.001211695986365946	1.489458195557434
0.3400558844730551	1.798164374557822	0.7248663849630717	1.901599446721634	0.0195227115839236	0.3245997918179242	0.1253930235344373	0.02285699697051768	0.3016905106412117	0.0009706971521357133	1.345130990736805
0.3544312594138309	1.755748949509812	0.7776947012761379	1.801492566405874	0.02580429988647115	0.4540177815602249	0.06244099679120118	0.04176639172247487	0.2885170518334509	0.002747783024064532	1.235903909046965
0.3584000000000001	1.730126214950155	0.7778766874982281	1.796245362287947	0.04036255139697253	0.4767155607140685	0.1398981743615035	0.04686623904246368	0.2653193424621766	0.01983540651585791	1.181949686306032
0.3679128561131141	1.712262479021369	0.8108974546078453	1.735695285054199	0.02163165067915784	0.6062079222346695	0.009009941868091785	0.0302900172032059	0.2433957788877654	0.02515131631556677	1.131286191710381
0.3848558844730551	1.614761200807094	0.8638424047970847	1.656113598471799	0.01999206236202422	0.7973009184785473	0.001725415463623925	0.03739091562914254	0.2356978377480354	0.1156976788929418	1.003953546188126
0.3992312594138309	1.490818410059375	0.8973378153785854	1.594527792090531	0.02738918378142152	0.9552699064562358	0.003564173128671299	0.04363936398901913	0.2387092597177016	0.2194402901865891	0.9071060352440323
0.4032	1.455120015003086	0.9026980813269683	1.611427803328083	0.04430198715099642	0.9802669519198606	0.02147176480152968	0.04672781972372686	0.1842103798539627	0.2991232356250348	0.8554658914371158
0.4127128561131141	1.367432696466355	0.9143709377012978	1.584259518722295	0.01515519697752588	1.090555372210448	0.002861077296412162	0.02123594736035006	0.225688816449054	0.3528501752682676	0.8327779228901875
0.4296558844730551	1.178715747878033	0.9198121216254815	1.628331012190131	0.01468761308555955	1.227825215337966	0.002900047703550789	0.01510372263217974	0.209843752817151	0.5299439973949536	0.7562776196335221
0.4440312594138309	1.004698642668104	0.9275959203715853	1.655802256895285	0.02121518943628509	1.307046468335757	0.005616686005342152	0.03008937933499567	0.2335109304509117	0.6843836967620076	0.6677032023555469
0.448	0.9685143107314185	0.9136900569807302	1.760514892703219	0.04772009399996868	1.333523903811794	0.01802778129427107	0.03750312363353903	0.2716384217146599	0.7060280056175818	0.7003321817473163
0.457512856113114	0.8369568658181612	0.9200120651456221	1.728095216675706	0.02184608315821279	1.349610555142396	0.003911169481217057	0.01973566619508116	0.2175722180459365	0.8253221376893576	0.6374530442674411
0.4744558844730551	0.6271189753565106	0.9438345532428665	1.862224754656486	0.02446799234333685	1.364283136274988	0.003464297279814232	0.02169512955934838	0.1959084895973033	0.9824172616828655	0.621051719162117
0.4888312594138309	0.474944273424237	0.9738463696582276	1.96593690603956	0.07574687221812137	1.331196488090808	0.006101898357875334	0.04326278076674228	0.2440138790920194	1.068553197906353	0.6253597055347733
0.4928	0.4528928525609733	0.9650450304717006	2.086827884435183	0.09006877053418716	1.323145944133519	0.01449178494276992	0.03406831556961176	0.3191588613538058	1.085928028268823	0.6903138111721745
0.502312856113114	0.3409097363478014	1.000199481186124	2.056032719105867	0.08306876406323571	1.270485782133968	0.004350717011982751	0.02742548553181212	0.2166271421597185	1.158292411205867	0.6800989975836638
0.519255884473055	0.227954958768625	1.048215114252114	2.181002529252081	0.05598034987711564	1.157043991467155	0.004071277034709552	0.02197203577593232	0.22960725125865	1.202931082706428	0.7668386393220858
0.5336312594138308	0.1817990068120468	1.107079490994062	2.278604180202335	0.06377234665079889	1.030597249034404	0.007018435731352745	0.04159539152834757	0.3077059963541461	1.20563009777705	0.8047987711020905
0.5376	0.1981440298187023	1.111784788136222	2.367982345911136	0.06645747090259668	0.9907441145680798	0.01883215748857303	0.04453828011243566	0.297033965842349	1.177058100713884	0.8474810109046356
0.547112856113114	0.1543771053108669	1.174105368183125	2.308274447070928	0.03523662527722937	0.9100247438680347	0.003706874296280027	0.08978099920392868	0.38027331536827	1.218401741564368	0.8297923438699613
0.5640558844730551	0.1420218626582228	1.266213455507581	2.359867322027315	0.02327769949341096	0.7795411907671213	0.005292723223614181	0.1124473489770024	0.4397381081078224	1.134053764785197	0.8690389704581811
0.5784312594138308	0.1467633417827674	1.350972836571404	2.351254135450064	0.03367058690111691	0.6872556777537318	0.2591256400939805	0.1251052965654456	0.3837501930686988	1.008567138045145	0.9353685533207132
0.5823999999999999	0.1703800229462376	1.361495236546852	2.359091266301299	0.05729072779044042	0.6462051514519747	0.1744569228825447	0.03756359895337535	0.2707294129127824	1.122548237282889	0.8211804038797288
0.5919128561131139	0.1246526970049589	1.448693485351873	2.201523127743133	0.0283483520967831	0.6144386424728836	0.05582808385544257	0.02540789621901229	0.2583189076325398	1.113694029040786	0.8744115963584722
0.6088558844730551	0.06766901058480014	1.564473431300313	1.990767027781179	0.06062719815049533	0.5736804184977649	0.2646892202387292	0.03580853321876365	0.1064851523659733	1.087839051710407	0.7282300902224641
0.6232312594138308	0.02677425850381177	1.624760560038834	1.789307050253162	0.116746635418183	0.5686955493659642	0.6418946726913893	0.003043895165741439	0.08419954338375034	1.101783213878595	0.6726442895940519
0.6272	0.05224251962855055	1.625579981638626	1.754610861941467	0.1685875121421692	0.5801612316650138	0.7431257145602225	0.02768233206409665	0.04096083127213123	1.034858978319193	0.6537278517168419
0.636712856113114	0.008486016756246608	1.664671553035879	1.480329077187576	0.07657628005424488	0.5907654581656114	0.890799174379043	0.04034442441655539	0.07037967777784181	1.096911464300252	0.7561729043664762
0.6536558844730551	0.003769623458984129	1.690536297320043	1.139862995441542	0.04693953110451599	0.6210337675210624	1.078538326585547	0.0129899194477936	0.3017680461311087	1.187644214276571	0.3197283856441455
0.6680312594138309	0.005263970431508725	1.660147319641944	0.8274915281847584	0.02606545822246709	0.708860363624888	1.6395860951914	0.03530666370196478	0.4288157977343489	1.110467328472367	0.2387237086098875
0.672	0.04720028411594336	1.635945652237368	0.8811813874239318	0.09324702161907528	0.7125460746845658	1.675568904621082	0.03317788820620837	0.4813843124981156	1.064615006724803	0.2941197543326748
0.6815128561131141	0.003126816061918448	1.618996902547696	0.5579542085690461	0.01589211572028315	0.8120663013838367	1.911593081579983	0.02364862189925532	0.6273885197946648	1.014499535617053	0.2343937184562446
0.6984558844730551	0.06580553377696143	1.565190208086423	0.3136303549638626	0.01166318993502369	0.9388235358994637	2.26425922029006	0.05449653061168647	0.7895170685683678	0.8806183936587093	0.2197878545887688
0.712831259413831	0.0576376361223936	1.473331762651664	0.1783236920050637	0.01690947444196134	1.05163609943573	2.508634980677752	0.07832213101441887	0.9250464138482294	0.7824223142049629	0.2081094321787758
0.7168000000000001	0.13013996198542	1.431684450438775	0.3718945779047189	0.101173551304262	1.039943360244397	2.548816124108362	0.07706235482555179	0.9597174963110361	0.7682515643371515	0.2188187096450198
0.7263128561131141	0.0008798628457826754	1.147842575108487	0.1290036970387822	0.01940600184874075	1.230029605449225	2.645966273359526	0.07461573766806584	1.055010897632666	0.6952284227564567	0.2095502192603629
0.7432558844730551	0.0005540672951811488	0.7137732020921845	0.08140884993287933	0.0742103102862508	1.357803234062436	2.74046756721583	0.07400261131391961	1.242329505909183	0.6034355396047877	0.2049423842637044
0.757631259413831	0.001552452576797592	0.522138381206398	0.02965125402198954	0.1094163609948327	1.495298327013036	2.731839763486871	0.07144396402619524	1.430886733953881	0.5659574089928761	0.1951471784607106
0.7616000000000002	0.1177355956794282	0.470016299034163	0.05820439502179386	0.06029526071984836	1.503908078164891	2.701547845847073	0.07627510408914784	1.459656078943674	0.5326227433109079	0.2117139526799292
0.7711128561131142	0.001300542724893106	0.4769514500367169	0.0124709531348941	0.01486255391490587	1.704125046149207	2.651746957572332	0.05550570161284885	1.620606743590394	0.5305072301544742	0.1869162823078661
0.7880558844730552	0.00157256538919004	0.4602929016352304	0.008170568023032843	0.01570020705562136	1.826544415736359	2.589684275617857	0.04528455341775661	1.851218764471223	0.4843831192952965	0.1547364443827055
0.802431259413831	0.009027929989765761	0.4922890910495195	0.01974513114506404	0.02113154534801609	1.909414301230074	2.520277443186189	0.06177682363559267	2.037887089804851	0.4503400882476498	0.1199782921451122
0.8064000000000002	0.123806149206855	0.4921413434372433	0.04770486748569169	0.03922406954397317	1.902466228063591	2.473643678180909	0.08210169738129736	2.046217914211939	0.4370771964674844	0.1484570023158591
0.8159128561131141	0.03017642031531232	0.4692797345203097	0.02038663672029006	0.01849545704940425	2.015385469545741	2.40265507202958	0.06924579194528047	2.1753328703871	0.4151754859328651	0.09318300421243464
0.8328558844730553	0.1076220894129296	0.4362952800134243	0.0389161411388752	0.01804410432491199	2.110441625853117	2.318077711024781	0.07942191449220459	2.308785584283888	0.3734522995043452	0.05633945272176177
0.8472312594138312	0.1546334020257643	0.4443899138972442	0.0932360066630098	0.02128572798008666	2.144418303582272	2.223611013930718	0.1234843249986488	2.384063035328041	0.3431371705322057	0.04840390663354199
0.8512000000000002	0.2104537987036688	0.4315341872725176	0.170796503917396	0.03688654247100764	2.145381058025512	2.178213720642631	0.1475350657941856	2.367080249580992	0.3451407308579491	0.0871758371773641
0.8607128561131143	0.2121594377449228	0.3930511694375474	0.1511876832907451	0.01801157804453624	2.161181879639698	2.095299982612036	0.1534647588256997	2.413601878749729	0.3091602820839503	0.04090127492343587
0.8776558844730553	0.2733435532500704	0.3232920531790722	0.2170805534635747	0.01626047070066683	2.144655321672015	1.96486065322124	0.1937537945151044	2.418794122270973	0.2623770444494102	0.03639381696381783
0.8920312594138311	0.2950286912144967	0.3005062675519223	0.2553493526816819	0.01885914755628271	2.092542407921298	1.810990854510191	0.2560584894092575	2.401579873210617	0.2294254234038906	0.0481373865309429
0.8960000000000002	0.3105818076551615	0.2868190404397568	0.2858211489871572	0.03325012153413542	2.081656785296441	1.763897703225503	0.285866530450317	2.388317330951212	0.2351607681086243	0.0844667714416687
0.9055128561131143	0.3057707700965509	0.2319091955766241	0.2957743045367502	0.01535957568241564	2.033544117878899	1.632805246939148	0.2944958680716017	2.383570691222118	0.1930568890864697	0.04062847765944255
0.9224558844730553	0.2925164775350595	0.1754646260367068	0.3118118203978986	0.01309620446004089	1.936368789460929	1.394701814062981	0.3442659708665943	2.348282705371056	0.1552099622593914	0.03283119100985488
0.9368312594138312	0.2731526045600195	0.1685491556698198	0.2899356304484648	0.01558700629441567	1.838045685450278	1.187857060613433	0.3916956797325506	2.295778789178715	0.1392955134316676	0.03774680703330624
0.9408000000000003	0.2831108658050195	0.1568545751460135	0.3021262480365809	0.03400269665109068	1.808638202474073	1.153245920906896	0.3971201994890237	2.266914612140166	0.1513680958521713	0.07146926286710276
0.9503128561131143	0.257027018270807	0.1351520830757007	0.2362880454951011	0.01190363274922746	1.7368273505156	0.9959275304833176	0.4455140030258606	2.249574843382879	0.1223819837526072	0.02515404525118647
0.9672558844730554	0.2518918985585215	0.1454957199442832	0.1273061459016258	0.01176585967677823	1.599776738438651	0.7583422642197338	0.5049703299901838	2.160298428436759	0.1114627553654772	0.01931410863681116
0.9816312594138312	0.2488735060479864	0.1673346575939396	0.04933010336440979	0.02870943801743309	1.48347357756518	0.5849999338081212	0.5506630799598362	2.076290358807682	0.1309057596650813	0.02747739460511589
0.9856000000000004	0.2452774586034945	0.1604564616543165	0.04804908650347972	0.1158836232420946	1.460882014308065	0.5892250127149524	0.597964036836979	2.025733259231194	0.1451208444057182	0.05280943753515199
0.9951128561131144	0.2225030877321475	0.147491296779366	0.01678660171933366	0.1409450732296671	1.383405610736328	0.4302992397066933	0.6282119422939898	2.018716020948481	0.136432345594609	0.01903808540916074
1.012055884473055	0.1718125995257127	0.1354259491012035	0.01240350495709208	0.3415836433638777	1.254202981264991	0.223470390297491	0.6898619727398367	1.948734548800142	0.1535544631346593	0.01809903396830492
1.026431259413831	0.1183548956427512	0.1378299262324445	0.01919807154555109	0.5420261016557237	1.150387931480397	0.114926147949026	0.7350153241466097	1.921398254218085	0.1873669841223249	0.02549909217144997
1.0304	0.1163875786265116	0.1293190110136617	0.03614043598052952	0.6306601751105676	1.1127514373005	0.1405922148912255	0.7675653938240075	1.85546639920329	0.1855079478494339	0.05730655403534435
1.039912856113114	0.06673894302547102	0.1146661053533515	0.0162543684739278	0.7219516053392248	1.068524240240355	0.03270032285870971	0.7845184259784821	1.907174621983786	0.1878045504563772	0.01969482252884092
1.056855884473055	0.01588226330891196	0.1020080667537275	0.01858047782803229	0.9298954750216586	0.9703302023010014	0.01402376659132987	0.8270561248897561	1.896009081014321	0.1825823431002673	0.01717619114393187
1.071231259413831	0.0160447402442756	0.1028245111575146	0.105176443401656	1.018687734455941	0.9002385507216228	0.02363799508369446	0.8778006330976371	1.924316056635145	0.1744794061180182	0.02327991186862377
1.075200000000001	0.05134659881576377	0.06089877713443226	0.3080887889209807	0.9675011934537006	0.8442920067177715	0.04402135706670229	0.9170293488948182	1.896139872046856	0.1584128225955279	0.06128284713419951
1.084712856113115	0.009293010598363518	0.0777394610416664	0.1323772456559178	1.129982389000261	0.8576418185241712	0.02568264534458375	0.9187990997066144	1.946717244735445	0.1394357820657319	0.01735121767872894
1.101655884473056	0.007038972465186257	0.05815955662678274	0.2032171283742938	1.237633808471965	0.8145572164367465	0.07836343793825494	0.9751310767516932	2.028080904274529	0.09186192194308607	0.01334357701910793
1.116031259413831	0.01143615035995449	0.02777729834589859	0.3358876229385528	1.297288254400019	0.8305919726394357	0.1468422134203964	0.9820314326698334	2.089454435641473	0.08561739168603033	0.01994931926248977
1.12	0.01352444206123771	0.01739697886108083	0.3827155776100257	1.308397242924932	0.8443113073827346	0.1692859812077945	0.9813126601852442	2.105158273266829	0.08627672499570149	0.02319530123178382
