DataType=double
version=3
OpenSimVersion=4.5
endheader
time	pelvis_tilt	pelvis_tx	pelvis_ty	hip_flexion_r	knee_angle_r	ankle_angle_r	subtalar_angle_r	hip_flexion_l	knee_angle_l	ankle_angle_l	subtalar_angle_l	lumbar_extension	arm_flex_r	arm_flex_l	pelvis_tilt_u	pelvis_tx_u	pelvis_ty_u	hip_flexion_r_u	knee_angle_r_u	ankle_angle_r_u	subtalar_angle_r_u	hip_flexion_l_u	knee_angle_l_u	ankle_angle_l_u	subtalar_angle_l_u	lumbar_extension_u	arm_flex_r_u	arm_flex_l_u
0	-0.08717011653481531	1.053131571390157	0.9500368675865606	0.6041279196527758	0.3743043772926865	-0.03910826285855004	-0.3842499596220347	-0.02671021548204094	0.1701310889104942	0.2560672974007011	-0.05619202480693952	-0.1720481195749421	-0.2175617308207768	0.5142820137567472	-0.4560452051714614	0.173386753220678	-0.2139605121180693	-0.04374690655049307	0.06054569686118466	-0.00172658917450863	-0.3661552936927805	-0.3959370422936502	0.5991290095982771	1.087775575329289	0.7160543238806423	0.8013102010775446	-2.235762075321648	2.094782494820757
0.009512856113114032	-0.09139579243859082	1.054900386080273	0.9480037022321094	0.6032669901878395	0.3767566326451019	-0.03808290650506208	-0.3878782457311398	-0.03042331349376959	0.1760769449577409	0.264211662213154	-0.04991944260780196	-0.1641474069409932	-0.237709947035264	0.533632482488225	-0.4249591604264754	0.1998570730788178	-0.2115852423732261	-0.1475236977821327	0.4550317163222639	0.1879917944052793	-0.4091968516129485	-0.3875169570013877	0.6783747705441473	0.7290691329494441	0.6200891298029512	0.8518229299356408	-2.030966787146821	1.916557957967418
0.02645588447305514	-0.0975709187476644	1.058767885952904	0.9445982702771251	0.5983187361993606	0.3894929986037749	-0.0346296345401621	-0.396060971224065	-0.03699784945646617	0.1907576735668055	0.2780198333951303	-0.04014521102554419	-0.1496016701306597	-0.2711039373455162	0.5596335423207556	-0.2938973156083295	0.2569788407617081	-0.1877834275107299	-0.4590482692488664	0.9783992009795145	0.14990918617963	-0.548032131459227	-0.3867301149520289	1.086787927307575	0.9691287256364061	0.5128383698909806	0.8503285152053109	-1.935142932417474	1.112316491952871
0.04083125941383081	-0.1008872836783031	1.06276546872456	0.9420729947083205	0.5893112176799635	0.4038097863689039	-0.03439418599584967	-0.4038906737782674	-0.04235689750907251	0.2090623781728934	0.2918547539220755	-0.0350383389487702	-0.1376756273103907	-0.2980529405942665	0.5714345027052707	-0.171694140335978	0.2959829775392908	-0.1646000527168066	-0.8017029409511638	0.9033709041811427	-0.1475483142411795	-0.4937562122441578	-0.3483981406188882	1.43635555868155	0.7803107423797477	0.1178936244921106	0.8069624913968299	-1.769144379721545	0.6199832689918713
0.04479999999999995	-0.101514598057701	1.063953867279807	0.9414291958939989	0.5859305514371653	0.4071152713545761	-0.03519377051002956	-0.4057111239562029	-0.04369450228144239	0.2148894854403365	0.2944149635185533	-0.03496857233627743	-0.1344969508319998	-0.3048700473552334	0.5738503330469287	-0.1542025933700081	0.3029064643086983	-0.1612078736561226	-0.8847925070536138	0.7281414045717406	-0.1136111616434932	-0.4846470854066296	-0.3191499905186577	1.528266819303816	0.7605550610175429	0.02576880628377098	0.8023576646909902	-1.698811874453656	0.5566261301504555
0.05431285611311398	-0.1028319834051134	1.066904557833767	0.9399421928756237	0.5765272874550402	0.4122078753008764	-0.03434851933945357	-0.4119737051082296	-0.0463261901753651	0.2304582376461258	0.3010199453279006	-0.03576545033856152	-0.1268711325740469	-0.3200674010598706	0.5783131465858247	-0.118767677979523	0.3148962187726582	-0.1493766909250412	-1.057693615920908	0.4292255098533119	0.3291265370071147	-0.8428082243441386	-0.2323047091969915	1.752772655315794	0.6241543835578933	-0.2163055309372531	0.7912252673357637	-1.433218192888609	0.3393554386742571
0.07125588447305514	-0.1041254520248647	1.072196338571029	0.9377561799633279	0.5589135778862366	0.4215823651169009	-0.02003604047194713	-0.431220919591403	-0.04848773705444775	0.2644686979698833	0.3091863873668131	-0.044324386183175	-0.1142794615593281	-0.3358185529651628	0.5781260854482416	-0.03724249127139196	0.3038168031353546	-0.1049115330810461	-0.9497388386863959	0.8033598179423471	1.352717059264339	-1.349606759891506	0.004312077413896942	2.298098277956114	0.3302981853954314	-0.7886796301360466	0.6880449840975759	-0.3561378474022432	-0.3800311237174776
0.08563125941383082	-0.1044725843062316	1.076354915285582	0.9365902565194464	0.5474718761345565	0.4370332688204113	0.003730816741381385	-0.4499142475770353	-0.04591999712895461	0.3020179829074371	0.3119086178154648	-0.0579549407415049	-0.1049053492643009	-0.3341031790755333	0.56928525410438	-0.02709213043350105	0.2723193714334333	-0.05692726101071292	-0.6225254332464979	1.310002297314654	1.839673408270751	-1.096843352879166	0.3906662374315291	2.961714626678928	0.04408034255046156	-1.037135103797636	0.6311844500699638	0.5342123019373792	-0.764879039758476
0.08960000000000001	-0.1046113452493554	1.077414444655438	0.9363903853233048	0.5452054780186502	0.4423873079870478	0.01103199350747458	-0.4537888792575119	-0.04407700000907261	0.3142092444227936	0.3119193074728915	-0.0620425417555352	-0.1023939796732323	-0.3316585731572425	0.5662447139696252	-0.02138055867380596	0.2682222856921607	-0.04409366020228551	-0.5819962115003342	1.373124930443695	1.894354076764401	-1.077774977749951	0.4846817129146196	3.119494473054859	-0.1353996875517595	-1.129406458161009	0.6230669473378256	0.6246688018121251	-0.8603120309042991
0.0991128561131141	-0.1048002312201993	1.079934439953936	0.9361092783293949	0.5398854493156398	0.4558383574275031	0.0297333282614772	-0.46436650412291	-0.03828185694788383	0.3458145334465474	0.3094422368603779	-0.07378648214614525	-0.09644832557708377	-0.3248738749450916	0.5571296767974652	-0.01520919225152728	0.2632617130421108	-0.01506516543457692	-0.574465423732296	1.384093847732791	1.964294329344418	-1.138416193952563	0.7259430521079741	3.521306043917408	-0.3973221547056323	-1.347988349724765	0.6292667261194468	0.8080306746955264	-1.063653548137833
0.1160558844730551	-0.1047083186095401	1.084433754151647	0.9362697798794354	0.5273065260228424	0.4739992009868737	0.05830063059684287	-0.4837959894076841	-0.02293145850694955	0.4111707725271305	0.298097631600076	-0.100374663033821	-0.08560884860500367	-0.3083248419557638	0.535659395353268	0.03198399589229038	0.2692186816055246	0.03258167864463449	-0.9703497750923573	0.6523962888827886	1.287238858859914	-1.129671078597836	1.074946232702757	4.182742655850535	-0.9402925101028717	-1.788740421407932	0.6466660443798724	1.125358705088936	-1.466740557275026
0.1304312594138309	-0.1038441021121936	1.088326768344481	0.9369711728765929	0.5100325526589401	0.4774067413403946	0.07070800252264249	-0.4992393192430094	-0.005488581741058707	0.4750478672284477	0.2818390207913462	-0.1283478231145834	-0.07645504892710402	-0.2913217678817521	0.5126067107052937	0.08912680753537025	0.2700269700368407	0.06291143953544463	-1.424550489398226	-0.1556720050501362	0.447083330676145	-0.9996754116511224	1.355324328325247	4.698018856343566	-1.287034588320787	-2.077717540825165	0.6149916126734055	1.191666690982534	-1.713639044737844
0.1344	-0.1034587608663978	1.089392875506478	0.937232967688342	0.5041674482206659	0.4764311815616061	0.07207678084822933	-0.5030977403864632	5.546930834726682e-05	0.4939638192365149	0.2766223947257947	-0.1366928609681912	-0.07405858812078413	-0.2866644784583513	0.5057325615720092	0.1003523688159646	0.2634854313776187	0.06869233615948793	-1.495443401474	-0.2909257249923249	0.3699217509030586	-0.93713263965269	1.492025828489056	5.043338566317125	-1.231387254926186	-2.188712906710851	0.5913798154565022	1.219591446184649	-1.801220091000602
0.1439128561131141	-0.1024683708911572	1.091844974959548	0.9379483935250885	0.4893671330913988	0.4725384394372062	0.07637994979235459	-0.5114500367931726	0.01474160053289147	0.541378316493714	0.2633564383478353	-0.1589003676932149	-0.06849763418594007	-0.2740765477788376	0.4882139279553424	0.1166542119992467	0.2498019606498317	0.0812266240583049	-1.618971980062594	-0.5195173821373797	0.5241237879771888	-0.8169587698115682	1.63446457192029	5.086346275574299	-1.572677235804792	-2.464727859782348	0.5612266688047249	1.397886843517734	-1.889991332996575
0.1608558844730551	-0.09964562690049016	1.095711480227224	0.9394553581516215	0.4600072303450421	0.4609742606596961	0.08636828530145993	-0.5234845433084649	0.04663026061616446	0.6368507198594258	0.2358463723846951	-0.20349218780535	-0.06058860765045812	-0.2495037795851456	0.4545130267861082	0.2240420577754147	0.2042460398016198	0.09437414966607119	-1.839772592453905	-0.8279975990346431	0.6087824833543559	-0.6123172673064659	2.116923078197567	6.141914826482266	-1.286004199840892	-2.765129535436775	0.3571525635041915	1.491738278583193	-2.079032184481392
0.1752312594138309	-0.0958273536216525	1.098365585791173	0.9408171329223308	0.4326234717846185	0.4475896416040696	0.0941498408484886	-0.5314846337006015	0.07782051520763567	0.7230127451417079	0.236063033347004	-0.2443077728336147	-0.05663803353948194	-0.2267204888726853	0.4241975425423068	0.2952110654560478	0.1673667249992924	0.09282651584221333	-1.95158584331605	-1.028126070528016	0.4301188357761526	-0.5195369258804939	2.097273301378076	5.344500865731455	1.967740138956429	-2.902068015799578	0.2132548294369576	1.739199678127523	-2.102531861217783
0.1792	-0.09464715433018395	1.099015862297494	0.9411800426771655	0.4248582955092646	0.4434086802131706	0.0956696065482483	-0.5335374975198579	0.08584214829713044	0.7426188918782636	0.2470752818829158	-0.2558836136143234	-0.05581708699125813	-0.2195351514645915	0.4159226866052583	0.3043480720265761	0.1587442571127523	0.08819298106078571	-1.952123794057392	-1.041129481737815	0.3815874086717713	-0.4709403059547393	2.103612127900911	5.411484400698883	0.9803799735888516	-2.872850578394687	0.1826885015970689	1.698196710782844	-2.147254905921251
0.1887128561131141	-0.09171045997491553	1.100436758865307	0.9419941654481848	0.4062586893032398	0.4333564512537325	0.09971573878921018	-0.5371756008830907	0.1054641515008675	0.7907044445839484	0.2486643518700623	-0.2784122929471504	-0.05428272354413598	-0.2030381711924895	0.3954578767664908	0.3174773814335374	0.1384882328806898	0.08365428799952419	-1.957919153507711	-1.065885871949237	0.4546731288898797	-0.2968282089397165	2.026495999927256	4.69985738103751	-0.4790511328785585	-1.879317785585078	0.1296055513731559	1.761774378173238	-2.139063024106973
0.2056558844730552	-0.08587676481591677	1.102365717838089	0.9433920358401928	0.373135867164478	0.4154612433613011	0.1073276936166789	-0.5399372244396627	0.1392009152892378	0.8601874975137414	0.2326572769185479	-0.2985623745094321	-0.05359155830766606	-0.1729541851286114	0.3604088051896855	0.3715256938083771	0.08722427772901625	0.08210521502348662	-1.943180158822638	-1.033396625355006	0.4157030492619609	-0.04388799682237038	1.978164145274283	3.539205336836505	-1.063560887837647	-0.6809811376381241	-0.05683179901006019	1.77076200889133	-1.987411166631168
0.2200312594138309	-0.08037711574988853	1.103287013303764	0.9445654412353149	0.3456458389341586	0.4010843835864517	0.1124933814136288	-0.5395217334895921	0.1680778745414417	0.9054704541858412	0.2212900462909539	-0.308009760634884	-0.05547983198928425	-0.1478724896174272	0.332530316890172	0.3822972024262222	0.0418822853909862	0.08047705734462916	-1.868580373051067	-0.9634480748782035	0.297657361257986	0.086347204426033	2.061603952187198	2.814462435988086	-0.4246691077809275	-0.8766563771812736	-0.1919067884575191	1.712107887924836	-1.91814110194005
0.224	-0.07888076548104897	1.103431168455272	0.9448821425111326	0.3382984442523619	0.3973030818334792	0.1136057926835227	-0.5391395035631552	0.1763513026701523	0.9163585867043027	0.220072065012427	-0.3121155957991397	-0.05627995375318415	-0.1411199136744427	0.3248890946400156	0.380878437007633	0.03116381453364011	0.08050052399196599	-1.840043661470232	-0.9351729960838737	0.2880793293057817	0.1124918859863544	2.07791017825791	2.597910463371878	-0.3316039523753096	-0.8528687193834388	-0.2243499926829215	1.686592071409886	-1.936751122141633
0.2335128561131141	-0.07527329222424248	1.103612682037226	0.9456518130862656	0.321049633538581	0.3886625739326237	0.1168805024508906	-0.5376535820289771	0.1962613431708735	0.9385771100739853	0.2185733704777262	-0.3204274930582928	-0.05872166075890974	-0.1251959048842428	0.3063946215078546	0.3793994141801733	0.00569143667852523	0.08159613312115499	-1.786558108704712	-0.8769262534631301	0.3891137303728586	0.2024565845751468	2.112637752616809	2.085516737752312	0.03007101498713882	-0.9350979686420013	-0.2962298490184851	1.664991174971707	-1.930292503788958
0.2504558844730551	-0.06878523824440205	1.103247351708729	0.9470711553913055	0.2915484990736034	0.3748355108555688	0.1240007293870908	-0.5329877973362188	0.232843901889528	0.9669603999723795	0.2243057796706155	-0.3392811843238347	-0.0652487051930368	-0.09703133232006911	0.2752933611203263	0.3847622830825732	-0.04903444359403678	0.08627694945505116	-1.697960292606903	-0.7631688938453499	0.4246901584279829	0.328113717935934	2.205681950934692	1.271384323510911	0.5704343425035909	-1.24972830201763	-0.4750668576554462	1.664916349648821	-1.718835077768228
0.2648312594138309	-0.06337076601347752	1.1022548553316	0.9483419856512361	0.2675983634598998	0.3640358514285638	0.1296800770849322	-0.5284602878673675	0.2649237725524571	0.9800284879323586	0.232029565436851	-0.3557430934884632	-0.07289722248579381	-0.0730322570446181	0.2519036668632629	0.3608912219605143	-0.08585998312314164	0.0902924332837057	-1.636999566115855	-0.7639471716309737	0.3540208214706188	0.2631606693515177	2.245012244348975	0.5240108751983767	0.3477739593290305	-0.8671894389981191	-0.5707996832367361	1.672331550595791	-1.557973892075734
0.2688	-0.06196906444005056	1.101901499449518	0.9487018767709853	0.2611288379398479	0.3609479180030744	0.1310273011584117	-0.5275364815914194	0.2738257987808546	0.9816432713173167	0.2329419105404053	-0.3585787875772877	-0.07517179968334693	-0.0663966290781618	0.245748658549117	0.3532896444081766	-0.09399454205308758	0.09075684758716487	-1.614257717690946	-0.7520001156998573	0.3454912027862811	0.2585098683041509	2.251714845626827	0.3379152300765525	0.3837295319914071	-0.6198183091554358	-0.5931126471173569	1.658623214049545	-1.549900439819253
0.2783128561131141	-0.05869087507658057	1.100923746071492	0.9495738451336534	0.2459070990264755	0.3537755716397789	0.1346348118866502	-0.5248583376587637	0.295110243677413	0.9823648705484208	0.2369852582935906	-0.3632203717319101	-0.08102019799100872	-0.05050647986313225	0.2312452685472696	0.3354588883524681	-0.1120636870523521	0.0924177097705523	-1.586381467801474	-0.7581809686106921	0.3973548673317866	0.2965581380194864	2.220648208073297	-0.1880086815045718	0.4722084691238582	-0.3751143940279401	-0.6378065523992845	1.691788030996783	-1.478474731888436
0.2952558844730552	-0.05334847907413409	1.098736243548726	0.9511474237346331	0.2194110947158235	0.3405675331518763	0.1409798583102753	-0.5199014538833827	0.3320191341354786	0.9711321562689146	0.2458926356313477	-0.3668441761244552	-0.09249546067075673	-0.0207127031615324	0.2086437844368227	0.2917099770715753	-0.1452485973530764	0.09266794465287478	-1.542491360993117	-0.8115375236967379	0.3304861389434311	0.274506217717281	2.128367512562799	-1.138615577527608	0.5216047684765122	-0.04297426151207462	-0.7105652315860771	1.831160975948702	-1.17574114323907
0.3096312594138309	-0.04954755215265964	1.09650481427928	0.9524595516275002	0.1974705332459233	0.3282260517941711	0.1450955997590468	-0.5163419134436399	0.3618311687971767	0.9490145299819563	0.2510241065132121	-0.3642226014016051	-0.1028367608943364	0.006305359032103164	0.193282133305286	0.2329128759318014	-0.1624439077784245	0.08924531074521269	-1.510874254661956	-0.91607413443932	0.2510633483154755	0.2202179553783957	2.013815783086855	-1.934739653575527	0.08587735555044418	0.474487642614531	-0.7148159689024083	1.911174406835652	-0.996249182596896
0.3136000000000001	-0.04866423731477642	1.095856928181965	0.9528105587504457	0.1914899531137068	0.3245113250057222	0.1460757839127196	-0.5154947082166227	0.3697501420197541	0.9409090506096585	0.2508924840675456	-0.3619015415257734	-0.1056463408377959	0.01389327247028957	0.1893406593115655	0.2193924359086041	-0.1660068001149916	0.08749134258410451	-1.499166095403491	-0.9302476656710481	0.2529427636925921	0.224629551630433	1.981026006220997	-2.128950699073836	0.007564044217216459	0.7164749295907906	-0.7153492938196443	1.927177111182851	-0.9733539650717862
0.3231128561131141	-0.04673116438979077	1.094242505345889	0.9536223660133941	0.177280702876713	0.3153905133329679	0.1485677450549505	-0.5131377129742981	0.3880233669371956	0.918166433724839	0.2509528553480654	-0.3536804474272877	-0.112432896478103	0.03269608436245344	0.1804201996683422	0.1840303331921894	-0.1732605081525244	0.08270646271068476	-1.485697145189535	-0.991289096382779	0.2551234394987714	0.2619732431694178	1.861720603961025	-2.650635324669535	0.01235351841951637	0.9781445265536508	-0.7082562785025772	2.022537337076965	-0.9002544835121726
0.3400558844730551	-0.04436461804227686	1.091223469025723	0.9549123379585968	0.1524981712659593	0.2974376329789771	0.151956887340257	-0.5086337213529941	0.4178246055304086	0.8656654505915351	0.2506563860264607	-0.3356010984775337	-0.1240536224578113	0.06801250155986296	0.1661794039107606	0.09174334807705992	-0.1818063802061399	0.06866870670138077	-1.436450490383476	-1.128707196107666	0.1402388684467829	0.2705761459697621	1.656393286743572	-3.533574414583	-0.1222082261244196	1.117181488662008	-0.6567562569032278	2.131560269309161	-0.7955814883424951
0.3544312594138309	-0.04363231460359764	1.088606317095653	0.9557964592020409	0.1321788978055814	0.2805084814654148	0.1537457486253739	-0.5042761310335665	0.4403559110170632	0.8099575672175259	0.2446299536629188	-0.3188920547826512	-0.1330341148473893	0.09884507431544157	0.1546808157338241	0.01259491490536137	-0.1806636087587151	0.05421906331156708	-1.392198004996347	-1.217127117402118	0.1440917723051093	0.3612317664556867	1.476211081353985	-4.201255357695592	-0.853443573729136	1.237852029042726	-0.5907762164879514	2.144147889400133	-0.8324576083295651
0.3584000000000001	-0.04361885108508228	1.087893427706291	0.9560037126837809	0.1266729234599936	0.2756521060821441	0.1544046155398023	-0.5027329082386974	0.4461108543659068	0.7929510319608984	0.2405411145424228	-0.3138302855044264	-0.1353401260525925	0.1073330735026879	0.1512945648920514	-0.003148431133343468	-0.1808317107326216	0.04989691578305892	-1.38266077495139	-1.233194287781281	0.1691848248590165	0.3931981243070247	1.430558504084904	-4.353183133866322	-0.9570552667423231	1.419664628960708	-0.5811968737923084	2.153729114363978	-0.8511958498707852
0.3679128561131141	-0.04381288065208042	1.086178835311213	0.9564276395975569	0.1135909837326258	0.2637013240716474	0.1561504612963371	-0.4987006870676308	0.4590279471329445	0.749630604450199	0.2309157788995857	-0.2993976872791649	-0.1407385026455382	0.1282624699023661	0.1430526468006945	-0.0390452956510084	-0.1788579070308531	0.03888424673661409	-1.36642334085752	-1.279980087437204	0.1901716597863464	0.4495562021846553	1.287154643208492	-4.74457249570025	-1.060836730426476	1.592447343612902	-0.5522457352235818	2.226328423950428	-0.9019011422351682
0.3848558844730551	-0.04507536682668236	1.083246411778465	0.9568938348057003	0.09075349775091132	0.2413600511945026	0.1592269010330115	-0.4905237037128123	0.4787992161971469	0.6643960197934929	0.2110228085305653	-0.2716154863184471	-0.1495494183857148	0.1656349470960071	0.1255658022501222	-0.1084255672301502	-0.1655426192369651	0.01563866468585397	-1.329716093511175	-1.350682510507554	0.1712105050466779	0.5152460965993333	1.047649322595404	-5.279910030350996	-1.338914730934238	1.646378425555244	-0.486143183088432	2.163097694549927	-1.183660891957841
0.3992312594138309	-0.04693249698336088	1.080987962797849	0.9569702013103425	0.07179336818105778	0.2218140388362358	0.1618238760092588	-0.482523207422024	0.4923542162011007	0.5863535120864857	0.1876721566022646	-0.2483857286091912	-0.1561288802812535	0.1962699906327101	0.1067941005474117	-0.1437181002893956	-0.1480501634770315	-0.004877325740966623	-1.312161515220302	-1.356701023920497	0.2081146517138004	0.6106422768356923	0.8343020407091194	-5.547047256828472	-2.006358862905943	1.581662043750434	-0.4307171270568219	2.118826769647025	-1.406698151291537
0.4032	-0.04750798871778717	1.080410912946753	0.9569400766947406	0.06658599934332132	0.2164526575837171	0.1627130057153533	-0.4800171756464467	0.4955389675211199	0.5642541750783641	0.1791314987453	-0.2421410402777072	-0.1578119017764727	0.2047078966037162	0.1011455335557343	-0.149634635015861	-0.1446511749055738	-0.01090043190481422	-1.309583699888829	-1.361745794553991	0.1925518808667682	0.6101678719730776	0.7880403892730177	-5.56937969263987	-2.056985216854648	1.656085684797827	-0.4202352594727897	2.143242780133992	-1.436969497830999
0.4127128561131141	-0.04896051996894968	1.079080440986012	0.9567665249315592	0.0541913903762854	0.2036381016617208	0.1647819483056109	-0.4741523518450866	0.5024784284744728	0.5114408938383292	0.1600328480064158	-0.2257199330173859	-0.1616916595850934	0.2256390538178095	0.08722494131156994	-0.1541267651233892	-0.1340033165518818	-0.02531724725343359	-1.299689906325017	-1.333174878250544	0.2390625808439447	0.6219997715613547	0.6756279723719252	-5.495131208902985	-1.944163965779691	1.803552082779592	-0.3961434221868174	2.23856454904878	-1.521155926735302
0.4296558844730551	-0.05151870378625845	1.077049561534767	0.9561431252580825	0.03210423290925302	0.1815187138182172	0.1692787968916143	-0.463503556992223	0.5127431011782608	0.4229769309842771	0.1290781385402305	-0.1929476542334757	-0.1680718952443431	0.2635317372774204	0.05800857197822279	-0.1456958463039019	-0.1043625380055697	-0.04769109173693258	-1.309146152718657	-1.271717177179117	0.2869597678972757	0.63357379202955	0.5545826049491074	-4.849702247795092	-1.74959548433665	2.03298846513943	-0.3564240062450757	2.204053629036227	-1.956332255024956
0.4440312594138309	-0.05353998988215866	1.075742228238841	0.9553339952061225	0.0133038165287791	0.1639022681691598	0.1736369988907621	-0.4543489575899686	0.5205566588348997	0.3596454798394791	0.1028426755124419	-0.1639727772037099	-0.1729000910996024	0.2945273718735436	0.02735686423350334	-0.1365189515873594	-0.07826003468319173	-0.06470003131976351	-1.299811105225722	-1.167482550907984	0.3209341034447225	0.6401493277037256	0.5489256433551747	-3.91338969965946	-2.001350329918805	1.92835224883991	-0.312538348468608	2.111395643785916	-2.268298189268225
0.448	-0.05407975993726823	1.075443795205069	0.955068153841802	0.008166537653524097	0.1593517340736669	0.1749343836310746	-0.4518041727799658	0.5227653455192962	0.3447114972649611	0.09453599418442486	-0.1565320546114955	-0.1741100783730423	0.302872495687508	0.01828598392122402	-0.1370093131695999	-0.07267930788909771	-0.06977685698900699	-1.288812025852054	-1.134059072430297	0.3235608285198214	0.6184918770103348	0.5558235162448073	-3.656280193837246	-2.019407406053404	1.928660746243216	-0.2954941898826437	2.123683545168286	-2.300581799405381
0.457512856113114	-0.05538980441525437	1.074817126955544	0.9543423129951367	-0.003886921635273433	0.1491198892301664	0.178285749705217	-0.4461721327777158	0.5281287219242774	0.3129574154740905	0.07690359806775302	-0.1382097303613314	-0.1767393350681746	0.323384234054537	-0.003983979376893917	-0.139067608359895	-0.05820561610142705	-0.08285482050636148	-1.24561683697247	-1.017064038248671	0.3727029032260017	0.5637283639272644	0.5666634954805257	-3.027875609310207	-1.639696098315114	1.889828128423434	-0.2540786095950578	2.181532909466026	-2.403341910912991
0.4744558844730551	-0.05781829980851015	1.074103042976476	0.9527459288618667	-0.02429537627688827	0.1337943674759953	0.1848416396086269	-0.4374952918701096	0.5375234931295263	0.2704773099825335	0.05683436641113115	-0.1098391766270075	-0.1802154079113136	0.3606656026736456	-0.04751297550753925	-0.1479071651090738	-0.02576524566889962	-0.1050997317756171	-1.158858959163337	-0.781479962907683	0.3992915097802268	0.464935042128963	0.5364426228289068	-2.00148339179969	-0.7862786139532554	1.37259552697878	-0.1546628650683264	2.208522423980022	-2.735864871250434
0.4888312594138309	-0.05998384160738064	1.073907293596965	0.9511211172017837	-0.04022031300257445	0.1244371341002526	0.1910175759212351	-0.431149156050127	0.5450206584448947	0.2476829558827749	0.04631425665059566	-0.09547078952501115	-0.1819017334418958	0.3924328765713657	-0.08798411986226279	-0.1521037643363916	-0.003306905332274651	-0.1201097529632384	-1.04872902606224	-0.5039257832563975	0.4795189201318618	0.4299957854815157	0.511212043828385	-1.171285580060162	-0.8965372148121664	0.5813415169010006	-0.08613015519267672	2.213765193297143	-2.837158405685487
0.4928	-0.06058670918628623	1.073902048419807	0.9506380573752372	-0.04430462783869266	0.1226248538242318	0.1930112706435572	-0.429434763059669	0.5470482671976016	0.2434901892197932	0.04219622090465823	-0.09367778911847233	-0.182221040108172	0.4012309171028232	-0.09916361302912541	-0.1588568687964095	0.002168592350576648	-0.1245939323358543	-1.005714599501603	-0.4159463818351805	0.5149515524343753	0.4181534006932177	0.5129262741869168	-0.9518907167444424	-0.8997949662987381	0.5082181519267279	-0.05953201551506164	2.241433196957517	-2.827156365108379
0.502312856113114	-0.06215697603161491	1.073984315465902	0.9494037366905486	-0.05339737044148374	0.1196789364443165	0.19832667460786	-0.4255913493547753	0.5518660483430612	0.2369343828155104	0.03541308995709766	-0.08917970964433777	-0.1825637585958571	0.4230263324562605	-0.126017098850335	-0.1766123306423874	0.01552556088264247	-0.1351118594607832	-0.9001241438458993	-0.2016049797498114	0.6041234315809976	0.3868186008350502	0.5020763192844947	-0.4317338263466138	-0.5038631822169141	0.4043193917807737	-0.005362837199626123	2.326562548027046	-2.821346532458802
0.519255884473055	-0.06578336103494883	1.074472051667807	0.9469498656843294	-0.06668224648256738	0.1195646239570046	0.2099616884272355	-0.4196614733486473	0.560279381994796	0.2367091611000307	0.03294401008890296	-0.08626281511907818	-0.1813785644998707	0.4626349054742346	-0.1736614667902567	-0.2561324396287943	0.04208104496157484	-0.1541383057924332	-0.6650464254534034	0.1854302891004334	0.7666715971084499	0.3149869769054218	0.4873015074781338	0.3707409024227258	0.1227300140607395	-0.09589653688242694	0.1490703129916904	2.327890290130966	-2.785439991856403
0.5336312594138308	-0.06992089926989288	1.075223456076339	0.9446437730380893	-0.07492953047362527	0.12440163985328	0.2217977974998971	-0.4153646160916705	0.5669477317499093	0.2457130359401538	0.0338142747916941	-0.09079591072101528	-0.1784371472729664	0.4958293554370951	-0.2126410549530665	-0.3124440764164893	0.06143481747120581	-0.1655138208843257	-0.4934137112714735	0.478437983614113	0.8717061369004153	0.2940041750780352	0.4288558942345701	0.8422309365563951	-0.2032901193507627	-0.5016021562080286	0.2467871797213191	2.29594716303767	-2.602989943857692
0.5376	-0.07117373624382028	1.075475454527727	0.9439833347896761	-0.07682063051197879	0.1264403363918161	0.2252960412148433	-0.4141834818103755	0.5685915397381862	0.2492305433734137	0.03238033794962458	-0.09292017451983156	-0.1774367997370993	0.504943268734721	-0.2227951080864772	-0.3200955434205504	0.06680756672064309	-0.1683737448766066	-0.457434162284941	0.5506767017499281	0.9068699904757561	0.2975114433180094	0.406190893268824	0.9464603152550588	-0.3029636524213283	-0.4311311397858769	0.2659316311077992	2.327310644260399	-2.541543708412507
0.547112856113114	-0.07433310899166221	1.076171061205098	0.9423486703665545	-0.08086327241486713	0.1322312759325913	0.2341891076290356	-0.4114253041557598	0.5721019192798649	0.259090707650198	0.02757747614705949	-0.0969239142323314	-0.1746840977042432	0.527761695397994	-0.2462329824391425	-0.3473924353876733	0.07949574538535274	-0.1750692282970412	-0.3854108505860468	0.6746427740357019	0.9597532057167417	0.2739089929251527	0.3389233373216429	1.139820470439121	-0.7447382473746834	-0.4047294426853436	0.3149507581425741	2.440090404078814	-2.377674024226349
0.5640558844730551	-0.08080073314357988	1.077719515620882	0.9393092452084313	-0.08592664640130532	0.1459509726592009	0.2508510437547491	-0.407667904368097	0.5771125048443493	0.2814684712975727	0.00716711311549878	-0.1033691651611031	-0.1685278751331113	0.568504351181912	-0.2836231842484553	-0.4148639872429475	0.1038034868570255	-0.1826106573483923	-0.2141269750273599	0.9427894870995172	0.9902906166572681	0.1662628550977207	0.2433855949468242	1.455721793873423	-1.586096131233573	-0.3804617846489333	0.4085532530555342	2.324616261995941	-2.040283007439084
0.5784312594138308	-0.08698785966949242	1.079379173195872	0.9366746122083623	-0.08833767195628556	0.1607208680996849	0.2646987113304794	-0.4057171467777601	0.5793443308345199	0.301829144905978	-0.01586417284275535	-0.1099634406907828	-0.1623089882691381	0.6006113436043814	-0.3114325085501582	-0.4352448388196352	0.1277538594921737	-0.1828318090865049	-0.1433688460258086	1.087688557198731	0.9182214892980828	0.1227353778292607	0.03357600866262755	1.268846029636867	-1.392269026336115	-0.5912304864374531	0.4458309522808578	2.153173150347821	-1.85824460708972
0.5823999999999999	-0.08870158081113717	1.079900705847441	0.9359511584780973	-0.08891931449046286	0.1650601174302825	0.2682657934034938	-0.4052114508165963	0.579286324972629	0.3065213008750229	-0.0207745501525434	-0.1125459540030549	-0.1605437466922243	0.6091015192557991	-0.318775897381252	-0.4427054191676807	0.1337786348407909	-0.1827930151551787	-0.1120264487306444	1.142818039732655	0.9034423564150317	0.1278170116332123	-0.06982724145226327	0.9903253170806222	-1.492809733111941	-0.7340226724545115	0.4630560314079033	2.172524151223922	-1.797126952905083
0.5919128561131139	-0.09297499655195671	1.081217695039021	0.9342164554434171	-0.08974293009277712	0.1763498361241488	0.2764890279511186	-0.4039404839444193	0.5786555866005024	0.3167805000206727	-0.03170684125537951	-0.1220423437424931	-0.1560099500513524	0.629378750982749	-0.335356500558932	-0.4540032606785604	0.1416512654981137	-0.1804651383806493	-0.0562723869365353	1.240551135333464	0.8140869289401689	0.1272284698582429	-0.037902871619722	1.182548600145325	-0.9423549296762628	-1.328911548642012	0.4857345460948546	2.024992289313103	-1.657883824557002
0.6088558844730551	-0.1006780175925447	1.083616521686589	0.9313239865729543	-0.08942501436744432	0.1997990404363241	0.2881917702657076	-0.4024581377430123	0.580098795905554	0.3406139853813656	-0.04837963792375835	-0.1560149474530772	-0.1478006835605909	0.6569401750069264	-0.3589070431368356	-0.4507264943334161	0.1387246370713435	-0.1573883859456435	0.1053562325925639	1.557458618054457	0.5601329751789083	0.04998906581551482	0.2222074692612721	1.629806546232111	-1.117285367159055	-2.582501735961256	0.474877044097557	1.16951893469055	-1.071146433195354
0.6232312594138308	-0.1070198677256927	1.085537477597527	0.9292912327343567	-0.08664528773366426	0.2249657405468569	0.2948727089192786	-0.4016016600596236	0.5844117725608209	0.3660524417887439	-0.06356299124259046	-0.1938250884540919	-0.1412080211453577	0.668838954267022	-0.3698973013596619	-0.4291426835200146	0.128085748607988	-0.1237092584292999	0.2864083993797487	1.964583262375789	0.3886923510532421	0.1055726497811047	0.3325133473964487	1.864624214477919	-0.7693818212607808	-2.343089912614447	0.4409860299346702	0.5706571308596081	-0.4614149349861881
0.6272	-0.108706765830973	1.086039759347228	0.9288216927809958	-0.08540097683978581	0.2330255682397703	0.2963690550585155	-0.4010671313230033	0.5856809770450857	0.3734762070924131	-0.06586714675972916	-0.2022335165820169	-0.1394771304028904	0.6709926259295059	-0.3714178112294965	-0.4234987905385984	0.1257967002232849	-0.1139635212574238	0.3462290170624664	2.09005721539266	0.3341784313945433	0.1026804554288378	0.3316782918521729	1.930982714410773	-0.2456717557140824	-1.979598253020367	0.4327068215090473	0.4641431845866727	-0.3771593420939419
0.636712856113114	-0.1127473720091966	1.0871725624956	0.9278800354354191	-0.08114829646219462	0.2545514071584568	0.2987455085665846	-0.4003785350616271	0.588957039552902	0.3930807136142531	-0.05830697253304659	-0.2177507136572414	-0.1355248017946822	0.6739362994618142	-0.3744972539478749	-0.4221291637305609	0.1113918000035521	-0.08263311677013248	0.5480957742160293	2.4438722896314	0.1511574858916286	0.03534170496304423	0.3550240938161673	2.171016906902834	1.656257736906229	-1.310641603871706	0.3921051534202581	0.106074143185132	-0.2489174211777774
0.6536558844730551	-0.1195347607262483	1.088814892158414	0.9270219172286075	-0.06892873221061779	0.3018066089631543	0.2975778251026742	-0.4011858474927767	0.5945362202122111	0.4305799041536589	-0.0187781797806994	-0.233135065178025	-0.1298511899071709	0.6676043615016852	-0.3754015580258106	-0.3697778014787854	0.08458473876142605	-0.01937688215420654	0.8848088894173621	3.137031808837772	-0.3004696005694444	-0.1310182488576189	0.2528642199722091	2.120698457972194	2.478742107774063	-0.6324629403164445	0.2770670490222922	-0.8497408330781396	0.1542734433625385
0.6680312594138309	-0.1243050314688643	1.089997244704043	0.9270407106137687	-0.05456568624703045	0.3508950203259265	0.2906274913857725	-0.4038140218156639	0.5955070412153737	0.4559327285286228	0.007143450804034224	-0.2422475805952743	-0.1263335363030933	0.6517785388376508	-0.3711206423950618	-0.2897623626660738	0.08586494737522803	0.01713870446069394	1.09787027965482	3.674411200614284	-0.645907745066067	-0.2169813812634988	-0.1919126654779939	1.247883788148696	0.7763193727057163	-0.7597745802499007	0.2280373478098915	-1.214567036084135	0.4026248520064865
0.672	-0.1254041931328657	1.090352121053441	0.9271175145082814	-0.05012575085293397	0.3657288208783387	0.2879267121772163	-0.404680572816923	0.5943420847982446	0.4600730618536562	0.008620784952269228	-0.2455883359813948	-0.1254182199407628	0.6470811121220645	-0.3694813774049489	-0.273609335665274	0.0878257730260255	0.02488894192760412	1.178666000466244	3.846764994109304	-0.7596155785391394	-0.2606089687120665	-0.3652903971906784	1.025961997637763	1.216774023701811	-0.5857495708637545	0.2276850005907101	-1.250589578449173	0.4818181477720592
0.6815128561131141	-0.1278405588262399	1.091194423215814	0.9274346864233823	-0.03795833728807446	0.4043030493104216	0.2796980359557212	-0.4075449891057003	0.5893155050015705	0.4674743678919873	0.02109814965409576	-0.2501414792664564	-0.123283104854724	0.6346848880623259	-0.3644540234801197	-0.2314339255304625	0.08910389132139811	0.04247641949539496	1.371859870480141	4.258732979164713	-0.9874067191525202	-0.3575074653341021	-0.6958635451822086	0.531693954526941	1.375255856187706	-0.3901949609939766	0.2126193248844233	-1.392452491388558	0.5842635778614904
0.6984558844730551	-0.1306615720564331	1.092696963560387	0.9284540608353175	-0.01236071507208536	0.4820555454550602	0.2581872966933085	-0.415969473251441	0.572573187669069	0.4695818929007022	0.04428575102056911	-0.2555206319427152	-0.1204991474856528	0.6064928553581321	-0.3524819756348319	-0.09747976761259351	0.08694069938217518	0.07750467121030083	1.640016806077417	4.891615377211333	-1.580024085067454	-0.6368124429005799	-1.258969175087204	-0.2476973138407547	1.30723277887788	-0.2941221609140515	0.1083480249797328	-1.962444415054512	0.8294571379819247
0.712831259413831	-0.1313784518139006	1.093884848883702	0.9297383067020309	0.01276231824187418	0.5552552251092951	0.2313939080433909	-0.4261488947582465	0.5521270968181697	0.462679477847932	0.06169092452432023	-0.2604439784079648	-0.1195355923342571	0.5752301857002229	-0.3394277151118854	-0.01525053367035183	0.07667770272220931	0.09877520361754683	1.860439577180712	5.260719222205668	-2.146074317151612	-0.736243198137173	-1.540092875468748	-0.6615514097375135	1.11283447095172	-0.4179176945392945	0.03687976005677558	-2.329947934849878	0.9628808347497806
0.7168000000000001	-0.1314257383227935	1.094180046611914	0.9301364384497529	0.02028172248928312	0.5762693730314917	0.222578637351232	-0.4290236650508367	0.5459617890357999	0.4599371205403667	0.06601364510755671	-0.2622196239178158	-0.1193998076997057	0.5659243208339129	-0.3355895468554449	0.0001766361282894632	0.07251054310266816	0.1031703030447213	1.94332799255115	5.412292391416829	-2.243050270309441	-0.7567356096678688	-1.590250060138979	-0.7401769836973567	1.099040737630015	-0.4422460571852586	0.0222999649671563	-2.427457232268562	0.9899139542762322
0.7263128561131141	-0.1312882171105498	1.094818906380905	0.9311584202569709	0.03961026480809787	0.6290776864693093	0.2012927422252004	-0.436237119853629	0.5304477681297008	0.4522678455064146	0.07639205605720889	-0.2665174295323404	-0.1193197985491222	0.5419083335680518	-0.3259277776999621	0.03237472619097513	0.06057503429440645	0.111577104803991	2.118625963495048	5.704714598411189	-2.216421161252707	-0.7573479962845804	-1.669515430026232	-0.8665958272635125	1.058272863452327	-0.4679979258487827	-0.01292177214292251	-2.629182508193614	1.06112427182626
0.7432558844730551	-0.1300367213598752	1.095579941073366	0.9331513240513576	0.07772920053470586	0.7300701735800106	0.1650577962338104	-0.448253196780748	0.5012231167918897	0.436245206239498	0.09215279268678897	-0.2749504380014632	-0.1205306269503671	0.4943235647220487	-0.3054181418026226	0.1160785657858873	0.02812080810461959	0.1223261582551458	2.356525770794033	6.148548477777529	-2.059358871138995	-0.6094210295096738	-1.769062069656276	-1.00613090680407	0.7910146530112008	-0.5074144766446692	-0.1327162865348176	-2.955213605067902	1.384903462453247
0.757631259413831	-0.1279812420296281	1.095790500737742	0.9349238179780318	0.1120994236397465	0.8176892459640621	0.1358089209042735	-0.454048676648158	0.4755727388420196	0.4214746146148373	0.1024698223580395	-0.2813613855388361	-0.122967686208917	0.4515397647781649	-0.2833199396134038	0.1611945912497177	0.002707137132073587	0.1224750863769904	2.391397095418438	5.895288584127634	-2.050081042185736	-0.1224243364451871	-1.787238773121171	-1.034787774182363	0.6934989974826438	-0.3349934707272036	-0.19048131413016	-2.925645793377496	1.675537953423602
0.7616000000000002	-0.1273374900544461	1.095791269669257	0.9354061273846929	0.1215367434840604	0.8406227932032403	0.1275827813240075	-0.4541075777575531	0.4684954995126763	0.4173797536777227	0.1052877492682185	-0.2824856756143043	-0.1237171402842833	0.4401036654358018	-0.2765513186913706	0.1700996035368193	-0.003277950531152318	0.1219566240968499	2.396663545643179	5.83720679730867	-1.857894422085263	0.2319184858783671	-1.783845675048517	-1.036699787624463	0.6367834272282307	-0.2900609751975565	-0.2001488538714849	-2.959633512415073	1.747869602549666
0.7711128561131142	-0.1256824808463194	1.095691531895849	0.9365652685907641	0.1442730125393625	0.8940473838282935	0.1119276139783164	-0.4481269994527571	0.4517042372446936	0.4077171115961519	0.1113632364306273	-0.2845709533426966	-0.1256712842228422	0.4116748407767997	-0.2591032040259816	0.181159974696771	-0.01844180795021844	0.1226814116013621	2.387140804359086	5.389436409243323	-1.462428343143693	0.9386357441229749	-1.74889073906985	-0.9963745490770068	0.6248246759452529	-0.1401840705592169	-0.2164553081312992	-3.032387347663476	1.946205225052517
0.7880558844730552	-0.1222321273444099	1.095107100616919	0.9387208161932712	0.1848490539818321	0.9781875571069868	0.09063717055571233	-0.4293437528640772	0.4223817050610449	0.3912565586050426	0.120712618498849	-0.2842053702108817	-0.1299712020300535	0.3583622397439179	-0.221655455413439	0.2280477024611501	-0.05057216525876596	0.1327099988359015	2.407386123496384	4.534618768131046	-1.113322577553535	1.064604324608824	-1.71810174095385	-0.954011592974225	0.466693356828128	0.1843498260249441	-0.2954866682342517	-3.258955692247181	2.475091676809791
0.802431259413831	-0.1187273578010868	1.094214842798025	0.9406896923118658	0.2196259106033308	1.038052589617196	0.07536009767418297	-0.4185813400104859	0.39773879531874	0.3775595009342715	0.1266139386678664	-0.2798794057308179	-0.1346404268043386	0.3108470788914354	-0.1839034894632851	0.2536351007033419	-0.07157654181735093	0.1401628474141638	2.428613799436985	3.796222230341502	-1.032225884931835	0.3310224768033813	-1.712533103876645	-0.9588738387461158	0.3777818827914698	0.3970185213823234	-0.3454200078632386	-3.308016826132242	2.708964417583489
0.8064000000000002	-0.1177212490045458	1.093923958063032	0.9412472920765107	0.2292690195279869	1.052721400479129	0.07127899208727756	-0.417845994917409	0.3909418678353327	0.3737363837666824	0.1281233375252627	-0.278235793805055	-0.1360168662876568	0.2977938460306988	-0.1731852153179216	0.2557135866947984	-0.07710203885939332	0.1418270892480543	2.448232820333271	3.607818869213619	-1.08880461943609	0.4885587759646844	-1.709513610282921	-0.9707886128822432	0.316541013672883	0.4373985030688983	-0.3576252346751575	-3.317823928117988	2.748325418091897
0.8159128561131141	-0.1152612486965197	1.093133302923962	0.9426148190541893	0.2526386350027979	1.084671202564093	0.06185478097399319	-0.4136985422378751	0.3747881927548671	0.3646238152388661	0.1312352301125737	-0.2734337785685393	-0.1395487453990299	0.2661579414930285	-0.146712897882968	0.2648686690474518	-0.08936942984351526	0.1461521460563832	2.464831256500368	3.114026781373688	-0.8978286203442687	0.3723769314873858	-1.692785115768939	-0.9507223822011908	0.3291897310752785	0.5758130556778571	-0.3895772067443523	-3.322971555822973	2.82841958966444
0.8328558844730553	-0.1104313350556535	1.091426253901634	0.9451832219193248	0.2946030715972142	1.13023563229681	0.04869662525884171	-0.4095833369592495	0.3459057167860567	0.3483256989002163	0.1363813236941251	-0.2615001731112745	-0.146906086659114	0.2108469351369265	-0.09704684520321574	0.3060875692940652	-0.1116754772518521	0.1570434009584243	2.48604351284146	2.263607026077143	-0.695240041788209	0.1276346154288076	-1.724499494201191	-0.985956456107546	0.2679718339746303	0.8239568145720293	-0.4795924369960795	-3.170186295457736	3.02666121040817
0.8472312594138312	-0.1058887851861078	1.089714421037379	0.9474879994126258	0.3303648093991933	1.157353971042351	0.03848782707146389	-0.4081760847985422	0.3208485228134693	0.3336395754451556	0.1397884637344326	-0.2486696330917173	-0.1541813093143335	0.1672734502340893	-0.05312124529519854	0.318035593900277	-0.1251075943912006	0.1623707892099946	2.485655806626561	1.49524458732864	-0.7734694902625669	0.1203641763374114	-1.757532586442183	-1.062085940638452	0.2128950586112327	0.9373112665427852	-0.5210894466279052	-2.863714787253125	3.042408065560542
0.8512000000000002	-0.1046388120471956	1.089213654944673	0.9481323953962413	0.340221565958976	1.162834473318708	0.03527302742152629	-0.4075835854956493	0.3138672161705063	0.3293751722000429	0.1406223680812346	-0.2449410328894515	-0.1562448284329546	0.1561321770176389	-0.04113514650192901	0.3170470799664969	-0.1287626533611605	0.1627790297215316	2.489575937039612	1.296758897922549	-0.7954044689797954	0.1129962537618993	-1.761938902151305	-1.08430448239626	0.1867504005243682	0.9563875315656059	-0.5314660316287882	-2.809553356158958	3.033604921062775
0.8607128561131143	-0.1016264950350668	1.087953450776369	0.9496844190270566	0.3638196480655757	1.172762497878917	0.02831323918716443	-0.4064071680992967	0.2971076202799112	0.3189825550075424	0.1425357411521625	-0.2355150100342754	-0.161389258821773	0.1303050084683545	-0.01232688950638341	0.3181467087087685	-0.1364384369332221	0.1635478158400744	2.468908250080157	0.7901352627222944	-0.6656191626644232	0.1168684415758667	-1.766520851137904	-1.107336062091428	0.2049296868914953	1.021658378091842	-0.5524867407257816	-2.579217264121405	3.016707523456758
0.8776558844730553	-0.0961336825776397	1.085512931585209	0.9524584979371239	0.4051026872769229	1.178486308627731	0.01881735051956879	-0.4053944273274294	0.2668150526669521	0.299397844715893	0.1454817188769418	-0.2177131632546905	-0.1711708969738903	0.09318363443779813	0.03789116399844309	0.3286265421611126	-0.1515382235613257	0.1631532890574396	2.398575816126377	-0.1142568142153043	-0.4781977710938715	0.0004651434149197664	-1.810361960728537	-1.211646358875434	0.1279864112124818	1.058400994144275	-0.59974320830664	-1.745711539720539	2.89039395929038
0.8920312594138311	-0.0914928990455514	1.083257722844893	0.9547685063347282	0.4390352349663877	1.171354471041604	0.01203089071746777	-0.4054511162049572	0.2406853155421354	0.2813262655711463	0.1466777756902814	-0.2030127320356804	-0.179878301356234	0.07382059097320652	0.07806960872646902	0.309416226732615	-0.1613656106013487	0.1569664388682687	2.321050000489276	-0.8765611947007785	-0.5079634116804348	0.03538853818176096	-1.813438653902335	-1.295784358563967	0.04372617521567013	0.9633072679659231	-0.6014551983292536	-0.9699575362527485	2.684118929088406
0.8960000000000002	-0.09029289138053713	1.082613905364857	0.9553853213704633	0.4482030163687684	1.1674612630283	0.009906467799175658	-0.4051878521804724	0.2335140744108039	0.2761556890188258	0.1468220304965387	-0.1992908194302221	-0.1822428639559563	0.07032804367885714	0.08857905543537839	0.3015951981397389	-0.16409093285384	0.1542388800368602	2.295954441520377	-1.079308393304781	-0.5334572674065986	0.06602920192430439	-1.80708581622314	-1.315880198424821	-0.01710111917544144	0.9223938709375035	-0.6012992118562597	-0.8157659714312593	2.639115101922593
0.9055128561131143	-0.08749855312318555	1.081115787393618	0.9568275139384386	0.4694134966057913	1.154687908549234	0.005754685981956789	-0.4044771231697154	0.216167234458553	0.2633338397646722	0.1468994102467732	-0.1904588632149343	-0.1877850399653443	0.06014111146930519	0.1140407318141072	0.2837925235229798	-0.1504070116396182	0.1485127342071191	2.16248567510448	-1.606303262102546	-0.3435948827448936	0.06283445978164182	-1.837085080773286	-1.378895285424424	0.02170573299517542	0.9253832470468517	-0.5617268235996398	-1.341057978863611	2.703683813801016
0.9224558844730553	-0.08314682661316321	1.078746836133085	0.9592082481390959	0.5041318389580072	1.119709660646422	0.00204093419756958	-0.4046315949508609	0.1850679225439747	0.2393785747479846	0.1469865452439061	-0.1755424475002206	-0.1966361056910563	0.03127116959477252	0.1595264241772393	0.2247396575607978	-0.1332996373198829	0.1307751759554266	1.946634212459229	-2.5078325473834	-0.1340054669228453	-0.08090646218562567	-1.810075118169978	-1.425707947269571	-0.02659511516771174	0.8134605001397657	-0.4872078989394785	-1.867312583775572	2.611972256119042
0.9368312594138312	-0.08040392572970337	1.07674420989245	0.9609263171300453	0.5312933431381955	1.078786722274096	-7.73329923075966e-05	-0.4057940456951913	0.1600939566885552	0.2195309469913407	0.1461662466570814	-0.1650680665377218	-0.2034508294768321	0.01023518510161234	0.194701248714842	0.1544382135762995	-0.1529846760551128	0.1067553611919558	1.851759177634663	-3.162074834638892	-0.2110734694392273	-0.02498325047507965	-1.634655647487856	-1.30172066368721	-0.07985559360075067	0.633849095701142	-0.4732666743046314	-0.7048759918990793	2.225403597758145
0.9408000000000003	-0.07983372583652244	1.076109412927573	0.9613338246592308	0.5386332452317659	1.065930005876236	-0.00106433878859577	-0.405731080965877	0.1537657290261086	0.2145057314493247	0.1458426933710963	-0.1626678736622156	-0.2053493697175381	0.008850717663321683	0.2032045024320609	0.1397007141505005	-0.1502019265452638	0.1006178693287841	1.792582020725563	-3.355381358022942	-0.232679277407153	0.02325659184517748	-1.620275160648804	-1.292321756037475	-0.008814426738547154	0.6264099523600557	-0.4581402414248981	-0.7929320373857234	2.208432773349934
0.9503128561131143	-0.07867800630423823	1.074669538930018	0.9622124885748764	0.5550667128231118	1.031916715442444	-0.002375500234535768	-0.4054226978059574	0.1386895101197773	0.2023913733805843	0.1453391924537313	-0.1571511460122367	-0.2096122319213593	0.002388519962984725	0.2238097574855866	0.09985637372054199	-0.1523770235889006	0.08363736449813547	1.664262284067019	-3.795690283146601	-0.06718339480948327	0.02595097481918929	-1.543993330597511	-1.250683575187901	-0.08800813748602965	0.527853381406916	-0.4348297907095076	-0.5754191229777438	2.107095233938467
0.9672558844730554	-0.07781255227540752	1.072075919576219	0.9633374700301554	0.5813940490650286	0.961020706083016	-0.003391848758066973	-0.4055705712246808	0.1140502754355923	0.1821750439405292	0.143491126041694	-0.1499412103869002	-0.2163933686795398	-0.005231465476400049	0.2569020362364673	4.208031606463269e-05	-0.1528142850317427	0.04850160363885665	1.440516068410499	-4.568435235541434	-0.127963789816725	-0.02349915384826401	-1.359752808601587	-1.126553703366713	-0.1057586959031471	0.3286762831546544	-0.3619749802564605	-0.369242757257001	1.78902571721327
0.9816312594138312	-0.07837071523577871	1.069911024780976	0.963813024466275	0.600534799132358	0.8908318909303428	-0.007733999509819844	-0.4047125463640716	0.09559781993461972	0.1669549297558739	0.1425039503259522	-0.1459658515421222	-0.2211370540966042	-0.01076732647458184	0.2809537367255699	-0.07199890842682678	-0.1472472803069377	0.0179167240474819	1.21282518238425	-5.1892838759	-0.5289003175258462	0.2164143583306858	-1.214587168861592	-0.9872335367672824	-0.01767371875669077	0.2480636581067216	-0.3010648955844338	-0.4456720860263885	1.585968939204448
0.9856000000000004	-0.07868183752374171	1.069332073070979	0.9638681721032979	0.6052015932929641	0.8699129709508414	-0.01015482208439056	-0.4035548610423708	0.09083882619127501	0.1631192901968375	0.1425076424940011	-0.144971387253223	-0.2223068339998805	-0.01266999465706395	0.2872075338635776	-0.0868307760755109	-0.1458921935663395	0.009651432395119675	1.142051345301376	-5.354119724283207	-0.5577066937996235	0.3124669436416759	-1.179377455665801	-0.9599845526143354	-0.07271501430938021	0.1915887876736457	-0.289032189082449	-0.452326327452033	1.551690895046718
0.9951128561131144	-0.07966249086029058	1.067964042154977	0.9638625324867517	0.6152440384073081	0.817442854939183	-0.0154683602944352	-0.4000898305372991	0.08002661853200879	0.1544674758989199	0.1420705080675841	-0.1435693108884831	-0.2249005815921844	-0.01701630942112659	0.301779556537821	-0.1204318190093512	-0.1408210662806164	-0.01107733551044031	0.9709844329679427	-5.663307318080466	-0.5632406529814329	0.3959920729032718	-1.091607973114727	-0.8554291145000325	-0.0178037300876549	0.09681409141818897	-0.2527260306721282	-0.4932843061346449	1.503939421822437
1.012055884473055	-0.08222262969015982	1.065730841636224	0.9633498328343656	0.6293149553138135	0.718588174989074	-0.02570378076805245	-0.3934555997665359	0.06296964507643285	0.1419214695059642	0.1428615275809869	-0.1435254006494976	-0.228384593226978	-0.02821368811958297	0.3260757442695292	-0.178038455562279	-0.1209287100568668	-0.04933340091490929	0.6978437519739176	-5.932719091970108	-0.674535470115776	0.3725912719789292	-0.922689864320323	-0.6129155863657557	0.1251727170717672	-0.0767297088661939	-0.1549626854682536	-0.8591429869693621	1.36350380283894
1.026431259413831	-0.08493040177787514	1.064153719153437	0.9624221197122405	0.6379393041618446	0.6341350494917072	-0.03715868848845363	-0.3880045079436629	0.05060736753191786	0.1349687114584637	0.1460618490016939	-0.1447913470642029	-0.2300165316366818	-0.04273510577151923	0.3451367915386548	-0.1898711919447417	-0.09800619100214583	-0.07891453718588617	0.5098110034603849	-5.739952604760564	-0.9552939499064153	0.4171070104369169	-0.8044937715347453	-0.3441833565515625	0.3383340826693193	-0.05874607482565442	-0.07607910240026597	-1.123317560723606	1.309219829375213
1.0304	-0.08567077333932759	1.063777909434088	0.9620946260417311	0.639875600383021	0.6116201670002436	-0.04118023948465616	-0.386246705391802	0.04746244352240556	0.1337703043420119	0.1475602656698573	-0.1449232809288015	-0.2302857185277092	-0.04723977610447308	0.3503522103970445	-0.1887192199054192	-0.09160587594900049	-0.08622314269773657	0.4690873984989655	-5.619383889572479	-0.9957805801686104	0.4514607534011393	-0.7775549156215555	-0.2757514736467398	0.3689317532246694	-0.0699874498715628	-0.05455213192795184	-1.132826432776302	1.309231363775606
1.039912856113114	-0.08745631024155145	1.062977618664595	0.9611899503648442	0.6440333717975859	0.5601877883293176	-0.05020389054767554	-0.3818005274687262	0.04040814369849599	0.1320046248587854	0.1516288333933381	-0.1458523537620667	-0.2305439788529402	-0.05805195623224405	0.3629207925813738	-0.1876678658609558	-0.07551931169591122	-0.1038864582142669	0.4101031873330295	-5.168192990856747	-0.8867243164782617	0.4644035373280021	-0.7053777367654588	-0.09271474829463619	0.4962970823290878	-0.1109955923879785	0.005076763363190719	-1.178107774621394	1.33363356388072
1.056855884473055	-0.09067914235889395	1.062024703233946	0.9591815119669905	0.650536735632546	0.4816510535138757	-0.06313270343846011	-0.3750559003634757	0.02950817799664557	0.1333175282573508	0.1624958107958718	-0.1472534885437392	-0.229200819584043	-0.08119530601576053	0.385984005464599	-0.1929456694713347	-0.03549425089591304	-0.1322099946355095	0.3694142456150356	-4.045298765663656	-0.6686016632783494	0.3135802626731993	-0.5848972251955689	0.2450452811564734	0.7845622304120516	-0.03325188337918428	0.1596997262445151	-1.579883033389692	1.394484217949938
1.071231259413831	-0.09345061411978409	1.061772510149455	0.9571457169189781	0.6558824264512826	0.4316614836751251	-0.07325878218984619	-0.3714303605872885	0.02167559967216798	0.1386722049021458	0.1750352670148081	-0.1469768173633897	-0.2259047961704392	-0.1058537975336705	0.4066216832258049	-0.1902430072469855	-0.000332972967445222	-0.1497213970485186	0.3792723146279211	-2.8890441638486	-0.825657946855922	0.2133798016145572	-0.5109818660115378	0.48832757127858	0.9303973226019047	0.06620335343456474	0.2956191410866034	-1.789704768529126	1.484546303341559
1.075200000000001	-0.09419845807666791	1.061788273863021	0.9565446952021419	0.6574012473406501	0.4208606009636173	-0.07681432599304208	-0.3705799323530716	0.01967470058136697	0.1407169730063511	0.1787384715654508	-0.1466788725057551	-0.224666580112646	-0.1129200816049701	0.412579446644523	-0.1881232786880579	0.008927661760568056	-0.1532856085918367	0.3776857963113345	-2.582354968022357	-0.8538138067043981	0.1817723065422078	-0.4905930371928543	0.5570262230637689	0.9704474139721464	0.07872140981418096	0.3298954057898668	-1.791035859340164	1.510065969096245
1.084712856113115	-0.09601522553344337	1.06197448389088	0.955045239801863	0.6610020507291356	0.3997249059749367	-0.08382072949976374	-0.3689053780880206	0.0153378996283717	0.1468653910133399	0.188490936357577	-0.1458469412822237	-0.221089984079422	-0.1300235350933943	0.4273660804859962	-0.1984728412113149	0.03200440282266771	-0.1623855467640545	0.3799593077182585	-1.857253619828675	-0.6282949958239482	0.1496356454068616	-0.4197029470828039	0.7330937827434666	1.075915557062021	0.1079435194629049	0.4324081424364766	-1.86035325393011	1.59790576117729
1.101655884473056	-0.0998138608882367	1.063002596433569	0.9521326822901021	0.667343304390468	0.3790019857675461	-0.09191630469691667	-0.3683789534422107	0.009276431565009818	0.1616598992993188	0.2081067439854018	-0.1426463423054347	-0.2115289616929666	-0.1665681835157415	0.4556062886140699	-0.2510834763347521	0.09207485991721344	-0.1814070350003302	0.3560852964753826	-0.6209936737729401	-0.3527001488311324	-0.113628747583866	-0.3037106552601356	1.00283448975276	1.241410661677034	0.2895183108197615	0.7035561528022686	-2.514773098332722	1.727096769558883
1.116031259413831	-0.103596397605215	1.064731197321024	0.9494273552375755	0.6717663369856965	0.3760988663054425	-0.09598719046511445	-0.3718409257463839	0.005223375569350514	0.1773893256671764	0.2272082113688299	-0.1370495674126513	-0.1998909256601555	-0.2069331666815656	0.4808966891057407	-0.2644534529951514	0.1478731231313277	-0.1938119982259752	0.2379987008535774	0.1558858321048103	-0.2290367414425789	-0.3532758851808105	-0.2766034265072119	1.175966353615483	1.429831099050213	0.488255398141568	0.8991817178615756	-3.047334508035524	1.780194209709601
1.12	-0.1046276888637561	1.065346547010822	0.9486541086949024	0.6725997606275896	0.3770084237104187	-0.09685714909607016	-0.3733318314563566	0.004104098110457644	0.1821317867711358	0.2330178343730543	-0.1350108162880245	-0.1962559918011245	-0.2191743444341542	0.4879668524689301	-0.2566757535211405	0.1630430255053491	-0.1972979905193139	0.1933791452090436	0.3359806930271813	0.01077141111994212	-0.3082612814718317	-0.2841964606870354	1.246060040012992	1.703576092375442	0.4230263581824156	0.9378715381223476	-3.123826989404476	1.797051876094568
