DataType=double
version=3
OpenSimVersion=4.5
endheader
time	pelvis_tilt	pelvis_list	pelvis_rotation	pelvis_tx	pelvis_ty	pelvis_tz	hip_flexion_r	hip_adduction_r	hip_rotation_r	knee_angle_r	knee_adduction_r	knee_angle_r_beta	ankle_angle_r	subtalar_angle_r	mtp_angle_r	hip_flexion_l	hip_adduction_l	hip_rotation_l	knee_angle_l	knee_adduction_l	knee_angle_l_beta	ankle_angle_l	subtalar_angle_l	mtp_angle_l	lumbar_extension	lumbar_bending	lumbar_rotation	arm_flex_r	arm_add_r	arm_rot_r	elbow_flex_r	pro_sup_r	wrist_flex_r	wrist_dev_r	arm_flex_l	arm_add_l	arm_rot_l	elbow_flex_l	pro_sup_l	wrist_flex_l	wrist_dev_l
0	-0.08750806758203393	0.06889816034589062	0.02848082316852593	1.057368434410948	0.9447094814064946	0.4329063907334258	0.6241022705844882	-0.2393231426237938	0.1318800125447317	0.3543476738961415	0.03879643001440361	0.3484251164524866	-0.05556951259095902	-0.3689969288722589	-0.0423722899271171	-0.04669100597792031	0.05854572980295385	-0.09286432548207807	0.1901128179562134	0.09396746454545898	0.1563783269951611	0.2760323611668632	-0.07603083470257627	-0.03539987579571073	-0.1897024786424504	-0.01671153675623751	0.06247601866307929	-0.2003423313571916	-0.1661225742003514	-0.4759779960058643	0.2351362584450197	1.570796326969429	0	0	0.4952392306633611	-0.3314988015297101	-0.0451534638809673	1.407580708390527	1.570796326969429	0	0
0.009512856113114032	-0.09077868464179319	0.06724594103249494	0.0308743173490704	1.059253385790643	0.9425806771407165	0.4347447877741678	0.6243047840286504	-0.2349448064256405	0.1201840111199794	0.3560987663178823	0.03879643001440362	0.3352255525811831	-0.05537148625333921	-0.3727120245770575	-0.04634331927269815	-0.05094761121430275	0.05335017971750673	-0.09335557583439309	0.1976603043590665	0.093967464545459	0.1608688073584538	0.2863584192438211	-0.07056951087369795	-0.03746291171731608	-0.1828059291110499	-0.01801004894179473	0.05792216554847969	-0.2211648449785942	-0.1665055387112713	-0.4705375401984395	0.2440561544647474	1.570796326969429	0	0	0.5147926105985305	-0.3294850617022925	-0.04875499314366957	1.438542162346714	1.570796326969429	0	0
0.02645588447305514	-0.09587949461592746	0.06303899498704048	0.03594047599724358	1.063360988334653	0.938820852942196	0.4382782144470613	0.6226649901457688	-0.2249582664171645	0.1013965925365635	0.3688080062283037	0.03879643001440363	0.3279258688304888	-0.05423780397108188	-0.3811453465497615	-0.05238566893293951	-0.05756476553881046	0.04200547248006194	-0.09379269462219582	0.2156061931868573	0.09396746454545901	0.1763614874309315	0.302791243774683	-0.06299288513363785	-0.04213271197690689	-0.1695843144362484	-0.01887813344659088	0.04943155400420303	-0.2619173108823455	-0.167061261253613	-0.4540615399716005	0.2603975748384151	1.570796326969429	0	0	0.5432444931718032	-0.3250112002260271	-0.05549114376304767	1.489661121145935	1.570796326969429	0	0
0.04083125941383081	-0.09879676649625746	0.05841729265030268	0.04102790440266203	1.067568908278784	0.9357830799560075	0.4414398653601775	0.6181719207749728	-0.2148719929170548	0.0933453153945998	0.3864041849706957	0.03879643001440364	0.3361017332090347	-0.05879043511011764	-0.3871087856349266	-0.05646273905475753	-0.06264446562346682	0.03079424468601933	-0.09218123100547453	0.2357420856705021	0.09396746454545907	0.1983482882394517	0.3149216624413012	-0.06068420540424618	-0.04696804833355159	-0.1584642584343876	-0.01793785162896261	0.04176331494949613	-0.2988346569865923	-0.1674013359134776	-0.4355681879814428	0.2700941136221369	1.570796326969431	0	0	0.5582998733849862	-0.3201640828286477	-0.06173671470477896	1.528248109056023	1.570796326969431	0	0
0.04479999999999995	-0.09932412735276032	0.05701790171528005	0.04254272496623161	1.068809418858938	0.9349804361405444	0.4423334235925125	0.6162750601452234	-0.2119357587059998	0.09349403079982528	0.3916222486428313	0.03879643001440364	0.340315317507241	-0.06160247146425654	-0.3879194410550481	-0.05744236013205153	-0.06387016775483423	0.02753203502280887	-0.09139523594532759	0.2422090990630058	0.09396746454545907	0.2060214459245196	0.3176723584194922	-0.06120508838014929	-0.04801575938399612	-0.1555572415609394	-0.01745911731552091	0.03956762685844822	-0.3084657303901568	-0.1674966614994454	-0.4306918010792005	0.27171220122965	1.570796326969431	0	0	0.561454766113469	-0.3187046319145781	-0.06340130923740013	1.538653724282568	1.570796326969431	0	0
0.05431285611311398	-0.1004421558930312	0.05335342401345975	0.04637350912156657	1.071898890844326	0.9330941785207775	0.4445308944375571	0.6105231809590077	-0.2046726948775799	0.09556780100458764	0.4028232095844549	0.03879643001440364	0.3532275253425999	-0.06418114380629172	-0.3911656826174962	-0.06066245682305706	-0.06603988794038534	0.01929094380562326	-0.08884390817211595	0.2595080279230706	0.09396746454545908	0.2274597179529608	0.3236982480397613	-0.06387152314181821	-0.05090698023569232	-0.1485642439169226	-0.01595383384683135	0.03417737656873676	-0.3308245868593717	-0.1677511271310516	-0.4187882134258065	0.2751856152602382	1.570796326969431	0	0	0.5679052276869229	-0.3150099051357154	-0.06727259909922316	1.563229867025054	1.570796326969431	0	0
0.07125588447305514	-0.1016693372616177	0.04564281141619385	0.0516890829503515	1.077337923021932	0.9302152844530445	0.448832795842981	0.5985998473248392	-0.1894172965340283	0.1007139578136195	0.422224306283246	0.03879643001440362	0.3833153567823612	-0.05379446002121988	-0.4085090717127555	-0.06932545969442583	-0.06566718471508931	0.003266136961226157	-0.08352292297832485	0.2991797880041539	0.093967464545459	0.2769414838037667	0.3311066747744676	-0.07632739889342247	-0.06029835259098397	-0.1372731901479604	-0.01194509442016221	0.0239742387326032	-0.354226167461771	-0.1678732695300386	-0.4000542901069851	0.2776071040609037	1.570796326969429	0	0	0.5718889389053914	-0.3074575841116559	-0.07459208221635961	1.602402962726247	1.570796326969429	0	0
0.08563125941383082	-0.1025091459710381	0.0372844183539703	0.05349005296246016	1.081405499032569	0.9285311732172261	0.452992017696015	0.5913059051722021	-0.1728946015996951	0.1036852486613625	0.4435438805559814	0.03879643001440365	0.412026053934314	-0.03346593276014323	-0.4296942620795949	-0.07526433228505505	-0.05851898845949233	-0.0124791284152824	-0.08022544912361081	0.3445125949022305	0.09396746454545904	0.330806436310489	0.332420281837265	-0.09412360214190835	-0.07409294311265649	-0.1291495688708725	-0.006718681416625875	0.01489311862012086	-0.3508657843413187	-0.1673444852287478	-0.3879530177557243	0.2757068657472811	1.570796326969429	0	0	0.5672148174565718	-0.3001102567674594	-0.08155477059745732	1.629275721025686	1.570796326969429	0	0
0.08960000000000001	-0.1028955428691242	0.03460889648740361	0.05363636747225018	1.082398235442073	0.9282012883997453	0.4542173473849058	0.5902456762307651	-0.1677355172271671	0.1046846261187168	0.4504326326673723	0.03879643001440364	0.4199149394272089	-0.02623005046404045	-0.4336702163592084	-0.07555515633112399	-0.05502811737708629	-0.01733103935056062	-0.0798888973024643	0.3592167789236277	0.09396746454545905	0.3476083824678752	0.331729395751068	-0.09956845490837504	-0.07838089341491884	-0.1269870446767843	-0.004954203294121903	0.01241332613625202	-0.3468451690939919	-0.1671138028179417	-0.3851887576999745	0.2749789799393383	1.570796326969429	0	0	0.565307388558417	-0.2980216231737601	-0.08347901835759133	1.636036119659544	1.570796326969429	0	0
0.0991128561131141	-0.1037625974874586	0.02792801084241734	0.05389127238295647	1.08472412009682	0.9276389528974217	0.4572047528111055	0.5877606008911413	-0.15485244574723	0.1070079725636376	0.4673440725691896	0.03879643001440361	0.4380457699112436	-0.006622496946556242	-0.4449183385138161	-0.07757559042923719	-0.04488709398660407	-0.02936172177805018	-0.07890681196411116	0.3973643880795569	0.09396746454545901	0.3911827230090197	0.3275812781371089	-0.1147313112219953	-0.0882596348129184	-0.1219190449916806	-0.0004731855366027914	0.006681445783113965	-0.3362364186836208	-0.1665399569405995	-0.3789842793037206	0.2716059779802792	1.570796326969429	0	0	0.5586824289363155	-0.2929561348341594	-0.08822471522987944	1.651326779326539	1.570796326969429	0	0
0.1160558844730551	-0.1054456349685454	0.01502971707798242	0.05402394162666909	1.08872465409777	0.9274034799623937	0.4626115146844468	0.5803030304187914	-0.1306253808719285	0.1110221882312611	0.4904903409092442	0.03879643001440364	0.4653720532456865	0.02393672995160774	-0.4658638713439753	-0.08130783426589248	-0.02023270449411746	-0.05215422520796055	-0.07661346127563427	0.4752977438543677	0.09396746454545904	0.4794281241452033	0.3103723654312872	-0.1486429434289131	-0.1043224656255186	-0.1125277179830625	0.008513291163959024	-0.002348534894366105	-0.3120749523924842	-0.1657781813438205	-0.3720554573458141	0.2603525584842871	1.570796326969429	0	0	0.5407624138750636	-0.2834881777401652	-0.09729611888666556	1.674810169678147	1.570796326969429	0	0
0.1304312594138309	-0.1065998480996368	0.003401954260193982	0.05428522852784352	1.092091616416348	0.927883955606885	0.4670826721269354	0.5671954379180764	-0.1100635566366988	0.1132573483662467	0.4968113731624539	0.03879643001440365	0.4814445210910063	0.03860386236727285	-0.4831250133841299	-0.085465354340535	0.00619284379544488	-0.0722015360420714	-0.07289629066705228	0.5499356768083167	0.09396746454545908	0.5630340137569343	0.2862609476392531	-0.1839139088197479	-0.113236442388175	-0.1043795222689375	0.01718580982501253	-0.008357172213889725	-0.2893590896811383	-0.1657199328965037	-0.3701562930641836	0.2472051431359213	1.57079632696943	0	0	0.5197225778986363	-0.2749728906337555	-0.1053594998251813	1.689598249507785	1.57079632696943	0	0
0.1344	-0.1068047893072642	0.0001379918966408823	0.05449262380348779	1.093009758496384	0.9281049074187236	0.4682707291550592	0.56239577091502	-0.1046017893532404	0.1134803993635977	0.4964832689016867	0.03879643001440364	0.4845776293842118	0.04093408468347352	-0.4875858841489538	-0.08678180787286324	0.01422742337946412	-0.077790847354741	-0.07163945561874215	0.5717118797930179	0.09396746454545907	0.5871566515903595	0.2784999727129867	-0.1943881745758328	-0.114205054223462	-0.1022308083252684	0.01973582353851729	-0.009729296359397772	-0.283506216949047	-0.165824669256964	-0.3697266506888706	0.2438816541663217	1.57079632696943	0	0	0.5132693250891784	-0.2725953095373981	-0.1074610145415218	1.692763089072836	1.57079632696943	0	0
0.1439128561131141	-0.1073204801869509	-0.00799793797481432	0.05498518587273262	1.095072932823926	0.9287595266011401	0.4710504530046584	0.5502800889300459	-0.09138915474819884	0.1138319840987654	0.4941008003813783	0.03879643001440363	0.4897769576532439	0.04711867664174978	-0.4975085259092912	-0.09051348404645398	0.0350579881229808	-0.09132453353353619	-0.06787125036257362	0.6255495979606971	0.09396746454545904	0.6461754949386569	0.2577681978078911	-0.2218131855047565	-0.1141692305456654	-0.09722775951331122	0.02639344091950175	-0.01267210963140939	-0.2682893341186084	-0.1660840789274762	-0.3682825730829408	0.236532751483608	1.570796326969429	0	0	0.4966625185169842	-0.2668656183985318	-0.1124392030811824	1.698743239591263	1.570796326969429	0	0
0.1608558844730551	-0.1074477327781997	-0.02353848097890604	0.05644475767299655	1.098195330907488	0.9302999430260617	0.4756385387921551	0.5260436690934081	-0.06765768422313374	0.11389118602438	0.4850039403364045	0.03879643001440364	0.4915658001752485	0.05840178656754733	-0.5134946189819511	-0.1014797777002123	0.07750765031031159	-0.1157094678816964	-0.05678832914114054	0.7289384895670329	0.09396746454545908	0.7527490485008803	0.2133466216684952	-0.2768042684893625	-0.09831745608743594	-0.09006997092825136	0.04034379377645768	-0.01646092828306648	-0.2407248333961387	-0.1673858200522658	-0.3631536134738063	0.2304313822922992	1.570796326969429	0	0	0.4641869076192915	-0.2561344757405427	-0.120067482786302	1.6986065880679	1.570796326969429	0	0
0.1752312594138309	-0.1063119682949613	-0.0373534809740475	0.05805622456972535	1.10019995329702	0.9318584330772746	0.479159440537502	0.5031843958411779	-0.04755018189555414	0.113790038746617	0.4734801933364795	0.03879643001440366	0.4870073248711306	0.06597912373765895	-0.5257165008219801	-0.1145279784753007	0.1166445562769464	-0.1366737979928695	-0.04476183947264588	0.819982838995952	0.093967464545459	0.8407928562247764	0.192125456569126	-0.3185361508187523	-0.07988628792870495	-0.08649552168642438	0.05371558597437767	-0.01836114229286857	-0.2163890857585684	-0.1698590848684203	-0.3559755490711741	0.2365571096698905	1.570796326969428	0	0	0.4343458627944301	-0.2461965423899831	-0.1243663081788167	1.68434947879307	1.570796326969428	0	0
0.1792	-0.1058631834992778	-0.04108033054809657	0.05848469063138476	1.100673043410175	0.9322971275216854	0.4800825028344045	0.4966335785401852	-0.0421754128198116	0.1137761730679902	0.4697805718778737	0.03879643001440365	0.485015409086006	0.06756414579840934	-0.5288534720502517	-0.1180305450244969	0.1268919604950842	-0.1424812563941242	-0.04226284012092221	0.8431400741448634	0.093967464545459	0.8641866533942429	0.1958602367948627	-0.3261277516624651	-0.07820549706855894	-0.08576899790510244	0.05736722397975719	-0.01881763041895974	-0.2091711905449446	-0.1707737521239652	-0.3536638202613684	0.2404237398032135	1.570796326969428	0	0	0.4260051816875852	-0.2433162737660568	-0.1250495654196414	1.678484855620018	1.570796326969428	0	0
0.1887128561131141	-0.104781835885714	-0.04995993611438736	0.05980153073066015	1.101657332091203	0.9333595231534825	0.4821795395070151	0.4809937071450127	-0.02967994090435901	0.1134486475603823	0.4606606958046633	0.03879643001440364	0.4793092799431573	0.07115390537080607	-0.535623026245266	-0.1266532193085241	0.1513121942935834	-0.1564260903497522	-0.03651374607916795	0.8954587442993525	0.093967464545459	0.9179741706970707	0.1940226130262331	-0.342676754312475	-0.06532539877292555	-0.08431677468267121	0.06620495811534324	-0.01975518706196384	-0.1922622864469932	-0.1732144185140334	-0.3474898807314604	0.2513132851836141	1.570796326969428	0	0	0.4056356843661349	-0.2362675152834803	-0.1261215386341593	1.662160540586133	1.570796326969428	0	0
0.2056558844730552	-0.1023800715154796	-0.06413851414793939	0.06316722830572806	1.102821692255384	0.93537799956553	0.485455812239363	0.4530213099377651	-0.01024682202820521	0.1121003047614132	0.443706971076981	0.03879643001440364	0.4671223122749248	0.076204856420353	-0.5451855376953935	-0.1414093322261594	0.1933406194133	-0.1788398461888509	-0.0267456452296453	0.970807969282051	0.09396746454545903	1.003582163257851	0.1774099561933939	-0.3566489440979997	-0.02268732623636016	-0.08345378604441892	0.08062146053086193	-0.02121905822105303	-0.162564852278565	-0.1794809685970664	-0.334552252970278	0.2823987847996998	1.570796326969429	0	0	0.3705780204856606	-0.2226476405214528	-0.1250067026084507	1.620976643898588	1.570796326969429	0	0
0.2200312594138309	-0.09975294216964381	-0.0736757939831314	0.06731198212440759	1.103146719396942	0.9372282300858812	0.4877323385979221	0.4295147416107645	0.002486790022564399	0.1100332857094278	0.4293991741833786	0.0387964300144036	0.4560561479351947	0.07803820324715059	-0.5514178824640118	-0.1513237820005168	0.2286546406207543	-0.193534558442721	-0.01786757944658076	1.019052401405408	0.09396746454545905	1.063668698373304	0.1635558664839603	-0.3632090928401164	0.02305695701453436	-0.08492076960016466	0.09058257427197557	-0.02229132900974838	-0.1383764065106729	-0.1868965627479031	-0.3222999494921946	0.3196589151839547	1.570796326969429	0	0	0.3425136287629022	-0.2100540612044476	-0.1211471180903397	1.572542231008635	1.570796326969429	0	0
0.224	-0.09901796785901296	-0.07592579763906396	0.06864588466041459	1.103136585742848	0.9377483488083538	0.4882904894985735	0.4231950281592962	0.005461182776298639	0.1093451493970381	0.4255827757029133	0.0387964300144036	0.4530077597625575	0.07826097952805153	-0.5529499243261827	-0.1532290862291437	0.2385290129759905	-0.196906293838409	-0.01556103926892402	1.030391702829468	0.09396746454545905	1.078003530531132	0.1619318118203604	-0.3662144647346514	0.03408963309572941	-0.08557366870654291	0.09296443384850001	-0.0225436262229687	-0.1318088098122613	-0.189119180695123	-0.318837343119419	0.3305925410020202	1.570796326969429	0	0	0.3348295046803716	-0.2065320624417468	-0.1198083174625155	1.557739438403309	1.570796326969429	0	0
0.2335128561131141	-0.09721349281533168	-0.08099277907905952	0.07211935651565271	1.102961574514759	0.9390177457883123	0.4895135582853044	0.4083107173958369	0.01207190253517273	0.1075863590446131	0.4166525623541819	0.0387964300144036	0.4458022787441964	0.07875780549690026	-0.5563825671294167	-0.1573370985882089	0.2621023578917123	-0.204309931897092	-0.01027498234180616	1.053245105437708	0.09396746454545904	1.108215278784868	0.1595628886963443	-0.3719642172677431	0.06115607445887156	-0.0875687811664637	0.0984645415967655	-0.02308024868278967	-0.1160387524511574	-0.1946987893039114	-0.3100974933052718	0.3580037939329103	1.570796326969429	0	0	0.3163154278218942	-0.1979953935534021	-0.1161069465268565	1.520017368629414	1.570796326969429	0	0
0.2504558844730551	-0.09352958114883091	-0.08723940719621399	0.07986777632690541	1.10207052576033	0.9413474255022415	0.4912397803596171	0.3822719017580608	0.02013397590445695	0.1037708558954901	0.401744802403909	0.03879643001440363	0.4333847925262554	0.07947087174980848	-0.5613817978317214	-0.1608985259612499	0.3038818535280734	-0.2126166648365529	-0.001739830475220894	1.080885018568425	0.09396746454545903	1.147292291014472	0.1637469376307624	-0.3864641252492403	0.09656447215815975	-0.09317413563751664	0.1055221871727817	-0.02432943094624474	-0.08805446942512818	-0.2059540614211555	-0.2950920971136854	0.4097309007911329	1.570796326969429	0	0	0.2855224714973339	-0.1823091140421003	-0.1077615432479941	1.443213662372283	1.570796326969429	0	0
0.2648312594138309	-0.08985566540552828	-0.08941616037485869	0.08809032933313359	1.100772199165629	0.9433784932813762	0.4923017188284102	0.3602994518821024	0.0230866080021301	0.1000198211848929	0.3897218995858457	0.03879643001440362	0.4230557844559663	0.07917107770358238	-0.5653800766227929	-0.1596698103185663	0.3386945009467783	-0.2146014520777055	0.004282118036976186	1.091584594845882	0.09396746454545897	1.165782531971648	0.1703476927162563	-0.399035440887194	0.1104724667461357	-0.1000696969526125	0.1081834414098293	-0.02594123200624875	-0.06438330854377713	-0.2168409481369362	-0.2845885969885447	0.4552405152374319	1.570796326969428	0	0	0.262586107542287	-0.1685909628042288	-0.09918595201662829	1.368360677014091	1.570796326969428	0	0
0.2688	-0.08883592632014028	-0.08976745649312595	0.09051615066708399	1.100351448841294	0.943939996454068	0.492557400498683	0.3542613969245328	0.0236301673504209	0.09901573331226911	0.3863303785754837	0.03879643001440362	0.4201772814753991	0.07902556675952141	-0.5667276765941909	-0.1587971791182652	0.3481341581461562	-0.2148204456822947	0.005477717124483019	1.092385891122216	0.09396746454545897	1.168576321574191	0.1711050684812583	-0.4009107644974759	0.1127157865518726	-0.1021461703121687	0.1086347039728189	-0.02643904693979805	-0.0577757232691429	-0.2199213554126942	-0.2820572961362008	0.4676755690459699	1.570796326969428	0	0	0.2565508184404971	-0.1648260177671868	-0.09670656950611384	1.34687429846205	1.570796326969428	0	0
0.2783128561131141	-0.08636812533243221	-0.09027767853058023	0.09654971601998637	1.099238429682196	0.9452698603278749	0.4930978595138952	0.3398755589353095	0.02452094312602406	0.09654282158351508	0.3782908197756903	0.03879643001440364	0.4131188954103552	0.07884460241382192	-0.5696247753113106	-0.1560786905163652	0.3703812044625056	-0.2147569121350058	0.007747581274642653	1.090839962841593	0.09396746454545903	1.171311945166582	0.175319669441118	-0.4038102922712218	0.1163582343262941	-0.1074557639421404	0.1093834628143864	-0.02770512198655392	-0.04163982107999101	-0.2274456828991742	-0.2760653733936351	0.4978304001309167	1.570796326969429	0	0	0.2424286574006734	-0.1557951892402706	-0.09043674616292965	1.293864125244162	1.570796326969429	0	0
0.2952558844730552	-0.08170826307447486	-0.08973941159677196	0.1080933682995161	1.096939539596159	0.9476030983433212	0.4938569306123198	0.3138101757073908	0.02443565242413415	0.09184948155889616	0.3633971658945508	0.03879643001440364	0.3995195937683619	0.07892545939971139	-0.5741303575722706	-0.1488818162755044	0.4074415482777561	-0.212548447991863	0.009147667517408356	1.074773311943231	0.09396746454545901	1.16273899049728	0.1843090172744546	-0.4044426624434532	0.1137918127116643	-0.118144800081936	0.1090598832202947	-0.03040108418953763	-0.01167358354191675	-0.241204250351496	-0.2678476236338944	0.5518040011231283	1.570796326969429	0	0	0.2203836430604346	-0.1399869913794769	-0.07903385661558875	1.19394059807	1.570796326969429	0	0
0.3096312594138309	-0.07758464539697955	-0.08806549685866304	0.1184081432301546	1.094745556565281	0.9495232550677912	0.4943619589512879	0.2910285155225035	0.02305371178843009	0.08764360122079619	0.3496064789553473	0.03879643001440364	0.3863096194200765	0.07907560220238335	-0.5773903476299557	-0.1409516984678385	0.4356079370930908	-0.2089934880049483	0.008000593419826547	1.047770698311289	0.09396746454545905	1.142369676288503	0.1910382575161309	-0.3989623189781869	0.1052725734926263	-0.1281971443437916	0.1072450938027967	-0.0330153088466217	0.01475155871910036	-0.2530029746487867	-0.2643324300854397	0.5981476328964581	1.57079632696943	0	0	0.2050030356614594	-0.1271525656410371	-0.06982674076996413	1.104010048775376	1.57079632696943	0	0
0.3136000000000001	-0.07651278310009563	-0.08763348181017057	0.1212231320770235	1.094119011404669	0.9500342173609857	0.4944946339171973	0.2846915971988105	0.02273830609526645	0.08651937274284643	0.3455144857928534	0.03879643001440363	0.3823091029723429	0.07925247523311053	-0.5781754747110135	-0.13867019553581	0.4428682777992584	-0.208067076971109	0.007341350696340026	1.038222553103735	0.09396746454545905	1.134663178843068	0.1919433796649596	-0.396004656656757	0.1034287069222189	-0.1309646236115391	0.1067391003738997	-0.03371208097850881	0.0221714475111599	-0.2561968410812964	-0.2637031524377607	0.6111756778258459	1.57079632696943	0	0	0.2009684543885677	-0.1237488580228251	-0.06739879643923061	1.078853859761157	1.57079632696943	0	0
0.3231128561131141	-0.07400686287188005	-0.08660882420443597	0.1279329462180337	1.092575528751936	0.9512154555852002	0.4947840021127033	0.2694471930275179	0.02198950048952678	0.08377037429821596	0.3354530994329631	0.0387964300144036	0.3719993034195553	0.08003912249062892	-0.5795033384843044	-0.1328351833676229	0.4592516847288491	-0.2056929541232548	0.005413647603045055	1.011801184812139	0.09396746454545903	1.112542646389564	0.1949393337981439	-0.3872229630087749	0.09863466412425718	-0.1376452464018742	0.1055036142003328	-0.03537982991856103	0.04042429594956459	-0.2638022739488757	-0.2623368170852173	0.6430750983772097	1.57079632696943	0	0	0.1918203437100111	-0.115744637856984	-0.06157215285948771	1.017967794946835	1.57079632696943	0	0
0.3400558844730551	-0.06992881125446071	-0.08513037312597509	0.1391228661334769	1.089752870835478	0.9531678422557889	0.4952524518717216	0.2418109242796608	0.02105613629659675	0.07883726920081581	0.3156428663625596	0.03879643001440361	0.3508486545037596	0.08187466150118625	-0.5796828577132571	-0.122335756960035	0.4842754317795609	-0.2013287320293008	0.0009240583167309764	0.9519269996184774	0.09396746454545901	1.060437309502603	0.1993699411771293	-0.3691307118148819	0.09064767465854442	-0.1494772491043508	0.1035943070630016	-0.03779286498685366	0.07378812314624747	-0.2765950203192459	-0.2616963785248443	0.703340839248615	1.570796326969429	0	0	0.1764589482136402	-0.1028473375604196	-0.05287888304252053	0.9077512060776664	1.570796326969429	0	0
0.3544312594138309	-0.0670414603536072	-0.08433205680579442	0.1474415026558529	1.08734589444677	0.9546459292350663	0.4956198663823411	0.2179970351536828	0.02073586023473456	0.07470687208557381	0.296812687891554	0.03879643001440364	0.3299271837989142	0.08380533000303439	-0.5770674230637777	-0.114352769802133	0.5011993944545552	-0.1973724602310362	-0.002856691555581679	0.888825474312799	0.09396746454545904	1.003629078277924	0.1995138749315125	-0.3518973964591895	0.08543561420896971	-0.1592071261065978	0.1023606426217825	-0.03888529117360074	0.102193137506302	-0.286357341911172	-0.2632816806884322	0.7584966952477605	1.570796326969429	0	0	0.1630108939602186	-0.09371361270456317	-0.04802337205702441	0.8133968711539793	1.570796326969429	0	0
0.3584000000000001	-0.06638656942172613	-0.08424628963188134	0.1495324391833606	1.086686682982757	0.9550183435444032	0.4957136373764899	0.2114369322800493	0.0207731501418746	0.07358267522074649	0.2913573773878654	0.03879643001440364	0.3236760643051147	0.08458568047153067	-0.5757778858278408	-0.1123911720565399	0.5052339706174136	-0.1962680589805251	-0.003665380224247252	0.8695801065368465	0.09396746454545904	0.9859666055758771	0.1982210069810902	-0.3465587645324231	0.08460663046422599	-0.1617670262250549	0.102145636511058	-0.03901591600036283	0.110047835374578	-0.2888752133120089	-0.2637772500371375	0.7743148533450234	1.570796326969429	0	0	0.1589907532113816	-0.09144934628240857	-0.04696988402352245	0.7875966680244844	1.570796326969429	0	0
0.3679128561131141	-0.06498397101796229	-0.08425821328500198	0.1542336276213823	1.085102301062156	0.955843700175089	0.4959118025078043	0.1956957240030814	0.02106384378169337	0.07097380218362662	0.2778747937722923	0.03879643001440364	0.3079120413827463	0.0869061345021758	-0.5719437559804667	-0.1078829721207206	0.5137344493203806	-0.1934952022275089	-0.00495531370073933	0.8205345326971174	0.09396746454545905	0.9403100741581609	0.1950337659116525	-0.3324190732178967	0.08280851743048245	-0.167785178633645	0.1018638794047331	-0.03912069519048268	0.1293157790389211	-0.2946797673607296	-0.2647276840560708	0.813257126619109	1.570796326969429	0	0	0.1491750275706287	-0.08636192168785219	-0.04475635193276354	0.725929180972826	1.570796326969429	0	0
0.3848558844730551	-0.06325164566488686	-0.08506691910263546	0.1609347087958128	1.082375833968682	0.9570463577105772	0.496222464839902	0.1677387992550486	0.02238023585706494	0.06709995902871567	0.2524282566292366	0.03879643001440364	0.2775176601602136	0.09170985864997361	-0.5625754378644364	-0.1033447667669621	0.5248201381495579	-0.1885406289983462	-0.004850352177915398	0.7243665451131254	0.09396746454545903	0.8484775010881742	0.1857762278905447	-0.3055529698335372	0.07871421355158616	-0.1778067729683749	0.1020881774195847	-0.03801174879473134	0.1637755277606557	-0.3036024938688567	-0.2666621098725546	0.886487911195835	1.570796326969429	0	0	0.1285280859428697	-0.07931800396047362	-0.04336261920096656	0.6200215274709394	1.570796326969429	0	0
0.3992312594138309	-0.06261620545062163	-0.08633154199662543	0.1648090932143319	1.080240508600816	0.957758875423814	0.4964475544535273	0.1443283352523402	0.02408185508753133	0.06490038744427572	0.2298869146959091	0.03879643001440364	0.2502072575514787	0.09613523807220045	-0.5524228943286179	-0.1043635617089845	0.5305772787080034	-0.1844571623920137	-0.001688953644464805	0.6369351680531196	0.09396746454545905	0.7622120925649867	0.1723877439865713	-0.2806515678202929	0.07315860720255991	-0.1853588562303537	0.1026569122351264	-0.03566211171826458	0.1925989661809926	-0.309556128611971	-0.2688929934393381	0.9517964049968348	1.570796326969429	0	0	0.1067513709254861	-0.07560229699239077	-0.04499873955274319	0.5369164006973386	1.570796326969429	0	0
0.4032	-0.06257097081678313	-0.08675014075970999	0.1656641445030627	1.079685022314134	0.9579015143613453	0.4964916446414659	0.1379437311773607	0.0246002099184747	0.06443733664117274	0.2236238576285022	0.03879643001440363	0.2425657756580658	0.09748797321596268	-0.5493264813340728	-0.1052271485938689	0.531656789631743	-0.1833467201342996	-0.0001834287816720526	0.612369008136071	0.09396746454545905	0.737464653864881	0.1672519542370168	-0.2731670874904861	0.0714350994507551	-0.1872384822715458	0.1028539540595795	-0.03486900471854591	0.2006850788551416	-0.3110102642559057	-0.2693637001558706	0.9700887575085895	1.570796326969429	0	0	0.1002792186490764	-0.07482367772824924	-0.04563587972434178	0.5152766317284244	1.570796326969429	0	0
0.4127128561131141	-0.06261495849944915	-0.0878832821664895	0.1673536965646847	1.078401133410408	0.9581469420794581	0.4965559716504384	0.1227864418453203	0.02597135466840217	0.0637262674767555	0.2086162307454534	0.03879643001440362	0.2243070517100584	0.1009057859888799	-0.5418331566061135	-0.1079772501541844	0.5335620865276542	-0.1807943655777121	0.004359214596007324	0.553767761067292	0.09396746454545907	0.6772355510101513	0.1541255824550338	-0.2543447953851776	0.06697921331246463	-0.1914586199374216	0.1034753519474293	-0.03277548489578085	0.2206132983267576	-0.3142298543155287	-0.2700975169821526	1.014704977609925	1.570796326969429	0	0	0.08441322273311444	-0.07332119419234795	-0.04741397915917316	0.465063571256126	1.570796326969429	0	0
0.4296558844730551	-0.06333560223836227	-0.09009110317280661	0.1689496504980663	1.076414054624556	0.9582307906392026	0.4965349599545824	0.09655668748186261	0.02858350877738653	0.06417461290965987	0.1825430693521768	0.03879643001440364	0.1929725391427549	0.1073589169528106	-0.5286291273671209	-0.1172188921106035	0.5351066209243092	-0.1768752496197308	0.01437104109369863	0.4537719559911892	0.09396746454545901	0.5700195389028213	0.1288714394569319	-0.2191557952057634	0.05526113770721228	-0.1975421523286841	0.1046843074419853	-0.02824231084903895	0.2570090436376259	-0.3186895808762136	-0.2708754154802042	1.094929817442927	1.57079632696943	0	0	0.05231701126593094	-0.07232980173173191	-0.05180082434379964	0.3873027732749956	1.57079632696943	0	0
0.4440312594138309	-0.06453040489893608	-0.09189648311436795	0.1690674722424373	1.075111279125734	0.9579601727719297	0.4963398421530407	0.07525078558070705	0.03064799822735018	0.0661570450194135	0.1618253393902799	0.03879643001440364	0.1689269967082804	0.1128446701664378	-0.5179457758600402	-0.1287608186647021	0.5355474401071927	-0.1741379236092312	0.02258373080266558	0.378131254169992	0.09396746454545905	0.4838277634280163	0.1074286421396211	-0.1893448840235367	0.04181570262732356	-0.2010654942417882	0.1055954336286925	-0.02370417196260636	0.2879354587324624	-0.3211739152829715	-0.271618974734443	1.162141138772434	1.57079632696943	0	0	0.02021636935796066	-0.07315866655985932	-0.05632526121017239	0.3357553976400566	1.57079632696943	0	0
0.448	-0.06491256443398133	-0.09236999652898849	0.1690022896118173	1.074812800350447	0.9578367182960377	0.4962382718886623	0.06952449956014248	0.03114876144532546	0.06681369951278884	0.1564580746119522	0.03879643001440364	0.162880112389575	0.1144214510955194	-0.5150567984043896	-0.1319209234610572	0.5356576251638032	-0.1734207445243136	0.02440419556912775	0.3594162690188356	0.09396746454545905	0.46147412280912	0.101515967278114	-0.1814141591963032	0.03819864961735587	-0.2017788240307743	0.1058735601149689	-0.02242243767005169	0.29657290832128	-0.3217377595700582	-0.2717336676719054	1.180479245926911	1.57079632696943	0	0	0.01095926458893462	-0.07353031199384746	-0.05743631681535953	0.3234304975488467	1.57079632696943	0	0
0.457512856113114	-0.06595333230429981	-0.09343759068421198	0.1686118227215121	1.0741814966909	0.9574560200525922	0.495924575251782	0.05626352793458542	0.03225381021008846	0.0687748095002093	0.1444079877991096	0.03879643001440361	0.1496515960188402	0.1183645007768702	-0.5086578508742609	-0.1396927784223571	0.5361967180559639	-0.1717339805163834	0.02772679365999095	0.3190262687621579	0.09396746454545904	0.4113097752077461	0.08756653875529614	-0.1626174577873353	0.02947054476599403	-0.2030300663574778	0.1065466121796154	-0.0192895629170845	0.3177915316032886	-0.3228897371114733	-0.2717337028717652	1.224601053772945	1.570796326969429	0	0	-0.01149142713873468	-0.07468197754133897	-0.05995126722085924	0.2965571526783345	1.570796326969429	0	0
0.4744558844730551	-0.06836138115067984	-0.09488566827165716	0.1672369828025418	1.073432080344608	0.9564992939290415	0.4950597966072914	0.03455405382731713	0.0335247370416854	0.07319996427696117	0.1264014905576661	0.03879643001440362	0.1311917636176944	0.125692247006951	-0.4990533341874729	-0.1521949556938552	0.5382394125910028	-0.1682238274359835	0.02653119265661193	0.2643747459253464	0.09396746454545903	0.3367150710806208	0.0703064419891189	-0.1322975099381539	0.01434543123478968	-0.2033287093689941	0.1076200611102913	-0.01358946527328587	0.3563676527711899	-0.3241041296695929	-0.2712983527343978	1.30062814071679	1.570796326969429	0	0	-0.05411949405611935	-0.07773984568459164	-0.06320058974070251	0.2627255253970222	1.570796326969429	0	0
0.4888312594138309	-0.07091153528043723	-0.09554643433590025	0.1655447130925657	1.073168713542977	0.955463028260249	0.4939911723037074	0.01836177168650716	0.03376745433915627	0.07729476242241115	0.1153699482017976	0.03879643001440367	0.1212637197729959	0.1320342371593097	-0.4924165134363197	-0.1591672898880628	0.5410499775942071	-0.1642170131523711	0.01708433114370433	0.2358823971430302	0.09396746454545904	0.2909460492754368	0.06142963247108585	-0.1129062895988245	0.003186596963693542	-0.2017478858428127	0.1083434061548045	-0.008685689910808446	0.3893226641131374	-0.3242850967734835	-0.2708202899883627	1.360749649251158	1.570796326969429	0	0	-0.09285804851319227	-0.08126825667464586	-0.06416651315813379	0.2491119342321632	1.570796326969429	0	0
0.4928	-0.07163791767804328	-0.09567688888382042	0.1650234168781804	1.073140312502455	0.9551534694819073	0.4936401137482261	0.01426942097631095	0.03373698198640898	0.07827911899018958	0.1131612890708615	0.03879643001440367	0.1194883791194223	0.1339859470146477	-0.4906489698642689	-0.1601736488244801	0.5419454431784998	-0.1629386197306689	0.01347326498577438	0.2307611436891717	0.09396746454545904	0.2813375882835044	0.05851021941053949	-0.1091407924951323	0.0008435280028833341	-0.2011301983438467	0.1085844302229382	-0.007330798294936157	0.3985409052197921	-0.3242474545586685	-0.2705159980739623	1.376769516983104	1.570796326969429	0	0	-0.1035037975465941	-0.08232004371187218	-0.06406462596705025	0.2468669493490377	1.570796326969429	0	0
0.502312856113114	-0.07360512119820578	-0.09581735363105062	0.1635239601362425	1.073158645511057	0.9543500461675755	0.4927280009069546	0.005370341369211884	0.03343163072123336	0.08070917559249348	0.109433324143163	0.03879643001440364	0.1169197482865424	0.1391652530290765	-0.4866851016893727	-0.1618619368442143	0.5444282116673964	-0.1596512012556685	0.003536491899666053	0.2230385703676005	0.09396746454545905	0.2636256312833622	0.0528530685927887	-0.1007590951587076	-0.004027631502704132	-0.1990934690729205	0.1090425151865229	-0.004064336012122366	0.4210866206610958	-0.3239972583977661	-0.2693611060148576	1.414850427286166	1.570796326969429	0	0	-0.128960003838152	-0.08502158063226307	-0.0633283162996915	0.2438335997604553	1.570796326969429	0	0
0.519255884473055	-0.07826114219360959	-0.09515252542014936	0.1599952591860065	1.073488495470288	0.9527037628087395	0.4908613297381114	-0.006867687910108222	0.03167471812768714	0.08506181596396618	0.108435823767939	0.03879643001440363	0.1179505756808617	0.1501360902983376	-0.4806683680772342	-0.1599253861060259	0.549736849547283	-0.1526539560971714	-0.01929643130001338	0.2235924480229889	0.09396746454545896	0.2495528774285527	0.05053485515551386	-0.0924122396810014	-0.008656620166637641	-0.1933477692752262	0.1089213601232524	0.001840064296457618	0.4616490290662266	-0.322865113585765	-0.2661348100974986	1.478190251203934	1.570796326969429	0	0	-0.1739548327193111	-0.09042132981158844	-0.05966697701742328	0.2474454525666297	1.570796326969429	0	0
0.5336312594138308	-0.08353439975400336	-0.09330413922053279	0.1561676729393985	1.074053841786308	0.9511044321382466	0.4890718846550323	-0.01362670944563915	0.02857828817746643	0.08861327733638456	0.1129537902138561	0.03879643001440364	0.1238190352243616	0.1610230379711468	-0.4763317610555454	-0.1532972346097188	0.5545467317981018	-0.1454822700034135	-0.04146403081191921	0.2353373575725114	0.09396746454545901	0.252461656630431	0.05212346611857163	-0.09282031945226374	-0.007709485249323862	-0.1863729604965039	0.1072194726915209	0.006919569012166777	0.4957197381702048	-0.3212151860706327	-0.2630133388135801	1.526458957639847	1.570796326969428	0	0	-0.21102635154587	-0.09543150323762703	-0.05418150545744056	0.2584121529675224	1.570796326969428	0	0
0.5376	-0.08510043725612169	-0.09263783285425252	0.1549899783644547	1.074248644734199	0.9506418777070933	0.488550923868187	-0.01508590772953861	0.02752263759141432	0.08946772574979589	0.1149240661252271	0.03879643001440363	0.1261352837335508	0.1642114955902338	-0.4750831913050383	-0.1510368444276692	0.5557249092089389	-0.1434312208099164	-0.0470134361174901	0.2398582601002218	0.09396746454545901	0.2551665650610492	0.05148790818808063	-0.09371218453742133	-0.006622480390093369	-0.1842736694150492	0.1065524871945336	0.00833586802108819	0.5051602684875069	-0.3206883156206811	-0.2620906467893061	1.539342195322575	1.570796326969428	0	0	-0.2207977574202906	-0.09683132064090838	-0.05238238085881683	0.261870642133571	1.570796326969428	0	0
0.547112856113114	-0.08907731528948797	-0.0908521726939101	0.1519093019768993	1.074789679775976	0.9494835800023385	0.4872610338999906	-0.01789788704801493	0.02473500700291283	0.09152017468974089	0.1207528171207783	0.03879643001440362	0.1327495981902987	0.172414004103056	-0.4720633030100557	-0.1450277814534435	0.5582566647678451	-0.1385286481110906	-0.05929173503677938	0.2523902852188726	0.09396746454545901	0.2642244020052789	0.04845009037307674	-0.0952313942540291	-0.003437595640510396	-0.1788733434474419	0.1047127868435524	0.01176900170728843	0.5283721211234016	-0.3192933020431339	-0.2595032422856922	1.569863780888977	1.570796326969428	0	0	-0.2434314788017275	-0.1002744919074553	-0.04759943367947703	0.2713335129502008	1.570796326969428	0	0
0.5640558844730551	-0.09690377057229609	-0.08626272400573992	0.1451259129911798	1.076048200899322	0.9472857238484352	0.4849250756536714	-0.02091870336793861	0.01814649499279506	0.09584045862760508	0.1344491098049578	0.03879643001440363	0.1476937686854823	0.1881877808512174	-0.4669618002189879	-0.1352517268931681	0.5610799027197506	-0.1295468674653552	-0.07188580536057003	0.2785837175941427	0.093967464545459	0.2864881169461991	0.031226219060285	-0.09618348313873556	0.00320833560098909	-0.1682361182435511	0.09928895157923576	0.01827772291352494	0.5697980127151649	-0.316210119266755	-0.254186071583607	1.621633916072549	1.570796326969429	0	0	-0.2807446520192036	-0.1065381775787256	-0.03784078209065727	0.28810133654848	1.570796326969429	0	0
0.5784312594138308	-0.1038682110573417	-0.08084039061824648	0.1377706312532353	1.07750126469086	0.9453290044867141	0.4829491566414761	-0.02247317035211543	0.01084719202368902	0.100401485720735	0.1484895436885788	0.03879643001440358	0.1630514314319747	0.202079426208812	-0.4623938027497138	-0.1308612258960593	0.560231979650583	-0.1217981310980352	-0.06928191086628802	0.2988360148979444	0.09396746454545894	0.3082391550004854	0.01303542941866348	-0.09431348204094864	0.008381493744421058	-0.1586460321728457	0.09229528678034049	0.02435574868042248	0.6032988947880574	-0.3130011354855039	-0.2496822532985001	1.6632942411844	1.570796326969428	0	0	-0.3106989565057875	-0.1117756173400722	-0.02887822699226802	0.2980880074549517	1.570796326969428	0	0
0.5823999999999999	-0.1057230414225543	-0.07926678543081075	0.1354782316138629	1.07797693919583	0.9447812702514452	0.4823927889842921	-0.02297056436292044	0.008708729418430856	0.101674921153425	0.1525300385271667	0.03879643001440358	0.1677021664318246	0.2057963946575889	-0.46090453258668	-0.1305311404431157	0.5591154324121461	-0.1197631430351576	-0.06626212490537368	0.3027284555237867	0.09396746454545894	0.314357330843861	0.01071536989990959	-0.09368349301988102	0.009652233470377979	-0.1560156305323549	0.09025745597181435	0.02612454916972514	0.6122609066367044	-0.3120587117401909	-0.2484158734632025	1.674942941292583	1.570796326969428	0	0	-0.3190350596757905	-0.1131828930744488	-0.02638711688713298	0.2996075986653879	1.570796326969428	0	0
0.5919128561131139	-0.1102479791963034	-0.07551210368819032	0.1298671667676329	1.079203875862509	0.9434473986848063	0.4809883038639268	-0.02387480656104779	0.003475018569483338	0.1045529628529021	0.1628099957662967	0.03879643001440358	0.1796237741446835	0.2146543346355458	-0.4570628969008355	-0.1303616475810555	0.5556499233346408	-0.1149434905753786	-0.05886957789425587	0.3093750223350029	0.09396746454545894	0.328905228032041	0.006799575770428057	-0.09509897858701566	0.01241870449780374	-0.1494603333401494	0.08550958961783582	0.0304251962177766	0.6334212158481755	-0.3097188829839722	-0.2454344631244977	1.70286748994011	1.570796326969428	0	0	-0.338277598084922	-0.1165363262299276	-0.02020704966402099	0.3026565389624972	1.570796326969428	0	0
0.6088558844730551	-0.1178023064343898	-0.06875972104364993	0.1205064231795464	1.081537707625499	0.9412276568845968	0.4781832993337216	-0.02506976047790582	-0.006164343439030032	0.1081617948341318	0.1833311876231265	0.03879643001440364	0.2040883399802861	0.2284114374022209	-0.4504963992875986	-0.136957782793567	0.5500734208173801	-0.1065972379240859	-0.05029787538503334	0.3226743250752048	0.09396746454545905	0.3537331437803737	0.002554400962588549	-0.1142000018327293	0.0121160032803663	-0.138116274566865	0.07741209981724788	0.03836531143307665	0.6628629181383319	-0.3052857949162749	-0.242119042375243	1.749935170294906	1.57079632696943	0	0	-0.3674628205705226	-0.1218081978502887	-0.009330942853964797	0.302019957332618	1.57079632696943	0	0
0.6232312594138308	-0.1234134975112851	-0.06269304846941683	0.1142071975475684	1.083470242775635	0.9397208144936532	0.4754173849017614	-0.02487447818976057	-0.0148925476715195	0.1082701235960924	0.2048937089661959	0.03879643001440365	0.2292090763027965	0.2373956086359063	-0.4454078045357815	-0.1482851552232584	0.5470962414133004	-0.09927688187429073	-0.04929524775410662	0.3379615841276837	0.09396746454545908	0.373210095013399	-0.004567284427498236	-0.1422919786271472	0.005720208069342398	-0.1294436529012954	0.07080268743302817	0.04520027840662656	0.6759208067476504	-0.301319095300959	-0.2420909673827415	1.785298124044218	1.570796326969429	0	0	-0.3830156798065875	-0.1252458828785227	-0.0006951001274375835	0.2967668593426912	1.570796326969429	0	0
0.6272	-0.1248660495702855	-0.06094844576522006	0.112766894373074	1.083971642556321	0.9393808719247028	0.4745817307681176	-0.02442413178698777	-0.01743748239389402	0.1075130566876178	0.2118397573558802	0.03879643001440364	0.2370519514787202	0.2395003182344894	-0.443848317249378	-0.1512867812915072	0.5464169754688784	-0.09720325089131186	-0.04978176392584465	0.3423274673770547	0.09396746454545908	0.3782780743745432	-0.00728709603125563	-0.149312107919097	0.003675791631411512	-0.1271864061831229	0.06907845634847198	0.04705961325803965	0.6780946907342246	-0.3002096319536141	-0.242255377122781	1.794490368902606	1.570796326969429	0	0	-0.3854199126538441	-0.1260659187214911	0.001624536308198209	0.2955321675405919	1.570796326969429	0	0
0.636712856113114	-0.1282776435608677	-0.05666292613545045	0.1095063496449625	1.085145964502832	0.9386723263514301	0.4724811403111722	-0.02244825219133079	-0.02373782390439813	0.1051319919496057	0.2302795804354337	0.03879643001440363	0.2577674331595386	0.2439081311908613	-0.440460103764566	-0.1590922180857388	0.5450580327802177	-0.09220772886717074	-0.05215478037548016	0.353801939434062	0.09396746454545908	0.3897838600223453	-0.01102641458529308	-0.1657030776167375	-0.0008707002083974688	-0.1218655068649378	0.06510215025145762	0.05148051422564117	0.6813372117103008	-0.2975180732744053	-0.2429610961581667	1.815971005847597	1.570796326969428	0	0	-0.389626605200933	-0.1279258822109267	0.007276504818185672	0.2923682219127252	1.570796326969428	0	0
0.6536558844730551	-0.133682026839731	-0.04834094132875768	0.1053509704496687	1.087001507142443	0.9379662464472497	0.4683522953357321	-0.01544595797423376	-0.03597988478239424	0.09796475078729032	0.2708126473785908	0.03879643001440364	0.302565945346418	0.2476884531657298	-0.4362745814713252	-0.1753521778386903	0.5435647197743192	-0.08206614035927803	-0.05607172854791844	0.3786843522237949	0.09396746454545903	0.4074801564838444	0.001129844670846841	-0.1840794991899538	-0.007816401504431424	-0.1134346472694936	0.05817095032329934	0.05894657691595229	0.6762280526324949	-0.2926588957718899	-0.2459011796431523	1.850341679351871	1.570796326969429	0	0	-0.3877512464123442	-0.1304799899144923	0.01689531867511395	0.2880378333786152	1.570796326969429	0	0
0.6680312594138309	-0.1370495242456021	-0.04062755278446446	0.1033682623087887	1.08840384116737	0.9380149921413427	0.4645118329148233	-0.006167813326837912	-0.04740545076747636	0.08931461213051672	0.3137183772364591	0.03879643001440363	0.3499088199633062	0.2463577394283	-0.4342764570734601	-0.1889502715794573	0.5409798584672314	-0.0717923181372723	-0.05679691226580778	0.400572116197197	0.09396746454545904	0.4187719948108923	0.02474001510544235	-0.1913448082074257	-0.01305222415117819	-0.1076712460212844	0.05241173869864375	0.06455173921591255	0.6602306773065317	-0.2885147854011124	-0.2503778657631117	1.87554713241941	1.570796326969429	0	0	-0.3786390957765716	-0.131977949122194	0.0242432977953715	0.2860158157835725	1.570796326969429	0	0
0.672	-0.137761132353137	-0.03849032418142319	0.1028468315064747	1.088800297706695	0.9381180367497249	0.4634147158316296	-0.003117909589094858	-0.05067575564388788	0.08651714962359641	0.3268818207958276	0.03879643001440363	0.3646276863178334	0.2454136012354227	-0.4337025849961252	-0.1917415436615206	0.5393987632996387	-0.0688051804955957	-0.05683808193298653	0.4052662654391236	0.09396746454545903	0.4211581826533686	0.02965651205598446	-0.1943507826514006	-0.01437567296892897	-0.1062265683773241	0.05097706846749033	0.06596280571339624	0.654825871191316	-0.2873679016904524	-0.2516970843000084	1.882312694544604	1.570796326969429	0	0	-0.3759828495295352	-0.1324086314788731	0.02620835849198158	0.285691263029591	1.570796326969429	0	0
0.6815128561131141	-0.1392752186253394	-0.03338267741193478	0.1016455564802055	1.08974549740099	0.9384717164164146	0.4607461532674177	0.005610350365378047	-0.05865929943968365	0.07980866994621975	0.3613320864410358	0.03879643001440364	0.4028959056930165	0.2419293000300418	-0.4329128853560699	-0.1974994995622534	0.5336240718018967	-0.06145880953192077	-0.05672045248974027	0.4131086942196175	0.09396746454545904	0.4254497303673687	0.04069821205726928	-0.1998019719136613	-0.01665637882412893	-0.1028727022155818	0.0477479386828003	0.06913685838138889	0.6401996704470017	-0.2845875483373643	-0.2551112900724857	1.898311176512396	1.570796326969429	0	0	-0.3683488719518019	-0.1335079576993309	0.03096015501802329	0.2857535094632616	1.570796326969429	0	0
0.6984558844730551	-0.1404669891569797	-0.02415609017297324	0.09968080097991576	1.091440952128426	0.9395016440988503	0.4559459198375814	0.02473409797983583	-0.07353581902118307	0.06781664394431514	0.4315448800208763	0.03879643001440361	0.4813079678361906	0.2305489169427454	-0.4340393743763576	-0.2012012823954992	0.5164067812324128	-0.04756502298628925	-0.05537396598615676	0.4170901812702351	0.09396746454545901	0.4278802123822254	0.05917188222177201	-0.2082190902109456	-0.02079472377470272	-0.09818917772223937	0.04222841311355252	0.07379401905266525	0.6071560576868134	-0.2794951350450657	-0.2614255959979346	1.923282659497232	1.570796326969429	0	0	-0.3527835261293185	-0.1358737046637399	0.03896543720784601	0.2911129309909423	1.570796326969429	0	0
0.712831259413831	-0.1399188437583693	-0.01604520618573068	0.09824486627696162	1.092810950327598	0.9406990656455824	0.4518891875500957	0.04412682140121454	-0.08716919811851459	0.05810049723006035	0.498438845020667	0.03879643001440363	0.5571596762683768	0.214446875032774	-0.4370080840058471	-0.1954542445701731	0.4955321672040437	-0.034775009760772	-0.05274121387236882	0.4114796806998647	0.09396746454545904	0.424926919210525	0.07283614305883639	-0.2157095219942958	-0.02540807024157369	-0.09581496255912207	0.03740552203941162	0.07667015468497858	0.5727260027651675	-0.27501714525577	-0.266720647318725	1.939087136851676	1.570796326969429	0	0	-0.3377810747374277	-0.1383316626388719	0.04513304933215671	0.3029909141180667	1.570796326969429	0	0
0.7168000000000001	-0.1396633998604773	-0.01380556095328012	0.09780122374439684	1.093157392783766	0.9410503072028433	0.4507769534835684	0.05003123298911483	-0.0911515770216296	0.05534508723170834	0.517734166918446	0.03879643001440363	0.579375185291306	0.2088992793208458	-0.4376851024492614	-0.1922930625426429	0.4891871890526207	-0.03114853975733027	-0.05173774858530727	0.4088987340717091	0.09396746454545905	0.4234023699464611	0.07616343853324709	-0.218092593972167	-0.02672456558651571	-0.09529474035292315	0.03612384246317811	0.07735699461644814	0.5628901490185265	-0.2737508007819232	-0.268005206449932	1.942738436129853	1.570796326969429	0	0	-0.3334419921021851	-0.1390945481196119	0.04683900243259427	0.3073351738221278	1.570796326969429	0	0
0.7263128561131141	-0.1388467250686948	-0.008488120108873964	0.09669147744406596	1.093918787067185	0.9419198069524196	0.4481455196523303	0.06560909265725298	-0.1008611690474825	0.04941685813291244	0.5666661195812045	0.03879643001440362	0.634427229867999	0.1960459131775277	-0.4394264622412801	-0.182532872568013	0.4730737741300642	-0.02244446641971584	-0.04905876398654133	0.4012130127515374	0.09396746454545905	0.418719309929407	0.08410537515692594	-0.2236706562251151	-0.02954213785092737	-0.09434279857519218	0.03313340589219806	0.07876924148339677	0.5379554826422637	-0.2706685996693117	-0.2712033305914512	1.950715006770616	1.570796326969429	0	0	-0.3226574501369985	-0.1410393574348604	0.05105084377273966	0.3188930241508012	1.570796326969429	0	0
0.7432558844730551	-0.1366227726921471	0.001184031270083392	0.09464102116590448	1.094862451037147	0.9434700798793051	0.4436393831295918	0.09830031504545966	-0.119009228656866	0.04159171435948551	0.6633379273669736	0.03879643001440364	0.736749958252737	0.1762433052149272	-0.442110171471399	-0.1522314947108425	0.4425321717970325	-0.006757321470796615	-0.04364587075878913	0.3843912068470886	0.09396746454545898	0.4077763738244888	0.09713379627218878	-0.2334254782825757	-0.03458320265578425	-0.09421494236598471	0.02755972953670036	0.08038570745149122	0.4907084115220114	-0.2649474824941668	-0.2769404989266498	1.958886974678812	1.570796326969429	0	0	-0.3012920328126428	-0.1452603713801774	0.05826614249636677	0.3460680853062951	1.570796326969429	0	0
0.757631259413831	-0.1339485977699825	0.009554765125936516	0.09311402983934365	1.095182083993119	0.9447029028961466	0.4400634494984317	0.129677990850852	-0.1350074996384298	0.03816785431265984	0.7510814351484859	0.03879643001440362	0.8248386576224216	0.1598264734684471	-0.4432791852460959	-0.1146385854508353	0.4157340080951669	0.006305470601416598	-0.03936479916474966	0.3685540437526774	0.093967464545459	0.3972006992092783	0.1061349239843715	-0.240285275541903	-0.0392426702809716	-0.09582696997469213	0.02243802102285268	0.08081135869216081	0.4488936173926596	-0.2598384162995828	-0.281931498291375	1.957853005421968	1.570796326969429	0	0	-0.2797473249066975	-0.1498093621222954	0.06361170023027046	0.3754204672465319	1.570796326969429	0	0
0.7616000000000002	-0.1331468740641733	0.01176661669592757	0.09272419014013884	1.095211214269586	0.9450140385734105	0.4391166405297686	0.1384665145418406	-0.1394617898093344	0.03740540260429794	0.7748517325273196	0.03879643001440362	0.8489244530262845	0.1541422074509254	-0.4431431722775362	-0.1037077703360912	0.4083370060700534	0.009685288192774219	-0.03838346470868947	0.3641024173282179	0.093967464545459	0.3942316126114629	0.1083199448162081	-0.2415538899101649	-0.04041753009901791	-0.09639869536737038	0.02111931331716214	0.08084456289962362	0.4373533963151721	-0.2583819718281233	-0.2831812450137062	1.956496971396707	1.570796326969429	0	0	-0.2731733331211632	-0.1512290215990206	0.06500037587764522	0.3838561180137551	1.570796326969429	0	0
0.7711128561131142	-0.1311255745389387	0.01684206843741731	0.09183012849338511	1.095173667348473	0.9457256393191795	0.4369388663654278	0.1597578336827349	-0.1499009692249882	0.03667324266633853	0.830525131454473	0.03879643001440362	0.9056425424713707	0.1422539293316782	-0.4401296136049047	-0.07764985402174558	0.3908907394681722	0.01730545745398874	-0.03639458580759016	0.3538989821669051	0.09396746454545898	0.3871873781589625	0.1139890211843789	-0.2437033250388291	-0.04297243741718407	-0.09803170157471161	0.01810603469802917	0.08078663121095624	0.4087356862201721	-0.2548098788646891	-0.2859643372656662	1.951403874761143	1.570796326969429	0	0	-0.2565172479492074	-0.1548378303146711	0.06835031930647015	0.4046164756319576	1.570796326969429	0	0
0.7880558844730552	-0.1270724371216104	0.02474135518531757	0.09040560759502218	1.094652178772641	0.9469590271993181	0.4334636589796834	0.1980990403231972	-0.1665948811200221	0.03875960292654673	0.9212900968361517	0.03879643001440365	1.000975382329629	0.1235409977931199	-0.4273764895980846	-0.0356202315709182	0.3610046020245229	0.02856714333688977	-0.03470865470795452	0.3376469471589482	0.09396746454545905	0.3752098103886793	0.1245061877307045	-0.2428714111610515	-0.04685985526633366	-0.1021723412892467	0.01349822875297457	0.08035303304624247	0.3554534994558541	-0.2480312500818267	-0.2893121363791213	1.930419276039233	1.57079632696943	0	0	-0.2214492727566617	-0.162655661462484	0.07313153964053912	0.4412772840890543	1.57079632696943	0	0
0.802431259413831	-0.1231524271490767	0.03019627806974692	0.08924146654741746	1.093741036943706	0.9480623135939665	0.4309754405427052	0.2312728423118553	-0.1781049698055854	0.04359723517094	0.9883655506204952	0.03879643001440364	1.073603152602344	0.1092953058785473	-0.4161068019694206	-0.007723376966934945	0.3367346390033238	0.03557802702082062	-0.03562056696198281	0.3255155092716403	0.09396746454545898	0.3656613958967752	0.1324836315904916	-0.2377237098188005	-0.0493629443889218	-0.1071006015705065	0.01031790494728042	0.07965729974274449	0.3086096808873374	-0.2419226680401929	-0.2909340348057988	1.898282560685504	1.570796326969428	0	0	-0.1861305470985229	-0.1707346328044289	0.07560715987668239	0.4700495447501893	1.570796326969428	0	0
0.8064000000000002	-0.1220545517794931	0.03152334334782046	0.08885912128336429	1.093437857873387	0.9483780792355023	0.43035287733503	0.2404200098334438	-0.1809463472713423	0.04505653830863915	1.004836369413053	0.03879643001440363	1.092019685078008	0.1057470152356216	-0.4143723553902927	-0.001404029828534322	0.3301715723325748	0.03715726549495058	-0.03623384911372011	0.322281276647833	0.09396746454545898	0.3630853206338519	0.1343478295028023	-0.2358784330883297	-0.0497309630129071	-0.1085765792092968	0.009564579807311803	0.07943818066800751	0.2957769708500452	-0.2402159117672011	-0.2913173819966273	1.887844957522925	1.570796326969428	0	0	-0.1759365382416928	-0.1730817360076071	0.0762036810243969	0.4773572977859761	1.570796326969428	0	0
0.8159128561131141	-0.1193698102709871	0.03444305052005295	0.08786355696306022	1.092612247750862	0.9491651483271469	0.4289724348540386	0.2625245667434226	-0.1872410221883701	0.048959786344246	1.041252289796612	0.03879643001440363	1.132954209585384	0.0973990256991812	-0.4096344757904152	0.01221507395436106	0.3147724020993853	0.04039601571234411	-0.03828946641033634	0.3150521647476724	0.09396746454545903	0.3569178443114119	0.139177062803695	-0.2303751497030598	-0.05023421632890632	-0.11244270680507	0.007909233742168656	0.07885089691853436	0.2645510659845504	-0.2360759371328018	-0.2920517571889215	1.860504128259583	1.570796326969429	0	0	-0.1508466151972376	-0.1788994276067446	0.07761715335296426	0.4942900805230178	1.570796326969429	0	0
0.8328558844730553	-0.1141071889789766	0.03869111331272082	0.08545465155270296	1.090820054897997	0.9507352047338954	0.4269404968448308	0.3017997835215086	-0.1964724814737347	0.05643611689564262	1.09424420606883	0.03879643001440364	1.193714004995972	0.08637100655734037	-0.4047259120601398	0.02631078854306964	0.2877925135496812	0.04410132559349243	-0.04430205511238652	0.3032483617369256	0.09396746454545901	0.3455104078176766	0.147902913252802	-0.21696557107105	-0.04960249485750835	-0.1207037445548149	0.00552681273484153	0.07786790145270082	0.2102581528521393	-0.2285742674159321	-0.2923400938795638	1.798659349292494	1.570796326969429	0	0	-0.103306856140226	-0.1901800747483559	0.07912718713562532	0.5203099609094491	1.570796326969429	0	0
0.8472312594138312	-0.1091084169714875	0.04137048469446015	0.0826162676567623	1.089035481227421	0.9522510662836499	0.4256247556415268	0.3347631424978184	-0.2025202841144455	0.06278868834716701	1.127029586420902	0.03879643001440364	1.232206534643965	0.07819757517964371	-0.403009858841008	0.02803373739255679	0.264712585675192	0.04531513143610867	-0.0517965418362182	0.2932467164091467	0.09396746454545905	0.3348220880644299	0.1543174628434671	-0.2029133881897194	-0.04765666466077483	-0.1290367038146155	0.004101298218961117	0.0772311144802714	0.1672265955498515	-0.2221602157790047	-0.2915003279981844	1.730884145910916	1.570796326969429	0	0	-0.06051907730223377	-0.2006748767170073	0.07906868255334613	0.5383071597314014	1.570796326969429	0	0
0.8512000000000002	-0.1077269853511432	0.04199391936796907	0.08170250367740221	1.088521548992493	0.9526877011860481	0.4253062785238382	0.3437397038621482	-0.2040783430932304	0.06433133702097457	1.133885089616634	0.03879643001440363	1.240649920793513	0.07563623688817372	-0.4023749435469827	0.02794314488617823	0.2583078157034026	0.04545665830619285	-0.05410329978732444	0.2903270107715831	0.09396746454545905	0.331639729634443	0.1557095425741382	-0.1989640233410337	-0.04681861044975438	-0.1314037943401553	0.003818107669172377	0.07710008386955113	0.1560187918998401	-0.2204019241741623	-0.2911226188969064	1.710617846062481	1.570796326969429	0	0	-0.04869374502005114	-0.2036331328728014	0.07900166258637722	0.5430062034872979	1.570796326969429	0	0
0.8607128561131143	-0.1044038589367746	0.04328911126230607	0.07930321523057625	1.08723742303296	0.9537550902692602	0.4246242719188438	0.3651532766786544	-0.2075424481896918	0.06784648043468296	1.146952798908073	0.03879643001440363	1.256995632324599	0.07007498951791734	-0.4010318718148597	0.0266153712259006	0.2430087075484869	0.04546732456189255	-0.06002005542874909	0.2833670809503035	0.09396746454545904	0.3235397914466267	0.1593626713339365	-0.1889604377956669	-0.04429666387754707	-0.1373009125860401	0.003333124066011244	0.07687642972562311	0.1298345343031031	-0.2161715113558491	-0.2897280312419977	1.659701960070733	1.570796326969429	0	0	-0.02021103413138732	-0.210869250496364	0.07881512288081759	0.5539505405552707	1.570796326969429	0	0
0.8776558844730553	-0.09828152339156797	0.04497080746162604	0.07395855333697833	1.084833708498621	0.9557274420368602	0.423677572125605	0.4019898555060942	-0.2129213690887861	0.07312416544072128	1.157382438610084	0.03879643001440367	1.272473733852829	0.06255480956473508	-0.3996090552016988	0.02120550036789851	0.215278691766872	0.04454421247101945	-0.07173908531445697	0.2701574197915754	0.09396746454545903	0.3073627189847795	0.165334626298351	-0.1703842757915864	-0.03851687894352019	-0.1484806519421206	0.003141541144691815	0.07707808644755758	0.08911099319289338	-0.2087224916519136	-0.2856559359306911	1.556639262369653	1.570796326969429	0	0	0.03019399313367475	-0.2243079833044601	0.07737784432849266	0.5745702639096383	1.570796326969429	0	0
0.8920312594138311	-0.09300406862068583	0.0458155580572915	0.06837226719815116	1.082725325804097	0.9574105554247643	0.423098589015474	0.4315811990249954	-0.2167517909127712	0.07670480886518469	1.15346192840612	0.03879643001440363	1.271999892941949	0.05705008323962668	-0.3990379854691259	0.0160060591217637	0.1911038515831489	0.0431315345566804	-0.08235341147685844	0.2575347238494596	0.09396746454545901	0.2919392047234118	0.1689019325536461	-0.1553654803366368	-0.03352143075428195	-0.1583883589679127	0.003679367718144747	0.07789854917666746	0.06185137520553956	-0.2026017416199357	-0.2812310095150996	1.455744379671426	1.570796326969429	0	0	0.07176997814889538	-0.2361584482044635	0.07460992403021884	0.5953327344029751	1.570796326969429	0	0
0.8960000000000002	-0.09162845158296609	0.0459590776307767	0.06672345815351129	1.082141050150506	0.9578580655476052	0.4229570904761089	0.43949820418341	-0.217760373247591	0.07750862805561434	1.150359686121838	0.03879643001440363	1.269692611959782	0.05525023205329935	-0.3985991433482253	0.01526779107340531	0.1844309833081398	0.04272684679054309	-0.08517181354120734	0.2538112049970442	0.09396746454545903	0.2874402049593636	0.1695274826195945	-0.1516612209730141	-0.03222625497035039	-0.1610680160593764	0.003974390435891581	0.07820422846081296	0.0553562155597946	-0.2009471690957048	-0.2799245190758766	1.426759400014658	1.570796326969429	0	0	0.08288985679591818	-0.2394442278691614	0.07373762160070618	0.6018038813632475	1.570796326969429	0	0
0.9055128561131143	-0.08841859109742373	0.04614473429683442	0.06260926934948104	1.080721997676185	0.9588873957990232	0.422663895172682	0.4579083729548418	-0.2199417081019404	0.0792649213313432	1.139550218822186	0.03879643001440364	1.260370023063516	0.05175548326633563	-0.3976095402510372	0.0134998671152083	0.1684932813790272	0.04166985964916993	-0.09185840008618316	0.2447668328249709	0.09396746454545903	0.2763081340576267	0.1711461964574403	-0.1429239505336694	-0.0288444826395406	-0.1675227004174454	0.004917015730580972	0.07907632930000182	0.04130615699394075	-0.1970019156075577	-0.2764251655953822	1.355640648354845	1.570796326969429	0	0	0.1092749253289733	-0.2473960565733627	0.07152410462481942	0.6182563365338213	1.570796326969429	0	0
0.9224558844730553	-0.08327693503849934	0.04603699915339279	0.05484616783784795	1.078159123802806	0.9605135941821823	0.4222432009704006	0.4885838527683227	-0.2231728353018879	0.08195393510245505	1.108540597133567	0.03879643001440363	1.230693520263177	0.04794125852480655	-0.3968153509805447	0.01244023977708782	0.1405973641140673	0.03979405664656641	-0.1030574936387636	0.2281422156456684	0.093967464545459	0.255632176550097	0.1733038271392288	-0.1289777536578592	-0.0237674930288186	-0.1787541118305063	0.007339873137241424	0.08107389379736381	0.0228797552614724	-0.1903475664568373	-0.2711772299199727	1.221250620767082	1.570796326969429	0	0	0.1535933580389998	-0.2615304539581698	0.0659639213708139	0.6553999846082899	1.570796326969429	0	0
0.9368312594138312	-0.07976617596919329	0.04568915316555026	0.048121292158923	1.075977190837071	0.9616050243792783	0.4219501714793406	0.512421484249494	-0.225308564378334	0.08442301140798671	1.070929927193	0.03879643001440362	1.192674910283138	0.04503084120186667	-0.3964872179827096	0.01447186382646265	0.1178570141506947	0.03846738626375206	-0.111552774955636	0.2138422217779452	0.093967464545459	0.2377877741603824	0.1744988113594196	-0.1192323824306969	-0.0216514861113111	-0.1877200027974373	0.009942421579180944	0.08301383028890455	0.01307431440397039	-0.1852644917723837	-0.2697060255166097	1.1002144295484	1.570796326969429	0	0	0.187537658076817	-0.2731933094321168	0.05925201234632605	0.6962618576525476	1.570796326969429	0	0
0.9408000000000003	-0.07898042168101066	0.04557335223947614	0.04630357353041751	1.075379518326807	0.9618472354522993	0.4218759463930159	0.5186558030217028	-0.2258082993023813	0.08523638803501554	1.058824440704849	0.03879643001440362	1.180154472712769	0.04382875047551527	-0.3960374580710767	0.01557530610518328	0.1118121235149115	0.03817407638411998	-0.113646827476079	0.2099380544262567	0.093967464545459	0.2328915795917146	0.1747678322541348	-0.1168613189591821	-0.02132794902132228	-0.190050817518543	0.01073394519023451	0.08354399897180931	0.01088265220824591	-0.183937995404176	-0.2698109698569409	1.066681474431765	1.570796326969429	0	0	0.1963892937735097	-0.2763268952242581	0.05727093195246049	0.7085680986972636	1.570796326969429	0	0
0.9503128561131143	-0.07732287930786866	0.04527670770769971	0.04199789379168486	1.073944787768605	0.9623205272514956	0.4217271069676795	0.5327870162299849	-0.2267348446077866	0.0875863893828609	1.026845202443425	0.03879643001440361	1.146678000285357	0.04139096298705921	-0.3948630450051715	0.01842360105581551	0.09769379524590127	0.03755842201865615	-0.1183537892301821	0.2007998091321263	0.093967464545459	0.2213141524241894	0.1755780089214701	-0.1116603764384369	-0.02054200173368173	-0.1955237751710039	0.01271062122986775	0.08482041181939727	0.006573311500815082	-0.1808541722200749	-0.2707613190564276	0.9859605613887018	1.570796326969428	0	0	0.2170713559962109	-0.2837495203469362	0.05239191484094618	0.739604759321183	1.570796326969428	0	0
0.9672558844730554	-0.07560008469123038	0.04529628941105231	0.03508665621638456	1.07143274541529	0.9627325586298491	0.4214909647498393	0.5552838714936023	-0.2283635404127122	0.09329881753134948	0.9597425673040361	0.03879643001440364	1.075504380959868	0.03726927804133186	-0.3926230630980238	0.02328417639345411	0.0744102478315897	0.03753587967168196	-0.1247498990022566	0.1854522738429404	0.093967464545459	0.2016062582937704	0.1769250209528547	-0.1047059838673156	-0.0206818006510065	-0.2043446666419835	0.01581639220824885	0.08665398362316251	0.0001180380164867711	-0.176111876094164	-0.2788093037477642	0.8434498178424248	1.570796326969429	0	0	0.2506547505614344	-0.2959962775704638	0.04232355828964581	0.8023753149833817	1.570796326969429	0	0
0.9816312594138312	-0.07551011389977196	0.04621414424882736	0.03029718542125582	1.069398736270797	0.9626139959336287	0.42132482813651	0.5714641982174241	-0.230081618459901	0.1002262786810817	0.8929636451022407	0.03879643001440364	1.004627728990981	0.0318914855124627	-0.3900561975663831	0.02651769017083527	0.05680908451511424	0.03884162156568413	-0.1280404943817147	0.1737950297724772	0.09396746454545904	0.1862109172814108	0.1784937451822894	-0.1009222896323076	-0.02265912590304848	-0.2106476632065443	0.0175495660790109	0.08744258295262081	-0.006237294406996663	-0.173027181348845	-0.2935442556870916	0.7266145802833651	1.57079632696943	0	0	0.2755845633837811	-0.3050114698775185	0.03242271300968102	0.862437887910197	1.57079632696943	0	0
0.9856000000000004	-0.0756687635257248	0.04657407104077251	0.02912424274914993	1.068859420508715	0.9625066218104653	0.4213001932772424	0.5753730270390797	-0.2305134209582014	0.1026036878453777	0.8729976639070531	0.03879643001440364	0.9835808195940688	0.02977062763819212	-0.3889757068386605	0.02731413171178452	0.05226782376924197	0.03932465084527917	-0.1286876975769941	0.1708459665964979	0.09396746454545904	0.1822218645842423	0.179055565185291	-0.1000102525241765	-0.02320362819909981	-0.2122097046712873	0.01790635191953256	0.08753818139213979	-0.00830123223274265	-0.1722817782587754	-0.2984329783217695	0.6956197342065865	1.57079632696943	0	0	0.2821516603402544	-0.3073063998027969	0.02972711833142679	0.8793495575607423	1.57079632696943	0	0
0.9951128561131144	-0.07630757476505393	0.04757288476886327	0.02655682649241211	1.067604062498621	0.9621196427774072	0.4212917723514634	0.5836799182389802	-0.231380567849526	0.1091789260008105	0.8228600379980858	0.03879643001440363	0.9309289469079555	0.0249923854228543	-0.3861715145253871	0.02882831175659776	0.04189300057079076	0.04063885769561231	-0.1297325196684751	0.1642547468451889	0.09396746454545903	0.1731731384401618	0.180621586926111	-0.09854410021242002	-0.02432467926675595	-0.2156803538380057	0.01856722458731376	0.08759125726953326	-0.01329980343288653	-0.170659374703211	-0.3116089641210604	0.6229241433505048	1.570796326969429	0	0	0.2975794489499322	-0.3125406323667976	0.02336355406585318	0.9208941459924064	1.570796326969429	0	0
1.012055884473055	-0.07838096989504773	0.05055500927336949	0.0233999712668673	1.065607205599735	0.9609644076873539	0.4214195776413773	0.5949012300368247	-0.2336176076595642	0.1236632127679548	0.7277910558335994	0.03879643001440364	0.8314015585006174	0.01605917366779749	-0.3810196968178032	0.02770215114787751	0.02532346161007651	0.04426564858617642	-0.1289540964747024	0.1545913767937098	0.09396746454545901	0.1590155841446906	0.1841870534210222	-0.09843427453582343	-0.02603552810116362	-0.2205458816842362	0.01821608502091718	0.0865246681586479	-0.02582499459834159	-0.1686207383904739	-0.3414048068432396	0.505381086820473	1.570796326969429	0	0	0.323690467542473	-0.3202093612141267	0.01189495353235089	0.9963200915043364	1.570796326969429	0	0
1.026431259413831	-0.08078404423193571	0.05430252143854796	0.02229655972521812	1.064265203941379	0.9595374237913282	0.4217180724452049	0.6011807992659635	-0.2364491328209326	0.1381640486962778	0.6455630780900375	0.03879643001440364	0.7443320890384585	0.005948268125098854	-0.3764076169731794	0.02279457522587524	0.01297037532870773	0.0483935903146478	-0.1260736791900014	0.1491518514317399	0.09396746454545903	0.1491699088366377	0.1891912057415835	-0.09957312968811716	-0.02727647422849521	-0.2232225118370438	0.01620457233201061	0.08428175611223859	-0.04164570202943796	-0.1678049614432043	-0.3714801040006908	0.4211477807411901	1.570796326969429	0	0	0.3445535528520902	-0.3247803030728834	0.002210411325060791	1.059608850400864	1.570796326969429	0	0
1.0304	-0.08145355579714723	0.05536024386917636	0.02216397875521459	1.063961275324593	0.9590793339691754	0.4218567041198416	0.6024534048531154	-0.237141510754683	0.1424134437135116	0.6234256703472403	0.03879643001440364	0.7203700719591963	0.002486750136936736	-0.374880139214756	0.02127751503627702	0.009723114020740442	0.04944599220899711	-0.1251930342016386	0.1481450772242845	0.09396746454545903	0.1468284088945053	0.1909949847714391	-0.09965314652450277	-0.02742782800446903	-0.2237582473363779	0.01551925099008225	0.08351878262826691	-0.04650594912324224	-0.1676656713765565	-0.3797024245020135	0.4002475011641269	1.570796326969429	0	0	0.3503351565937871	-0.3258238094147918	-0.0002682692805896364	1.076627902099791	1.570796326969429	0	0
1.039912856113114	-0.0831019013690229	0.05796351689748958	0.02211431848107306	1.063344229473332	0.957871701584688	0.4222915586593552	0.6049607474044516	-0.2387065772814954	0.1525695026967628	0.5722922745022316	0.03879643001440364	0.6638165295100471	-0.005358029156748934	-0.3711723061178897	0.01704171784630579	0.002303596661417995	0.05188413928565717	-0.1227928366723543	0.1465978840429882	0.09396746454545903	0.1419169351228958	0.195873361478397	-0.1003375544714198	-0.02735943911338452	-0.224618921331724	0.01357767044876583	0.081462839406638	-0.05824174583473085	-0.1674933625116814	-0.3999561330661445	0.3536485092211047	1.570796326969429	0	0	0.364396876518753	-0.3280004691804898	-0.005915728036453356	1.11752286619159	1.570796326969429	0	0
1.056855884473055	-0.08617241558839182	0.06275331875420063	0.02328617183779582	1.06273838998521	0.9553597509625645	0.4234293300848254	0.6084061976925379	-0.2413002492605499	0.1672984052993697	0.4923144358645573	0.03879643001440363	0.5690426014778339	-0.01799051862066542	-0.3656687605467105	0.006564778080485011	-0.009797767888584052	0.05568925955560849	-0.1175866429695021	0.1470080972273216	0.09396746454545901	0.1357720275154594	0.2069638695831592	-0.1013882240554129	-0.02648346787754304	-0.2243137825340821	0.009097588884915958	0.07680624518547886	-0.08276626797700834	-0.1677975522670072	-0.4338194885870568	0.2886350222927477	1.570796326969429	0	0	0.3904930413393034	-0.330274083383964	-0.01520860919439244	1.187315650375352	1.570796326969429	0	0
1.071231259413831	-0.08888068157475423	0.06655679819823603	0.02546900992184207	1.062789202621847	0.9529202570706398	0.4247899161308271	0.6111554114149016	-0.2427356692489146	0.1730718041204865	0.4394190284043858	0.03879643001440364	0.4982183860502816	-0.02858445815216769	-0.3624485423413053	-0.004143419901207592	-0.01921005643701873	0.05779202853929769	-0.1130659840475317	0.1503864540757153	0.09396746454545898	0.1333966318787045	0.2190407709923445	-0.1007949453852991	-0.02601300859171775	-0.221943817285312	0.004635752333280544	0.07195062109601492	-0.1079544375609273	-0.1686303481914485	-0.4569012265343724	0.2533299919514274	1.570796326969429	0	0	0.4140140124781683	-0.3305197633774801	-0.02241692200433073	1.242235967064172	1.570796326969429	0	0
1.075200000000001	-0.08962039375355671	0.06740529356877835	0.0261411176123967	1.062890756892399	0.9522084224849646	0.4252453305570872	0.6119535695953815	-0.2427178899450846	0.1733323503037818	0.4275472571139025	0.03879643001440364	0.4806540979456596	-0.03185052567962347	-0.3616413795975729	-0.00680674175080993	-0.02174338097260459	0.05800136880236359	-0.1119693145765869	0.151687375048207	0.09396746454545898	0.1332335462958228	0.2225469478297657	-0.1003657297651266	-0.0259815200151309	-0.2209606482589703	0.003452280775334941	0.07056147982091214	-0.1149790420139972	-0.1689019113158167	-0.4619820721027421	0.2460135364923504	1.570796326969429	0	0	0.4208562351744966	-0.3304374102357558	-0.02422833488297399	1.256982520597733	1.570796326969429	0	0
1.084712856113115	-0.09144377702861813	0.06928486767306336	0.02795497615654597	1.063285636184797	0.9504429076595643	0.426454920604554	0.6138639427625119	-0.2421658761946053	0.1723487995702586	0.4034128212470033	0.03879643001440362	0.4425326366608167	-0.03869192915600067	-0.3599710369570113	-0.01347539927426011	-0.02754562884105227	0.05811007588224096	-0.1094090084340862	0.1556098673733747	0.093967464545459	0.1337630868912836	0.2314174875143301	-0.0992293261833011	-0.02589143043448172	-0.2180012072615468	0.0005175280452912559	0.06708160545079801	-0.1316965318741197	-0.1696657498526754	-0.4731045556057129	0.2322968073156859	1.570796326969429	0	0	0.4378942003334824	-0.3299742513134685	-0.02824381308298334	1.29224118854414	1.570796326969429	0	0
1.101655884473056	-0.09531412445995559	0.0713256461113833	0.03210218619125319	1.064630413405397	0.9470737993825922	0.4290165355136423	0.6175212966766834	-0.238756454037964	0.1620880700746087	0.3762869027484781	0.03879643001440365	0.3897446357837203	-0.04658979218793177	-0.3589552665872371	-0.02572159382999122	-0.03677039129858117	0.05599470593042052	-0.1052831172170031	0.1650489505894732	0.09396746454545907	0.1381463777315067	0.2484637979605339	-0.09553267142609437	-0.02804588358187741	-0.2097688009047387	-0.004182128544185659	0.06054175407706457	-0.1640189026220264	-0.171381208453004	-0.4838488192268788	0.222971511769263	1.57079632696943	0	0	0.4702585648593313	-0.3279819799230748	-0.03490008792828357	1.353145850065008	1.57079632696943	0	0
1.116031259413831	-0.09911345913754424	0.07152747234710718	0.03653387940187622	1.066538592619696	0.9440316169018909	0.4315689517629294	0.6200861390783118	-0.2332867800878768	0.146134976297895	0.3674769894912253	0.03879643001440363	0.360845791597779	-0.04987065791628467	-0.3612945415620059	-0.03483987332266442	-0.04413785526030256	0.05157030392537792	-0.1029729187700609	0.1748119363035997	0.09396746454545903	0.1456927549941686	0.2642740499912472	-0.0895770345208311	-0.03213407617031693	-0.1997088628549608	-0.007247263694720519	0.05473068692503458	-0.1954247157906403	-0.173152148378361	-0.4826642095969148	0.2286723337567905	1.570796326969429	0	0	0.4985908217237979	-0.3250439762757112	-0.04025833015555521	1.402000765952776	1.570796326969429	0	0
1.12	-0.1001243677101098	0.0713601431964601	0.03782537104964619	1.067193626838669	0.943179368758965	0.4323323545149348	0.6204250343457092	-0.2313353270931325	0.1416454912048577	0.3666602010972301	0.03879643001440363	0.3554362130447108	-0.05053847901362168	-0.3624926383919911	-0.03667119464776093	-0.04632546386623637	0.0499550902244198	-0.1025992725884229	0.1775732421120015	0.09396746454545903	0.1484462017454991	0.2685772074585873	-0.08753478952774255	-0.03308969094615009	-0.1965871015455707	-0.007933350989656822	0.05310741542761765	-0.2042694194561455	-0.1736579574027629	-0.4812668882517006	0.2313804556776057	1.570796326969429	0	0	0.5063909608926744	-0.3241151888776885	-0.04161208686354689	1.415252095120905	1.570796326969429	0	0
