DataType=double
version=3
OpenSimVersion=4.5
endheader
time	pelvis_tilt	pelvis_list	pelvis_rotation	pelvis_tx	pelvis_ty	pelvis_tz	hip_flexion_r	hip_adduction_r	hip_rotation_r	knee_angle_r	knee_adduction_r	knee_angle_r_beta	ankle_angle_r	subtalar_angle_r	mtp_angle_r	hip_flexion_l	hip_adduction_l	hip_rotation_l	knee_angle_l	knee_adduction_l	knee_angle_l_beta	ankle_angle_l	subtalar_angle_l	mtp_angle_l	lumbar_extension	lumbar_bending	lumbar_rotation	arm_flex_r	arm_add_r	arm_rot_r	elbow_flex_r	pro_sup_r	wrist_flex_r	wrist_dev_r	arm_flex_l	arm_add_l	arm_rot_l	elbow_flex_l	pro_sup_l	wrist_flex_l	wrist_dev_l
0	0.4963526929109267	-5.652803280204814	3.223198620962914	2.266032146852885	-0.2863340886034855	1.333343200847787	-6.747372757630188	10.53640775077965	7.285918872625081	42.93412790477272	-1.789079897134959e-13	74.72579013114279	21.46995213484092	-5.57280049224732	6.291674091433691	9.98654901007097	-9.635595003067223	-1.876612263638109	21.03854402200261	-3.34070052822221e-13	31.40732098809709	-22.60068407639319	-13.17822479453606	-0.326000223152498	6.50448557083403	5.549571525349906	-1.566070547987273	10.802994391765	0.4573046112989709	26.86775530267471	7.508664739116705	2.331703726629592e-12	0	0	8.111115511354951	3.256948844320362	0.09164542413965567	-12.54212403513706	2.331703726629592e-12	0	0
0.009512856113114032	1.986201354941772	-5.67562013297522	3.393361897437025	3.425903721194027	-0.06354770882449146	1.264115482580612	-7.047144214137131	10.25254859634684	7.370185913070568	44.88493933548906	-1.417392131167292e-13	73.85462808886369	15.30447732718697	-14.05796524228293	5.494055712158402	5.096617978472298	-9.561392811896329	-0.3080601021311447	19.52857136503187	-2.210637688934884e-13	32.17969159082818	-7.560210882734651	-5.957246888451138	-2.239233410087515	5.861370111176737	5.932153922623973	-1.614570158799197	-21.38451213875527	0.5047851157840031	28.73078519899522	5.59262351766389	3.208105195559031e-12	0	0	-25.65127145758282	3.558396206810448	-0.5816974796337571	-14.93066935840129	3.208105195559031e-12	0	0
0.02645588447305514	7.409128508186386	-4.780233789231999	3.737760988445456	3.184361977727192	0.8555194676571193	0.6474722381677891	-15.35207551784013	7.015459661430451	33.38798527582023	30.22408730674542	6.681966775650648e-14	63.42599325792285	-35.16306490019355	10.29925238189314	3.806743807887625	1.465923321543422	-7.09662624102652	10.78269839620803	22.15223318176785	4.076133473684129e-13	39.9462326066365	-9.192104604910071	-21.14973736496857	-7.077830675713796	-1.78655344661986	8.044994139924526	-2.122234383248934	-6.093740234985123	0.6932453199489148	24.13568766947598	-20.47973025936795	6.129067357492533e-12	0	0	-43.13266661109241	5.155639489878617	-3.505355825860596	-25.36172478283449	6.129067357492533e-12	0	0
0.04083125941383081	5.50951459820612	-3.413225195569372	3.466690502512146	2.043480985287175	0.6887989599203322	0.5795995094291728	-15.6617675481965	3.114632960694259	63.93270819145986	3.158454599147301	-3.616811921330611e-14	50.4015670086492	-23.56397259150314	15.40056520936009	-0.01129428865308424	7.224580012176641	-4.580567574211416	9.510852218455184	24.95558296709993	-3.328033694509586e-13	45.27898507234352	-14.20651823504863	-28.36099119996371	8.968133687117136	-2.635700874946788	5.43406536073581	-2.068657959545395	8.778274676932487	-0.3797258294924581	-9.702411012901614	-24.9263857119116	-5.238063378735423e-12	0	0	-21.34689954577598	2.77086911764569	3.040452919042417	-1.551922168285024	-5.238063378735423e-12	0	0
0.04479999999999995	-0.2745779886174847	-4.687317676003584	4.926774029365197	1.600702099995785	0.2648202872450499	0.6822083361494103	-21.69660065696677	2.263871719815414	32.38853625374394	-36.9425720581777	6.314744394333032e-14	45.99865966597035	83.43799640303361	27.79454370472792	-13.64664782492854	16.17085218412766	-6.535918124773813	11.98664264251974	30.93351166149576	-2.953298891181778e-13	46.88267116023382	-7.464827646418996	-11.11838424978372	-2.725244806639731	3.338637011823587	5.572959251517235	-1.843988500096805	11.14961162099236	-0.7130741213355108	5.19872317798875	-6.420661971001591	-6.421020874820503e-12	0	0	0.7472400979631707	2.834645581390932	2.472904516630826	-3.097857155334638	-6.421020874820503e-12	0	0
0.05431285611311398	5.044408663527974	-5.044530468266986	-5.615302481805521	0.5220072434175393	1.898985065329629	1.655589596204221	-14.94332082727801	9.423139623985506	11.78413637418885	-8.85701766950536	-2.986471216415526e-13	34.84408492191901	72.37482793973705	-69.57341156504587	-10.63478973716091	14.05158544993224	-5.941664721708153	3.138899415186676	34.81549417981176	-4.946910390082849e-13	49.88574893864865	-14.32850082774216	-38.20965969446492	-16.37888065209192	-5.487654169066304	5.598221700935079	-2.692402781719471	59.93041717153282	1.148516387325405	-10.51510367397166	-13.90064330548911	-1.896830043870204e-11	0	0	-36.82710923669851	4.106638915798808	-0.952779342811382	-17.32435975098478	-1.896830043870204e-11	0	0
0.07125588447305514	-0.6082875382571939	-8.105275877970572	-12.56485179830246	-3.132995801738912	3.513841475762189	2.29026332280609	18.85344766845557	16.20500371877897	-13.18266693154469	26.48400730824724	4.609172459504269e-13	12.99818594767218	46.37055667652265	-12.87611568913475	-0.563886398312814	34.5301717598835	-9.280433703581949	-3.260782196827496	55.92373100557952	6.054382294489862e-13	53.16492693390202	-21.46958078741764	-28.44334387064744	-29.40519773642337	-6.163910458408121	8.317316138853908	-2.070842961968995	117.4442758903259	3.029150309207044	-15.42410471574569	-20.02439299206949	2.072957040479499e-11	0	0	-32.23609164599667	4.572569456759068	-4.422574391888733	-31.59123726728715	2.072957040479499e-11	0	0
0.08563125941383082	-1.489048896037568	-9.156563235396968	-7.300541317435027	-2.402129324095911	3.724256836694329	1.809403794591635	16.3341046915614	14.76797988498886	8.353018458146078	21.81501083282859	-5.829426914243186e-13	-5.390508099525453	52.48567945158172	25.05434424031201	31.18949129888135	34.94337182574728	-13.0491591336603	-14.2696855137763	53.52141014401766	-3.780661930364504e-13	52.76202292256243	-33.94336052094972	-21.77528634253115	-5.175564578169938	-2.835359086073097	7.81463432834721	1.762254115013562	50.5913643863091	1.835358316710103	-13.63207228985816	-7.251424014987153	-6.380495776443331e-12	0	0	-24.97238295783307	0.8173072483011833	0.4881265207177029	-14.08520772482688	-6.380495776443331e-12	0	0
0.08960000000000001	-0.9789513009972846	-4.495484514972209	-1.962393456069332	-1.249937713258177	3.417957244485003	0.9085448865676882	9.955655744987075	9.004357311770494	-0.459390376536235	18.45114305169061	-6.395392686398592e-13	-10.104139580206	31.95248742728782	-9.922153130033013	-21.78447294114534	29.29630306196638	-6.611822350759363	2.250231393332003	44.45385454834385	-1.332478522490618e-12	52.01552822088181	-32.27429305233504	-18.07846818215533	5.597120999177054	-0.8445427417633484	4.206935162033441	2.884992412075422	11.80358721056903	0.7539784702611081	-4.922012757150236	-25.12283670565281	-9.381234689140272e-12	0	0	-16.89048892338295	0.727089135092669	-1.94334783127722	-13.98137257375205	-9.381234689140272e-12	0	0
0.0991128561131141	-1.384005901077618	-4.484458320141972	-1.366334932921416	-1.013995288313693	3.514686699211391	0.5195779938681596	-7.892345124962906	6.028271470751754	-0.325851269032239	-22.8976793799165	4.553980364687095e-13	-20.23669676441575	-9.008303626900911	-4.724671980145	2.204498217019846	32.58163051297191	-6.762194401086161	-0.05853526628673777	48.8678786655581	4.028090152101679e-13	48.90980206610614	-44.336673523714	-34.23072599655245	5.752553081790557	1.696659988492089	4.140026897121646	4.911119387815333	32.10565565157413	-1.1282013912649	-17.33479731609069	-21.36928627647629	-9.699346304200452e-12	0	0	-29.20936751799551	1.813733143720179	-2.102293113576778	-15.51718830690127	-9.699346304200452e-12	0	0
0.1160558844730551	1.864506796102951	-2.902554126430417	0.5517361245148117	0.3112483975264385	2.979402368966801	-0.5978449966449946	-35.14149462070399	0.201713828363958	-5.4201342225583	-66.31360145574747	-7.629853393442984e-14	-32.65293340599469	-59.75805606069275	1.99714510780511	-11.76918967223268	21.25609551462665	-2.27671960644435	11.56795875301682	33.48017495886516	4.699511572012384e-14	38.55577839400609	-42.4172302775786	-25.20419468290496	20.49600984217981	1.004992292131357	4.822560112723696	7.54366029490111	1.679309323698625	-2.502980267012911	-18.87138269766276	-21.74082628863076	2.034625689415193e-11	0	0	-24.10655869284145	2.384298336868495	-2.934755315803915	-23.61966725568195	2.034625689415193e-11	0	0
0.1304312594138309	2.118830481519259	-2.071678036546698	3.311057735226568	-1.41880225124668	2.33757014290601	-1.300582296588177	-23.54288914711193	-5.23418367564954	-10.01991723066158	-44.81183901811779	-3.940079737227066e-13	-36.3839484013129	-28.40411922870509	11.97872439537025	-1.87216123856423	27.32700165529097	-1.801519962093905	5.608728486496305	41.64080071036899	-7.819363162008974e-13	25.14985143559723	-27.6115151058302	-28.81886771648929	43.48598826030604	-4.136930261232483	5.109303805231845	7.341419425270189	4.453985299825515	-2.572297590188172	2.268340799346961	14.10812315803432	-3.019619133744363e-11	0	0	-21.25036082988094	0.2126599284012834	4.00226108428325	-24.07441494271543	-3.019619133744363e-11	0	0
0.1344	-1.931950961753143	-4.859246390009536	-0.3216510364005373	-0.7654288124762884	1.654020702639134	-0.9767490654696265	-12.17360438978565	1.737936182636733	-3.452391191059803	-29.64237929501642	2.374413355072134e-13	-36.31855189737603	14.24860267938044	10.55948895960055	-6.891050518326431	0.815251911640428	-2.403633164629802	10.90908665031206	-32.14996668209588	5.231372614727849e-15	20.82518086386487	112.2761745650004	28.23622391114796	35.62897950989188	3.435910145240148	8.316599742345266	5.460190327063957	17.02609031309721	0.3790580688579814	5.390596026785452	5.704337661962409	-1.131201564915531e-11	0	0	-6.29381634300815	0.109509046119242	0.1791075864759209	-21.2038036161886	-1.131201564915531e-11	0	0
0.1439128561131141	2.938299601165916	-4.241660654112859	2.443330017377299	-2.472328252345902	1.783401025594913	-1.568045797266507	-11.46096759537091	0.3313551026148048	-2.644237823414335	-21.48462611181086	1.160702181331431e-13	-34.46223708466641	3.076647723443762	8.107288137759411	-17.08586297543565	29.4371779596579	-0.9244696268658921	15.74945587177616	46.4936364763288	8.84560455543664e-13	9.646244390741462	-113.5977105966108	-59.86125392531746	54.86903092036536	-7.404427063861149	8.64706707475057	6.035150819222662	-2.178834414605014	-3.445330266835481	10.67719979376521	30.1197991361682	1.8916554288639e-11	0	0	-15.01695120166901	2.1367375940013	5.484268017673508	-44.1737571571203	1.8916554288639e-11	0	0
0.1608558844730551	6.131447632323656	-3.964637937530087	1.659740442511447	-2.838702356296734	1.089301825373809	-1.67819007486197	-11.1023807993921	1.40242416509691	-0.334697937285148	-17.851969186108	1.710932015436081e-13	-26.70207174524805	-9.756992845130792	5.381433746073004	-20.4703815986621	9.540806397839473	-1.728748083707199	18.80933601656344	4.126546693016274	-1.085104705924971e-12	-11.70364187784232	152.167383724409	52.62284400719841	48.36948481776183	-11.43850087545594	8.474142937568374	6.509378904427445	8.85558189265922	-5.904794894850793	13.4518523730786	47.94769149526155	-1.550820444343403e-11	0	0	-8.228693245602672	3.761723625523592	8.671494222468194	-65.86813879951706	-1.550820444343403e-11	0	0
0.1752312594138309	2.327950162866984	3.082713964939287	0.3164168040374032	-2.303026082068556	0.01075262688364831	-1.375394712052982	-2.968269187091719	-6.235120178096379	-0.7851246367007858	-9.682908218006659	-3.251157698073218e-13	-18.01726122090456	-15.21602219546997	7.769637656201565	5.932530072424694	-10.37232625528754	-0.8158174165266943	-27.45276044061853	-39.95411075562712	8.107563294962957e-13	-29.23124917750298	98.98867770292465	48.09612585849865	-70.18027195087897	-6.603867608761377	-2.22389802308275	1.115071400844037	2.539952127724174	-5.719217838574599	8.36501015609549	53.4402095569909	9.480859397854033e-12	0	0	-6.378973521502588	3.289409105680607	13.67360086670261	-45.36962491890647	9.480859397854033e-12	0	0
0.1792	-2.061864882290226	-0.2040958785912958	4.318076817220918	-1.834987705180585	-0.03995936462710348	-1.743561247114397	1.326261797168393	-4.911183857297057	-4.675122826863766	-5.615191827711964	-4.114418420756363e-13	-15.60715560690728	8.161677687390512	12.94949919710236	-4.235014212687225	-8.189273909394476	-2.353248621263432	-5.235235821233795	-74.42047750421966	2.847616660507883e-13	-33.70310354363424	-86.76993393602615	60.77511514258082	135.0926682592087	0.443188536110438	2.455880727540832	2.647545423642845	4.474064201704341	-3.210698861452212	10.03150179122182	22.44452931380476	7.627245027010558e-12	0	0	-4.232075482938884	1.921798832020718	8.358013357408566	-33.2918487899217	7.627245027010558e-12	0	0
0.1887128561131141	2.262567912457445	6.760648944617378	4.146828090026332	-2.544352907195409	0.5999896573102236	-1.956674378135361	-1.010103438102905	-11.82401866154247	-3.047373684344637	-3.955712067112538	3.444947795710887e-13	-10.17301469578669	-5.670183463489426	11.49063985751945	3.028523198393346	-8.436241732616168	9.225170306717409	-4.812675591276535	-84.27294229927276	2.1768626135468e-13	-43.46875882022403	-79.30654312820914	91.57145134731169	81.27240181123932	-7.649279888739146	-5.485080808596948	0.9231745466547714	-1.226495219984056	-7.920932578680042	8.613759408571116	49.8948659739142	6.657728697076518e-12	0	0	4.650442230759305	4.387588511381923	13.05332428804121	-50.01958536141323	6.657728697076518e-12	0	0
0.2056558844730552	2.504344421570834	10.96514835673514	6.408830970555217	-3.021513975282296	0.5778721910354045	-2.360077701456083	1.247850740469582	-17.02103461305433	-4.849472232685651	0.7319186925657517	-4.231922306488874e-13	-2.669032167068776	-10.86375528418853	8.407392361216367	8.876444454333507	0.005882779453918907	19.88572118677503	7.299380323152897	-65.71628062966909	-1.271162892904394e-13	-56.69903233444501	15.68921571548104	3.559312097121026	74.13557330636775	-9.723111109336493	-9.646473907674519	0.9140611435103718	-5.052686376614844	-9.9428972016564	6.305797752109187	50.04570173005538	-9.696436476914653e-12	0	0	8.543653669030014	5.067389328725525	13.288550005981	-64.04329758913997	-9.696436476914653e-12	0	0
0.2200312594138309	0.3937406337270339	8.934808495642976	4.485180414189809	-2.592018054734246	0.3136305690239765	-1.785462114314159	4.99249628290838	-12.50177221064413	-2.351342533170331	4.12477571297757	3.417068592711747e-13	0.9060252219027765	-8.910450564188459	3.714108047604924	22.04619985407481	1.308953971680892	16.17185109163693	-6.954774640162592	-60.4132578023212	-1.370307914956595e-13	-63.27125436967095	46.10571411635662	1.815345986537501	-57.58355944331704	-7.14134356371906	-8.368938326759377	1.303204474337422	-1.982598693665082	-3.508054986232615	2.854643688299835	12.46751010246125	4.965702776827535e-12	0	0	-1.551363716975877	0.4959183891421536	6.485434879491841	-32.84870239969502	4.965702776827535e-12	0	0
0.224	-1.623931778606531	4.15874044278511	3.871051615605358	-1.990762275557398	0.2203703158099698	-1.754587391792055	4.830827477917687	-7.006265506932067	-1.5558183089969	-0.08490740905362415	2.975833723930214e-13	1.439634851241056	8.851675833338762	-0.09972918223710703	6.435420329460818	-0.07355331678332533	9.177114609456831	-3.719545160895106	-67.11807893546862	-5.692164863940624e-13	-64.35500540455881	3.216694717084128	5.5602117283679	17.03553973684329	-1.854986145355719	-2.134983586151073	1.472262047138035	2.299961451598865	-3.647696647470886	8.206609704353548	19.74081456440272	2.042211329707267e-12	0	0	-5.122450918284414	1.347912846933773	7.666715431368006	-33.96540488680007	2.042211329707267e-12	0	0
0.2335128561131141	2.221943306091635	11.27839754105579	6.555077995155192	-2.66863427911627	0.2941813525330337	-1.972598964865416	2.648464092164182	-15.27035772346364	-2.749289052801146	5.781896243626578	7.391747113197176e-14	1.997900265600238	-0.5308709085180698	7.297852017320623	16.23256484844033	-0.3067900577259017	19.94055521379955	-4.961458656252011	-57.22375714559197	2.483391017213608e-13	-65.80544690657763	56.22509609375153	-24.83929944418506	-52.94932826139078	-9.591836112228174	-10.90694452086099	-0.9288932286988536	-0.6324203515356395	-5.299147337141498	-1.271200763129648	12.11840915750021	6.65115278374997e-12	0	0	8.597317617461492	1.828571140880219	7.444641359513967	-39.81159910815891	6.65115278374997e-12	0	0
0.2504558844730551	2.356610438949726	14.90689201667455	7.82505829406422	-2.361188847865567	0.2779877237205743	-1.895436755131826	0.01757354395881316	-18.64969527856702	-2.780707442419819	1.540513145777985	-1.071444808920592e-13	0.9406986170488441	-4.041709572896311	-0.9921006801033201	18.18664285501325	-3.269942914181962	24.51448349820015	-3.358265817999706	-58.0745780649824	-4.913359354656858e-13	-65.21308199112639	-5.122147633798875	1.656995941282378	-69.17400277638409	-9.158831052083576	-15.79443872811723	-2.756883924068392	-0.2420291238174102	-6.803398949883781	-10.05952490961494	10.10467223770979	-1.199637907847004e-11	0	0	15.39736902485511	2.405293896211131	7.472332799884407	-47.80833259253625	-1.199637907847004e-11	0	0
0.2648312594138309	0.1404894577776299	4.835046745008126	3.357464765495005	-1.691411499265584	-0.1346286745880176	-0.887223742275396	1.800406983432182	-4.965439818515977	1.200510330160534	0.3319853990677863	8.31834362589701e-14	-1.337611005780521	-2.31663364139189	-3.12576118088904	13.20031152708227	-4.293113495534184	5.992302545240758	-14.00628944544593	-54.92872107860471	7.519708187618515e-13	-62.86949697809678	10.34910042276059	47.81319627812421	-36.25546935406109	-5.136353006796623	-5.545486888767641	-1.058905680139331	2.151348653153715	-1.097241738047729	-7.681160598677512	-4.488015484848006	1.05401668045788e-11	0	0	5.128569246029947	-1.045173400728467	2.777729795053273	-17.23994633766056	1.05401668045788e-11	0	0
0.2688	-1.677084210877994	5.068796714678116	3.426912986570571	-1.333485835883419	-0.2496578782429306	-1.158694153185122	1.622926564227365	-6.319009595105206	-0.9080500018609126	-2.852612558856105	4.045118522848726e-13	-2.100157466586445	8.428865855150864	3.650083316162268	9.997684567405834	-5.10210854632899	9.221291652939694	-8.923850388304921	-58.35512543064212	1.474380320477893e-12	-62.11797890681141	-14.94625286786394	23.54266760252609	-26.01860003882216	-1.240050596780665	-4.992884803263112	-1.0163730675383	5.723796460841523	-2.281488873036801	0.01172754937652121	5.597771698171377	2.729554129953587e-11	0	0	0.09036830313559863	0.289631699330464	5.684089312015132	-23.28780237273997	2.729554129953587e-11	0	0
0.2783128561131141	1.560462850386998	5.769335644591044	3.389668753726523	-1.524689084752439	-0.1454005048615661	-0.9008076173175805	-1.688328878214933	-6.65479540643026	-0.9454075603895523	-1.124423682776561	-1.461480618754455e-13	-4.055731191894786	2.092013298955527	3.409193307631828	10.16472923067046	-10.83609502252457	8.195612627012963	-12.54007228184008	-58.82405592386266	-6.026521588563764e-13	-60.35797563822435	16.17896787005528	18.83984252563976	-36.98701447863419	-6.195674808520785	-6.535706528359906	-1.760682009245282	5.91107098205611	-1.421471308162505	-9.553082672761287	0.9678625381409967	-7.436010353863161e-12	0	0	14.43973211543837	-1.215620990787605	1.384208422796569	-22.80748221601898	-7.436010353863161e-12	0	0
0.2952558844730552	0.4600267551937794	6.678468644377851	2.815886614139274	-1.006116840280899	-0.2528161563041953	-0.7039996281290674	-3.297072149021872	-7.446080715269944	-1.669906774958506	-6.505016771510277	3.526663190818694e-14	-7.630451827163029	-0.01395234120010258	1.891831952499554	8.807274408645938	-14.9619912239249	9.778557706409353	-9.194393798462137	-60.23675759800911	4.157924928695033e-13	-57.98432196367123	-13.70434717835649	26.99789467065808	-34.51985271424575	-3.861295555324076	-8.220517834108934	-1.827852651222103	4.068703483425384	-1.096492396144649	-16.18061516985937	3.200716011267179	9.800503503912767e-12	0	0	14.39751695154617	-2.262737796127473	-1.807379789878757	-26.41046950281278	9.800503503912767e-12	0	0
0.3096312594138309	-1.500652208420325	-2.214895755488233	-1.454285586031209	-0.6110050483782604	-0.6302370261548402	-0.1412752731863235	-0.3962874756220405	3.360254547291357	1.217540917943591	-5.07274299479946	-1.363476125157969e-13	-10.33735255709584	4.850425627564534	4.860021203362588	2.26884466820405	-13.92289845872726	-3.069014935352679	-8.839549046711271	-54.83001623570493	-3.151509125497823e-13	-57.04534530703398	-4.985674038137525	42.83144881801747	19.09648941902685	-0.2068273609722691	1.446497822722959	0.9322596720172827	4.019450997832696	2.023354214824527	-6.172665258255021	7.401803260278768	-9.576346278054923e-12	0	0	5.812479709630469	-3.678488106363776	-2.331061914463816	-5.254758540329228	-9.576346278054923e-12	0	0
0.3136000000000001	-2.256315643876414	0.01669162485794184	-0.147197292334838	-0.4994243214342124	-0.6807502891221111	-0.4700252744533542	-0.5782639161523293	-0.04631678784173615	-0.7949456552374181	-5.362550601405227	-6.129356188251641e-13	-10.97824959260391	8.50378050000716	9.992775073105193	6.451918919184848	-15.56188055789519	2.493212094701939	-5.615222067270317	-57.44516673063792	-9.591278049615583e-13	-56.93012417417664	-19.39502808415417	19.87829509665545	-6.028166852285237	1.5546566931449	-0.6183988851580702	-0.3424509737737558	9.127906497358129	0.3983187452555932	-1.581744967487615	9.439344592897804	-7.6382497102372e-12	0	0	5.730967311508289	-1.856713817593217	1.234319539057907	-9.385543190656843	-7.6382497102372e-12	0	0
0.3231128561131141	-1.323877412409526	-1.785864420957604	-3.107016555879468	-0.435447543786861	-0.6515615855449566	-0.2177558957251126	-2.372312031471138	2.054316939584998	-0.2600726433953366	-8.210547670287601	2.604424620955911e-13	-12.25579662922285	2.004215228033072	8.704254119759975	0.8846164522857819	-18.41356767261841	0.03749485034468814	-5.484457296379555	-57.26085800286525	5.295190362077798e-14	-56.76810913578197	5.001095354107793	13.82069701206243	3.877983201988584	-0.3043913244778176	1.554551412559926	2.242847186697718	4.921815182531503	3.135329203055413	-6.907724333855182	14.61072555665246	-6.406528681265251e-12	0	0	6.252444410705633	-5.615081555987873	-6.45126106387335	-6.991533594656323	-6.406528681265251e-12	0	0
0.3400558844730551	-2.873311551842722	-1.36854765601352	-5.176827257956472	0.03839418609413189	-0.7992805899246336	-0.1560889954363914	-1.533175811260396	1.346514700976867	0.1517648657021441	-9.303455691996017	1.084369127626872e-13	-13.36931317420122	1.335043622424932	13.14256563357588	-3.595121013838267	-19.3156958285781	2.270020189319331	0.430179573722172	-55.10068266960621	3.129503361915992e-13	-56.0571841798815	-25.02258120330636	4.597029894147408	2.292985551978175	1.896385637724649	1.030096501625196	4.176238485792549	-0.563377349687741	4.77854204468664	-10.65156420392772	18.59925569799904	9.059590920929442e-12	0	0	-3.422805952131473	-8.200821509821575	-11.82745948576181	-6.16411644266516	9.059590920929442e-12	0	0
0.3544312594138309	-3.423177503311452	-4.194370565998878	-5.45117998519486	-0.003239511069944356	-1.023886248693425	-0.269460811274101	0.5983296899685691	3.923463120289741	0.6408495323291329	-6.019438877912039	-3.220228476420472e-13	-12.84692685003701	8.39136647009734	14.43886669650615	-5.882655101099524	-16.94846840212388	0.1720387026844411	8.289968636624286	-47.37095401883344	-2.864618993588088e-13	-53.65008546314978	-17.76396461869034	27.04071333995862	17.8721137754117	2.616324686921254	4.104998719935425	4.368420064088163	2.141303492905539	4.495132631349875	1.661240648128395	15.58459049821762	-7.43322988295651e-12	0	0	-6.75058519606349	-6.270134932232089	-6.086867301501425	7.96034268759624	-7.43322988295651e-12	0	0
0.3584000000000001	-2.938038272480821	-3.380041886647327	-4.448871161266624	0.007872602592879308	-1.016760588167015	-0.4401699891623083	-0.5309043557185271	3.098525614215396	1.027843225249794	-6.293791376043112	2.248192447452909e-13	-12.43433695720605	9.269406182611617	13.625772785404	-1.096871555122989	-19.73750301194762	2.169439491486343	9.934668605617043	-49.06946877688871	4.768588864062886e-13	-52.48615083580634	-25.69306765650875	12.80267438422604	5.058557926627732	3.317290263236115	3.684198992948366	2.893936751534791	11.97532304640313	3.19721123339987	4.247524161381769	15.85926276132736	5.06690744156296e-12	0	0	2.086642084649722	-4.756177083738246	-3.902321023137898	0.3554511644643982	5.06690744156296e-12	0	0
0.3679128561131141	-3.253691693417402	-3.717614949289709	-7.089218699239696	0.3077421072485997	-1.152667124073219	-0.2268546746624387	0.1004159606035606	3.654790673699584	2.832503748533247	-7.049682272116955	-8.915204216486253e-14	-10.95408058658148	2.702567076944274	10.92017931906667	-13.78708873177179	-18.10343303088453	0.2226436799219356	10.45801682818094	-41.27937924341062	-4.564693578679634e-13	-48.55779775033091	-10.27715548346961	7.12342597169612	-2.091475147317606	2.588805480972269	3.564334339870029	5.457151731860106	0.9388390968097511	5.943219847699817	0.09792074449321619	16.86049334498522	1.31001768656019e-12	0	0	-13.08410989389051	-8.419364626800611	-10.22223618250012	16.15477324522999	1.31001768656019e-12	0	0
0.3848558844730551	-3.886019593960731	-2.370975108176608	-8.391872654543313	0.8885124398651085	-1.39125381347804	-0.1264662038116432	1.530980549372142	2.555404484136066	5.424844551024655	-3.823454829069293	1.810690484697474e-13	-6.631269918171815	1.992708412569277	10.59697932550173	-22.78843009250731	-16.53955610856729	-0.4446231906475413	13.56470949335309	-25.84992817989341	5.505691721485666e-13	-36.82025192617657	-30.00043889667975	9.225283725374823	-11.84582409192534	4.676776023032034	1.420959822066668	6.543880993585036	-2.209018396459122	7.482123622753517	-3.987681562384315	15.2072544129889	3.050661564819159e-12	0	0	-19.98369299882794	-10.60198617247656	-13.8470979994884	29.1602502419036	3.050661564819159e-12	0	0
0.3992312594138309	-3.134041886378286	-1.950131839353373	-5.296524410706324	0.7885292779927086	-1.489256090587287	-0.6020100846050005	2.143546729925604	1.344501713468878	4.045862291000621	-1.113465939272448	-3.241118009847758e-13	-1.488745530668531	2.206062527490637	5.035402347850948	-12.99489774029742	-12.16045573832934	-0.717478581443784	17.82179447196242	-5.792908044511601	-2.7857974610081e-13	-21.67919010814499	-28.94255717097899	18.79280314378644	-2.798846517595812	4.899312897174243	1.444681482054605	3.221136430226368	4.623518524805405	4.438835241016124	6.350269331591499	7.08099126210691	-9.303278041907592e-12	0	0	-10.14068074420982	-5.671117459425203	-2.951098185759337	33.67422032080963	-9.303278041907592e-12	0	0
0.4032	-1.710772809466782	-2.190589282995616	-5.507708670148485	0.723435219339931	-1.457694962798105	-0.6371708312430697	1.43726232372948	2.178778445056666	5.959723305114597	1.011699661029367	1.4813264794476e-13	0.1152042244444579	7.912874488946263	5.335925991454822	-9.446818987347079	-13.06890912590153	-1.442573436526508	15.80465450762724	1.710847177701996	-2.271343036602186e-14	-16.70153871639371	-18.19423869435419	9.20265945281561	-3.024711088543396	4.475302133220243	2.51589477170917	2.94504909245054	13.50023898029415	3.930726057500633	6.691909073424494	13.24218620936588	4.409913964270652e-12	0	0	3.912521350309135	-5.406239580698958	-3.694141923242689	21.8745151200059	4.409913964270652e-12	0	0
0.4127128561131141	-3.069795565107566	-1.115439467844767	-6.084565562881076	1.218238372524118	-1.595391612929047	-0.6463031077557317	3.543763748487521	0.9184619350279116	6.999699257564025	2.176208308958416	3.539733805702108e-13	4.179033210526907	1.280146032274683	-1.322803168562285	-17.6782722496435	-8.720064229108127	-2.666033719620286	9.711641288559374	15.2956346661258	-5.251578413820747e-13	-3.583738351941859	-12.64061370082661	10.42157921537247	-14.73577046218751	6.259952268690705	0.9203824426315967	3.40197600571086	5.096572514972426	5.367608668220091	3.424652414529172	4.217531829645138	1.197773333614323e-11	0	0	-16.18090634931916	-7.070010265583435	-4.798025746857235	48.57384411977666	1.197773333614323e-11	0	0
0.4296558844730551	-2.42661123126163	0.4390415463662539	-5.976220110336323	1.809633329208335	-1.5105098424756	-0.6951085688055827	3.95479694856441	-0.5683386416498344	8.229523744224593	6.606653203691834	-3.007172190580906e-13	11.69860585104595	0.602880387923852	-1.257171474639704	-19.12909948853126	-3.992863977023967	-2.865391294292215	-0.9965830648363239	42.65019198362978	7.972697241578534e-13	22.54732917316	4.347816301724116	-2.650945918243476	-18.79591756183315	7.346551890293726	-0.913592265040608	3.443587491123843	-0.8246907539766468	6.204763154430016	-1.451589126668053	-3.348907686714336	-6.635062775414036e-12	0	0	-22.85098140584462	-8.087222098598295	-4.931031560426621	66.17145299080671	-6.635062775414036e-12	0	0
0.4440312594138309	-1.652220817758119	0.7618383172297865	-2.241475645671674	1.483165117293177	-1.316681410404409	-1.376156323433856	5.27662430966881	-2.011629997685445	2.661417044071741	10.15368498621499	4.618860444261207e-14	17.64339407237907	-0.114310249564932	-5.077657600400745	3.446871348542058	1.922151563609938	-0.6999393455349895	-14.45534825008766	63.79116913058411	-6.320106327134051e-13	44.94798042665079	-9.824203592808722	-4.763579298668969	6.082626792183754	7.177843724060125	0.9501639718036431	0.2893597219337413	4.871120072273396	2.668389838132016	3.876297864418059	-3.930185875698196	-8.934235157260223e-12	0	0	-7.138320040951456	-3.050538937550999	5.14943394370431	46.21132008124977	-8.934235157260223e-12	0	0
0.448	0.2064177158242508	0.9366575058072062	-3.699444122705358	1.098651097691021	-1.149182244230983	-1.056775963094647	5.262214876993932	-1.281954063582907	6.340642517148498	13.72201703688686	-3.95919867124563e-13	19.1122568219597	8.510909069003205	-3.205803924828352	-4.386501117719555	1.913156554240929	-0.9533656451282282	-13.49354075457278	68.42298510441972	-3.372218653519193e-13	50.74750982459574	-2.314598214565457	-15.69032989125514	-1.27509344026257	3.930788305729629	0.1337269027768515	0.9740501997491137	10.69942766631272	2.996401984838744	4.476584660392174	4.633863916668136	-1.531487039401272e-11	0	0	4.332706468912841	-3.962019886474209	1.895091286367769	38.73328442270596	-1.531487039401272e-11	0	0
0.457512856113114	-3.086538384234565	1.661313867120271	-2.941261170817531	1.722211783921004	-1.359664334924361	-1.376564264895951	8.867787219286043	-2.794545780996256	3.672139643540881	14.80133396445069	1.849523306500779e-13	22.20148633793769	1.625084822439101	-8.916080417280291	5.594327159637757	5.440591773200411	1.755303892776023	-29.56215502380817	76.52396775826286	1.100578249735051e-13	63.36552461489043	38.45464323220882	-6.614572191782795	2.959093552483018	9.589067404548375	-0.008017610950747378	0.5326545012812602	4.085444870907455	3.532987219494383	2.907654354021659	-9.80331237699286	8.632669889945161e-12	0	0	-12.71341922339186	-4.248796542460859	5.40267314217568	58.40859813706777	8.632669889945161e-12	0	0
0.4744558844730551	-1.584590367820799	2.946228805923006	-2.665545774528803	1.617586548390776	-0.8981894883133561	-1.429551976378483	9.252456543332981	-3.980340726965538	2.956547505360571	19.00497193329085	1.90018032258788e-13	25.79459226735562	0.05105096178308699	-5.966388988095843	14.36791262350397	4.092602757872925	4.835589626853491	-39.43424578891931	80.11643895200751	-2.40086680859762e-14	79.19487614206368	22.80090852096661	-35.12360214635986	4.304292631370029	7.125701275541002	-1.609613012657439	0.4075927960263669	0.4372344635807401	4.098232475003335	-0.714667286219699	-19.8696690194167	1.118294864471023e-12	0	0	-10.96452956904539	-4.63617413412832	7.368339440375675	71.93324790437183	1.118294864471023e-12	0	0
0.4888312594138309	-2.208554917568952	1.300394789838907	-1.722631987299446	1.25262857725514	-0.8002208166626248	-1.478740570273438	12.70822392673361	-2.538699882862188	-4.400935466167541	24.25202960686966	-5.762702580382555e-13	26.60802792470212	7.439616007393985	-2.798278933765523	24.04171186871629	5.026764848209919	4.343214705624792	-23.36982417106406	73.51322662187113	3.357312001663876e-13	83.80274750668633	-13.04675233552863	-30.2888113081319	21.57377281421491	7.285384914362837	1.214924850783262	-0.0248699468955782	4.475952812622992	2.021107122305088	6.410776058107931	-11.95828929026342	-5.084956139426943e-12	0	0	2.055614115885437	-1.736962246985857	10.09755645253399	34.04893757105017	-5.084956139426943e-12	0	0
0.4928	-0.06550806319509644	2.456334153464026	-3.75568185112764	1.119903748246424	-0.6073590665377859	-1.12808046695653	9.747867633379821	-3.343296406715814	1.025408293251056	22.46976499923175	-2.07937740993762e-13	26.46249150918539	4.550241072950159	-1.181129971313308	10.35361541417288	1.582878227332877	3.354315950829996	-20.07881454602461	71.34334489101339	-4.526648536426045e-14	83.49427815198942	6.697896232499929	-18.09758188107606	11.00058569949982	3.496804909715723	-1.422138457502814	0.2309135456327317	9.953139861017968	2.376457659494418	6.697870071885984	-2.884934146121303	6.475307278725942e-12	0	0	5.857935653689331	-2.791640860271125	7.368907400251684	36.40906565450162	6.475307278725942e-12	0	0
0.502312856113114	-5.16271645193993	3.49123285250313	-3.794180875198671	1.373321099951713	-1.015549816911469	-1.105691949078127	16.40456411128629	-4.789321253374469	-0.3597853339614612	25.70312790223234	2.429833293803318e-14	25.50750068273133	9.096496594576081	-4.949491654174637	20.92884531771085	4.848276020827452	4.603368728989158	-21.50724102757509	66.82497736621413	-1.028538824529771e-12	80.02901493312224	43.05613206983742	-23.6607387602518	18.16809361131249	9.870611062918421	-3.205592700286897	0.4400506712724656	2.98733395435832	2.915947304315221	6.076237133318822	-17.91137333102565	1.261464340767904e-12	0	0	0.1874895757518339	-2.547336663300293	10.17290628219455	37.54569134765025	1.261464340767904e-12	0	0
0.519255884473055	-5.910642792328763	6.402125640690147	-3.904338241630944	1.225918786185807	-0.8545562482565454	-0.886528530300053	15.99619125879034	-7.83212670628239	0.5531565297294316	23.53340258675778	3.511590656535503e-13	22.06242098318575	5.548878402071756	-3.446926032240719	22.7536404042186	0.8316586870279208	6.151071473632701	-16.34651780283332	48.77346964229881	1.182454338530782e-12	65.53216332788317	9.754133499064935	-40.70701075266427	20.24338571712024	9.050657135525	-8.232831868528942	0.2585019624088806	-2.745475978963576	3.307165516521561	0.9798328044730229	-26.02684082695022	-3.823474214602976e-12	0	0	5.795958804143786	-2.217367749420931	10.79731618786063	40.18636476422386	-3.823474214602976e-12	0	0
0.5336312594138308	-2.733358496978716	3.283656412860298	-3.194507543060148	1.136443474071179	-0.6396773621855973	-0.7268133837649192	10.74067935887208	-4.445720345891496	-3.850299069339353	19.70725782609503	-5.28078868678702e-13	18.15942217713662	8.665864693922755	2.60069647878774	10.06811994837673	-4.216882102408757	0.5292686350855018	20.67223252928867	32.43730384821925	-6.592197289003989e-13	47.80822172558585	-24.74639448829952	0.3620182694643859	20.74815489770538	4.851288793139932	-3.988309031871424	0.3858951250361504	3.748775382863332	1.651700203415934	2.941843533901331	-7.681995217544405	1.791487664262603e-12	0	0	12.3793680258138	-0.3085241814955071	7.272050729247309	8.206116800166534	1.791487664262603e-12	0	0
0.5376	-1.62370085180521	2.428010321861352	-3.590256105523517	1.08563358691441	-0.649868491770287	-0.7345135921158625	6.676731488370958	-3.50609351647309	-0.6567800389226621	12.05125161862379	3.636102113106561e-13	17.05963024779782	1.926116725783764	1.318805848494541	11.75961009313066	-6.454989387462819	-0.3162486131718801	11.0214726602468	28.60578322792867	1.062820789775427e-13	42.57422037301652	6.868326043790766	-4.192504244026917	10.57053693830476	3.167254434892165	-2.818628382878092	0.3496706662709826	12.61616029314297	1.929875069655074	5.909382546550638	-4.928100608989268	1.640408549269034e-11	0	0	8.55537228195525	-1.437725937797113	7.70020243480036	21.26512349976686	1.640408549269034e-11	0	0
0.547112856113114	-4.326853897643939	5.681875838694152	-5.709824593295449	1.181936599184237	-0.676700567363868	-0.2210255946967639	11.15538276054338	-6.71721006342058	2.290279750504259	17.02864234649643	1.701441320267198e-13	14.59311717171864	6.888191828552644	-2.042270752302559	-2.793406343344171	-6.066745735309368	0.6742593208104073	40.92126809163011	18.79244965815715	-1.231783083354541e-13	30.20252361771373	-70.80517942814221	4.100229506669617	5.595544888394727	5.766681206120222	-8.597622038683422	1.6935788556863	2.616996153768333	2.55554369193739	4.207865996960906	-9.997900894350874	3.159119754061989e-12	0	0	16.7885471249646	-0.6452652396095687	5.612068596092206	0.4490385345581038	3.159119754061989e-12	0	0
0.5640558844730551	-0.5580168375829244	7.57820262807223	-7.046780834365896	1.815693749521693	-0.3472628923641599	0.07023003176012904	2.440442259024837	-8.264164982411348	5.004374553237046	8.72360361034066	-2.674452012969023e-13	11.59555393932904	0.7541764754131446	1.531789532437231	-16.80905984936752	-14.89276325367937	1.244106811369176	56.28572266587958	-5.454711467774025	-9.118941763517324e-14	11.40424375908722	-2.138454925587375	16.61628644999053	-3.343557025830824	1.361620027211963	-11.89028006228569	2.436393406918786	-9.200270807118955	2.835180272436451	-0.7935544097357082	-12.51980793716563	-4.919904536151092e-12	0	0	4.438426935408716	0.1945210765838639	3.396086552526026	-15.80723867515067	-4.919904536151092e-12	0	0
0.5784312594138308	0.4148929213377476	0.416023599364048	-6.33128694265554	1.92058342783925	-0.2921557679828246	-0.5337442543246164	1.660079299943681	-2.018703086086674	-0.9983421748236271	8.129347842273834	2.711467910163659e-13	11.36436405217693	-0.6722541549843193	6.409104924006897	-21.43722186598066	-26.42389689965688	-3.263075440411911	53.4278303441027	-69.68258850068963	6.14173766503809e-14	0.8547604230070254	59.61518085506243	-10.39458631962675	-3.170932655843564	1.736061643075503	0.04952029283469328	2.155082562969173	-4.947616489503694	1.217374555485704	1.064726453153995	7.335302254363997	2.4558878635195e-13	0	0	3.942528525259263	0.9356591489131449	0.6736655477081933	-31.76991979337367	2.4558878635195e-13	0	0
0.5823999999999999	-1.318295694416477	-0.2816692424515947	-2.944770803600164	1.267997146172165	-0.5255896489320684	-1.019322013732483	2.226984115910346	-1.766227407323749	-1.566790195497152	5.077697965755771	6.189302243597977e-13	11.76177844153368	-2.714344528221545	10.50246692074873	-6.917403829741251	-11.90592685356916	-0.9030473959606102	10.46838059059949	-35.45762154598087	6.470263140986411e-13	-1.120173863119688	47.30508778448689	-15.20318790083154	-1.02278226097036	3.89628748159771	2.008455220367583	0.9575106344163332	10.51085712831159	1.272435106994413	0.4150449656514124	2.528112337413306	1.151338376035236e-11	0	0	10.3392778370727	-0.1368411057426372	3.775953191270394	-7.884974960816606	1.151338376035236e-11	0	0
0.5919128561131139	2.045710471650872	0.01259960614095369	2.109434300067657	0.9522031802786529	0.4480652363263053	-1.322667347962758	0.9466067539943843	-1.318306848179238	-7.171321462381255	7.784183166361398	2.404313932777382e-13	13.56439087853049	-7.892859946972738	-2.266751993095103	-28.33582734610985	1.837951720397494	-1.613411625117997	-18.2070865869977	6.57666849393953	5.441926845501494e-13	-4.44438078360509	23.01612058506718	-84.14999314477127	-20.69637408576472	-0.7788952483757743	1.998940881975752	1.323883483722049	-34.07823338238565	1.177333370786883	-6.923109065952814	-9.537843521351503	5.682791021115319e-12	0	0	14.82250992971433	2.760588344584441	-0.2272490229664875	-25.12829780489232	5.682791021115319e-12	0	0
0.6088558844730551	3.698753170189631	1.667014697288117	7.755813476838902	-0.4371517538934483	1.846292042673807	-1.726094747644781	5.801854074797694	-2.422318550968091	-11.49522616071849	19.57425071001061	-2.219052846103284e-13	19.569082241143	-13.09343396792327	-1.049682976480324	-28.60033770143982	8.413654561214042	1.719049743819388	-31.80722365035299	17.05914583821113	-2.240250756621798e-13	-7.199513072821925	-25.77293841080171	-46.3202760198744	-30.36894564488833	-4.808876373973915	0.7250632150280616	0.3961817421721994	-55.16208702736985	0.9861637485013102	-14.61124708886737	-22.5813276415499	-3.140795825937545e-12	0	0	48.13163125465709	4.796920240734509	-2.592544860750781	-23.00497688668627	-3.140795825937545e-12	0	0
0.6232312594138308	2.482440666909685	1.793809780153593	6.832602407057689	-0.6062530272244104	1.954908626994049	-1.906228132436378	11.55711149747306	-3.737663607871977	-20.60043157063212	27.98360055590773	-1.883393391959875e-13	26.73119194823585	-7.69020879439821	1.790439016534243	6.932409575276317	3.147736492223272	0.7293927124523246	-18.76559888986218	7.472513778210127	-3.354067373445836e-13	-8.952238535915683	-1.056318402094377	19.01382108784158	0.0002837664502503001	-2.889703100317815	3.210153598358534	-0.8544902909250912	-35.97005661754833	0.3030880475890008	-2.490475642155777	-11.96091404143198	-1.237650608716328e-11	0	0	38.51908896433086	2.792037620511548	-0.7703052746538515	8.921573358741552	-1.237650608716328e-11	0	0
0.6272	0.003868498182961005	1.407452332328956	2.531636734638537	-0.1809532576286153	1.332018878665435	-1.498114368824925	12.28212062304342	-2.898372101314533	-8.344256193251878	22.48694601858921	1.952398796807529e-13	28.87919062177884	-7.696268955845387	1.910641024753142	-8.441389879307282	3.522508177955151	-0.4538115761878888	-22.06838354092411	7.412334197839442	5.53609576293447e-13	-9.626200818994338	-0.4256267637159112	-28.35457788512379	5.336333784324641	0.424573888001702	2.692735266436049	-0.397172049326313	-9.796379175597011	0.5217893681945064	-4.568119947382159	-7.372101979599267	1.758881602602639e-11	0	0	12.78088470452239	1.45767575469851	1.866928218129083	-3.997243398697332	1.758881602602639e-11	0	0
0.636712856113114	2.113906762711125	2.808680320318067	6.780511923427466	-1.21254202213197	2.359140594483947	-1.759438584538856	17.12640547160935	-4.455795599058828	-14.63233686861116	35.26479959423533	1.410109234080381e-13	34.04017292192342	-18.56912347120727	-10.39501742998738	-9.245214129104989	5.162713257761872	4.768574689860225	-1.925743005120435	20.74363558838735	-5.884541701097709e-13	-11.72375360471572	93.41715513094381	61.10582394845848	5.093464596332375	-4.240622239157084	1.276435055036191	-1.536021149250216	-49.69037188861526	0.3216009609340059	-5.936512023663985	-16.04915159909012	1.185949618643566e-11	0	0	48.27669971684584	3.074363801182864	-1.52888696627036	5.485624076092266	1.185949618643566e-11	0	0
0.6536558844730551	6.210180271884779	3.310211932171758	7.51552539208499	-0.650488057241209	3.005706805919062	-1.476529231606134	12.96411851406295	-4.699007338267699	-8.732070749504595	36.26724501246902	-6.145927275452992e-14	42.05194155203337	-19.62279386034253	-4.72904416177288	-3.994632553439894	-4.973614593962372	8.099494014195219	13.94500972163157	6.470105852700287	7.255363620098744e-13	-16.8128662033343	55.55510201060277	25.42407521194739	3.302717800878204	-6.647335700854874	-0.3591533350835227	-3.353095574914375	-51.28663399506672	0.0978399074355592	-11.02760679952227	-19.23508418116692	-6.44524819240158e-12	0	0	27.75057050541073	3.434332927145588	-3.859915070439752	6.363369125139295	-6.44524819240158e-12	0	0
0.6680312594138309	4.533888179831223	-0.5605996598576245	-0.5780716005219234	0.1708014412360685	2.156378022408746	-0.8661202653763609	18.2955547044831	-2.643302280190782	-9.636778891780487	41.49794181083091	3.273554170874923e-14	46.0803371956741	-17.35011322784153	-4.055223248386783	29.6347113535676	-32.06483778437393	3.026450783742201	1.908874646311062	-56.68446706324801	-3.366103284599884e-13	-21.05622818715896	-56.86990443036493	-7.483694270904756	6.517952609508047	-2.816627713983155	5.168467467619306	-3.657647487417207	-25.98156692189012	0.1470933075743311	-0.8885284032909917	-1.358038875112322	-2.167144307487053e-12	0	0	13.06582327389382	-1.33552942716786	-0.66235728023667	7.704169052844215	-2.167144307487053e-12	0	0
0.672	0.7230325145604783	-0.3485777133114636	0.7922207188117191	0.03148931393308932	1.263950802381152	-0.688713684273865	18.94067975416713	-2.123623079050045	-0.0199463521192822	35.2605595013892	5.154473681518358e-13	46.55802140300884	-21.6934501173504	3.581831775749943	12.92880307813791	-20.84341257834424	2.871448615801517	2.857868020373945	-37.96795692742004	7.04259378185614e-13	-21.9574050396167	-4.194630335051066	8.459537260551631	16.18572050601946	1.725087895803248	3.680970681001068	-3.149017161044759	-6.855097363008404	0.4269230997316406	-4.611283865571933	-1.173145678846293	1.14819867945314e-11	0	0	6.202274624052158	-0.884125516707531	1.012490354039734	11.16246420303519	1.14819867945314e-11	0	0
0.6815128561131141	7.063252471160572	0.2506233364450869	0.2572856412253854	0.1338272518389479	1.923730907279003	-0.2756363393035048	17.22950539175007	-2.932410657472841	-2.487591419591403	43.70443978714785	-3.868247059146773e-13	46.41955892599625	-18.53465678482443	-13.79040294271005	28.22273185271099	-32.46435689085185	3.203290697337447	5.007440840814584	-46.2445202481795	-4.711613316974538e-13	-23.34387346360325	-3.760276672440085	8.47968855215208	0.4522929258125874	-5.958028871581705	1.78723105020276	-4.048807976665876	-35.08105308600226	0.6448325158554812	-0.0508282478661326	-13.60298006270151	4.929060366579296e-12	0	0	9.467097432297413	-1.921067481851071	-1.637271866061303	21.18898324949653	4.929060366579296e-12	0	0
0.6984558844730551	6.672855874734066	1.664959390240788	1.883605440394198	-0.3324370946777225	1.349249836855734	0.1057838880388685	12.63298457774841	-4.238898093159219	5.423060432541318	28.5520594695839	5.178129072985573e-13	41.43447095403005	-33.6780171517787	-6.742407786086146	37.94611710341467	-26.89354860863487	4.978485183370255	6.5294801162671	-38.96582618604581	5.751539367840269e-13	-22.43760501498274	-10.29828596033622	-3.735748732546138	-4.46563165526999	-6.861528052977739	-1.520410470158344	-5.250370290376733	-24.83097208590785	0.6731252090422212	-1.676674566287349	-25.5690494123889	-5.62894822824152e-12	0	0	7.34252785405006	-1.772538079897923	-3.173652131003561	34.51825504443138	-5.62894822824152e-12	0	0
0.712831259413831	3.048002295873865	-0.6303838371971453	-1.933738358946152	-0.9869646186125951	0.5839086866378299	0.2902931297680862	18.79553987072343	-5.50044039821171	-1.169828562143391	30.47237511487496	-4.961372157439241e-13	32.697879069283	-17.83818384760694	0.2678941284411322	41.31568722266159	-15.97928430209386	1.516096148194312	7.134158312553176	-27.97053353654856	-1.004772764612172e-13	-18.35645615326192	-9.913171976439799	-5.713477893156682	0.8930320877561417	-4.323732345769785	2.13909041048571	-2.597387484986488	-15.55408362801998	0.8148835440022959	4.829608537772833	-15.75939281832522	2.359926280242704e-12	0	0	6.605820030728452	-2.254617579096414	1.334470739409748	24.8495655205921	2.359926280242704e-12	0	0
0.7168000000000001	0.7897152234433076	-1.023400856295131	-0.7873464952577987	-0.5592799804392893	0.08245495933075941	0.4928326180116191	15.09536953026732	-2.380902031511817	10.24564557640379	21.27317212318369	-3.786714353900807e-13	29.66101075808296	-19.5606692268634	1.455661362007379	30.35828164179943	-11.79896583698724	0.1846648757037303	4.60207303569529	-22.95621152725932	-1.121367448856934e-13	-16.8253938950394	0.9154375093498928	5.814481410030101	5.804066026119484	0.2759402388353791	1.5903388209798	-3.603849436650772	-6.371906648910116	0.6661036271970021	-2.01516420031323	-9.941055121138069	3.405936058601596e-12	0	0	2.571561237924521	-1.525264995715206	2.431916303140763	16.54823920172858	3.405936058601596e-12	0	0
0.7263128561131141	3.642418572259755	0.5032264049297583	-0.7512218289045353	-1.841034482618544	0.1346009296860987	0.708846915939204	24.69825985163549	-4.246528694769101	9.183635836933865	49.96770353195953	4.782191657938517e-13	21.49522479280605	24.30684230484174	3.105721086297585	55.27764808511041	-8.947854890729372	0.6936243637770283	3.520823958322923	-14.64496067960244	-6.707412701026967e-13	-12.73495269037277	-2.754647411585417	-1.474014128587267	0.851857266335484	-7.428492345770772	-0.2489805564570283	-3.636061116438844	-16.7896443617115	1.050435894074902	0.848486768507018	-24.31396726666106	6.997680124156987e-12	0	0	8.063316935304631	-3.319648298136318	-0.7995120711672496	27.33423488375923	6.997680124156987e-12	0	0
0.7432558844730551	3.315533058491229	1.337725542156494	1.422986443277281	-2.126586913594817	-0.4596813630306291	1.189684378764914	14.22149253789247	-2.098555999897826	18.9114210750026	19.98583593418014	-4.329275399118882e-13	4.839151766580673	-8.45030845230314	2.550207606062204	56.57350208970341	-3.744693514502629	-0.5685574811658243	-1.677783145921589	-7.221933575971782	6.257045630264535e-13	-5.259332245302444	-11.50028748129586	7.943339851917045	-2.475042716160129	-7.231153658037424	-2.924385038667079	-4.808294744981978	-3.430155125536736	1.07112207705769	-2.537574264707881	-37.23187985763104	-9.84276374555084e-12	0	0	16.3827556430285	-4.17059189617737	-3.72940480122059	30.69469862370461	-9.84276374555084e-12	0	0
0.757631259413831	2.02114580262819	-3.669178381720979	0.6268039686244671	-1.66818768797484	-0.7161309522457942	1.132612697269419	5.335209720244452	-0.1505927129559216	4.398457020919329	-7.803572882513361	2.391176730251263e-13	-9.990665121582531	-11.2988674824973	21.44291107455489	4.092272742210198	1.407365361692993	-7.493566799920277	-6.072984600906072	1.454432957612401	-3.568606651088634e-13	-0.2477072665384927	-2.587038776735284	15.7621454499843	4.402080975440416	-4.237547543827666	3.710616659700208	-1.756363514648664	-9.324238180798353	1.278447091577025	4.763618120074144	-26.32550263453196	6.052633528006097e-12	0	0	15.76432729969857	-4.150777711856674	-1.203147626058644	5.154904518756943	6.052633528006097e-12	0	0
0.7616000000000002	-0.6430130389090093	-3.256163392591687	0.6591471021579127	-0.9958925463525754	-0.8820457580255125	1.359705251618982	-5.772896409895291	2.76431974026571	17.01691469288688	-44.93599971515621	-8.461385888567748e-14	-14.00128393823264	32.13931471348806	24.43235725879494	1.122532049303673	4.721434340464774	-7.028654538352173	-5.327434821118517	4.46136942021394	-5.893385535304934e-14	0.7666748772092219	3.008658865657118	10.75459944795876	4.078944705929897	0.8488990175007158	2.130126358609936	-2.31060588320062	1.324211632833723	1.159875090852159	2.57225794411754	-24.79730084765107	5.64438155142966e-12	0	0	6.537599504098631	-2.7716640900055	1.17228005442689	10.06117825843233	5.64438155142966e-12	0	0
0.7711128561131142	2.21127149463407	-4.980761071502885	0.5744141398577125	-2.091034261416578	-0.2124482761885955	1.695770510408019	2.694961610263432	7.27137710057314	13.494318106857	-33.33542874300322	1.920360452089734e-13	-23.22852817118891	6.67630384657495	48.59528855522851	-17.23594156846668	5.485901406598032	-9.97282819067429	-7.690704014387089	9.498978496300463	6.812717332025157e-13	2.451060142264372	5.147190697736935	22.22251439506185	3.80925056607573	-5.928202351761183	3.614272853933068	-1.275486350984907	-13.62897434407947	1.800976924636031	7.39749141143996	-48.27789250843001	1.193765829502064e-11	0	0	24.77089086860691	-5.802573205741584	-4.453783126837846	-0.8019476525329017	1.193765829502064e-11	0	0
0.7880558844730552	1.971863963791395	-5.563221880379912	0.564475914727568	-2.030922969460959	0.2770669716701112	2.165666371020997	1.856366690970653	13.08316862234939	17.24257530028836	-47.91257692444905	-2.455380439357512e-13	-37.58100801942543	13.02424884510531	-12.02875490847253	-35.19697108333024	4.699687691587171	-11.5468061004585	-10.8094103264017	6.552527943322855	-9.871805859997894e-13	2.869304506763064	-7.358567541279889	18.46959023354755	2.160227764637424	-5.805845056812497	2.801446045630836	-1.817873652227097	-3.950627203155914	1.70169240660872	5.152475500841506	-68.812623917626	-2.287546278481198e-11	0	0	24.46503745380027	-6.8590028339057	-7.783922579041016	-9.156195006239255	-2.287546278481198e-11	0	0
0.802431259413831	0.6842220710822742	-4.618659605378256	-1.964075167038277	-1.482422638263341	0.3683634297269138	1.661637199978256	2.371656509876903	8.025600512406974	1.005858549688072	-49.29718515554573	3.359427451484944e-14	-47.03862858368649	-6.56676261475452	-13.19358131340378	-34.28476913490539	3.843315375439542	-9.143934674721599	-9.509554109158723	4.481753563230884	8.894519204555739e-13	1.156643333747974	-2.900488285021673	13.7314561779045	9.627600797995902	-4.321156487214119	3.39476832144988	-0.5936954683250601	-4.307505175041147	0.3887842252165922	1.392229563859285	-34.80134598913388	1.971378231426225e-11	0	0	11.24263294778095	-2.376868810185778	-0.599207167308878	-16.9861933115621	1.971378231426225e-11	0	0
0.8064000000000002	-1.391893284464775	-4.106508230274631	-0.9770600104328928	-1.067818312956697	0.2521137626324119	1.721764675406617	-1.614420151812506	8.041146189264772	6.941731305034202	-62.01150777977288	5.224026171383152e-13	-49.17135697408655	20.23365346524642	-2.856173222626808	-21.28681205944204	6.911226866775012	-8.518331897283351	-9.079147325591862	6.795965598282126	1.254265084486991e-12	0.4670413641801129	-2.161820381057971	9.241952566392454	5.835841380159383	-0.6613727855027687	2.376056855316118	-1.18845966502424	1.628240465113144	0.7846925353558609	2.506044951264498	-32.88090225898625	2.986945078991487e-11	0	0	1.814627673445007	-2.814577655161266	0.3777255381777739	-8.081268919725455	2.986945078991487e-11	0	0
0.8159128561131141	2.27985762313761	-4.151648666355	-2.755243655335057	-1.567869347547552	0.7379589643499871	1.841555637951761	0.4306442435760927	8.274898070172297	1.645713748474453	-50.84283072750034	-4.868058926116333e-14	-53.45144968862252	20.96298501957514	-18.64653885010789	-41.40326206637396	2.70311192200857	-8.905550820742276	-9.829884821621084	6.503648515808164	-7.567059244565341e-13	-1.384865678940333	3.926762815122743	18.39241982425619	7.410089837615268	-6.759736647344263	2.564292026682157	0.2296947490179495	2.443093071835843	0.5401918067792604	4.21353628359115	-53.19936877053572	-8.328780114629526e-12	0	0	14.02069990302114	-3.721389636776224	-3.613908043476442	-17.37049729773826	-8.328780114629526e-12	0	0
0.8328558844730553	2.296364137098164	-4.257274750467179	-3.42740322728408	-1.067543175258655	0.8412994992694348	1.929376303079663	-2.444848236862177	8.948934926395305	2.016537296294706	-56.30603208194486	5.086973902083176e-14	-58.39270467640787	2.561922352301955	-8.597364889002202	-50.21668930265996	-1.389942206461401	-9.124439213722773	-11.59201957056278	-1.320914785201634	8.076387859244545e-13	-4.703486757240396	-7.764609621555216	10.00442143280183	5.16592382061123	-5.332422614401739	2.493237490090358	0.766401108891009	16.68911659636064	0.3512755846899763	5.216815514308831	-74.35346936635885	2.954227619805161e-12	0	0	10.03552117666872	-4.690740449346115	-6.944643967635502	-19.11455256117127	2.954227619805161e-12	0	0
0.8472312594138312	-0.02634644686097054	-2.969533954715527	-3.478619380541506	-0.7160102479267734	0.3997865901561468	1.09470506798638	-1.618174862872477	2.112732567076134	-6.905880361313558	-55.27008538024444	-1.037751259469112e-13	-60.37001082427668	-6.34253003422452	1.679886886704432	-9.166449669520643	-0.2075586808812373	-4.534245787342731	-5.404455594180515	-2.515655713912262	-6.963262619487101e-13	-6.821544724602062	-3.195596480170018	4.509737102101113	9.131322416338572	-2.714630141218128	3.153355483959462	1.31155762202367	12.36145466428495	-0.3348073731973589	4.515114500180989	-33.47848075164044	1.431498413503637e-12	0	0	0.6714145208376193	-1.128573070069437	0.255317504117595	-5.218950166558471	1.431498413503637e-12	0	0
0.8512000000000002	-1.727037715876547	-3.152400838515248	-2.998676626681803	-0.5373776225909167	0.2104228052924129	1.281622616872968	-1.988475757857469	4.325326470381553	-2.676767780441135	-57.65720260796725	2.087607103770935e-13	-60.63755428957812	5.652821406896467	8.031612324444655	-17.92556163562099	2.917473816972511	-5.288858228765187	-6.303734044075351	-0.1415364218543961	-1.579533418470658e-13	-7.225411406164179	-2.473508307236344	2.241418601775212	8.392166160727516	-0.106712532833644	2.994799891458707	1.1681608164947	11.65911917008746	0.3193952905774439	7.443727826440446	-33.60139306091944	-5.473310285614186e-12	0	0	-1.374093422172724	-2.18302516860312	0.3631162982136505	-6.828674281348275	-5.473310285614186e-12	0	0
0.8607128561131143	1.296073716604589	-2.811066674975113	-4.638714632119164	-0.608009480901828	0.3793932628415346	1.158563819503481	-5.670929471625947	3.088730659313345	-4.966095828987624	-57.07731505909321	2.170465636828909e-13	-60.90042047088084	13.90463378840912	-5.949951324695523	-12.06766775998103	-2.135854707974824	-4.141247019099453	-4.80798231782154	-2.537682812209074	8.824739747214707e-14	-7.828772302164043	0.5701253792941543	6.277602260171509	6.477032242699781	-3.750896489606704	3.136086456352031	2.567643045192188	24.53318293257566	-0.3207159641601534	7.34318777942553	-50.39538244809881	1.275358752938594e-12	0	0	0.157300861930091	-2.289664560436039	-4.024199778150019	4.024461611917003	1.275358752938594e-12	0	0
0.8776558844730553	0.07926285451040899	-2.612266121915934	-4.853854279022824	-0.2337544538984749	0.02585964743918279	1.103047696837659	-7.395406862589802	4.103282261555556	-2.899962422859263	-57.16434638586273	-2.854287516706381e-13	-60.44567014160785	1.174211157166335	-1.49896797345324	-7.447379876182197	-2.955448290333088	-3.227265056991562	-4.195200018964083	-7.33801370316063	-7.275030493153332e-14	-7.601532875953847	-9.735458830207605	-5.690818541611439	0.1118436298634473	-1.263669987706899	2.870053298929941	2.968955325303215	34.22912487319478	-0.8486833827369133	4.502574139210882	-66.25185191128179	-3.559614941751884e-12	0	0	-6.620807479751639	-2.386226496659125	-7.862372047979676	14.0537783060975	-3.559614941751884e-12	0	0
0.8920312594138311	-1.961558082141397	-2.453700351707761	-2.491652117358587	-0.1652024705181223	-0.5831686377354257	0.4341884586643851	-7.328999346460463	1.224916202869423	-5.196399460134057	-53.87765009387305	2.077494181822547e-13	-59.56184862074474	-3.728473370963934	5.960011631682431	20.27886240505804	0.4729263652533122	-0.07812498695717027	4.07232829438257	-4.407099167432759	3.364719823973431e-13	-6.237287338998757	-2.887253752909707	-8.674340611607139	-0.7736269824779296	0.637266707424274	4.217624095764912	2.030293858854886	24.32033082686632	-0.7892607253367931	3.155259355537022	-21.82508312464263	1.499726815533859e-12	0	0	-7.893595193365719	-0.1877358112507449	-1.380860725783062	19.26704733197911	1.499726815533859e-12	0	0
0.8960000000000002	-2.327352906310141	-2.542563345247935	-2.623972212686194	-0.1390035652735919	-0.6880897265506714	0.7497036190607688	-7.943561048137549	3.707376509454978	-2.83432751039846	-53.19072007967409	5.238170364325605e-13	-59.27765745498809	9.334371153127451	6.739161162189442	-0.4515781405089414	1.681741785600262	-1.527523839352551	0.7820538225744376	-3.132666770535193	3.682065076274694e-13	-5.707943868252825	-5.345321745697348	-2.897505785524821	5.401808286061707	1.231620754063028	3.729158651586968	2.19300335292455	20.96030942777798	-0.1320086556284612	7.164875638252913	-24.39132123510532	2.163670898736401e-11	0	0	-2.236996944343176	-1.351742833975775	-1.01851198250343	11.57667425968478	2.163670898736401e-11	0	0
0.9055128561131143	-2.056314185700115	-2.080456816928431	-2.02563030108084	-0.2128250313429303	-0.8408368501730248	0.4555087099575821	-9.725226088163813	2.741337647199699	-2.562900329116096	-52.94155653185474	-2.958748098853883e-13	-58.54509965542432	14.64732573552373	-6.249707366126919	9.63270184926963	1.600591623248646	-0.04566267582011257	3.460092052642155	-2.299039971615449	-5.92907775963416e-13	-4.236246346020543	-1.994053303559092	-6.73329242392904	-2.965555324973141	0.5325531752019621	3.538425848843061	2.025823455695977	30.75594814145167	-1.455007477638734	-2.545043890497677	-31.0843750073147	-5.488029810535944e-12	0	0	-10.74381884061541	0.006090148796339401	-6.233553632359002	32.1492016013248	-5.488029810535944e-12	0	0
0.9224558844730553	-4.218350163617377	-1.118395452667888	-0.759866810303702	0.01257772352110331	-1.32481214506283	0.3322101606068711	-9.327012576399298	3.115963099049195	1.27378935123739	-50.01767344102923	2.587706281408509e-13	-56.99546212468627	-1.714129517215225	-0.02493892811519272	10.51715798924463	4.510895516487459	0.971090301931353	3.556494939299198	-1.156876928293157	4.54084609764044e-13	-1.186491535494665	-4.522381232602157	-9.650518475367704	-10.23899368800052	3.090303478773129	2.244528704546785	1.199726864422295	25.2728901113489	-2.608339219277633	-14.03038876232077	-37.02880905145371	4.517706903515551e-12	0	0	-17.34465851037272	1.317075757837143	-9.995499783227963	43.80753171701131	4.517706903515551e-12	0	0
0.9368312594138312	-4.359105893964101	-0.5318155393540179	1.239565961283972	0.06152780670305409	-1.658420988579853	0.2210940088187904	-10.72002125752747	2.865855218509136	4.517425552783617	-46.70528128920883	-2.245091561090793e-13	-55.11345571093422	-6.61699913535492	8.098015861988245	14.01862872601266	6.231201035900209	1.921892586217182	7.053493702618924	2.780413202162234	-1.50608054147861e-13	1.464796384563929	3.469850620884941	-8.255918884830468	-4.600495126786789	2.915411569042596	1.992206318811918	-0.2572966652806979	13.10275800595771	-1.776165135853446	-12.38824733563966	2.941903670455033	-6.830877044943411e-12	0	0	-12.18062457864838	2.227266640208025	-1.58760202649553	23.65002619634803	-6.830877044943411e-12	0	0
0.9408000000000003	-3.168987401462665	-0.7641899378285112	0.399515496146381	-0.008958091577181582	-1.605198035168479	0.4948599927227347	-12.91007831741012	4.835830006410241	6.072534976550276	-46.35056903488679	4.32193000072228e-13	-54.426417151481	3.22676647034826	7.03837920820841	4.57930263651622	4.866570529944982	0.8248985004040266	4.298734661762844	1.774795103459914	5.653285099881428e-13	2.161843431893631	-4.687457988241036	-2.938000096549207	0.9345857867067225	1.835514023478375	1.78052588021916	0.4065395118208582	15.80695766597911	-1.218866598589249	-8.293237338487781	-7.097733512931313	1.513080390740289e-12	0	0	-2.589129668783711	0.9410533942807042	-1.358189341461843	22.70361515313631	1.513080390740289e-12	0	0
0.9503128561131143	-5.333997031558554	1.992190225665065	3.007360704976436	0.1290541033776948	-1.886748389379949	0.1589680301988256	-11.72982677881955	0.6664679149117786	6.541429764574813	-45.4509022952649	9.795353171415313e-14	-52.3434226208841	5.009537235183538	-0.8292519990369129	0.1028256141708357	8.11236538399787	4.308100447110068	8.541749355406749	3.937506205549155	-4.969031600327389e-13	3.725454890230187	0.02905840270775428	-11.58042751436986	-5.622566886840872	3.8190152221822	-1.261643278644011	-1.65820303682227	8.114109757706618	-3.006613976722181	-25.05170645904066	5.84917091098424	8.66448282278264e-12	0	0	-14.74327204647757	3.907715625304738	-5.315785200756338	30.99001972313222	8.66448282278264e-12	0	0
0.9672558844730554	-6.268179937460169	4.35151184920219	4.976126970333629	0.4753501428066431	-2.107871489250871	0.1191203358603469	-12.9073371808823	-1.912264902725029	9.214710797088841	-43.78323603380927	1.623502539716942e-14	-46.4887232069492	-11.85768038760942	4.192796161447214	-5.434763484213323	9.707606449122636	6.30986985020443	9.60092911462606	6.014230331602032	9.011182682827655e-13	6.036710783565127	0.9342673177789109	-8.189252875006034	-9.522683997661707	5.532532505059377	-4.455701118014524	-3.526325718530137	-5.913740316194506	-4.475663557794548	-38.26138584789295	14.6625247288452	1.95745343567121e-12	0	0	-15.75899281156021	6.330750209323588	-7.298528274823425	34.21102492966299	1.95745343567121e-12	0	0
0.9816312594138312	-4.573463083435498	2.275043097049024	3.718988944538486	0.5879515860463302	-2.013851991406069	0.7246508437115167	-16.01913573268775	2.386721832255148	13.67974225156585	-41.16814735145435	-2.554784546617913e-13	-38.55953785891701	-11.6937950020987	8.476221513605047	-2.014131217662796	8.602237945206651	2.402587373540884	6.681452626172383	8.316721130977331	-9.625236785143404e-13	7.511530049106494	7.222037523579623	-5.977503840939203	2.678268610014106	4.36546827151827	-2.812248290803823	-3.052778158766401	-6.302195108953178	-2.447788621971133	-19.02191581085263	35.38275549726298	-2.136535627037374e-11	0	0	-8.222251025898652	4.697581384067343	3.029225121974323	5.754059646835947	-2.136535627037374e-11	0	0
0.9856000000000004	-3.030814340209983	1.643138912575852	3.384691381390819	0.4780169810780508	-1.980285414395313	0.8062852350800058	-17.22211640837936	3.461262456611183	13.82257515173704	-33.7886659275953	3.841892630014699e-14	-35.80181171928796	1.776302025408631	8.149734354302993	-4.119632127014907	5.931887451967748	1.953306445021044	7.136345075336596	4.95601451586685	2.986678608740897e-13	7.852358145102595	-4.319777478103568	-3.7423730068837	3.044908068372993	3.479594025994054	-2.447605517466564	-2.373892950728779	7.174628665836458	-2.380320509719642	-21.96934101151765	20.67188816398568	-9.295481748532398e-12	0	0	1.579588168935665	3.679579388655512	1.967375113453111	16.92089199465869	-9.295481748532398e-12	0	0
0.9951128561131144	-4.641223744940131	4.714505792753243	5.909923616859731	0.952625670994901	-2.103640762428874	0.6730265765569476	-16.04088937098965	-1.91123346338358	12.86365168299202	-29.74368442914515	2.690964972760277e-13	-28.13845931604986	2.603352539889787	0.06039682776398436	-15.11995261834914	9.041695362244752	5.031629429240252	11.2981939293065	8.813174480146895	-5.771579625640078e-14	8.579492095080585	2.97048484911117	-14.24559323809214	1.895711113586981	5.901212786825726	-6.028413319343498	-4.770018838628539	-14.38436079791078	-3.486345543628809	-26.0424091141269	49.9813673144866	1.410432835362391e-11	0	0	-6.605981741783411	6.807016825510256	-0.1128015456449812	6.412167937251229	1.410432835362391e-11	0	0
1.012055884473055	-2.570552572413523	6.293144941824311	7.438422599793157	1.634563954492891	-1.977298221359471	0.7520585819487311	-14.5604238015118	-5.554065585202101	9.706822250360014	-5.371424573191096	-1.500540270769015e-13	-10.95344439888095	-15.44122539907656	1.529007238959306	-20.23460271588174	7.186402568533066	5.85410154109028	10.87842253702958	12.39156928057938	2.633634698318311e-13	9.681114535207357	8.614250803175278	-2.872796143680638	0.0006378348208646578	6.385361017384666	-8.542560131375094	-6.345944177031042	-24.99915282062486	-4.45912126937046	-25.82156713955079	69.54644970495366	-4.244338382241121e-12	0	0	-5.470032584954427	9.145782524616585	-0.7461480559921052	-0.7324298125314666	-4.244338382241121e-12	0	0
1.026431259413831	-0.1923570596956283	-0.4108919781881346	3.974778935908271	1.821363670143308	-1.721551690296242	1.714598479472269	-11.47317120402942	3.938921896651979	5.483142118666342	20.04696987843298	-6.68112525509609e-14	6.366354786714869	-10.36703098910985	6.662985473100234	-2.016552364278783	4.847729674602959	-3.794937112937236	1.042946795299338	14.3325571717164	-2.307942029852115e-13	10.56164525798036	14.15276620216039	2.526843123381905	6.903670366802085	5.810878704784106	-2.77492246717252	-3.323948346049657	-8.73500697881645	-1.939166386286884	4.753854482999582	60.29927443413914	1.918145969013244e-12	0	0	0.8913860947044591	5.032304455232741	6.561638592373349	-11.27042751302213	1.918145969013244e-12	0	0
1.0304	0.01956526370919034	1.14037292506348	3.984215764254591	1.453383297236417	-1.686555989401784	1.589698547823508	-9.049940853597903	1.581795724528398	2.485366273077103	29.65418100770153	-1.841746452263991e-14	11.39372890136426	0.5159717273199682	4.194601454042314	-8.463119825309009	4.252907800267472	-1.170794361740295	4.215918349317577	9.997663364183898	-8.624141498189098e-14	10.8126092075019	-3.966963099561511	-9.060441087572492	7.262220200315943	5.653863706902594	-4.661429757859211	-3.432021750370176	12.76578909948427	-2.490805838219324	-11.16842816368711	50.75325276073248	1.875029391151294e-13	0	0	7.238459699831704	4.768156878250142	4.903484070295015	3.352675941021439	1.875029391151294e-13	0	0
1.039912856113114	-0.6728993554714501	0.3062777704664651	5.199849592763321	2.162103602712734	-1.660689346463749	1.671267726362298	-5.487566805494772	1.563107309519122	-12.82174043929691	45.28984704471532	1.031448685930955e-13	23.52928799413759	8.957331480312572	-5.247444278507262	-11.54530697267729	5.458089837769852	-2.762159023723996	4.458864224713263	14.95437995344333	2.22367163490333e-13	11.43288067100371	12.53650484720309	-0.5472762787396164	4.151000283730458	7.940115777047549	-4.156650162684182	-4.111029148069031	-16.53795051524472	-2.517247494210378	9.069158103371775	76.06126320987903	-5.228329220478699e-13	0	0	3.833814918683009	6.615704965470535	3.753156313331639	-12.05841026398149	-5.228329220478699e-13	0	0
1.056855884473055	-0.4199180740062871	-0.1769181505722184	5.960631995184452	2.525622384569222	-1.352563305909703	1.647938380409537	-0.1442447854417224	1.747279207338964	-30.4203055730471	69.292323696248	-1.242958763422921e-14	43.83169250849735	-2.054353118208127	-6.041943817413323	-11.50469403738654	3.423615903370983	-3.825650631165444	0.8733812404218644	12.66415348545344	-3.817423565508097e-13	12.66645563863557	9.765362492389041	7.495055487284963	-1.572623031569977	9.584512282805072	-3.927268368516889	-4.578020125583356	-19.50679144781919	-2.933652185733995	22.39707890455065	92.17152348930064	-2.25452429075342e-12	0	0	6.861355937868126	8.202787679126335	2.447815060227745	-19.36947041825029	-2.25452429075342e-12	0	0
1.071231259413831	0.2550508769868921	-5.84348278744526	1.255551038810638	2.43670875935884	-0.9799387203198098	2.238038430767375	0.7122874707375013	12.55764491342181	-34.51778822494678	73.44421179334073	-9.213790764188322e-14	57.78126625503429	-5.073661656315384	-3.22773681858726	9.510828156226301	2.206974511507239	-10.49769239048728	-4.545554891010316	11.69210336694835	4.267080603029638e-13	13.82621554401219	9.95927405309093	6.619077948426563	-1.62361356401244	8.755275621001749	1.652405691395068	-0.9009227089014551	-0.2204886186089254	-0.8870939346478381	33.1048214403662	59.4744092761903	3.214907980475816e-12	0	0	8.43605184366443	3.199360677084186	5.680434444713391	-7.543972419274104	3.214907980475816e-12	0	0
1.075200000000001	0.3093905669779287	-2.018430051439194	2.880928398157616	1.986170937447106	-0.7253319425458722	1.867822151016048	-2.92681724282116	7.696711915348368	-23.59937035410858	59.78247455941288	-4.643100308142336e-13	60.84054025768487	10.81484056556773	-6.003075339928994	-3.814187069297502	2.772247632920058	-5.695800711787533	-1.402429093837352	8.768793051742563	-1.381376286162072e-13	14.18844767670715	-7.99346952879462	-5.383731928657237	1.897367051287669	7.427133886041881	-2.007644612484215	-2.401722460852343	16.06382864470663	-1.752315191181637	13.48286383532641	58.27806974809582	-6.663982836135781e-12	0	0	12.12859827916506	3.945899284597503	5.627324309583742	-0.8525966982737193	-6.663982836135781e-12	0	0
1.084712856113115	-2.907730529838036	-5.614087478288137	3.847541226461262	2.749586243860289	-1.070011639227115	1.849359323186046	2.575801383592167	10.88187514475264	-36.35826488667466	73.84078814360717	3.794380389978646e-13	66.68855925233341	22.58457855781012	-4.525795469917314	-2.059029695714969	5.636769890064576	-9.960675927217938	-1.133797489683216	12.0605055413395	4.867040204693642e-13	15.05924343838127	7.304144665045097	7.205492591534339	-8.935179855085593	13.12254513518415	2.042923546990591	-1.506808404576061	-10.30551895749689	-1.50083088887014	37.74140178712413	65.97000545829782	1.509988641263198e-11	0	0	10.60290367884811	4.829915263521936	2.654739638734305	-6.620942797916261	1.509988641263198e-11	0	0
1.101655884473056	-2.363618306980704	-6.606181834966178	4.554165764841589	3.478424502226906	-0.7776183277693884	1.637004311732376	-3.379070756554674	10.81925133247397	-35.20963958141508	61.11610736910847	-3.648806849275016e-13	71.09970146550312	11.72862292942489	-18.87592761087947	3.74790180740552	1.856643646857768	-11.52557276413474	-5.642137017063211	7.076276388850896	-7.477821388211822e-13	17.10454241808829	4.123123607509591	12.313456099711	-11.95807233644569	13.94577893747744	3.883783149684796	-1.399284265632417	-18.95108907758248	-1.644001821379352	47.24994935835418	64.24202681153449	-2.084117771921825e-11	0	0	2.710236865666394	6.128952761481882	0.8167284860418873	-14.0862571023378	-2.084117771921825e-11	0	0
1.116031259413831	1.897078882842092	-6.118502610483779	1.056166991125491	3.50624553837147	-0.3211438905556958	1.622775057607704	-9.5523344760058	12.68791688929434	6.525699193129578	44.9322457427132	1.422465270700238e-13	70.33057243201684	13.93409621023521	-3.709229189289866	23.25467832003297	-5.513462796039859	-10.75323220656029	-7.582994220527032	2.0069814693949	-5.663475893954407e-14	18.71115601787452	2.607363288168045	12.84913198926043	9.340509699244775	8.16390258417297	4.648628146648505	-0.2180032824249087	-1.210241664156822	-0.09372623158108692	24.87793791971776	21.91653448340296	1.01391697079843e-11	0	0	0.4935817291258304	2.34886218894376	4.209939333846905	-4.263826511433572	1.01391697079843e-11	0	0
1.12	3.525747829515038	-6.125977134323424	0.9187953312416022	3.503765838781436	-0.1649958087278052	1.625429205460377	-11.42945818659556	12.79418581754028	7.955345096008434	39.65989642952078	1.732219576750225e-13	70.28526163962131	16.31146180611136	4.644927157889115	23.99045716617298	-8.129813930624769	-10.7525890865938	-7.627532292641256	0.4774889614833637	-1.494902886438333e-14	18.75665629987097	2.393097433678498	12.79490459205281	10.08602597488708	5.79277369652874	4.697084567178774	-0.1642885988448951	7.136641531952517	-0.03015934442234928	24.16990973100102	20.40229448309145	1.174664322335799e-11	0	0	0.7020739733530377	2.198774529470068	4.336482472297837	-3.889934403420512	1.174664322335799e-11	0	0
