DataType=double
version=3
OpenSimVersion=4.5
endheader
time	pelvis_tilt	pelvis_list	pelvis_rotation	pelvis_tx	pelvis_ty	pelvis_tz	hip_flexion_r	hip_adduction_r	hip_rotation_r	knee_angle_r	knee_adduction_r	knee_angle_r_beta	ankle_angle_r	subtalar_angle_r	mtp_angle_r	hip_flexion_l	hip_adduction_l	hip_rotation_l	knee_angle_l	knee_adduction_l	knee_angle_l_beta	ankle_angle_l	subtalar_angle_l	mtp_angle_l	lumbar_extension	lumbar_bending	lumbar_rotation	arm_flex_r	arm_add_r	arm_rot_r	elbow_flex_r	pro_sup_r	wrist_flex_r	wrist_dev_r	arm_flex_l	arm_add_l	arm_rot_l	elbow_flex_l	pro_sup_l	wrist_flex_l	wrist_dev_l
0	-0.3457704382960132	-0.1467847770927888	0.2361944140736242	0.184816109753507	-0.2223219275344093	0.1869449288747637	0.04897954197917165	0.4102739935336406	-1.264189230821716	-0.02702882533781523	2.385936153615926e-15	-1.742563521828081	-0.1013569562318901	-0.3304618513248365	-0.4469846940555146	-0.4873269424015144	-0.5003651823872255	-0.04346077868675548	0.6977638234539728	2.712962653976537e-15	0.3222893037747984	1.158362331046421	0.61238195113576	-0.2144075814309392	0.6909709984829504	-0.1630788803979097	-0.4712331693187099	-2.159858419524839	-0.04245529445364615	0.4432249311655505	0.9028644286710052	-4.496442965249823e-14	0	0	2.078799166120961	0.1960513197012433	-0.3787116330761525	3.315487722661051	-4.496442965249823e-14	0	0
0.009512856113114032	-0.3364208798330699	-0.200613344692456	0.2672609234700405	0.212861930161659	-0.2244024324471259	0.1994641925630989	-0.01168283028528155	0.5098302465927795	-1.194678927876902	0.3970889172530523	7.72405495901334e-16	-1.033779642161615	0.1021304970898524	-0.4458181810289725	-0.3890298109319037	-0.4165774234135604	-0.5918507425236729	-0.0575823683762676	0.8882117443617236	-1.962445604987199e-16	0.6228994918353974	1.028220773541757	0.5360789475289847	-0.2220588526511688	0.7539309578078973	-0.1093767421636517	-0.4862463155594975	-2.245464508743451	-0.03799210268465945	0.7032447052767832	0.9697365198242165	-2.069899733484727e-14	0	0	1.980664773951982	0.2277511117712974	-0.3794411768824824	3.190495829366996	-2.069899733484727e-14	0	0
0.02645588447305514	-0.2544751551361264	-0.2938058830414005	0.3323511862999611	0.2719379843146744	-0.2174710881837261	0.2157732009512157	-0.1989171167125791	0.6595893868432001	-0.9565611401313567	1.063327251432189	5.949649973599894e-16	0.1419461760653302	-0.0693020726026799	-0.5052565098772956	-0.3318603310673238	-0.3731318107284958	-0.7407331295104652	0.04075226576622904	1.235477129441838	2.797230112049517e-15	1.228876852872971	0.9179404827749658	0.330325777393303	-0.3495020690217564	0.7905581122907601	0.01388081053204201	-0.5175017057188331	-2.553236447993947	-0.02692866097559461	1.237765405175082	0.8849463593776262	7.763956390967733e-14	0	0	1.325760759628942	0.30567960490091	-0.4259677078527375	2.807188853832651	7.763956390967733e-14	0	0
0.04083125941383081	-0.1484381061830149	-0.3450080853440077	0.373522306632726	0.3096454662395713	-0.204374014329349	0.2239586768998843	-0.4386946028596852	0.7345035883829363	-0.06925028252865176	1.317023577681395	2.19194349539832e-16	0.964541281610289	-0.6124036948671515	-0.2675360292243224	-0.2374050597482725	-0.322817442393009	-0.8115988186467884	0.1772776953973015	1.576531583865965	2.99471715494488e-15	1.842487625955576	0.7375573190798992	-0.05379089985049046	-0.2746496495600499	0.7446599270843653	0.1098045056780017	-0.5493201662968362	-2.489858063762219	-0.02296818156400535	1.238092622431944	0.4445793806584558	7.868328667595913e-14	0	0	0.8260752134281353	0.3622815893009809	-0.4253022687661844	2.625132206364715	7.868328667595913e-14	0	0
0.04479999999999995	-0.1318509694114329	-0.3610704262869235	0.3909099313752062	0.3171945029166622	-0.2023783998826715	0.226403788358115	-0.4954088899346798	0.7445671541749227	0.1226723091466768	1.311266052636323	3.062227469234671e-16	1.155928025329175	-0.6600297648630915	-0.2219489436887022	-0.2655993016411249	-0.2874310479369426	-0.8336975254241688	0.2205741339711787	1.676101027356162	1.741444930568484e-15	2.025377118995414	0.6835275540844796	-0.1602102931463079	-0.2613017398051632	0.7384324676510219	0.1315534869329437	-0.557013272576832	-2.463927690701798	-0.02530378667087427	1.229677857142467	0.3834989887644438	5.637975395441099e-14	0	0	0.7626497873538829	0.3732375233342625	-0.4139453004585824	2.617585392983739	5.637975395441099e-14	0	0
0.05431285611311398	-0.1010857378152674	-0.4096864681193997	0.3964352272940495	0.3287898992777496	-0.1916476830365006	0.2372223062177655	-0.6856381311422208	0.7946226530477445	0.2858400666558223	1.094751108794088	-7.181736759576651e-16	1.541091239998812	0.08894337473162123	-0.5351920650525531	-0.4027015485334158	-0.1584416905243594	-0.8975450343168651	0.3000400406568372	1.978433484149696	-2.031185702195564e-15	2.486568306150576	0.5762907628521383	-0.4235496222638583	-0.3668215282351273	0.7214972613182062	0.1848701662623306	-0.5777197915875903	-2.131031576527067	-0.02502756094345713	1.243025040493194	0.3310069005799697	-7.229530158346061e-14	0	0	0.556553453771742	0.405623909642712	-0.4054221991599238	2.526283359417279	-7.229530158346061e-14	0	0
0.07125588447305514	-0.05130377997272471	-0.50877287312511	0.2136985786276706	0.3053863252969854	-0.1435619891281917	0.2721227080205468	-0.6498025279627585	1.023438176296674	0.2370329339181106	1.286417342111732	6.480051549191921e-16	1.948671996261102	1.078924416799158	-1.458452650696887	-0.6131963335902875	0.2420291187497079	-1.002681123466175	0.3183561843166981	2.748877228440858	-2.459223509607386e-15	3.363794173169429	0.2729700702600371	-1.045626946810283	-0.7826886105928982	0.604472932196079	0.2959994242276436	-0.6249726554953132	-0.5069636357897671	0.01573109809749515	0.9643690736376603	-0.06430256365358494	-6.201555036368413e-14	0	0	-0.1035531178034954	0.487660536319711	-0.4699768552925921	2.054362213483807	-6.201555036368413e-14	0	0
0.08563125941383082	-0.08310334745113672	-0.6590967027921846	0.047698345010789	0.2577651480335472	-0.09035350509651216	0.305758141319827	-0.3280955743707121	1.274430033493907	0.2406148966049914	1.684625050509578	5.365639341284848e-16	2.001607842733032	1.736056675920362	-1.202900888704378	-0.09942396723322183	0.7868929659664141	-1.200919026969111	0.1021224583860525	3.580339004317323	4.817573146873494e-15	4.129316048761345	-0.1107784402719082	-1.365878359293454	-1.077896032135835	0.542781724440291	0.4315165131558606	-0.6290907899571464	0.8840026686795339	0.05517211583021797	0.7173724595835913	-0.1570636756012275	7.049676968310911e-14	0	0	-0.4739604690651441	0.5248111491069001	-0.4842769208204379	1.730899056646862	7.049676968310911e-14	0	0
0.08960000000000001	-0.08359009098142556	-0.6860176689861439	0.02965885459517678	0.2511555284165233	-0.07576777906065163	0.3111206498285369	-0.28709899810424	1.32151791137706	0.2569018811868181	1.753388896750461	-2.014927412142668e-15	1.970784332042564	1.964658070894875	-1.14557038893219	-0.08356239592197896	0.9105004559436125	-1.239736335677947	0.07881987979210399	3.776813237261591	1.221454633116213e-15	4.337333203573975	-0.2570922242350561	-1.463983328107431	-1.075695713075666	0.5317342990462048	0.4552137241999699	-0.6198270690062498	0.9923570481097996	0.06035485663245325	0.6816621858299845	-0.2220205140238493	3.826615709005209e-14	0	0	-0.5850681731981515	0.5276759410078112	-0.4871053502842312	1.675938127621522	3.826615709005209e-14	0	0
0.0991128561131141	-0.09719910004530156	-0.719485836390344	0.02396236328660333	0.2394602204248124	-0.04247809574275872	0.3164908823459351	-0.2736301735736126	1.383109888419212	0.2337452548767988	1.727301458574968	-3.32978543517376e-15	1.824990924267402	2.075508850028553	-1.213269588025405	-0.2889676247683285	1.21589406558108	-1.291296370419349	0.1198319763024737	4.235681345100798	-5.774050762413704e-15	4.818893667264868	-0.6307272518802042	-1.733224330332883	-1.00297603971778	0.5375735711004379	0.4874045209371516	-0.5820568888453332	1.238690261140572	0.05728253491057973	0.6001654007514861	-0.4764949996185947	-6.896325913512487e-14	0	0	-0.8178449577683041	0.5391017875351977	-0.5102109496305558	1.536499624512013	-6.896325913512487e-14	0	0
0.1160558844730551	-0.09516161687538878	-0.7979408555807219	-0.002859004129413623	0.2348548490917457	0.01340149848670513	0.3184405708038754	-0.6703189759292081	1.461245183193174	0.2245288380860012	0.8946920490052727	4.667646049717722e-15	1.36551355818948	1.411471315610996	-1.237203475013191	-0.2190188750503558	1.67692741769193	-1.383992580590654	0.1941678067960613	4.939994532183988	7.182498158070759e-15	5.568582248924411	-1.399796570812755	-2.26603273166491	-0.8520444194357902	0.5693529729005515	0.5754011531307788	-0.4766080931236157	1.569605356302559	0.02958903181419649	0.2155952504172524	-0.8686122160615268	1.240404087878816e-13	0	0	-1.295708867563042	0.5803196619788973	-0.5662264211135108	1.212033036753374	1.240404087878816e-13	0	0
0.1304312594138309	-0.05956165579564978	-0.8164028654548203	0.0481678914088271	0.2324792135569567	0.05148470239189887	0.3017078940278605	-1.149905948232829	1.381923312822514	0.07175434975031157	0.01361819658244526	-2.938900539701616e-15	0.8616771764597307	0.6620865882971855	-1.145890062228903	-0.3253089706181832	1.987479835668396	-1.404275395954443	0.3022444221911958	5.42764230215279	-3.356441137577615e-15	6.031074541913912	-1.910919505176717	-2.609937348190673	-0.3253453553644989	0.5514053683135307	0.6302137981341306	-0.3590225423688418	1.52020055604133	-0.02338365250605063	0.1014482515242972	-0.8597368007965845	-3.788840021563396e-14	0	0	-1.601488822587784	0.5988266536181399	-0.5348631934922057	0.8426178510343674	-3.788840021563396e-14	0	0
0.1344	-0.05336781035695664	-0.8303424189182819	0.0538446107737986	0.2241171431885976	0.0604841413201474	0.2972251327209287	-1.21916929150123	1.375255009457859	0.04513729835036376	-0.1281393991247455	-3.216513684184472e-15	0.717259401142917	0.601617129137505	-1.089914513887261	-0.3415525572421051	2.112097013577435	-1.412809623063778	0.3347696011832333	5.61474660972364	-4.968604786386464e-15	6.122383278138594	-2.011029875667951	-2.741861177484818	-0.1682191694535723	0.5309837973484397	0.6570264059649025	-0.3337267893096914	1.571590542010823	-0.02736016804815236	0.1171080155065531	-0.8211038237677646	-1.240641097829198e-13	0	0	-1.691802908157776	0.5992525351481688	-0.5268372870943456	0.7543419874370934	-1.240641097829198e-13	0	0
0.1439128561131141	-0.04699739919456476	-0.8784298659266022	0.05510573065944341	0.207549707671763	0.07720426579875277	0.2861268694070132	-1.32981293792307	1.398630091305783	0.02882247575169133	-0.3651182080330456	-2.747795712203596e-16	0.3788130007048136	0.6814801203884011	-1.001135903816353	-0.4586215821340005	2.290219052691379	-1.429832089365295	0.4635635765209509	5.771023104334913	1.185005371418273e-15	6.268107380149099	-2.391992125212751	-3.041267997070165	0.2057704393975884	0.5060194360207281	0.7424077817703683	-0.2837380537230595	1.617378947873052	-0.03423883434859096	0.19484853710038	-0.6804050448089127	-4.810008842302519e-14	0	0	-1.804771692188038	0.6087916630168435	-0.5098900715487136	0.4640040614289276	-4.810008842302519e-14	0	0
0.1608558844730551	0.04054846067248236	-0.9584254403207484	0.1142200612172657	0.1591803129306816	0.102864268116657	0.2552524267019519	-1.526246696294366	1.410206157169674	-0.01427850814140205	-0.6913663120402755	1.068988972790655e-15	-0.1455568789549226	0.6134328879770983	-0.8922553821973305	-0.8524007701802174	2.694544328888278	-1.452496767771267	0.8689949281390867	6.390913352421722	-3.092776165809699e-15	6.251673282597556	-2.52026791896946	-3.295911327805744	1.713260507350276	0.3243875069850382	0.9079546765785845	-0.1611531134016998	1.640595979829178	-0.1243659266315114	0.4194466332782021	-0.00459970690853316	-1.158251802823994e-14	0	0	-2.021187471642739	0.6619927050079115	-0.3859285204614923	-0.5397331657741783	-1.158251802823994e-14	0	0
0.1752312594138309	0.1091690724615345	-0.9428932296021287	0.1046426231074332	0.1224874090792672	0.1110242942517764	0.2355506030479456	-1.641676215292408	1.365724695353636	0.0007623336529439708	-0.9052920907656226	6.880491815195214e-16	-0.4677510222529093	0.4290459961296895	-0.8048830236326814	-0.8877460751272132	2.647607108376945	-1.460337569680716	0.670102548651649	6.028536095175158	-2.829389061995914e-15	5.955511711823367	0.2086388148696463	-2.221216398260257	0.4253636387773852	0.1902272002587375	0.9213381887247583	-0.1182150483097283	1.779466179810706	-0.2209325107115301	0.5648166549350981	0.889699106032765	-6.084031386615636e-14	0	0	-2.104768721644839	0.7202071068454672	-0.1956977675930452	-1.396627815267375	-6.084031386615636e-14	0	0
0.1792	0.1141353202337482	-0.9375164422734377	0.114014305564793	0.1134366671187488	0.1104391874305777	0.229364530413069	-1.644499921325419	1.343797587288435	-0.0104122773679052	-0.9337544659452401	-8.601113871071649e-16	-0.5344569257685287	0.3668703707079154	-0.7705822353695262	-0.8844068010814383	2.611535242942211	-1.467379746437317	0.604571781623404	5.886831445410134	-5.912840761604038e-16	5.830558176661818	0.2538317193999224	-2.154490471187248	0.5625557543187319	0.1673684507248038	0.9221388028909319	-0.1107531220284073	1.766258899600064	-0.238265262874653	0.60131629361084	1.03750987615851	-2.58539379734494e-14	0	0	-2.136767717573426	0.7303255738302337	-0.1522943576845628	-1.550523384136809	-2.58539379734494e-14	0	0
0.1887128561131141	0.1183547627021065	-0.9168578427110234	0.1616671909720026	0.09236253246510713	0.1136309186599944	0.2112512675902823	-1.645833040280644	1.271301297839036	-0.05483607952205259	-0.9802257656167086	-1.362274415130728e-15	-0.6565816742206383	0.3702677839535021	-0.6544485824386881	-0.9136375692515947	2.52711085321781	-1.44464108833792	0.5994815586371095	5.112550944506296	7.440250894626121e-16	5.462332339190452	-0.58464862586849	-1.347482836541211	2.009632056894416	0.1277797467887267	0.9214319399102124	-0.08964094277002019	1.779674092233184	-0.2832412941379824	0.6938626724893771	1.304290929002766	4.181719750227e-14	0	0	-2.131200326636068	0.755994641488283	-0.06409740860703783	-1.911394047318845	4.181719750227e-14	0	0
0.2056558844730552	0.1681234411074139	-0.7479071705119307	0.2438448683394724	0.04375389577565657	0.1249796190325563	0.1741157551018142	-1.651765009692111	1.009860696094925	-0.1116681229653393	-1.008825347499831	-8.856204808799471e-16	-0.7607609023756365	0.2054830952987385	-0.483744006781104	-0.8220333327215958	2.451352225730057	-1.173620508871482	0.600382703779221	3.813661157515945	1.710955539405033e-15	4.605661162030616	-1.166461858903945	-0.4548549599775554	3.116789473996947	-0.03532001274306422	0.7727906911750344	-0.08219224831853567	1.715068360478481	-0.4618781630596964	0.8293140959987143	2.358552492206651	-5.500890694923033e-15	0	0	-1.99673154978632	0.8538297269119721	0.1952234467742252	-2.991711282725094	-5.500890694923033e-15	0	0
0.2200312594138309	0.1881357398153636	-0.5812288552781656	0.3277437904253591	0.002459023507693614	0.1310584847461366	0.1441407496639633	-1.605920914907331	0.7702617887247426	-0.1693531087297168	-0.9717638621365758	-1.752167669072558e-15	-0.7702816153356835	0.06491615326574068	-0.3933004438728912	-0.5133278960589385	2.476853349949207	-0.8765966663768106	0.5931125797969182	2.948918970377781	1.88117670969606e-15	3.738255063665832	-0.5811614666566304	-0.6370853558246742	2.845059040075761	-0.1560773018955119	0.6123234121092034	-0.06633782715060606	1.657579408556236	-0.5531283415662468	0.8630001910386086	2.725634169641291	-2.589554978933684e-14	0	0	-1.930816661656705	0.8859673516204397	0.3237642603005003	-3.66461204967864	-2.589554978933684e-14	0	0
0.224	0.1891368428741729	-0.5559267582564703	0.3440367728989137	-0.007333235554948456	0.1323139356406758	0.137152692618592	-1.584656580331407	0.7324285871127273	-0.1768880117495978	-0.9542853966624505	-4.329890545168133e-16	-0.7655647939393342	0.02925043621176887	-0.3821442552686827	-0.4575887494375453	2.477351122870628	-0.8273662786539646	0.5715262580930118	2.697365800059414	4.027837664124955e-16	3.484897850036011	-0.4292611352166888	-0.5554389978461324	2.766593400785726	-0.1837097769556825	0.5922874820879861	-0.06067626041649462	1.653264119302158	-0.5670416736809288	0.8856568130079525	2.789354395203709	-1.192600665217376e-14	0	0	-1.946845273285306	0.8894968261144321	0.3517370401928396	-3.795924594591718	-1.192600665217376e-14	0	0
0.2335128561131141	0.1948782653880636	-0.4965477668982244	0.3908081538956595	-0.03016860113455662	0.1347661888271595	0.1196292416567608	-1.549017577618267	0.6425873281433261	-0.1949653918564921	-0.9195820527353529	1.282741932797853e-15	-0.7484478386470725	0.0631537841446741	-0.3365547285476242	-0.3862795970462246	2.47704344570066	-0.7099270579819146	0.5366551414943252	2.115653355887738	-2.129658937106091e-15	2.864582201180244	-0.0587427338045341	-0.682658109703779	2.78948497907372	-0.244503792147831	0.5481673816156173	-0.05619017938683107	1.658793368848373	-0.6086277059314702	0.9347836408018795	2.958704660261242	2.475881778929432e-14	0	0	-1.924388656902341	0.9058030699165741	0.4256837500693095	-4.143601746805248	2.475881778929432e-14	0	0
0.2504558844730551	0.2423087605364591	-0.2310067387673456	0.5276765698098985	-0.07463594493688225	0.1400790750681297	0.0841712547080139	-1.530887357535513	0.2995362042124092	-0.2563128152371111	-0.8445800928887243	9.513739034671579e-16	-0.7203827793781765	0.007329322538936089	-0.2653002025155786	-0.03502291535268473	2.448138800126946	-0.2570979620763889	0.4807134957278797	1.154527851135491	-1.242967972604877e-15	1.749947643165816	0.4782422045651773	-0.9794236924202409	1.378914378981049	-0.4206311948178622	0.2723206207404689	-0.09639310857620313	1.644070028794731	-0.7256430328974011	0.8154206119888173	3.151276247256391	3.982109338499832e-15	0	0	-1.69055213873592	0.9487799366889428	0.5616868046506419	-4.953647300023759	3.982109338499832e-15	0	0
0.2648312594138309	0.259950995644815	-0.09808332514084928	0.604598664732084	-0.1034914218424486	0.141711006774228	0.06635685377891409	-1.524025283212643	0.1474888053258175	-0.2540313440369327	-0.844892780851783	-9.578951736832382e-16	-0.722141997498291	-0.03798579033818744	-0.3174837993897228	0.1958676749879202	2.389506167484849	-0.06896763181746177	0.325730794418541	0.3234691442004638	-3.996329798544544e-15	0.8282096900374907	0.2959950729908081	-0.6126306919911948	0.6297338807547405	-0.5204977455602652	0.1241297990258931	-0.1234123264570501	1.657849746321499	-0.7732752977448988	0.647572029534752	3.135551712750499	-1.059184030715437e-13	0	0	-1.52646883989577	0.9498490023279821	0.6172281189520409	-5.376185818511908	-1.059184030715437e-13	0	0
0.2688	0.2596955480143846	-0.07875837618832275	0.6179282996549212	-0.1099914623017636	0.1407697338185619	0.06230077368981964	-1.514024778012895	0.1254632669935148	-0.2534205247417666	-0.8392728474358468	6.850370124960422e-17	-0.7289501253937075	-0.04695613686257233	-0.3230358124627726	0.2417069530445877	2.37335585125911	-0.03911791912915319	0.2803100948315458	0.1139080938944689	6.597620799755709e-16	0.5801849289541154	0.4212018248414373	-0.4047547051732462	0.5077341789912984	-0.5402249332426103	0.1036297720589284	-0.1274291296218129	1.667426147741436	-0.7798935386258298	0.6333429404991382	3.137914226329648	-2.654233317422225e-14	0	0	-1.516100455077241	0.9483830584536078	0.6342525490733468	-5.455866441253603	-2.654233317422225e-14	0	0
0.2783128561131141	0.2623329419587128	-0.02761179804073211	0.6504127211472439	-0.1240149007426477	0.1389858597193923	0.05183241042483266	-1.515715761467358	0.06182106510385247	-0.2660168765073823	-0.8530272170744038	2.142992291224186e-15	-0.7581219987071385	-0.0002880460614060887	-0.2882046403099032	0.3306254317313274	2.295332117823306	0.04965813530474367	0.1894991426503125	-0.4420444585699902	6.741535327287626e-15	-0.002243944599167637	0.4746590411672029	-0.2097609408772195	0.2384665607649524	-0.580779843361197	0.05133379289530707	-0.1399581503973393	1.724089581327294	-0.8002355271151136	0.6088763503560551	3.191841496160536	1.072365073417873e-13	0	0	-1.435888310965368	0.9474040232342875	0.6760246801325677	-5.686386316459289	1.072365073417873e-13	0	0
0.2952558844730552	0.2872125480470478	0.09629118119946531	0.7117813777190649	-0.1462884242110118	0.1361359979654094	0.03801524281523117	-1.565672543759988	-0.07778029146304175	-0.2918671001798113	-0.9138570953111596	-1.667519592486781e-15	-0.8573012425930875	0.002751740240475031	-0.2455705872927443	0.5163987456340444	2.067023773957808	0.2212896943643043	-0.01061821740177503	-1.45532387917922	-2.221982677325067e-15	-1.002999401243844	0.554936443212398	0.1547554429046795	-0.5453185339683332	-0.6785987000376913	-0.09671967493333043	-0.1791706732053823	1.809634597209399	-0.8245782625618923	0.3448919782401565	3.189928663546164	3.098918713579091e-14	0	0	-1.158908780291655	0.9170672097830085	0.6634464614518647	-6.127341792107392	3.098918713579091e-14	0	0
0.3096312594138309	0.27704728105711	0.1118637115239259	0.7112907697888569	-0.1572724592591848	0.1300984524496289	0.03392739155916288	-1.596883157906396	-0.08399660616280528	-0.2843856673704886	-1.013089591139286	6.291154734354808e-16	-0.9870601912376544	0.03187028980505929	-0.2051966745664394	0.5675013479807303	1.85543855256938	0.2359603288450714	-0.1507100009151969	-2.294322004709599	3.395668959456841e-15	-1.828684155915774	0.3052864603470717	0.6518674823871322	-0.4862604392213686	-0.7034822509359752	-0.1290934539445613	-0.1765334012447971	1.863700486572739	-0.8076616352619447	0.1674054043273835	3.266720039137543	4.246625709892313e-14	0	0	-1.015398306576509	0.8636261959529055	0.6137942895677114	-6.325716563101392	4.246625709892313e-14	0	0
0.3136000000000001	0.2711676569196936	0.1074104004957369	0.7082122887411124	-0.1597194497709811	0.1273072094276412	0.03270473527805142	-1.595607044732973	-0.07732448475182122	-0.2835436767202483	-1.027056607584901	-9.468137108237694e-16	-1.029376885684959	0.055128286211511	-0.1816885917389246	0.5851428930007517	1.801712764148764	0.2347535653158128	-0.1792993771679803	-2.505217036162143	7.312949685976784e-16	-2.054838312712722	0.3301292529144555	0.8312734521973912	-0.4603218115350348	-0.7041679780614465	-0.127352042689887	-0.1754903673372978	1.880994045271822	-0.8029855423178683	0.1528424439588307	3.299967248731989	7.472918683381943e-15	0	0	-0.9953216864918157	0.852901618347321	0.6122176555142554	-6.354362873864633	7.472918683381943e-15	0	0
0.3231128561131141	0.2558418562839729	0.1043724167074642	0.6971842991931072	-0.1644176599059352	0.1210512455603441	0.02863112831762604	-1.611378499197048	-0.07570059959852135	-0.2930896960731426	-1.09285359649617	-3.96579610230279e-15	-1.140202176351672	0.1010535011491321	-0.09647634947225273	0.6312960633937457	1.638594039729828	0.2588668114168949	-0.2265319936844866	-3.05070726243417	-5.377411908434728e-15	-2.595572443951935	0.3032261664702882	0.9959195161708576	-0.5249271437667808	-0.7011173825351317	-0.1281511920626996	-0.1704985961707405	1.948083415752639	-0.791019121063794	0.1247395206955766	3.414878265651934	-6.035088694549861e-14	0	0	-0.9322987069466535	0.8232259817941884	0.599187734155202	-6.441086079436522	-6.035088694549861e-14	0	0
0.3400558844730551	0.2229272216181963	0.07345745543118237	0.6190055275806943	-0.1677936313350611	0.1090412297542776	0.02666518578663724	-1.649672186058975	-0.03903722966368196	-0.2886755253847471	-1.248590502149349	4.192976120662117e-15	-1.359644444796219	0.1122588189563136	0.08374421362935136	0.5990356609575163	1.312259007093308	0.2664417883775769	-0.2856452575724126	-4.009109984628005	4.044025463652945e-15	-3.553176383034273	0.1820052453685937	1.126356055963314	-0.4389077957784574	-0.6922984124082726	-0.1009085517769823	-0.1100175434433301	1.977140136320914	-0.7156434766304423	-0.05974295961474542	3.710778424667835	4.843766488104329e-15	0	0	-0.9014681291997093	0.6929683987148776	0.4132836633812862	-6.573686025445221	4.843766488104329e-15	0	0
0.3544312594138309	0.1742364092537864	0.02943951411978216	0.5369288014815514	-0.1665297504738796	0.0959802051231281	0.0242834286644579	-1.656241643880562	0.00211586559682835	-0.2847643819422257	-1.363497224068363	-1.077900419080485e-15	-1.549848967182311	0.175949571969813	0.2907069125045056	0.5024097859939026	1.048849096868223	0.2766046264798674	-0.2214225773130387	-4.754765851796448	-7.384608782808807e-16	-4.344663530492558	-0.2307648025523492	1.301818648840474	-0.236323897348593	-0.6542569780729326	-0.06210861813821688	-0.0405247682902466	1.976916273439517	-0.6423950959194479	-0.1302327552868645	3.954657815795759	-4.618475498748172e-14	0	0	-0.9900539299626472	0.5818151811110196	0.2757821963535866	-6.511350285008238	-4.618475498748172e-14	0	0
0.3584000000000001	0.1615666362080522	0.01435177981643998	0.5174734851361678	-0.1668972291183385	0.09178918923376855	0.02285389916682785	-1.652929656388005	0.01609809334709778	-0.2815072785434677	-1.384280648812557	-1.229822954543086e-15	-1.600056051034756	0.2145623244612044	0.3456959147204011	0.489458018157728	0.9835510410788262	0.281331762303108	-0.1850062116934865	-4.935772099793719	-2.69077739260974e-16	-4.555361585282532	-0.2611184321508484	1.43756276502189	-0.1902133629076585	-0.6454784580053524	-0.04654111203226057	-0.02632338216856334	1.990412768640718	-0.6273570530194607	-0.1177573795505477	4.016912156988201	-5.074145622834012e-14	0	0	-1.013362358310239	0.5602821303409552	0.2566162927100383	-6.495688878985915	-5.074145622834012e-14	0	0
0.3679128561131141	0.1323687153195712	-0.01765539634389378	0.4662962714792653	-0.1655193024188134	0.08148644666384317	0.01919675719255297	-1.655229133710035	0.04616183000351036	-0.2641143969940882	-1.449993973402839	4.850006956620541e-16	-1.711853961614254	0.26625895317996	0.4593477459792765	0.436119468976833	0.8047403377230378	0.2979276912909492	-0.08560402499396871	-5.365092285599626	1.408360073283636e-15	-5.037331257160119	-0.4060674520602645	1.527669482420308	-0.1969049562972347	-0.619308414209833	-0.01273516227893664	0.008883521916463492	2.045355011885881	-0.5881466527017136	-0.08930081087718032	4.171859304167331	4.424535835396343e-15	0	0	-1.072875515814697	0.5029061624169777	0.1978650195252411	-6.44102155863666	4.424535835396343e-15	0	0
0.3848558844730551	0.07093367382565502	-0.07346818957020952	0.3211416371138321	-0.1549623762483482	0.05984925397716585	0.01776288776048608	-1.641241734655765	0.1058936247824357	-0.1849269957888916	-1.546711233727745	8.522703511599789e-16	-1.863757608042589	0.2942712115090736	0.6412746520564314	0.07619793710653361	0.5102037208446587	0.2859263098564639	0.1064655430052561	-5.94087679744373	-2.66689708260175e-16	-5.769723708050583	-0.7136478436222486	1.647631978195968	-0.3191316754768452	-0.5599552600243397	0.03277834855253869	0.1247692656199316	2.010352443336403	-0.4611157422560696	-0.1517633305934134	4.470503273338752	4.740284378984783e-14	0	0	-1.385818729801321	0.3224853588529261	-0.04436492467483691	-6.031987107160635	4.740284378984783e-14	0	0
0.3992312594138309	0.01817548620700092	-0.1014136029434563	0.2260311274413403	-0.1418407566798653	0.03896460271719838	0.01233453966620503	-1.613578637372518	0.1273590682143487	-0.1259379462155344	-1.579163610455913	-2.227374223156979e-15	-1.923513098813694	0.3301951543606991	0.7658210975317417	-0.1945843112065711	0.2976976668058685	0.2816838141198091	0.3450874035448277	-6.179488543477119	1.007040187816041e-15	-6.195809573348312	-1.199240397000556	1.843372597745257	-0.4291015175507684	-0.4862051117057221	0.04601303193909383	0.1936992526134581	2.021856214113448	-0.3747722051691968	-0.1317155543616856	4.590796140436598	-6.292779565594438e-14	0	0	-1.616673335642688	0.207131428686755	-0.1544049336534512	-5.510778750499584	-6.292779565594438e-14	0	0
0.4032	0.006869966875682684	-0.1097037311637714	0.2047102345138815	-0.1391012072817681	0.03305657255651714	0.009861964383727129	-1.605140268954034	0.1344390320442704	-0.1061011210462291	-1.583252111402577	-2.604970549256235e-15	-1.926260478837562	0.3367754491353275	0.7787525987848627	-0.2381793546595014	0.2538363801031273	0.2774237979192554	0.4122485423610627	-6.188076436487171	4.263435822781428e-16	-6.272077372527175	-1.292061207803832	1.924402713886938	-0.4395740951054419	-0.4683279737211207	0.0540209123322665	0.2057974722050696	2.045022812715442	-0.358366818109406	-0.1052774752385975	4.631702456943771	-7.334001831646647e-14	0	0	-1.647972103389911	0.1854174965045277	-0.167213565889213	-5.402543400255299	-7.334001831646647e-14	0	0
0.4127128561131141	-0.01733154038165477	-0.1266998362292059	0.1496505567955207	-0.129863950894461	0.01839358866333198	0.003638109582778986	-1.579645935851375	0.1515327853345352	-0.04218396623711733	-1.569280045156801	9.202608050922032e-16	-1.906038860130886	0.3750184026839454	0.7913385409271572	-0.3542073230419354	0.1520007932570905	0.2572808615781569	0.532998579326614	-6.109085187405853	-1.844341318194368e-15	-6.369788675427346	-1.447045305092704	2.026736958377199	-0.5165081070075641	-0.4164257438585515	0.07379310923576021	0.2351067417907851	2.130858321552126	-0.3160740336079559	-0.05434169100381795	4.731935015316639	3.478262730163457e-14	0	0	-1.716979507592291	0.1277250559634343	-0.2080893175740343	-5.107168158672829	3.478262730163457e-14	0	0
0.4296558844730551	-0.06717597336350294	-0.129566978852808	0.03804349643181855	-0.1032631145907145	-0.008348763435030236	-0.006044619851890117	-1.513512904375813	0.1533541956968326	0.1011494971528726	-1.497092231677962	-2.921731059261801e-16	-1.771481829098761	0.3798148285600719	0.7604889553132308	-0.7444221094103807	0.04584723149564046	0.2044197997601802	0.6205585091758997	-5.619752952722702	8.647537107807282e-16	-6.21229490596761	-1.501809132992431	2.100870356835492	-0.8825338648799275	-0.2981762100000632	0.06344747691856858	0.3007669681893309	2.149392265427606	-0.2075521371342461	-0.0523946297225783	4.721710108517038	6.587717881226948e-14	0	0	-2.094052395468411	-0.0145254417634078	-0.3130105107183733	-4.027451279577781	6.587717881226948e-14	0	0
0.4440312594138309	-0.09489351827579723	-0.120928441931443	-0.01104138898238084	-0.07833560101288478	-0.02866735397468771	-0.02307366055986539	-1.451043717949434	0.1296653781586849	0.1577199707022661	-1.374715029693791	7.718018563732047e-17	-1.559626077970482	0.3908454128990183	0.7295228123347286	-0.7979257008137095	0.02566152921190817	0.182301481357342	0.4865042327664453	-4.849004998422415	1.13922746714453e-15	-5.725497962314996	-1.48652317341927	2.021916476636927	-0.9188164442360748	-0.1932367617562618	0.06871355618282571	0.3219691167662128	2.165626085345249	-0.1475075029766119	-0.03713545501882847	4.622279170587714	-1.91372171500813e-14	0	0	-2.327992146251137	-0.08707753466191957	-0.2880690740396904	-3.191294807496537	-1.91372171500813e-14	0	0
0.448	-0.1016649781058771	-0.1175767444488361	-0.02281924257094416	-0.07300798361678368	-0.03380249746584863	-0.02788923404345392	-1.428014594783346	0.1231985404275461	0.1757438576898435	-1.333177237355669	-6.540756516737119e-16	-1.486658221691586	0.3871466223837836	0.7021912664152612	-0.8000505197768217	0.03832184300671371	0.1789184050611893	0.4316776179695365	-4.586168270633124	-8.724973798144553e-16	-5.535518731139691	-1.550647062717539	2.010551959345236	-0.9090897559651995	-0.1649162601842207	0.07087929712805047	0.3244260030840534	2.191675711128309	-0.1364020330629745	-0.02026734559739342	4.624923687626056	-6.913106744358472e-14	0	0	-2.343303859140363	-0.100847158553309	-0.2741102273616374	-3.024834164148284	-6.913106744358472e-14	0	0
0.457512856113114	-0.1192967942107141	-0.1057550605118345	-0.05763229348587585	-0.0590418296338221	-0.04619534407193024	-0.03868027752498665	-1.35731689938904	0.1064651471271942	0.2310902354398153	-1.198341644664048	-2.914847036009815e-15	-1.2896261820484	0.4315950605713009	0.6382157019559385	-0.8151511549703989	0.07739180653691813	0.1803000448299536	0.2396839192359688	-3.89306137263988	-1.323775704143048e-15	-4.991094339929728	-1.339303645595341	1.931274539735691	-0.9167310502855537	-0.09408141492584809	0.070686790984401	0.3333199949249979	2.259221005547438	-0.1050174724977124	0.0177179555722304	4.625299096571769	-1.235495884400476e-13	0	0	-2.396952047863756	-0.1414871474878429	-0.2479280406440803	-2.591154503885162	-1.235495884400476e-13	0	0
0.4744558844730551	-0.1648175431543471	-0.06079770655948941	-0.1051437090046885	-0.0292999427881394	-0.065936285615766	-0.06327651172390548	-1.200183781516097	0.04011267541114102	0.2937934735498137	-0.9155922315121552	4.574634202569188e-15	-0.879248476003488	0.4280583551202831	0.4983345611834045	-0.644538154675895	0.1642260093921296	0.2424104359719939	-0.4080621613115312	-2.547460932082742	-1.115463122483389e-15	-3.769388679089064	-0.7131621377779572	1.599877465575549	-0.8742573510766288	0.05842434127402236	0.04969270015847619	0.3396380525066403	2.283648620947416	-0.03614676972251334	0.02169958222276515	4.325821188050176	7.004226243174729e-14	0	0	-2.639180750173635	-0.2217026690315776	-0.1328988299724238	-1.360461200203324	7.004226243174729e-14	0	0
0.4888312594138309	-0.1839510895565726	-0.03617051103248359	-0.1265912914595351	-0.008979780728694667	-0.07708431580296712	-0.08575408934927699	-1.051753578234389	-0.002160389185788721	0.2532179297083597	-0.6061254676709497	-8.363427565704712e-16	-0.5000607803810085	0.4736131049249857	0.4427371757251091	-0.2919878326495685	0.2211564738653386	0.3142023980711555	-0.8660062110767983	-1.433406006856882	2.593321620271617e-15	-2.58724093309968	-0.661188175037835	1.04977015309134	-0.6262199185414653	0.1498837793356767	0.0599896129407046	0.3412871815590206	2.311789170749458	0.005290943871216404	0.06360719851950311	4.053588966055116	-3.897686960225016e-14	0	0	-2.702439454953036	-0.2609118409780702	0.00748478803214543	-0.6341361750288838	-3.897686960225016e-14	0	0
0.4928	-0.1959295559439927	-0.02877881149064681	-0.1375017790683433	-0.004056345914723022	-0.08057510990688418	-0.09091795404096226	-0.9962126514302359	-0.01374388177921086	0.2465789680315651	-0.5066520595064571	-2.408131305829258e-15	-0.3946975512512762	0.5092850225615515	0.4304616534747452	-0.2245907948127354	0.2446533206954173	0.3293511120217153	-0.9515542039515628	-1.147836566055991	3.266779049834562e-15	-2.255033913593887	-0.7229322746966123	0.9591810173895514	-0.5618656878125684	0.1832374145556666	0.05966684762301281	0.341669427564125	2.333633452618872	0.01392568614775476	0.08990866885558532	4.025685811984085	-3.542067197462502e-14	0	0	-2.688851414686635	-0.2698560021312496	0.04197161812867605	-0.495455717000447	-3.542067197462502e-14	0	0
0.502312856113114	-0.224235229150005	0.0006485568234722403	-0.1773861728465948	0.008102033017504659	-0.088716398184411	-0.1008828991792705	-0.8666399566291518	-0.05262200602612704	0.2606967287819911	-0.2739708456696989	-2.85488097559685e-15	-0.1468528326669518	0.5809406549320912	0.3980835304186717	-0.1098147373373392	0.2797846271086343	0.3640108602499112	-1.140064459007201	-0.4859177743651563	-2.996394989791441e-15	-1.474260626542309	-0.4392707983895194	0.7734646143943817	-0.4477260269367623	0.2521918882354817	0.03434504314710422	0.3453892335951648	2.393836118151392	0.03947195290294138	0.1519876940221442	3.953614875510069	2.647578730578643e-14	0	0	-2.667487654969138	-0.2974417485861957	0.1180995244700576	-0.1417988034577624	2.647578730578643e-14	0	0
0.519255884473055	-0.3294961586194951	0.08715339911383743	-0.240185876605276	0.03069919455569455	-0.1055196980564906	-0.1187523444501848	-0.5758528628600348	-0.1643072757036939	0.259425131655212	0.1527345338271296	3.110134378663829e-15	0.2587494964436361	0.7119336195374379	0.3148559561744609	0.3403823514600582	0.3391530231757723	0.46703630552128	-1.548690938031454	0.5043084296729776	1.455985638182818e-16	-0.2280776647262565	0.1122915500119972	0.1913551035707514	-0.09996155149081123	0.4275794244579924	-0.06474100146237349	0.3509589948640002	2.380123986391136	0.09570329283884711	0.2136652760453048	3.502251752290035	-1.137867076612978e-14	0	0	-2.63414105319791	-0.3399910279230101	0.3152653273716201	0.5870390048999193	-1.137867076612978e-14	0	0
0.5336312594138308	-0.3928579560838204	0.1621068655403402	-0.2902239589001131	0.04722598918437373	-0.1158170726294545	-0.1298047260331588	-0.3830934750724445	-0.2579642837649287	0.2209747961703875	0.4618327250832384	-2.927430822088653e-15	0.5483186616994838	0.7957830629629704	0.3057849546978419	0.5481835424902476	0.3112731196130094	0.5164462288757231	-1.432543022991804	1.083280802068657	7.532644320051839e-16	0.5901399772414327	-0.04855204195852869	-0.2004538077138471	0.2393665682427763	0.525686726266817	-0.1611932876599634	0.3561609760529149	2.371818784546257	0.129340724780313	0.2245726141779165	3.259127355568565	-9.779837077367194e-14	0	0	-2.496441517158063	-0.35135455556821	0.4385954444357549	0.8463553897922577	-9.779837077367194e-14	0	0
0.5376	-0.4019602500347031	0.1730819934133171	-0.3035220719432689	0.05185581628404493	-0.118416575471836	-0.1327356702902889	-0.3429694997117972	-0.2733732304005517	0.211798306897982	0.5388413628590433	-3.243707790611111e-15	0.6181997495295694	0.8381284622941465	0.3199780565325716	0.5921847198345426	0.2933257985755663	0.5165935239516062	-1.370898773723762	1.205001883609306	-3.827778332567537e-16	0.7695038410904148	-0.1446436129418366	-0.1444303710446009	0.3014848049441595	0.5437598832238797	-0.1741155928714086	0.35753309197367	2.394791120280301	0.1363618375665471	0.2424294407761986	3.235074581348025	-6.006141355283506e-14	0	0	-2.446621754318369	-0.3548491010586299	0.4683669165811831	0.9056575990751752	-6.006141355283506e-14	0	0
0.547112856113114	-0.4348479363071582	0.2078838853260646	-0.3476866782290904	0.06234146102486703	-0.1249492267337513	-0.1375858700873997	-0.2488499923946514	-0.3182069180131137	0.223902354326969	0.6866672458903726	1.321926237431097e-15	0.7684864816144068	0.8880320412443165	0.3121629635595511	0.6461206115812028	0.2377478207754622	0.5158328131581978	-1.157294401502003	1.426372684975074	1.268218553267759e-15	1.115185876288429	-0.5496375242361469	-0.1501376042653332	0.3619045500123569	0.5913787346105833	-0.2224783155588858	0.3665450869270671	2.466727675479446	0.1578968120210787	0.2982821187877132	3.17317579594049	6.810992447156606e-14	0	0	-2.31114243715045	-0.367460589599532	0.5335304820917415	1.045487184428167	6.810992447156606e-14	0	0
0.5640558844730551	-0.4831513894775497	0.3397616088952301	-0.4559460667380271	0.08761144262181317	-0.1338275018951828	-0.1374235785238095	-0.1220273988314413	-0.4642606211266731	0.295484828421539	0.9170854349611988	-1.891273642530218e-15	0.9870262079649773	0.9649284455648887	0.296701061401322	0.4748670363186699	0.0730259962682166	0.5472102712649347	-0.3042256905821977	1.580834337156053	-2.009396883568512e-15	1.459618107667882	-1.379825114935868	0.05748630045470304	0.394996764883033	0.6576476721223314	-0.4277436998811088	0.4033466467775989	2.393569949367354	0.2071352513033774	0.3147319621405849	2.927209790958962	3.937954442624506e-15	0	0	-2.111898874808727	-0.3703475904198877	0.6137930017581292	0.9035582513542585	3.937954442624506e-15	0	0
0.5784312594138308	-0.4746844454872098	0.3962822745926494	-0.5671867883908289	0.1155256707525958	-0.1377845613209346	-0.138800621259286	-0.1150222535307657	-0.5350917617725499	0.32315507426174	1.015721654538946	-3.343748502951207e-15	1.149062128374438	0.9491336904359653	0.3567906588517169	0.1154418929433114	-0.2230848357415097	0.5176986518648486	0.6828358180949855	1.112734181282231	-4.702762035910952e-15	1.541265513376445	-0.8376800660008531	0.1665746961677863	0.3244293671109458	0.6668205587298932	-0.5150996123042492	0.4422267221199804	2.270807274086776	0.2350367275379986	0.3171781724387821	2.923069984510671	-8.081432023259827e-14	0	0	-2.086759676706377	-0.3556580538545128	0.6241943922472911	0.4297551197172569	-8.081432023259827e-14	0	0
0.5823999999999999	-0.4758575324867521	0.3962632832324176	-0.5857585478873711	0.1228540391604911	-0.1391303219314722	-0.1419021960211922	-0.1010930240197863	-0.54241133838742	0.3182478509212481	1.055458632624007	-1.521620968466642e-15	1.194883798894885	0.9514762612331021	0.3835238264451406	0.06093979878868561	-0.3341069768056592	0.5094417951107881	0.8097774108422127	0.7788549147085971	-3.268518870908351e-15	1.540611111405232	-0.6169185084829995	0.09054679647259911	0.317507467468368	0.6784108417193241	-0.5105435447593324	0.4483202151085328	2.25980185820408	0.2399301687561389	0.3205817004188323	2.943870941577429	-5.643236160080274e-14	0	0	-2.05920586795244	-0.3542725480480053	0.6333203399122712	0.3524787069605267	-5.643236160080274e-14	0	0
0.5919128561131139	-0.4707144729119836	0.3936686063100142	-0.586098871363406	0.1339906131773601	-0.1395169213237955	-0.1538002820873967	-0.08921889883924533	-0.5571690398365557	0.2771802240409784	1.112948802870407	3.442749121554534e-15	1.314394317356819	0.9007143588304275	0.4112575150733844	-0.06402304143600202	-0.3750553472351109	0.5020393832043896	0.7047120080198668	0.6699152294257484	3.663110024436436e-15	1.512710513270506	-0.268533639177703	-0.4551295899973396	0.2307991005781776	0.6920363417208409	-0.4878917159116106	0.4567220523405022	2.125391244087878	0.251808933644898	0.2943133305651486	2.908049905482267	4.779621779030884e-14	0	0	-1.958353846156437	-0.3456737435994561	0.6585906449361261	0.2548395225872491	4.779621779030884e-14	0	0
0.6088558844730551	-0.4155831143092509	0.4081658065493713	-0.5032658748375668	0.1383898804656919	-0.1188856314544334	-0.1784216702366033	-0.04056719335747272	-0.5837369527788063	0.1423262014394243	1.33892761935953	2.672445194301336e-15	1.590476246350208	0.7110736401227022	0.3574835275376164	-0.7158484209526097	-0.2614915940074137	0.4941488663802129	0.2606828297908131	0.9499528491663574	7.080001412632325e-15	1.410472251812862	-0.3387240276312586	-1.749311490966076	-0.294227605274601	0.6361177538927599	-0.4721522434641976	0.4776641591841463	1.280956272529185	0.2711526413612566	0.07257661107912373	2.609467521522357	1.026328300828112e-13	0	0	-1.42062664926113	-0.2715229978292535	0.6203953970809674	-0.3216869773672258	1.026328300828112e-13	0	0
0.6232312594138308	-0.3694046308928943	0.4363257241204043	-0.3734329515445923	0.1285837851506516	-0.08989743635790948	-0.2070571208829096	0.08599959194274115	-0.6344183675218196	-0.1581648449418533	1.688097187084316	-2.25009143779322e-15	1.921702736491338	0.5471391760960755	0.3752860150767832	-0.760336713789205	-0.1711035365527697	0.522025362147708	-0.08288444504200329	1.116584884450496	-2.238039417352687e-15	1.295165180746968	-0.6508468395201288	-1.898879859067428	-0.5192922867971668	0.5742472423134176	-0.4405556778085422	0.4698697609295754	0.5991266950180238	0.2788093349347891	-0.03534343062777281	2.336338341904263	-1.655669527176926e-13	0	0	-0.7150107978080271	-0.2111895392133936	0.5841106272247124	-0.3203635522242894	-1.655669527176926e-13	0	0
0.6272	-0.3605672874263885	0.4425760755267137	-0.355343711115981	0.1268421840045039	-0.08258392563125524	-0.2137803445785648	0.1341347957102399	-0.6474863947691993	-0.2149075828076536	1.801157467620424	-2.215765275916469e-15	2.032042842433754	0.5239339715120197	0.3789649665082154	-0.76290158801754	-0.1629547479006357	0.5221279949267122	-0.1647034236149172	1.14694312262671	-1.671554985657339e-15	1.258337426065847	-0.6040374398103525	-1.809503908888337	-0.5074170836268994	0.5656733420280767	-0.4287067145790419	0.4674409222575669	0.4725907523191295	0.2804442205025128	-0.04896902928310751	2.299122773475054	-1.541014041309929e-13	0	0	-0.5943851293586805	-0.2029705396675839	0.5866570215028282	-0.3108071701960505	-1.541014041309929e-13	0	0
0.636712856113114	-0.3515325270133881	0.4608146359928154	-0.3222284103135827	0.1190962898030145	-0.06468414016867238	-0.2283823791510773	0.2817851207230325	-0.6799117898761304	-0.2992576665042347	2.087255893522582	1.578677826315131e-16	2.331412248735109	0.3905645827865503	0.3243884492302733	-0.8757163222834198	-0.118375023168602	0.5370882895881903	-0.2997851204089836	1.290855940625269	-1.378156258422152e-16	1.157335082642084	-0.07483883765921295	-1.558574789468671	-0.4497578060114895	0.5456239172584436	-0.4094262021867343	0.4600276785016996	0.1601136641987273	0.2850486924990365	-0.100869125458186	2.20171551531071	5.151627808788042e-14	0	0	-0.2624545105232248	-0.1851466034730997	0.5954142531858021	-0.3355298409927133	5.151627808788042e-14	0	0
0.6536558844730551	-0.2772714150051326	0.5233673147335147	-0.1664325486827069	0.1006125004248275	-0.01693023834136563	-0.2580251420945975	0.5426112238626278	-0.7654701039529	-0.5207666728419241	2.711781811080509	8.498111851739411e-16	2.979469931085226	0.04598011910964728	0.1716311080235491	-1.042483136559243	-0.08889541407121471	0.6693225528511583	-0.1186110583081894	1.600348892684994	-4.409282922377643e-16	0.9171008524069729	1.458309343702312	-0.6261072893844258	-0.3725783901066487	0.4427564146901083	-0.4149637350019553	0.4163742367818009	-0.7867419501583015	0.2880315428967748	-0.2651787908439712	1.84609898923295	4.544845640571524e-14	0	0	0.4641901019299084	-0.1149654952982196	0.5343747587892757	-0.179035006895559	4.544845640571524e-14	0	0
0.6680312594138309	-0.1908117784581178	0.5395695498976152	-0.1310472347698312	0.09812833881167583	0.02184696510039764	-0.274837033533472	0.7434395295292087	-0.8191821234048584	-0.6922508439161905	3.248868018315482	-2.075753003051839e-15	3.616893009504815	-0.2133566356348959	0.1337306427714561	-0.7510992465070326	-0.3312870552831776	0.7468619695253311	-0.01448874303482406	1.303916469936604	-2.250456873674984e-15	0.6436522076855268	1.455535673281252	-0.6198538000630762	-0.3534311732424151	0.3683101227819225	-0.3709051360322405	0.3624457161070256	-1.343425687849614	0.2885063632620125	-0.3281885398776821	1.706604767274849	-8.485157619163525e-14	0	0	0.6981192349680915	-0.1061203880024928	0.495193778830878	-0.09918486400289155	-8.485157619163525e-14	0	0
0.672	-0.1766323553443578	0.5376164310819777	-0.1307567864501015	0.09884634649384838	0.02947148223438407	-0.2779247428626049	0.8269944947114549	-0.8284951510390779	-0.7108906994480312	3.424239015009253	-8.912386510903907e-16	3.800822142645312	-0.2838034130367647	0.1088776422928008	-0.6671356200508207	-0.48022494530769	0.7583809496104419	-0.005582663216338325	1.025963747206732	-1.443762125370891e-15	0.5582426784736565	1.175488540571146	-0.6204343973954931	-0.3068237209989054	0.3609650756161736	-0.3531065690774512	0.3489956555224138	-1.435430509166423	0.2896416843309114	-0.3392273636506682	1.70295684369251	-6.532806516309198e-14	0	0	0.7642839272803956	-0.1105873903536666	0.4962231661451935	-0.06207157011900084	-6.532806516309198e-14	0	0
0.6815128561131141	-0.1344284439936493	0.5371073350495521	-0.1231577727377895	0.09990671929006684	0.0454440332390182	-0.2824593126314148	1.001498809520187	-0.8514697109508873	-0.7061767749166867	3.81713264848196	7.281473675793575e-16	4.244542526953651	-0.4601057284570345	0.04187375607921806	-0.5138982919401045	-0.7456082261031922	0.7866101370570084	0.03369455682128995	0.6154354340756577	2.012173485039897e-15	0.341811249453528	1.142240432713022	-0.5324382849628249	-0.2012334547776164	0.3351260291190896	-0.3285199410235817	0.3167772487159083	-1.664466298721932	0.295225021975783	-0.3697422427669109	1.639911728465487	4.525225905830151e-14	0	0	0.8428865621236407	-0.1224510557465147	0.4980655643751435	0.09116516768654107	4.525225905830151e-14	0	0
0.6984558844730551	-0.003628855350491116	0.5566325869248425	-0.1020899734938102	0.09908579556656788	0.07516197822007242	-0.2830864494763507	1.24806642299411	-0.9071769336815162	-0.6775209489578717	4.448087181074483	-1.30885688144096e-16	4.997332516981203	-0.9041608407476225	-0.1713290456501149	0.09369349023813577	-1.279948166475704	0.8592103255791292	0.1288209154188394	-0.1325296047894048	-1.592956280294282e-15	-0.05235216908828326	1.025837165785664	-0.4865036557095909	-0.2946712149771915	0.2109715203137925	-0.3338802307140816	0.2288779356351942	-2.23371531595703	0.3059043772253786	-0.3862807533765594	1.2745397135112	-1.374376220077531e-14	0	0	0.992478238557016	-0.155539639258137	0.442811410505602	0.5798522156335756	-1.374376220077531e-14	0	0
0.712831259413831	0.06437802670093087	0.5659229639234515	-0.1086381895446901	0.08963202319332673	0.08840107549368745	-0.2809584441589068	1.455347848476075	-0.9946606695869167	-0.6995347018807373	4.82677409858869	3.518988738028532e-16	5.534705728079226	-1.338195897634633	-0.1948699578807628	0.7225027718047689	-1.581783373679297	0.911725943295008	0.2403515281000587	-0.6077058021314192	2.780416311780543e-15	-0.3487032205527451	0.8654110671891055	-0.5770927705558043	-0.3369787404623961	0.1331368472089354	-0.3269402199542274	0.178847128904257	-2.485497450344797	0.3175725731555853	-0.3286987936945489	0.9467768395472191	-3.604272760521242e-14	0	0	1.085686908339843	-0.1882815708896279	0.4262866173442937	1.051383138815341	-3.604272760521242e-14	0	0
0.7168000000000001	0.07560187620554576	0.5624528365395219	-0.1141315219439106	0.08537669349117678	0.09058337198190572	-0.2794018131505949	1.539196484971288	-1.010065528745317	-0.6811741095764854	4.964349758660335	-1.500560107026774e-15	5.658528946909568	-1.37948100001862	-0.1988683115514546	0.8629051283379083	-1.642388954776896	0.9148923084447748	0.2636069272183696	-0.715545309982306	2.370281736193636e-15	-0.4185623114513201	0.8313386506828446	-0.5932220143095615	-0.3230858349297393	0.1159867619905145	-0.3193290871789844	0.1665799350308039	-2.556907004703975	0.3204823611576423	-0.323361319508571	0.897264447177175	-2.472544083874895e-14	0	0	1.114059856929289	-0.1956546014750529	0.4341610081494071	1.132171765404585	-2.472544083874895e-14	0	0
0.7263128561131141	0.09916159932731514	0.5580576514427984	-0.1194645525356577	0.07309935457905715	0.09199458728931054	-0.2735262700905704	1.741992140786195	-1.03518951440019	-0.570030767445153	5.342552942519945	-7.300572215843307e-16	5.902755953917225	-1.298324726183423	-0.1721799444584133	1.23310169185302	-1.741006168366416	0.9161148817747472	0.2983922119942172	-0.8903722175774591	-1.480497847615463e-15	-0.5595140001854368	0.8264397051857739	-0.5835856243479416	-0.278470108323205	0.07562157047098884	-0.3121820087574805	0.1305850511009725	-2.685635377175673	0.3282151827937144	-0.3424813824952038	0.7546970622270128	3.031725357367428e-14	0	0	1.164060213507901	-0.2164293535611613	0.4457385878176953	1.317192540197302	3.031725357367428e-14	0	0
0.7432558844730551	0.1643847157842806	0.5868263133965202	-0.1153806599949916	0.03691078507524435	0.08973950972165354	-0.2568665429901781	2.099607872258778	-1.098772857716256	-0.3142167923060345	6.019084650332727	2.158878836922127e-16	6.128548234979131	-1.071569206274551	-0.1360864792724226	2.34707879870348	-1.849242721925837	0.9328758105356322	0.3253832868456502	-1.070036259324731	-1.8172905565253e-15	-0.7109886357035076	0.6949606656011611	-0.5513101887614743	-0.3255575459601104	-0.06489440699742997	-0.3553566929864015	0.05556088766513632	-2.875558428126694	0.3469357106086516	-0.3500280505944631	0.174648452079209	-8.240213871141099e-15	0	0	1.378723002660335	-0.2832880401259473	0.3983899628554074	1.902157616226668	-8.240213871141099e-15	0	0
0.757631259413831	0.2009924778159466	0.5643652428414002	-0.09947394322275786	0.009713016103540389	0.08040605576267384	-0.240955116741539	2.22216657157622	-1.123899654002261	-0.2091124278944732	6.057827185617668	-7.753779108771e-18	6.091366142981309	-1.329550427145506	0.0002069872340995094	2.748480506172629	-1.867251244947917	0.8662060671048557	0.2588142755886452	-1.120469887092177	-4.579247135853517e-16	-0.7483271740889064	0.5636852566486092	-0.3660011971001686	-0.3046561691895473	-0.1431862830979847	-0.3386602917594803	0.01219544107924907	-2.91625502136551	0.3645346753444061	-0.3229025846581867	-0.2913133091537703	-3.314576574602255e-14	0	0	1.622264284070306	-0.3504818707495799	0.3504880147800384	2.112123483029296	-3.314576574602255e-14	0	0
0.7616000000000002	0.2090969346515213	0.5505791276433202	-0.09695292405533065	0.003228356858519243	0.07772985192004703	-0.236024042502188	2.245345092944028	-1.118821241880854	-0.16641142690097	6.030551534981978	2.991217324510156e-16	6.043733223986827	-1.33471247909504	0.1070979073387469	2.758204364369278	-1.858471957339942	0.8373674893161621	0.2362484130306772	-1.106807691289699	-1.390079935288871e-15	-0.7472379840052762	0.5677660898645547	-0.3048357229088741	-0.2876450584706052	-0.1602893263875824	-0.3269989048677441	0.004140735478476459	-2.973843998783009	0.369338080506069	-0.3084477393175766	-0.3909199834843346	-1.006333419851032e-14	0	0	1.680664082449886	-0.3639807538817241	0.3509616868836523	2.142415121052122	-1.006333419851032e-14	0	0
0.7711128561131142	0.2189819120880125	0.5134584598102978	-0.0912260785524063	-0.01235573185738204	0.07281373769448717	-0.2213311049060025	2.238716997702506	-1.069074629520905	0.00342312193567439	5.677393056112447	5.557445880301473e-17	5.866141787757323	-1.179661670969684	0.513776375153235	2.689590063409445	-1.808900729658398	0.7596254201846562	0.1778122303013582	-1.034491098864381	2.464544421130593e-15	-0.7310822990745646	0.617108219629245	-0.1363936812975263	-0.2496420148818823	-0.1901916593220372	-0.3035734454508694	-0.01437668138616029	-3.05162135777786	0.3827640463347945	-0.2679350892481253	-0.7190410274672382	7.941042504617641e-14	0	0	1.843454090128656	-0.400084180384182	0.3434789917201081	2.202650586139942	7.941042504617641e-14	0	0
0.7880558844730552	0.2606659758758711	0.4178518048514827	-0.07611216769518314	-0.04970407929795514	0.07432959202670726	-0.1873794723754977	2.292410775717835	-0.8833413874807234	0.263749797950331	5.016047222084571	1.695711309392985e-15	5.346620164707106	-1.045275074627292	0.8885763704718168	2.225449475971136	-1.720289870898658	0.5656948937496296	0.01241150185613321	-0.88679013199946	-3.301929800667167e-16	-0.6816391260277395	0.6029331598122276	0.2340284916811627	-0.2168980821726323	-0.3030299913752431	-0.2441782186276263	-0.03941987118949993	-3.230495377409143	0.4172238926937454	-0.1353911413426426	-1.81956651296165	-2.787270236857517e-14	0	0	2.304008346939213	-0.525687420264797	0.2118793701643317	2.108112963233284	-2.787270236857517e-14	0	0
0.802431259413831	0.2781797999417744	0.343187658451599	-0.09310980291107479	-0.0745148528928806	0.07907673287096112	-0.1601910011184496	2.310261391077249	-0.7317680955561895	0.3618979891234803	4.2751133583633	-2.843869644372754e-15	4.735184361480207	-0.9214109669648234	0.5516597512913729	1.651017089878386	-1.659956252288769	0.4155977068406986	-0.1359832837491694	-0.8160104328030795	-3.911346108959997e-15	-0.6509417195777853	0.4921793176040301	0.4524153667434703	-0.1093784879926783	-0.3702764777811818	-0.1958835584384598	-0.05361992063795966	-3.251157002349454	0.4290265596540522	-0.1000113199552762	-2.563376495125984	-1.170430431888478e-13	0	0	2.561945941320891	-0.5864861348276974	0.1505999413785786	1.868954499081392	-1.170430431888478e-13	0	0
0.8064000000000002	0.2809241285875941	0.3259181899639014	-0.09887604778368622	-0.08032710300497722	0.08058699594529964	-0.1534997820055988	2.324592120093406	-0.7000786223757318	0.3776507997633717	4.093480969728015	-1.662812009059862e-15	4.544199256841049	-0.98471798501789	0.5519232334868596	1.542509585037401	-1.644740518873146	0.3806612925016311	-0.1727831305617819	-0.796154341160035	6.009037142421997e-16	-0.6476973594148132	0.4953992916868915	0.5094917084359816	-0.07870696326232085	-0.3888966627114337	-0.1844465546991955	-0.0572220410935051	-3.282170920815572	0.4313490395436723	-0.09241233291720138	-2.695238421453089	-1.36706174109072e-14	0	0	2.600413019664291	-0.5966177765802334	0.1506740467490904	1.819857409005806	-1.36706174109072e-14	0	0
0.8159128561131141	0.2879495169245942	0.2877769616629434	-0.1136655046568618	-0.09355775707895483	0.08558009968682792	-0.1365554139271389	2.322709817837156	-0.6231187437692013	0.4324418461692203	3.570086991098022	1.688200838719363e-15	4.055164449895265	-0.7779761852816229	0.4312315390878046	1.28490733871398	-1.599889780784412	0.2995708057663983	-0.2605933223809858	-0.7283933158982047	3.781808659577077e-15	-0.6519075794634932	0.5172947575604878	0.6533080946241254	-0.02347239470785931	-0.4299803379397552	-0.1630323164371891	-0.06371021188500899	-3.271857875044405	0.4385300221534375	-0.05939646749095914	-3.086493586795466	1.18758661099356e-13	0	0	2.687329606075361	-0.627839651567047	0.139746628777668	1.722736529459057	1.18758661099356e-13	0	0
0.8328558844730553	0.3351710284428616	0.2131629156231999	-0.1717489686526557	-0.1172333411572996	0.1001495500354143	-0.1028274887661934	2.309651545974893	-0.4625346529201635	0.4575556498658795	2.683533663195401	-4.929328583994297e-18	3.103165599408832	-0.5640697149819407	0.1604181944495794	0.3508547230195826	-1.595899456009031	0.136239132449306	-0.455787486218833	-0.6814142246847074	1.058020490199122e-15	-0.7040840365019256	0.496096059060759	0.9175655302706509	0.08861968903906565	-0.5459701913389561	-0.1189134188383046	-0.05147375360847377	-3.109708351194132	0.4469061457969538	0.02904210049181181	-4.280442380647847	-6.107921079610354e-14	0	0	2.921898436551351	-0.7075880786979628	0.02833222002872507	1.345227282383039	-6.107921079610354e-14	0	0
0.8472312594138312	0.351317465764449	0.1630878777995676	-0.2237023065674351	-0.1290172998669415	0.1094985859339046	-0.08253294658510979	2.270477938588096	-0.3981756585581138	0.3996814936443921	1.855085083003378	-1.555871940083809e-15	2.247463122849935	-0.6158401677390122	0.1325525660806993	0.0007309612828698426	-1.613306032749853	0.04511704708105925	-0.5699649736267408	-0.7232834139305455	4.153583974521709e-16	-0.7880379935524801	0.3772565079764163	1.002936173380659	0.1933903781438241	-0.5982492673424264	-0.0775136492959249	-0.03549362168464033	-2.863829464731967	0.4432552835683387	0.08426225037069322	-5.04120136896839	3.284618211306228e-14	0	0	2.992531628486689	-0.7425123704280467	-0.01772536473236477	1.195550492937227	3.284618211306228e-14	0	0
0.8512000000000002	0.3502902114381538	0.1509537562754515	-0.236440786750605	-0.1320527379079427	0.1107443637157959	-0.07782848185693288	2.267915332216245	-0.3854466511818748	0.3806561062244894	1.645712257103502	-1.351267215843688e-15	2.007304873633382	-0.6373210789764528	0.1362953310667656	-0.05253713758546773	-1.611788804053958	0.02566624273795623	-0.5931453194617201	-0.7291309333654464	-1.355623519475488e-15	-0.8159411632262047	0.3805993304207569	1.024859372365119	0.2284251523717919	-0.6098825991550541	-0.06530933899233517	-0.03064561652938151	-2.829287631168765	0.4432677224008859	0.1080824685200456	-5.171908040324085	2.374457348549336e-14	0	0	2.993209880039392	-0.7489983860666454	-0.01597681542726545	1.171276990622734	2.374457348549336e-14	0	0
0.8607128561131143	0.3513054358796227	0.1219741105778929	-0.2708430943085441	-0.137787982783017	0.1138182595097075	-0.06582246387029687	2.229373262218289	-0.3455588935192648	0.3534248857951757	1.101103874038065	1.434342031772097e-15	1.428834570848271	-0.5298536670978597	0.1324315560157935	-0.2140914664541417	-1.611382823534025	-0.02125201191023229	-0.6478913853136536	-0.7404271711021806	-5.002008244198206e-16	-0.8879619987751339	0.3818957886614087	1.075984736215926	0.2988121875843508	-0.6326673494467416	-0.03634291775484447	-0.01398430781005174	-2.653725955659458	0.4449233268937997	0.184371372776451	-5.559904805313169	-1.26727345610925e-14	0	0	2.992840331187607	-0.7722323116428421	-0.03048883307192414	1.148456834464558	-1.26727345610925e-14	0	0
0.8776558844730553	0.3704361580581468	0.0769198962298609	-0.3605797262937641	-0.145227549049649	0.1181587546866437	-0.04578420981165976	2.112576784392175	-0.284007442464055	0.2788940991929702	0.1317721032317075	2.950469616330887e-16	0.3995594627460263	-0.379036698862977	0.03670473299597299	-0.4257184013079809	-1.666062426307548	-0.08653686192796914	-0.7369182072213515	-0.8291046998497809	-1.285820579736919e-15	-1.020971236933776	0.3077999821196999	1.094653889957304	0.3660515655396226	-0.6840669908647734	0.01241370979713358	0.03875214408027292	-2.128146564700285	0.4332980363989507	0.2896948026907191	-6.659383248971125	3.281470540411156e-14	0	0	2.944152083217979	-0.815425736916445	-0.1507623754872383	1.309074099060666	3.281470540411156e-14	0	0
0.8920312594138311	0.3543620406895708	0.04110025199099535	-0.4104379425459659	-0.1473330568627184	0.1142665262779932	-0.03672254399906008	2.007221872066343	-0.2581944477007977	0.2113309408023643	-0.672973888262942	-2.130599145692808e-15	-0.4633566081093038	-0.4256205317244341	0.08148740567558227	-0.2125772439915023	-1.685780949700738	-0.1008566665337154	-0.7160931077292985	-0.926126826246729	2.648684928410657e-16	-1.121572501834009	0.1795250971668588	0.96634907524994	0.3234899461683074	-0.6823425228983817	0.06626524256134798	0.07289387014831557	-1.684219368935613	0.4179883929981354	0.3199917536816616	-7.259290145420855	-9.781478527917075e-14	0	0	2.825786763064546	-0.8267646870707525	-0.2175682401776303	1.597950207686694	-9.781478527917075e-14	0	0
0.8960000000000002	0.3465532872223833	0.0311611130057309	-0.4205607155282451	-0.1482116239221141	0.1116127957550471	-0.03436449263921541	1.977801789302793	-0.248355413383565	0.1953693691904876	-0.8828865567973607	-5.79628395083939e-16	-0.6991824467421968	-0.4330512319709408	0.1039244566384733	-0.173774884611174	-1.681813215890391	-0.1040897687524496	-0.7064992352606571	-0.9380564692613611	1.760936609647584e-15	-1.145295139209072	0.1842461425773894	0.9389750667588215	0.3334589992433157	-0.6811229206347758	0.08207002439129291	0.0812643992776685	-1.599727912383436	0.4162696726701754	0.3411906395048108	-7.349228169489565	-4.87868282675932e-14	0	0	2.798574173700938	-0.829875427964415	-0.2217664806195923	1.657732449436716	-4.87868282675932e-14	0	0
0.9055128561131143	0.3272859836347972	0.008659675396509055	-0.4433537440522318	-0.1500841132184559	0.1044574944899237	-0.02784815342506813	1.89171760805388	-0.2124649171759651	0.1737365122442328	-1.388771986030592	1.175951307833908e-15	-1.259653761160406	-0.3048044105168288	0.09234221990464714	-0.1762675717958209	-1.667825344138063	-0.1152991696477916	-0.6939360564335751	-0.9632213532397904	7.287810374417205e-16	-1.192795328382489	0.1552190996474665	0.8919033577660413	0.3622741097193894	-0.6749930459671382	0.1159317642051361	0.1017617360184043	-1.343776484389819	0.4108414070955623	0.3774945970879533	-7.612601968167482	7.419253253666062e-14	0	0	2.734463622752016	-0.8393795548863042	-0.2522950784894807	1.837263948431291	7.419253253666062e-14	0	0
0.9224558844730553	0.2754632047334419	-0.01880429699021525	-0.4700280634019588	-0.1520287987681034	0.08626453248873109	-0.02191519115342712	1.728074962225547	-0.1662319285979857	0.1557481263750081	-2.264161730557579	-1.034312271824693e-16	-2.239085476260315	-0.1762297828632295	0.007224432003967995	0.04227883897785705	-1.618549058163512	-0.1043829671779598	-0.6309809181656143	-0.9945055116399153	-9.403144287839588e-16	-1.239209303937774	0.100573853890449	0.7460775505784507	0.2191624607307152	-0.6462903577298824	0.1660501543665351	0.1320847260481134	-0.8399622747292155	0.3716890629811839	0.2116728223738437	-8.279276793859413	-1.754860789119757e-14	0	0	2.47932254320905	-0.8263436584096064	-0.415505672784745	2.578283585422853	-1.754860789119757e-14	0	0
0.9368312594138312	0.2091213801076742	-0.02789770079090674	-0.4598653796210506	-0.1510142171499451	0.06454888313513235	-0.01933148468018457	1.589343000013367	-0.1330310243762866	0.194908901912533	-2.959212163847603	-2.714688107998054e-15	-3.045837346064304	-0.2686793037116655	0.07944447473755062	0.2562919228275936	-1.538033658876135	-0.07690479144029115	-0.5397406896390932	-0.9882530476947704	-2.019448057338833e-15	-1.237061229842306	0.0697247549836788	0.6131563279845411	0.08665613240093478	-0.596537720862106	0.1955424636019508	0.1336171090927908	-0.5659443363997748	0.3373217892301009	-0.005107669209504487	-8.448723770399184	-5.575495846669409e-14	0	0	2.253851296875229	-0.7930565974124787	-0.4964418314223343	3.055057140733877	-5.575495846669409e-14	0	0
0.9408000000000003	0.1933273907387143	-0.03063337194665655	-0.4567459277148306	-0.1509097881056993	0.05787911080551368	-0.01788408938875747	1.544200380216287	-0.1174346899115647	0.2160354641598975	-3.142922635722964	-2.279160291129611e-15	-3.263235194278156	-0.2862919905746278	0.1102700253084849	0.2933286159916268	-1.51353102685895	-0.07167631010766461	-0.5174507129787862	-0.9733559095276882	-1.105893136264912e-15	-1.229857157780757	0.09552405997577984	0.5822915583433204	0.08018119777610404	-0.5872903469093236	0.2032073701716494	0.1340237883611965	-0.5190008434826694	0.3315373027188392	-0.04490539107159534	-8.456882848767368	-6.712055084930532e-14	0	0	2.21208363395232	-0.7869741498371385	-0.5017521676865739	3.145908153337662	-6.712055084930532e-14	0	0
0.9503128561131143	0.1518725458988892	-0.02707820554476087	-0.4439370180007925	-0.1504185094493294	0.04118019729430843	-0.0140283998847386	1.428252276429879	-0.08474678286012303	0.2785054529013431	-3.579398478032094	1.700189157891952e-15	-3.771622280646007	-0.2348403757908227	0.1304763208601357	0.3000346827236989	-1.450162265338665	-0.05170394694468194	-0.4644160042598533	-0.9452240228581976	5.063294995837438e-16	-1.201721435201628	0.07797567719774434	0.5039152111232268	0.07310498800193287	-0.5599470924729363	0.2073473169208666	0.1307266913059274	-0.4031120521760462	0.313732374203481	-0.1835311178175066	-8.489452593140525	-5.317856700785894e-15	0	0	2.120952201008717	-0.7683367733092825	-0.5305398175401744	3.392820231685116	-5.317856700785894e-15	0	0
0.9672558844730554	0.04865529273916916	0.03591791401782059	-0.36676075600507	-0.145256260521719	0.006832691168493964	-0.01389255370357467	1.224532400876158	-0.1141364697614497	0.4033799502117209	-4.336364614847751	1.347475411678647e-15	-4.613431443044791	-0.2840527979591434	0.1396912601061598	0.2547272067245476	-1.29301450625687	0.05443392254295831	-0.288802142483682	-0.8595500288220436	4.442305126165976e-15	-1.118122651640246	0.08934352762370679	0.317956198938641	-0.1005852691483659	-0.4768058902957717	0.150175425628621	0.08091608003885099	-0.393272232590495	0.2418642534677765	-0.8053406485023863	-8.32121243696575	1.422975649027418e-13	0	0	1.835013916412934	-0.6710968317435813	-0.6651390081826665	4.032721207646773	1.422975649027418e-13	0	0
0.9816312594138312	-0.03171569342155757	0.08672197126883033	-0.3026066172797723	-0.1372309191302751	-0.02310273023890676	-0.007713254341922292	1.018173639385261	-0.11447699483855	0.5716982809086371	-4.949025839587955	-1.607626091895385e-15	-5.228436000375256	-0.4917430979073578	0.2431385724621198	0.205692517958439	-1.159839287697699	0.1173914003492794	-0.176478990310296	-0.7586481266036943	-1.877737838430144e-15	-1.020253300255467	0.1334180492915904	0.2295562508384386	-0.1430030501768783	-0.4022640264708962	0.09510350801545227	0.0296138650462054	-0.5014343824355206	0.192563751207176	-1.192518335449106	-7.869642278162232	-6.714173610070931e-14	0	0	1.661417657567064	-0.586773127688703	-0.6847545860656887	4.242503393052023	-6.714173610070931e-14	0	0
0.9856000000000004	-0.0483085161798734	0.0942197207130267	-0.2887212735995608	-0.134959744649526	-0.03095980782496562	-0.004646654138219341	0.9525570254153367	-0.102378282053054	0.6264582625365916	-5.110340113067992	-2.059992879308362e-15	-5.376081588300542	-0.5251693186242722	0.274395117143541	0.1942658781460731	-1.126604010573562	0.1257166633820355	-0.1493749415992985	-0.7236425503744974	-3.201729293298074e-15	-0.9897573344135635	0.1704051274499773	0.2020017850079471	-0.1311760548547006	-0.3865552170564586	0.08495447876800262	0.01903596510430145	-0.5202936584311284	0.1831177681098993	-1.2731609674339	-7.76012174043149	-1.301155144076354e-13	0	0	1.632358390995352	-0.5704355108462149	-0.6744072984340082	4.287714079010861	-1.301155144076354e-13	0	0
0.9951128561131144	-0.08711581582471578	0.1209551248781525	-0.246789000447083	-0.1281412673489137	-0.05052918015837805	0.002648448892723334	0.794959636935789	-0.08899531528370822	0.7543793875216981	-5.42014005087987	1.957526633779906e-17	-5.681393696090423	-0.4913180443155368	0.3063220260541474	0.1062736892281603	-1.051888192128935	0.1557022923616888	-0.06345917537826498	-0.6567224068500971	6.302722606961962e-16	-0.9115116125421676	0.1677127054449876	0.1009786516724006	-0.1063192766790464	-0.3402260358950619	0.0480128155928073	-0.01200024951552357	-0.5639255573630082	0.1561684145766648	-1.502558493045125	-7.471099756380953	-8.627971128318004e-14	0	0	1.601661458947338	-0.5246228572798061	-0.666603931843725	4.426236944419429	-8.627971128318004e-14	0	0
1.012055884473055	-0.1537009807864237	0.2365632614573106	-0.1213497873304316	-0.1057478210751503	-0.08556889092143011	0.01250945750867923	0.5348987754790657	-0.1868490352624514	0.9463266659075975	-5.7387494122102	1.092355839718718e-15	-6.018500540710424	-0.5964900196136375	0.3006379477576419	-0.2571863813923928	-0.9063231558657801	0.2765227782380539	0.1555906695798858	-0.4728869572031242	-3.439717706021382e-16	-0.7565832691193684	0.2726862497075033	-0.0711078472739195	-0.1024113140854677	-0.2314842561541425	-0.09762629752265034	-0.1184493422551265	-0.9457185550568394	0.08118291346555735	-2.024064100709125	-6.358007576070367	2.76830830729217e-14	0	0	1.479176509132628	-0.3739133195439845	-0.6906891427724302	4.467700628597736	2.76830830729217e-14	0	0
1.026431259413831	-0.171422970465888	0.2663756193610784	-0.04120738585673894	-0.08032883420803033	-0.1121890873806139	0.03159869715863042	0.3441666134835437	-0.1808539028123184	1.061463153774914	-5.630352039058419	-9.019484212740132e-16	-6.053636267835543	-0.8303979234522223	0.3630806589635929	-0.3743242757232923	-0.8233146220817997	0.2710597656093502	0.2178854608521746	-0.2810348282229043	-1.810601161993934e-16	-0.6111091975455228	0.430224249093774	-0.046523390972949	-0.05230023796981908	-0.1445970861593388	-0.1659907462700115	-0.1856467536251677	-1.214267158143727	0.03926988456848855	-2.070466002467431	-5.378621171133421	4.527977957960638e-15	0	0	1.447081142914175	-0.2726161933046103	-0.6366289110180554	4.300601660717867	4.527977957960638e-15	0	0
1.0304	-0.1717748586843127	0.2677391511096274	-0.02559258639660114	-0.07317111353681843	-0.1188865055229753	0.03817405087705694	0.3014786366696489	-0.169706313813357	1.078018014081085	-5.538555802785008	-1.073765036164334e-15	-6.018413824444981	-0.8527740160751891	0.3905035766456599	-0.3946322305741454	-0.8039316130432417	0.2611201123909123	0.2280999632156874	-0.2228669503901885	-8.631395928937064e-16	-0.5686960236255622	0.4916653454889746	-0.04335025393143654	-0.02373535175098672	-0.1214337654916556	-0.1806814445338665	-0.1989259772646967	-1.233153402473759	0.0305376626320427	-2.084166515125512	-5.160451326460041	9.050589590278668e-15	0	0	1.453134678915042	-0.2534218412814545	-0.6136237079981086	4.286056760971854	9.050589590278668e-15	0	0
1.039912856113114	-0.1755330131015539	0.2776836894895199	0.01708844917632943	-0.05560103817225714	-0.1349170634504374	0.05343492611939317	0.2322002058596396	-0.1586249776576448	1.032036830978736	-5.182950692166481	-5.709398701455993e-16	-5.852246569124833	-0.7938761789318576	0.3782324904401951	-0.4992902379195006	-0.7556061614451206	0.2480542171799432	0.2762472135701771	-0.09856966600191025	2.817759278884825e-16	-0.462919340037984	0.5486238786638409	-0.08686240933596556	0.03291868093509429	-0.0559617339429653	-0.2261216098775241	-0.2343476836632894	-1.271531313823668	0.005825077038127541	-2.136129049500911	-4.592559208711665	5.579267073663018e-15	0	0	1.501174226417689	-0.2011584052672852	-0.5752058875407194	4.282815505341405	5.579267073663018e-15	0	0
1.056855884473055	-0.1866599091445423	0.2891170607428677	0.124577107720345	-0.01466431959799419	-0.1607972368571174	0.08051878104514394	0.1884197680935394	-0.1511123783821344	0.6604666625544288	-4.195516767401791	-2.006962048312437e-16	-5.277646464226631	-0.7140559088776341	0.2636145755362312	-0.7456615777389417	-0.6765379532894675	0.2017179712330026	0.3298792145176183	0.1458819046206989	-2.789416489674106e-15	-0.2589491481013685	0.7680841213272169	-0.01469302519596405	0.05492030417023785	0.09671899424358951	-0.3048132764795487	-0.3177437879723439	-1.643987109860093	-0.04380917835996864	-1.838404621480348	-3.036439189780693	-4.499490724629554e-14	0	0	1.583367105815046	-0.06176188173169521	-0.5264954086333568	3.941229899982401	-4.499490724629554e-14	0	0
1.071231259413831	-0.1876800983606287	0.2228287055473294	0.1658843253358748	0.02111188368060762	-0.1775860178995154	0.1105455352228457	0.1982824698896456	-0.01728935531739714	0.126509589710602	-3.143714130941267	1.066616630853836e-15	-4.542400753924163	-0.7933566488066346	0.2013428549218336	-0.6813679445480396	-0.639687793180139	0.07036470229836596	0.2833589079944817	0.3119899962835276	6.019087344372905e-16	-0.06876737685564868	0.8844088011069098	0.09557856287502697	0.008473444513081924	0.2308469760616139	-0.2990122877036754	-0.3472687390894696	-1.791800295955046	-0.06611709438419763	-1.332282146940797	-1.959927969609847	2.223382893378695e-14	0	0	1.700994070453313	0.0140179364827996	-0.4678092485550192	3.725829592288218	2.223382893378695e-14	0	0
1.075200000000001	-0.1864171417448574	0.2074118678630098	0.1739371634603323	0.03074088533688288	-0.1812755995886841	0.1187003534868487	0.199821214367229	0.02287466364936445	0.01231701983800782	-2.857849417668358	-1.206748547871817e-16	-4.306892003329766	-0.8052063311334117	0.1879866649159487	-0.6699602927981398	-0.630275685039422	0.0384552437113824	0.2714524208615375	0.3611604320026768	1.130547593547207e-15	-0.01317755775882713	0.9334433753322686	0.1189396225410461	0.0098533053894709	0.2645308209808808	-0.2999252133220685	-0.3538149616864962	-1.782471636278613	-0.07133386049714761	-1.241719665293892	-1.727863058127773	1.328676797046462e-14	0	0	1.732529708524884	0.02800584960499801	-0.4450631668815777	3.710085631962846	1.328676797046462e-14	0	0
1.084712856113115	-0.2012080332799499	0.1808641600741932	0.2086384693188499	0.05347539580830175	-0.1902239873565492	0.1356590906155506	0.2056850235222759	0.09967703088101125	-0.2425545039375211	-2.204680973020186	-1.385340285899683e-15	-3.69854504740584	-0.6288135685902787	0.1508617257418315	-0.7262505333464799	-0.5866299038803406	-0.02380864150476399	0.2667602495954711	0.4654082968297202	1.693685601067767e-15	0.1258803239033917	0.9452802445064483	0.1354487952879132	-0.009711263659076281	0.3657453045071399	-0.3094639139982986	-0.375940261745677	-1.769619930138056	-0.08861770010989729	-1.05195926669841	-1.143305273357852	3.563673627867755e-14	0	0	1.843946100827632	0.07060283081508038	-0.4040872333197981	3.692045816466887	3.563673627867755e-14	0	0
1.101655884473056	-0.2552259612499921	0.05905258061055652	0.2838877518539453	0.1073427996340456	-0.2069585648515359	0.1659802179933939	0.2157120833856562	0.2998846850991326	-0.9664417623816067	-1.018905749075977	1.216428560314149e-15	-2.520253023769832	-0.3149848843049107	-0.05188666975269771	-0.7092220483975649	-0.5108601281715548	-0.2282334610635797	0.2074417009105292	0.6391685082291104	1.650353463983061e-15	0.3973157850293768	1.071937712805819	0.3213365712103469	-0.253671526575281	0.6096259992881935	-0.2420550203280937	-0.3966360058205634	-2.076131082777517	-0.1149394585789007	-0.1955079202326213	0.04297308357365172	2.972016609222994e-14	0	0	1.958412681537266	0.1692545067551161	-0.3870259357455464	3.475766530373423	2.972016609222994e-14	0	0
1.116031259413831	-0.2611307516425276	-0.03001150160862651	0.3234837215617454	0.1581678997167498	-0.2146291267920952	0.1891305588816035	0.1144413624271066	0.4664018064111862	-1.145863097297405	-0.2718883675015961	-1.231449490718804e-15	-1.502554598673358	-0.171274588806387	-0.2731462861857399	-0.5084583164787727	-0.5356586937586877	-0.3856463162979601	0.1092477891856022	0.6988458002966729	-5.241122229421172e-15	0.6565994684538966	1.098381812760684	0.4975404346889105	-0.2602080547267689	0.773797502376586	-0.1821550922143119	-0.4086456155210436	-2.239904575671326	-0.1273379420580864	0.3035577571085802	0.6406754151921655	-7.443377233768657e-14	0	0	1.97022404662823	0.2295434116071746	-0.3496096051209313	3.346941351993555	-7.443377233768657e-14	0	0
1.12	-0.2507571430157524	-0.05431649958002679	0.3272664800037191	0.1719333636785104	-0.2157656387064143	0.1955788323331821	0.0764621563478376	0.517073172480099	-1.115708869767549	-0.09596237276218647	-5.747098390323553e-16	-1.223565671499507	-0.1006074142727013	-0.2604044851452449	-0.4139764442849178	-0.5616370684759369	-0.4283211911063989	0.079020282217091	0.7062775079485456	-5.341811009202402e-15	0.7309946268680529	1.116125651170053	0.5510693727416967	-0.2209189242622795	0.8018155461894678	-0.1635616597965872	-0.4093509292623233	-2.230849015531903	-0.1275207067935984	0.4001843538742183	0.7231492357947876	-2.940930397131469e-14	0	0	1.974703026191518	0.2384186920685258	-0.3325247853542811	3.331132241253186	-2.940930397131469e-14	0	0
