DataType=double
version=3
OpenSimVersion=4.5-2024-01-10-34fd6af
endheader
time	ground_force_2_vx	ground_force_2_vy	ground_force_2_vz	ground_force_2_px	ground_force_2_py	ground_force_2_pz	ground_moment_2_mx	ground_moment_2_my	ground_moment_2_mz	ground_force_1_vx	ground_force_1_vy	ground_force_1_vz	ground_force_1_px	ground_force_1_py	ground_force_1_pz	ground_moment_1_mx	ground_moment_1_my	ground_moment_1_mz
0	0.0713099110139381	-0.08060062044715184	-0.02322594948158844	1.3093645029633	0.019297	0.5991057077453082	0	0.002959207275328311	0	67.13858653218303	726.2507221461922	90.39036159631777	0.9257572879728494	0.019297	0.3465175932511915	0	1.773668120972233	0
0.009512856113114032	0.007082337167550957	-0.001545061507337582	0.00903656857481208	1.307340588253677	0.019297	0.597178313384256	0	0.009213961389886656	0	60.01250924682686	779.0936701223036	104.0740717286412	0.9224551015096999	0.019297	0.3454068943864024	0	1.682914839590776	0
0.02645588447305514	-3.033544538283466	9.787835139608232	8.590844615693435	1.188027599690701	0.019297	0.5499788766068254	0	-7.703434562134071e-06	0	70.59692404102718	795.080424504779	105.1775835922055	0.9174434860679185	0.019297	0.343446287330175	0	1.208180559682109	0
0.04083125941383081	23.04233978284051	42.56970544178608	27.09373518904524	1.180685464351288	0.019297	0.5559769909726551	0	-0.03457663564042512	0	64.927877091645	748.7326496684641	93.53213283746986	0.9178759990160985	0.019297	0.3412345400455838	0	-0.3179187340728244	0
0.04479999999999995	29.86088398170032	59.35095353127324	26.89595632567113	1.18010717841485	0.019297	0.5579693929916454	0	-0.1355173483494094	0	61.79477428731208	736.8023744984291	92.97726328815295	0.918783719019553	0.019297	0.3404690090966548	0	-0.4944394794647566	0
0.05431285611311398	6.918298215015292	131.6621401064445	12.66162788245479	1.190390937964112	0.019297	0.5635994919753997	0	-1.44813777129166	0	58.23579982209613	703.4116011527142	89.7120185692436	0.9193195027371652	0.019297	0.3391913031926041	0	-0.3960494361669094	0
0.07125588447305514	-4.036436516658434	330.6944915971741	12.66961955647288	1.205298004817082	0.019297	0.5718247813820561	0	2.901113220744131	0	57.41909411530613	646.2318582617785	82.66582412442719	0.9136567183556786	0.019297	0.3392251414237064	0	-0.02452077738133163	0
0.08563125941383082	-16.35261562324989	441.0762888203017	-19.70719914292001	1.203064267500353	0.019297	0.5754883499332194	0	3.38970079266202	0	59.27820115551071	579.8838489935637	73.92613284452737	0.9071997143867793	0.019297	0.3404348410040171	0	-0.009793454392630352	0
0.08960000000000001	-26.32197631365371	455.6770611707841	-30.01470300876169	1.201365170559626	0.019297	0.5760049384178925	0	3.246407941325979	0	73.41973379302084	559.7287699479896	68.22370421105359	0.9054991326382488	0.019297	0.3409364619441468	0	0.02736068904601296	0
0.0991128561131141	-28.07614021543685	467.0662653807546	-11.8943562859782	1.194561191490886	0.019297	0.5764622366082938	0	5.297023315995876	0	52.9384136351829	509.2211983451829	65.08464770799411	0.90168151002554	0.019297	0.3423276714607528	0	0.3194681127495533	0
0.1160558844730551	-45.85631216352176	476.4982612379939	-37.93816676480677	1.182755403037325	0.019297	0.5766706927318158	0	2.605099692059522	0	56.19701068819113	418.2163679588492	50.6322766370803	0.8939725153419297	0.019297	0.3449128208893605	0	0.360727388639527	0
0.1304312594138309	-53.20730095552254	526.5562108312731	-46.54370462925473	1.178690421614686	0.019297	0.577887625142176	0	0.3678257350125622	0	26.17690034558746	337.894588415477	44.24778437699844	0.8869351983414946	0.019297	0.3461003336015718	0	0.1735509283983507	0
0.1344	-54.65265625978753	547.1398919680466	-51.87884233909111	1.17839005515213	0.019297	0.5784601887099224	0	-0.1436763433204096	0	109.8534697206386	306.8252775098602	15.59650743921263	0.8852412045463728	0.019297	0.3463784943957864	0	0.03215981911032695	0
0.1439128561131141	-57.99479298693095	583.1519417752854	-52.07798879802105	1.174926101248456	0.019297	0.5794883360211084	0	1.125098161215153	0	-2.036229218080889	251.3789672288504	40.51611735610619	0.8809421801638867	0.019297	0.3469809748397367	0	0.1408469549008595	0
0.1608558844730551	-56.45681554293439	626.418154052868	-65.88933224478073	1.164888394530186	0.019297	0.5807018147614629	0	0.8909559488497609	0	46.07766927552829	140.354441411814	-1.010038850271842	0.8709611724623874	0.019297	0.349366974908152	0	-0.2066401245012447	0
0.1752312594138309	-49.18011542915265	659.4580747243519	-65.849921589058	1.155625926049384	0.019297	0.581554521175938	0	0.998055991266898	0	-24.21066946629361	28.10400893153822	10.08542370540329	0.8669737248484127	0.019297	0.3539007732398307	0	-0.002648670119631102	0
0.1792	-50.83617207736172	670.6375559457422	-73.37609256474171	1.153355872390952	0.019297	0.5818509156886651	0	0.4023652518553673	0	-12.05584240669679	13.9752830374705	4.982653512595045	0.8698827410482315	0.019297	0.3499470025262378	0	0.001201476959924508	0
0.1887128561131141	-49.64900049037156	692.0628772003176	-86.78008660700584	1.147282244661742	0.019297	0.5825316663885887	0	-0.1044042542124863	0	-0.06729086275716104	0.07332894357317765	0.02852129932688326	0.8192456781979283	0.019297	0.3649023881390547	0	0.003335583998801977	0
0.2056558844730552	-46.98719112672116	728.192043453839	-110.3612673537071	1.136729391792875	0.019297	0.5837952715074363	0	-1.54552942563376	0	0.1463467705836519	-0.1573804102696096	0.01226035977660128	0.8263247670528855	0.019297	0.3666086403035842	0	0.0008400176963396888	0
0.2200312594138309	-46.00559849270998	758.3258629341093	-132.6042325861852	1.128703201469366	0.019297	0.5850368986187064	0	-3.287043563644005	0	0.1778225138549846	-0.1908989278120941	0.01039073332490916	0.836222162320076	0.019297	0.3678502904425739	0	0.0009906700159942824	0
0.224	-43.71704893291158	765.1277025525919	-138.6838203551211	1.126589571751339	0.019297	0.5853959046942724	0	-3.904714673682039	0	0.1867460767730202	-0.2004217712189272	0.009893363634719356	0.8395216640227606	0.019297	0.3681690357412484	0	0.001003027915281176	0
0.2335128561131141	-46.81841080441909	772.0659521246598	-149.3920241667212	1.120905220374973	0.019297	0.5861232193295166	0	-4.577510292095388	0	0.2051460160895225	-0.2200018738303383	0.006822255204678207	0.8484629915158265	0.019297	0.3687777953501185	0	0.0008986064484519142	0
0.2504558844730551	-44.6252070828503	783.406985656284	-168.6467081755883	1.110979790400206	0.019297	0.5873738272538277	0	-6.845344479291928	0	0.2260099203959168	-0.2423328272765139	0.004063750951898121	0.8678362589676744	0.019297	0.3696184120502313	0	0.000869607169764563	0
0.2648312594138309	-43.12215533095261	791.3529515977773	-172.797860414747	1.102992362878963	0.019297	0.5884923691005158	0	-7.874440572514708	0	0.2372933495768895	-0.2543656158018263	0.00236616450356433	0.8875115251348132	0.019297	0.3700410363750418	0	0.0005277442473581421	0
0.2688	-41.26109930286776	791.4926416624783	-174.7423702105108	1.100800150310394	0.019297	0.5887785109785508	0	-8.316329120495357	0	0.2379024668113338	-0.2550025946546007	0.002458650881611336	0.893419259997385	0.019297	0.3700825776637017	0	0.0004901173399015403	0
0.2783128561131141	-42.4561032006505	787.9797266242228	-174.5426803506843	1.095270837031753	0.019297	0.5894073507626723	0	-8.658549097707906	0	0.2361129041628309	-0.2530548111526139	1.020967017238195e-05	0.9083699419633335	0.019297	0.3700107198865136	0	0.0002437639985837998	0
0.2952558844730552	-36.48482729510725	783.6050646810226	-166.5253439089958	1.085657422463149	0.019297	0.5904886118335652	0	-8.911923179271012	0	0.2192124141572449	-0.2349856450770497	-0.004809514723982098	0.9376079231478119	0.019297	0.3690787546425869	0	-0.0002116090694986141	0
0.3096312594138309	-33.57151918141154	780.0566075645154	-151.2738094617175	1.07755091115945	0.019297	0.5914075824959951	0	-7.860973767488399	0	0.194903986259493	-0.2090535338659371	-0.008495562708959258	0.9648182578238536	0.019297	0.3672734376976802	0	-0.0006961326771998335	0
0.3136000000000001	-33.05535610405587	777.3502085529856	-148.9961928938479	1.075220398323993	0.019297	0.5916269178448571	0	-7.723098481712089	0	0.1864097134062938	-0.1999699869538522	-0.008806666708800787	0.9726855883437395	0.019297	0.3665823925461709	0	-0.0007633667356837489	0
0.3231128561131141	-30.30074226807298	770.8117244457044	-139.2810713352991	1.069518965027053	0.019297	0.5921411738290562	0	-7.034849261339681	0	0.1639074609543626	-0.175967996748266	-0.0101690676974921	0.9921282319499589	0.019297	0.3646237307332314	0	-0.0009046123325814784	0
0.3400558844730551	-21.9444782944679	763.8946500653311	-111.1167035107696	1.059535316181035	0.019297	0.5930970325728926	0	-4.157432757016754	0	0.1208425320049731	-0.1300328066378988	-0.0111478124405112	1.028593004040423	0.019297	0.3599223876909796	0	-0.001101216366052789	0
0.3544312594138309	-18.19073900561972	760.7519076282568	-92.95248231374515	1.050868040518335	0.019297	0.5939582672974829	0	-1.713882926069188	0	0.08696217995558152	-0.09377272003468565	-0.009820363568577373	1.061224616346134	0.019297	0.3547858184523934	0	-0.001210327037064118	0
0.3584000000000001	-17.44300008255873	758.5617003638097	-90.11298000185893	1.048308827248121	0.019297	0.5941727894098352	0	-1.169125385921312	0	0.07822158571395749	-0.08436962345490087	-0.009004929093136405	1.070503909335438	0.019297	0.3532128264364954	0	-0.001205406401850036	0
0.3679128561131141	-13.17772048718577	754.0525388779956	-80.53696481884481	1.042074794362286	0.019297	0.5946757756209746	0	-0.03347452361968464	0	0.05934592964047852	-0.06406866550215215	-0.007273248541095908	1.093103001758028	0.019297	0.349249644548459	0	-0.001181250306345984	0
0.3848558844730551	-6.621355302348594	747.3451558723543	-61.84096862478049	1.030540952096066	0.019297	0.5955033539304043	0	2.534104478456496	0	0.03559467918127793	-0.03844711245429876	-0.00448307496992108	1.13422993031739	0.019297	0.3416363576602794	0	-0.001157643203471337	0
0.3992312594138309	-2.501454307789515	742.8617241132466	-60.23246244050662	1.02027637949219	0.019297	0.5961534016187149	0	2.94536652825755	0	-0.04541998699061106	0.04949697298018309	0.008745480682737035	1.16937462581394	0.019297	0.3349841899181379	0	-0.004797266939382551	0
0.4032	-2.299726144396779	742.1156537383627	-60.67372618764314	1.017403848422836	0.019297	0.5963309050241244	0	2.968163346918149	0	-0.9851607851112836	1.069573348861329	0.1611591641277204	1.17901948518481	0.019297	0.333182536896602	0	-0.0515044240829937	0
0.4127128561131141	0.07680231237522417	739.2663684253345	-59.21248585672883	1.010293167657986	0.019297	0.5967388280578653	0	3.179466772825682	0	-7.062629915162248	7.660171502507503	1.108611630135924	1.102537407093336	0.019297	0.39350639915859	0	-0.0003275520276917465	0
0.4296558844730551	3.326811290681023	731.3664497079167	-63.39094054617127	0.9971887630894473	0.019297	0.5973321184349758	0	2.521579392072211	0	-16.74452518503217	18.10695805035135	2.278147033089827	1.141113045340359	0.019297	0.3769074146811082	0	-0.0004169195514986124	0
0.4440312594138309	8.11931568913618	723.0871578061641	-67.12023163649316	0.9861841559124964	0.019297	0.5977864292440005	0	1.729573111705216	0	-12.29388512273436	13.23966061576448	1.240574871627622	1.1710649729898	0.019297	0.3717792133643109	0	-0.0006773362419396495	0
0.448	9.221124972494705	720.9036546963015	-67.50377259161166	0.9832318981247505	0.019297	0.5979204347058398	0	1.735613351189815	0	-9.645964007189939	10.37725288249505	0.8682131046628647	1.178562460874598	0.019297	0.371827616852855	0	-0.00077566132361305	0
0.457512856113114	13.87227067294509	714.2601883409627	-64.12838818650619	0.9761203187358156	0.019297	0.5981984290383197	0	1.719946212513867	0	-3.769244311652306	4.04551124508204	0.2221936327902324	1.288562506929539	0.019297	0.3178591381459526	0	-0.1941570700134165	0
0.4744558844730551	18.83747556893416	709.9254829697206	-67.26695270189595	0.9644746855005139	0.019297	0.5988369103448828	0	0.7513058279899378	0	-0.03109797557754064	0.03319914332571956	0.001836482685608682	1.310081595179572	0.019297	0.3171992049113383	0	-0.00796788502622813	0
0.4888312594138309	25.68890008460163	711.8163429702663	-64.82148776663168	0.9559433969992939	0.019297	0.599624738866648	0	1.138424381894237	0	0.08411277969744699	-0.09048147443928314	0.007427028583180681	1.323420989978359	0.019297	0.3179076920619159	0	-0.002486259662399458	0
0.4928	26.09776192918055	711.8949818165747	-65.48055171718923	0.953770046084802	0.019297	0.5998699199333033	0	1.327279091123598	0	0.08988928765883614	-0.0968613864541067	0.009509594745941758	1.326433889768574	0.019297	0.3182900487580386	0	-0.002499699680330176	0
0.502312856113114	29.90590997016924	712.3453231253945	-65.33239639322139	0.9487679446232055	0.019297	0.6004791964842897	0	1.142157918409117	0	0.09615277093877141	-0.1041552034787925	0.01411653482029027	1.332368106045129	0.019297	0.319533183299071	0	-0.00267254192085366	0
0.519255884473055	34.12268633407972	716.1249441834522	-66.05646583503261	0.9408363619310647	0.019297	0.6017965261330541	0	1.311692597559522	0	0.09671540494019848	-0.1063654526608776	0.0219778561722509	1.338404463094192	0.019297	0.3228327357611237	0	-0.003361795058763559	0
0.5336312594138308	38.0313660432275	721.4108373152336	-66.15940700244532	0.9350419021845414	0.019297	0.6031966799611211	0	1.90050307792081	0	0.02037563541776432	-0.0143077166850515	-0.01167196586139781	1.339621896366771	0.019297	0.3265515611870254	0	-0.01127450428864235	0
0.5376	38.45074954128852	721.6923695663063	-67.99501767677665	0.9335798724255778	0.019297	0.6036132579081576	0	2.001072879704286	0	-0.1268790029837234	0.1784795183455122	-0.1126295906899783	1.33948647934827	0.019297	0.3276777197365586	0	-0.02690805442211629	0
0.547112856113114	40.48319997421164	720.767791302882	-67.01283203941918	0.9301672852713809	0.019297	0.6046079432004737	0	2.152354353977517	0	-2.573135361194014	3.842099857092547	-2.498884604390977	1.338462594645269	0.019297	0.3305518822225724	0	-0.3501795822956695	0
0.5640558844730551	45.07981234026525	713.4330300292647	-67.22642204930061	0.9240495004612259	0.019297	0.6062795847585667	0	2.163998967602413	0	-10.52158402985898	33.97222200817671	-29.80823901541089	1.235199831397825	0.019297	0.3804139194456628	0	0.02176012175392561	0
0.5784312594138308	48.02221932767389	697.6573344271841	-65.39782784664663	0.9190021279037265	0.019297	0.6075334202099466	0	2.428614924805864	0	6.624318537573656	72.63954136627716	-46.34128913943475	1.226358986176044	0.019297	0.3834894937386015	0	0.2874409383085741	0
0.5823999999999999	45.45738382947302	691.1179375160418	-67.91368799355951	0.9176876097730586	0.019297	0.6078639678659461	0	2.206274981805814	0	-13.76323231031656	93.91605217898844	-28.32338264855152	1.225618114728053	0.019297	0.3822294803163607	0	0.5740590942999515	0
0.5919128561131139	50.49023728833191	674.9586113922155	-68.88799389933725	0.9143296641774888	0.019297	0.6085788448589017	0	1.393620694252446	0	6.997413713680494	152.9524863069633	-36.26926914164471	1.22217564811737	0.019297	0.3804417178301299	0	0.8062935641285187	0
0.6088558844730551	52.1956007742026	633.0944580603264	-70.54498402427234	0.9074032195819309	0.019297	0.6091899289413865	0	-0.2646050725462179	0	8.856010464080066	260.0603833560606	-16.2800229257593	1.217155680230063	0.019297	0.3774015854083669	0	-0.07851157133603048	0
0.6232312594138308	59.17130671274885	588.922283840308	-67.73704711856898	0.9002844425117316	0.019297	0.6090144234009954	0	-0.7813228695573766	0	-28.69317559719446	340.1490153541949	-17.01283074797703	1.218430954915712	0.019297	0.3750433352867134	0	-2.356098496417881	0
0.6272	60.01622805487338	575.0993576403665	-67.52288055069378	0.8982279423787297	0.019297	0.6089225956648251	0	-0.9012787227260408	0	-50.63825416921303	385.3867672608288	-35.31302393591331	1.227441100136211	0.019297	0.3729551142258105	0	-4.868587804960487	0
0.636712856113114	59.46839719313509	536.7375777841435	-62.30614025448261	0.8933069947582507	0.019297	0.6085264509404257	0	-1.387806206103949	0	-95.55738080827244	486.9367806221786	-76.59226825213509	1.241127528006697	0.019297	0.368131548216313	0	-13.58309233752547	0
0.6536558844730551	57.65460724428685	458.0161092476475	-51.28714605011299	0.8844472966200325	0.019297	0.6072047980135545	0	-1.960350269018743	0	-48.22574194092118	482.9151984275524	-19.41856564566397	1.226577613684879	0.019297	0.3690654231522333	0	-7.899881085048014	0
0.6680312594138309	57.11966778919009	387.7355207188996	-37.85594558799048	0.8769923652373911	0.019297	0.6057286888796476	0	-1.42748395744182	0	-63.07089756189571	471.238502902151	54.05250955716881	1.21741582736288	0.019297	0.3693992739294109	0	-0.5589213126927834	0
0.672	55.87013942686963	371.7499820544902	-36.93983565772894	0.874594727632051	0.019297	0.6054905557814294	0	-1.334049114471183	0	-65.17551987110654	491.9204198725934	52.83539978041281	1.218401554298221	0.019297	0.3682552437304171	0	-1.352328996195391	0
0.6815128561131141	52.577595317263	329.3306688836269	-28.65533546241351	0.8691759536993492	0.019297	0.6050678718419981	0	-1.195310002465718	0	-61.70768415875991	515.9062933636466	73.34318637168803	1.212643057145289	0.019297	0.3676180828136229	0	0.3939991716090523	0
0.6984558844730551	45.30908952738923	252.0040095265474	-16.38810452406589	0.8608700037732471	0.019297	0.6047016320609266	0	-0.7813667948852392	0	-55.16297674332844	584.9473783009992	104.5560538869522	1.201386608878829	0.019297	0.3661371104148322	0	2.557697498315517	0
0.712831259413831	29.76340737738169	195.5476490501621	-8.468987806356147	0.8535276872386309	0.019297	0.6049378618766317	0	-0.4161489449244158	0	-52.86725498352396	651.4736083382064	118.4855249364027	1.191067434126995	0.019297	0.3649604787362919	0	3.18362051927809	0
0.7168000000000001	35.74877865638687	182.4126191880682	-7.469097222684379	0.8509500584808359	0.019297	0.6050233255113572	0	-0.3152303212221904	0	-52.04511542904372	666.4310458242062	120.0286268992785	1.187747983086309	0.019297	0.3648068353437809	0	3.16579822606554	0
0.7263128561131141	8.835127782204998	142.8401206445456	-1.591924656635664	0.8448880953213774	0.019297	0.6054549740989236	0	-0.1226485981412436	0	-47.61276828817643	696.9963733049259	120.6145268808144	1.179403331118614	0.019297	0.3645867095155995	0	2.985795675968338	0
0.7432558844730551	-0.3782267650202426	59.73973211080299	9.710910926886893	0.8350372763979875	0.019297	0.6032839184257566	0	0.1857254565353195	0	-41.38945466150747	736.0102387516541	126.6029139987329	1.164723817657281	0.019297	0.3643701348512892	0	3.56859982655038	0
0.757631259413831	-12.56107876846673	19.26834286863945	9.402097524384418	0.8305138703267015	0.019297	0.6084975297389899	0	0.007958806749040592	0	-35.4780335035815	762.9961756181638	124.902856469556	1.153207623018842	0.019297	0.363994093608799	0	3.412930057373181	0
0.7616000000000002	-8.417264976591879	12.05548516471649	6.740699089188143	0.8298745574241767	0.019297	0.609991155596362	0	0.004707361481820493	0	-36.20672072012042	770.4477750081533	126.1316978799698	1.150221015073139	0.019297	0.3638360938769946	0	3.443436121070913	0
0.7711128561131142	-0.1528069751309001	0.200535387211894	0.1244051721545993	0.8005195860935451	0.019297	0.5884558431229336	0	-0.008217017072143118	0	-31.28953694413818	781.9029661572	121.8024803145732	1.142921450469631	0.019297	0.3634760128327924	0	3.034734196210707	0
0.7880558844730552	0.1693920920171965	-0.1827249381799198	-0.0182246468378323	0.8068227747772363	0.019297	0.5867175115977691	0	0.001020641650089331	0	-27.60110290682766	791.6195334952534	109.4010645817058	1.130390414277903	0.019297	0.36272527070944	0	2.064664546112041	0
0.802431259413831	0.2173877777141343	-0.2334014849883326	-0.01341831480633491	0.8155764652416415	0.019297	0.5855006671448795	0	0.001606244330461861	0	-24.68024255601243	799.0063240791544	89.70329947935122	1.120995705963583	0.019297	0.3617674940744251	0	0.7282752667258361	0
0.8064000000000002	0.2318358237620608	-0.2489887398555075	-0.01525728387933435	0.8184978913966788	0.019297	0.5851868373646057	0	0.001655840567698043	0	-24.86664951722222	801.8379847993517	88.10250102220738	1.118687769822399	0.019297	0.3614271586358553	0	0.5610063032418293	0
0.8159128561131141	0.266530707028115	-0.285936260114789	-0.01279084653989048	0.826415007182378	0.019297	0.5844529541325483	0	0.002117714372170263	0	-23.846724588441	802.2027497942331	75.84728775656433	1.112829105044295	0.019297	0.3606627318622846	0	-0.3946087132562934	0
0.8328558844730553	0.3220980478670267	-0.345365114563652	-0.01175691223735074	0.8437299509339864	0.019297	0.5832721624984225	0	0.002574793077097301	0	-21.44309105818135	794.3061966750648	58.52220020296563	1.102136481365481	0.019297	0.359323668364096	0	-1.773955762045538	0
0.8472312594138312	0.3634816286873603	-0.38966822361096	-0.01139295244128424	0.8615063299949108	0.019297	0.5823823702633114	0	0.002970401711047095	0	-18.42910725777702	788.802705242803	51.18153205529301	1.093838284135159	0.019297	0.3578730269208679	0	-2.483093125794282	0
0.8512000000000002	0.3720989780296166	-0.3988859357493772	-0.01104664495921517	0.8668765590559384	0.019297	0.5821506711935512	0	0.003060512019541887	0	-18.41565459418409	788.4993577198655	52.40152833698546	1.091799739218354	0.019297	0.3573842702946465	0	-2.520345418810704	0
0.8607128561131143	0.3904575329858956	-0.4184917931131115	-0.008972346732241411	0.8805757572262343	0.019297	0.5816895495640692	0	0.00333246233557127	0	-16.83684249144029	782.0633968855309	50.71580470156256	1.08642272740013	0.019297	0.3563152395161211	0	-2.741019710609522	0
0.8776558844730553	0.4064242182360639	-0.4355260840678239	-0.005003529214501742	0.9078217109801481	0.019297	0.5812183181134105	0	0.003580289014356045	0	-13.42916051751743	764.9978573766257	51.26010403169695	1.07648604376453	0.019297	0.3544787827868535	0	-2.55024703419626	0
0.8920312594138311	0.4026847926785763	-0.4314831685935245	-8.0091354956996e-05	0.9336479393042691	0.019297	0.5812655729841016	0	0.003852895195153862	0	-9.39782479329763	752.8818006977076	55.77036655172113	1.068620103414377	0.019297	0.3526422460568061	0	-2.086498012350261	0
0.8960000000000002	0.3986516443838073	-0.4271620657736585	0.001182391255219067	0.9411814146287303	0.019297	0.5813650653196089	0	0.003896732817113053	0	-9.135655707728858	751.130207968328	59.18374403148945	1.066706644063596	0.019297	0.352053579465965	0	-1.821670437571862	0
0.9055128561131143	0.3849447644782245	-0.4125133724322778	0.005426587891318995	0.9599205238194293	0.019297	0.581804921748043	0	0.004023728584355827	0	-8.445855827721193	744.4752679102531	63.49938568336545	1.061730984523822	0.019297	0.3506862428617671	0	-1.416952039535877	0
0.9224558844730553	0.3466715911092172	-0.3717034594694195	0.01250390873849156	0.9955680519906873	0.019297	0.5834137117226548	0	0.004156204042172183	0	-2.300023798350614	726.5733968158312	65.99104067644562	1.052414962733944	0.019297	0.3485290920037556	0	-0.7674592872334524	0
0.9368312594138312	0.2997629303274735	-0.3216277356168075	0.01554738677165654	1.027919274298694	0.019297	0.5855571602021935	0	0.004057703859366898	0	-3.684421173083149	710.5772400777703	68.4194503303948	1.04483403727834	0.019297	0.3467844375943384	0	-0.2458197421796177	0
0.9408000000000003	0.2682240647360323	-0.2878546961116786	0.01506153541776723	1.037167701721659	0.019297	0.5862483999283968	0	0.003737029350050336	0	-2.8650575484383	705.2015699845603	67.76843732150303	1.042598659647226	0.019297	0.3463652586204726	0	-0.4117724620091342	0
0.9503128561131143	-0.1472726646469288	0.1580360627225978	-0.008144040167676055	1.059795949696406	0.019297	0.5881235046578379	0	-0.002207302624887015	0	1.16180023328921	698.6895019559058	69.4915899611801	1.037930890355125	0.019297	0.3452019104859044	0	0.1799114441260372	0
0.9672558844730554	-0.7742986433558865	0.8314924073653108	-0.05178389671986256	1.101578457691129	0.019297	0.5920451285894266	0	-0.01060489963127857	0	-1.234279029676381	688.8905040336588	70.36024653624411	1.029883841331419	0.019297	0.3431906804779293	0	0.4641632362546648	0
0.9816312594138312	0.09421118860433117	-0.1014518331376297	0.009812466691910883	1.138207228996589	0.019297	0.5956164808849964	0	0.002236389155527386	0	5.841023403885625	675.5853114661292	70.29257401161959	1.022204220995006	0.019297	0.3419336673616207	0	0.9025478618318199	0
0.9856000000000004	0.1346347113896144	-0.1448144192994342	0.01185738157107206	1.148465538026207	0.019297	0.596574580908707	0	0.002862357430760177	0	0.7405969417921661	676.9103978124392	74.70810412634921	1.020464491003116	0.019297	0.3415013832002032	0	1.029523329280049	0
0.9951128561131144	0.1350295432132139	-0.1451540535220305	0.01075955105043021	1.173117237897439	0.019297	0.5987941353757955	0	0.002885111973625228	0	3.94438327585111	682.4445602511669	70.92323835703094	1.016156704008324	0.019297	0.3404339575138639	0	0.7951317333058839	0
1.012055884473055	0.1062224267407392	-0.1140821235149979	0.007038141118881494	1.216366859795228	0.019297	0.6021782362382658	0	0.002492699507403181	0	7.089008921173942	687.6750211161834	72.96484876304822	1.007617370665393	0.019297	0.3389850848573081	0	1.153723956857167	0
1.026431259413831	0.09298107338403144	-0.09973779709494021	0.003824036030497692	1.251075539999245	0.019297	0.6040315495495425	0	0.002335759577329856	0	11.59153842449896	694.0683764881614	74.68243386429822	0.9997667137568592	0.019297	0.3380273887283979	0	1.394130401114333	0
1.0304	0.09101363726160952	-0.09759778841785451	0.002884236997248838	1.260127210258027	0.019297	0.6043043770811676	0	0.002319469780010069	0	10.97047577907786	697.9861711478704	76.72588429613111	0.9975439955088913	0.019297	0.3377675198139712	0	1.232739881237549	0
1.039912856113114	0.08864223622008575	-0.0950119034494904	0.0005279315150304048	1.280594485444837	0.019297	0.6045379360680843	0	0.002299611516234321	0	14.24453325411149	708.3444016357128	73.91911757728518	0.9920765585529756	0.019297	0.3371913046900541	0	0.9777735340533068	0
1.056855884473055	0.09275808947033959	-0.09952069693635776	-0.004364175095882017	1.311861248428082	0.019297	0.6034537597734547	0	0.002419939798268718	0	19.62150724095278	722.9507514485922	79.02882443148924	0.9814007705186931	0.019297	0.3364520275412732	0	1.248582385243179	0
1.071231259413831	0.1030563575544691	-0.1110778877859768	-0.01114212816978538	1.332682619397788	0.019297	0.6011555367278976	0	0.002727038887007218	0	26.1668107673914	736.2990025425107	81.65284910814162	0.9720109511912528	0.019297	0.3359282932456755	0	1.12169190952797	0
1.075200000000001	0.105915154308751	-0.1143743234628142	-0.01320638615135201	1.33751793424052	0.019297	0.6002951633634664	0	0.002817849512689795	0	30.16945225736047	741.8654047494261	84.5503735536584	0.9695263367226007	0.019297	0.3357379341004011	0	0.9318855293706738	0
1.084712856113115	0.1115167048436706	-0.1211539066741752	-0.01865216853011126	1.347460808286476	0.019297	0.5980026710223498	0	0.003000236152520176	0	29.73856118557815	747.6142181942798	82.11835801372342	0.9633925668012765	0.019297	0.3353732634107049	0	0.8211165908266913	0
1.101655884473056	0.1172191909148221	-0.1305876234105298	-0.03319966423390623	1.359459014541706	0.019297	0.5930328060897488	0	0.00321982648034466	0	41.81993422457726	751.9496610822282	86.03594928307237	0.9526065755541957	0.019297	0.3347919878451668	0	0.8464469033684047	0
1.116031259413831	0.1126515831060561	-0.1312739111834692	-0.04789207565056674	1.36431578498112	0.019297	0.5880228642700417	0	0.003416129731482442	0	39.32342420138495	747.186487111434	83.42145114861907	0.9440622314311156	0.019297	0.334129043544465	0	0.4196482436430395	0
1.12	0.1084221843064515	-0.1289301133036659	-0.05196023732456205	1.364904464249484	0.019297	0.5865434738175077	0	0.003450387500357715	0	66.70381362510363	728.9921321894988	230.7432425138156	0.9410564844200803	0.019297	0.3341809577933444	0	-5.464394204106829	0
