DataType=double
version=3
OpenSimVersion=4.5-2024-01-10-34fd6af
endheader
time	ground_force_2_vx	ground_force_2_vy	ground_force_2_vz	ground_force_2_px	ground_force_2_py	ground_force_2_pz	ground_moment_2_mx	ground_moment_2_my	ground_moment_2_mz	ground_force_1_vx	ground_force_1_vy	ground_force_1_vz	ground_force_1_px	ground_force_1_py	ground_force_1_pz	ground_moment_1_mx	ground_moment_1_my	ground_moment_1_mz
0	0.0713099110139381	-0.08060062044715184	-0.02322594948158844	1.3093645029633	0.019297	0.5991057077453082	0.002681523790292077	0.002959207275328311	-0.003085913376967887	67.13858653218303	726.2507221461922	90.39036159631777	0.9048824516567761	0.019297	0.3499783364253556	2.51336722939919	-0.3455652869658614	15.16036494923184
0.009512856113114032	0.007082337167550957	-0.001545061507337582	0.00903656857481208	1.307340588253677	0.019297	0.597178313384256	0.005197703660289461	0.009213961389886656	-0.01030335894776123	60.01250924682686	779.0936701223036	104.0740717286412	0.8976796825904656	0.019297	0.349848549615743	3.460465474044876	-1.162118761638766	19.30237205460384
0.02645588447305514	-3.033544538283466	9.787835139608232	8.590844615693435	1.299931042535545	0.019297	0.5933454590380998	0.424464959405544	1.092891845285032	-1.095292450119901	70.59692404102718	795.080424504779	105.1775835922055	0.8851372365419465	0.019297	0.349702863467694	4.974481211365098	-2.631407730723787	25.68606658726707
0.04083125941383081	23.04233978284051	42.56970544178608	27.09373518904524	1.290825962768413	0.019297	0.5902845629201773	1.460463232228905	2.159014132123557	-4.68864857482851	64.927877091645	748.7326496684641	93.53213283746986	0.8746872323227489	0.019297	0.3498156001283955	6.424919852767903	-4.914606211894514	32.33683972222475
0.04479999999999995	29.86088398170032	59.35095353127324	26.89595632567113	1.288115636840203	0.019297	0.5896171890675831	1.878326874270189	1.824442265361861	-6.410404996987578	61.79477428731208	736.8023744984291	92.97726328815295	0.8719623071628964	0.019297	0.3498895940924759	6.941109394085229	-5.42990914065537	34.49812743335356
0.05431285611311398	6.918298215015292	131.6621401064445	12.66162788245479	1.281699094053187	0.019297	0.5884026021412427	3.265630565730802	-0.4636231890458707	-12.02182723986093	58.23579982209613	703.4116011527142	89.7120185692436	0.8654446036798576	0.019297	0.3501542170470241	7.711440787636854	-5.867709437505098	37.89622900784155
0.07125588447305514	-4.036436516658434	330.6944915971741	12.66961955647288	1.26921841971588	0.019297	0.5871424023663627	5.065452883883505	3.772789164093191	-21.13812910763844	57.41909411530613	646.2318582617785	82.66582412442719	0.854406022457913	0.019297	0.3510003178336922	7.609494132785397	-5.598648346225255	38.28968731331667
0.08563125941383082	-16.35261562324989	441.0762888203017	-19.70719914292001	1.257758215700427	0.019297	0.5865632001972917	4.884853853717555	2.49293903302403	-24.1242036930185	59.27820115551071	579.8838489935637	73.92613284452737	0.845730637094082	0.019297	0.3520649785895491	6.744128947422994	-5.243378263424519	35.64492513457211
0.08960000000000001	-26.32197631365371	455.6770611707841	-30.01470300876169	1.254668887960372	0.019297	0.5864545843241064	4.761663936818846	1.921568026309056	-24.28928129464991	73.41973379302084	559.7287699479896	68.22370421105359	0.8434707544131494	0.019297	0.3524064570138372	6.420086231667297	-5.046569024298449	34.71906784580352
0.0991128561131141	-28.07614021543685	467.0662653807546	-11.8943562859782	1.247083498196805	0.019297	0.5862355158446939	4.564769033468713	4.946700245280037	-24.53139764231633	52.9384136351829	509.2211983451829	65.08464770799411	0.8383840569964209	0.019297	0.3532685897390293	5.571347516660672	-4.379419175828098	32.23240488368592
0.1160558844730551	-45.85631216352176	476.4982612379939	-37.93816676480677	1.233732866940229	0.019297	0.5858866848663529	4.391404227689941	1.093719577482103	-24.29067291205662	56.19701068819113	418.2163679588492	50.6322766370803	0.8305325405530325	0.019297	0.3550298948458634	4.231125924459713	-3.419932277988129	26.53163583961354
0.1304312594138309	-53.20730095552254	526.5562108312731	-46.54370462925473	1.222919349535466	0.019297	0.5855453160677917	4.032204717509253	-1.283307356497195	-23.28901669509531	26.17690034558746	337.894588415477	44.24778437699844	0.8251516668681618	0.019297	0.3568068126933163	3.617661346083894	-2.840495886519887	20.87632093803645
0.1344	-54.65265625978753	547.1398919680466	-51.87884233909111	1.22000229833637	0.019297	0.5854669525915607	3.833680033245168	-1.919533088934838	-22.76771824037303	109.8534697206386	306.8252775098602	15.59650743921263	0.8239053520713013	0.019297	0.3573382151356007	3.362719357424084	-2.128428610745416	18.81938995696764
0.1439128561131141	-57.99479298693095	583.1519417752854	-52.07798879802105	1.21290484983928	0.019297	0.5853636847638124	3.42622102791483	-0.5120190484015075	-22.14738098693459	-2.036229218080889	251.3789672288504	40.51611735610619	0.8212240672169903	0.019297	0.3587203306398594	2.951027136966841	-2.254795098259144	15.01187755744666
0.1608558844730551	-56.45681554293439	626.418154052868	-65.88933224478073	1.199904179392881	0.019297	0.5854128758139687	2.951094168141088	-1.150239228927338	-21.93452331640223	46.07766927552829	140.354441411814	-1.010038850271842	0.8174724539446885	0.019297	0.3616705623852547	1.726863147710137	-0.7195350754195834	7.507379209385375
0.1752312594138309	-49.18011542915265	659.4580747243519	-65.849921589058	1.188724123927362	0.019297	0.5855748132799369	2.651214090732612	-0.9837393140035218	-21.82687384945718	-24.21066946629361	28.10400893153822	10.08542370540329	0.8165879283626958	0.019297	0.3637505160354603	0.2768172595017281	-0.2723419092593113	1.416042874457256
0.1792	-50.83617207736172	670.6375559457422	-73.37609256474171	1.185667098214473	0.019297	0.5856298193247916	2.534274698686353	-1.776401249541618	-21.66912151589646	-12.05584240669679	13.9752830374705	4.982653512595045	0.8174335129483863	0.019297	0.3639290304171817	0.1954027972137476	-0.09156972888540937	0.7329928077921881
0.1887128561131141	-49.64900049037156	692.0628772003176	-86.78008660700584	1.178307911370133	0.019297	0.5858442051250131	2.292485088767439	-2.632350060857606	-21.47171216926682	-0.06729086275716104	0.07332894357317765	0.02852129932688326	0.8192456781979283	0.019297	0.3649023881390547	0.003996304040503269	0.003335583998801977	0.01847405306354662
0.2056558844730552	-46.98719112672116	728.192043453839	-110.3612673537071	1.165174813267517	0.019297	0.5864480794313337	1.931753622993426	-4.560154197042924	-20.713729590525	0.1463467705836519	-0.1573804102696096	0.01226035977660128	0.8263247670528855	0.019297	0.3666086403035842	-0.0002758198161059663	0.0008400176963396888	0.01382900367754351
0.2200312594138309	-46.00559849270998	758.3258629341093	-132.6042325861852	1.154136416773387	0.019297	0.5871224172024084	1.581502679650908	-6.563650030622065	-19.28666494261079	0.1778225138549846	-0.1908989278120941	0.01039073332490916	0.836222162320076	0.019297	0.3678502904425739	-8.231784824679457e-05	0.0009906700159942824	0.01723556753149437
0.224	-43.71704893291158	765.1277025525919	-138.6838203551211	1.151101287066481	0.019297	0.5873202121414872	1.472340936092371	-7.219967954211139	-18.75459242469744	0.1867460767730202	-0.2004217712189272	0.009893363634719356	0.8395216640227606	0.019297	0.3681690357412484	-4.810124942163508e-05	0.001003027915281176	0.01817415987978896
0.2335128561131141	-46.81841080441909	772.0659521246598	-149.3920241667212	1.143809364854469	0.019297	0.5878337932518976	1.320675884062657	-7.919120445084931	-17.68351011516258	0.2051460160895225	-0.2200018738303383	0.006822255204678207	0.8484629915158265	0.019297	0.3687777953501185	6.393772304570905e-05	0.0008986064484519142	0.02012426938668179
0.2504558844730551	-44.6252070828503	783.406985656284	-168.6467081755883	1.130772426011914	0.019297	0.5888468825043547	1.154001773520513	-10.11757192572611	-15.50568900276124	0.2260099203959168	-0.2423328272765139	0.004063750951898121	0.8678362589676744	0.019297	0.3696184120502313	0.0001741141125388074	0.000869607169764563	0.02217875074998048
0.2648312594138309	-43.12215533095261	791.3529515977773	-172.797860414747	1.119737334980376	0.019297	0.5897011816556227	0.9565973834122503	-10.71580932157611	-13.25118309687524	0.2372933495768895	-0.2543656158018263	0.00236616450356433	0.8875115251348132	0.019297	0.3700410363750418	1.041748037632659e-05	0.0005277442473581421	0.0228011374080584
0.2688	-41.26109930286776	791.4926416624783	-174.7423702105108	1.116697791760415	0.019297	0.5899180949808694	0.9019723523914909	-11.04730017954525	-12.58286622747997	0.2379024668113338	-0.2550025946546007	0.002458650881611336	0.893419259997385	0.019297	0.3700825776637017	-8.087367182296658e-06	0.0004901173399015403	0.02276561003875869
0.2783128561131141	-42.4561032006505	787.9797266242228	-174.5426803506843	1.109379676310212	0.019297	0.5904547137866943	0.8253008293452	-11.07667676937072	-11.11747931762513	0.2361129041628309	-0.2530548111526139	1.020967017238195e-05	0.9083699419633335	0.019297	0.3700107198865136	-6.305590130467132e-06	0.0002437639985837998	0.02232473848210096
0.2952558844730552	-36.48482729510725	783.6050646810226	-166.5253439089958	1.096287387228109	0.019297	0.591397061336596	0.711865631581925	-10.64893709427221	-8.329694227204147	0.2192124141572449	-0.2349856450770497	-0.004809514723982098	0.9376079231478119	0.019297	0.3690787546425869	-1.135961341791245e-05	-0.0002116090694986141	0.02008915463483341
0.3096312594138309	-33.57151918141154	780.0566075645154	-151.2738094617175	1.085188431924605	0.019297	0.5921327720053386	0.5656888684998558	-8.991984914953301	-5.957698538270407	0.194903986259493	-0.2090535338659371	-0.008495562708959258	0.9648182578238536	0.019297	0.3672734376976802	-0.0001324139458871731	-0.0006961326771998335	0.01710449910212209
0.3136000000000001	-33.05535610405587	777.3502085529856	-148.9961928938479	1.082117247408751	0.019297	0.5923242604626088	0.5420794293421243	-8.727651829748112	-5.361267074395045	0.1864097134062938	-0.1999699869538522	-0.008806666708800787	0.9726855883437395	0.019297	0.3665823925461709	-0.0001533127821703331	-0.0007633667356837489	0.01617335036213724
0.3231128561131141	-30.30074226807298	770.8117244457044	-139.2810713352991	1.074723243948652	0.019297	0.5928020158574014	0.5093847834549718	-7.73968280108683	-4.011519210053702	0.1639074609543626	-0.175967996748266	-0.0101690676974921	0.9921282319499589	0.019297	0.3646237307332314	-0.0001713349654883099	-0.0009046123325814784	0.01381552182994197
0.3400558844730551	-21.9444782944679	763.8946500653311	-111.1167035107696	1.06151411640829	0.019297	0.5936419565907307	0.4162645419186766	-4.365352441894201	-1.511594907148744	0.1208425320049731	-0.1300328066378988	-0.0111478124405112	1.028593004040423	0.019297	0.3599223876909796	-0.0003371912803206627	-0.001101216366052789	0.009372231229669969
0.3544312594138309	-18.19073900561972	760.7519076282568	-92.95248231374515	1.050300534513532	0.019297	0.5943359347869641	0.2873112630719588	-1.654261783462801	0.431731275743747	0.08696217995558152	-0.09377272003468565	-0.009820363568577373	1.061224616346134	0.019297	0.3547858184523934	-0.0006187598458560293	-0.001210327037064118	0.005899092648656389
0.3584000000000001	-17.44300008255873	758.5617003638097	-90.11298000185893	1.047183404735534	0.019297	0.5945417387195854	0.2798708157521381	-1.061274626710549	0.8537024147751069	0.07822158571395749	-0.08436962345490087	-0.009004929093136405	1.070503909335438	0.019297	0.3532128264364954	-0.0006848769548708649	-0.001205406401850036	0.005066990809639867
0.3679128561131141	-13.17772048718577	754.0525388779956	-80.53696481884481	1.039684709389321	0.019297	0.595053551757726	0.2848630550449407	0.1639938940988501	1.80224964199811	0.05934592964047852	-0.06406866550215215	-0.007273248541095908	1.093103001758028	0.019297	0.349249644548459	-0.0008351442832132001	-0.001181250306345984	0.003242536236548603
0.3848558844730551	-6.621355302348594	747.3451558723543	-61.84096862478049	1.026268937580755	0.019297	0.5959870084893342	0.3614568917318386	2.801492442740712	3.19266935383396	0.03559467918127793	-0.03844711245429876	-0.00448307496992108	1.13422993031739	0.019297	0.3416363576602794	-0.001120319848928314	-0.001157643203471337	0.0006826254646336399
0.3992312594138309	-2.501454307789515	742.8617241132466	-60.23246244050662	1.014846677528824	0.019297	0.5967867525706482	0.4704921801219264	3.273995146296194	4.033517761927229	-0.04541998699061106	0.04949697298018309	0.008745480682737035	1.16937462581394	0.019297	0.3349841899181379	-0.006561118505995235	-0.004797266939382551	-0.008814470599291305
0.4032	-2.299726144396779	742.1156537383627	-60.67372618764314	1.011677509304453	0.019297	0.597023729513985	0.5141558992187818	3.317194985237349	4.249605898366763	-0.9851607851112836	1.069573348861329	0.1611591641277204	1.17901948518481	0.019297	0.333182536896602	-0.07398402440156308	-0.0515044240829937	-0.1121360117014444
0.4127128561131141	0.07680231237522417	739.2663684253345	-59.21248585672883	1.00408741851129	0.019297	0.5975744905047131	0.6177771423106262	3.546860425596557	4.587701635036719	-7.062629915162248	7.660171502507503	1.108611630135924	1.201678961774912	0.019297	0.3290890349904285	-0.4934480572675989	-0.3453740747078979	-0.7594413118860998
0.4296558844730551	3.326811290681023	731.3664497079167	-63.39094054617127	0.9905343742818143	0.019297	0.5985544128922973	0.8939451577488637	2.939341014346822	4.866796717214573	-16.74452518503217	18.10695805035135	2.278147033089827	1.239146517120469	0.019297	0.3231071813036732	-0.9741585688643279	-0.6779416194212162	-1.775087961052739
0.4440312594138309	8.11931568913618	723.0871578061641	-67.12023163649316	0.9790388264343057	0.019297	0.5993514153913507	1.131621385293486	2.196462664820976	5.166695983973501	-12.29388512273436	13.23966061576448	1.240574871627622	1.266731946115932	0.019297	0.3197096134667197	-0.6893838310427514	-0.5221329728647115	-1.26659825632745
0.448	9.221124972494705	720.9036546963015	-67.50377259161166	0.9758706253163134	0.019297	0.5995677921524236	1.18758600383347	2.21733654794605	5.306768470818845	-9.645964007189939	10.37725288249505	0.8682131046628647	1.273559210672317	0.019297	0.319038899677957	-0.5478018674664262	-0.4274963041036496	-0.9858052956660414
0.457512856113114	13.87227067294509	714.2601883409627	-64.12838818650619	0.9682847573823128	0.019297	0.60004743209961	1.320669274800272	2.196778261709159	5.596629528110117	-3.769244311652306	4.04551124508204	0.2221936327902324	1.288562506929539	0.019297	0.3178591381459526	-0.2298468699006773	-0.1941570700134165	-0.3801730232048914
0.4744558844730551	18.83747556893416	709.9254829697206	-67.26695270189595	0.9548599642413405	0.019297	0.6007905614991566	1.386946739252077	1.361256972283817	6.825735633537889	-0.03109797557754064	0.03319914332571956	0.001836482685608682	1.310081595179572	0.019297	0.3171992049113383	-0.007939278828171336	-0.00796788502622813	-0.0146331776633346
0.4888312594138309	25.68890008460163	711.8163429702663	-64.82148776663168	0.9435960273524395	0.019297	0.6012918063107404	1.186645851538655	1.895974123402303	8.789059507325963	0.08411277969744699	-0.09048147443928314	0.007427028583180681	1.323420989978359	0.019297	0.3179076920619159	-0.002118275728443922	-0.002486259662399458	-0.00641578943002111
0.4928	26.09776192918055	711.8949818165747	-65.48055171718923	0.9405039519648166	0.019297	0.6014208215222648	1.104079058473081	2.155475192788094	9.444065832323945	0.08988928765883614	-0.0968613864541067	0.009509594745941758	1.326433889768574	0.019297	0.3182900487580386	-0.002038219001987647	-0.002499699680330176	-0.006491002826593399
0.502312856113114	29.90590997016924	712.3453231253945	-65.33239639322139	0.9331145622299715	0.019297	0.6016998723436736	0.8695427394841553	2.128325479465059	11.15061373891366	0.09615277093877141	-0.1041552034787925	0.01411653482029027	1.332368106045129	0.019297	0.319533183299071	-0.001980555457919152	-0.00267254192085366	-0.006771742656121245
0.519255884473055	34.12268633407972	716.1249441834522	-66.05646583503261	0.9200294640539095	0.019297	0.6021073080731454	0.2225586995010804	2.675518021654804	14.90033858090857	0.09671540494019848	-0.1063654526608776	0.0219778561722509	1.338404463094192	0.019297	0.3228327357611237	-0.002117151905595787	-0.003361795058763559	-0.007579821586445217
0.5336312594138308	38.0313660432275	721.4108373152336	-66.15940700244532	0.909013879590996	0.019297	0.6023587486724815	-0.60449271255015	3.65436928971335	18.77689757286942	0.02037563541776432	-0.0143077166850515	-0.01167196586139781	1.339621896366771	0.019297	0.3265515611870254	-0.005423542265833619	-0.01127450428864235	-0.01680363079712675
0.5376	38.45074954128852	721.6923695663063	-67.99501767677665	0.90598499707917	0.019297	0.6024202225404566	-0.8610045214925028	3.923260020789103	19.91501097663594	-0.1268790029837234	0.1784795183455122	-0.1126295906899783	1.33948647934827	0.019297	0.3276777197365586	-0.01208963793550814	-0.02690805442211629	-0.03515771696877559
0.547112856113114	40.48319997421164	720.767791302882	-67.01283203941918	0.8987472297609777	0.019297	0.6025505581543446	-1.482896875558082	4.3411907868118	22.64656401284733	-2.573135361194014	3.842099857092547	-2.498884604390977	1.338462594645269	0.019297	0.3305518822225724	-0.1475080950767249	-0.3501795822956695	-0.3886788278188103
0.5640558844730551	45.07981234026525	713.4330300292647	-67.22642204930061	0.8859390015900777	0.019297	0.6026687845369001	-2.57606414297393	4.888805645614538	27.18928868557014	-10.52158402985898	33.97222200817671	-29.80823901541089	1.33446346431723	0.019297	0.3359573536294712	-1.51028832362878	-3.404867466759736	-3.372206174876203
0.5784312594138308	48.02221932767389	697.6573344271841	-65.39782784664663	0.8751973571133245	0.019297	0.6026048476528145	-3.438454792739703	5.530032776129342	30.56071962482562	6.624318537573656	72.63954136627716	-46.34128913943475	1.329145449492876	0.019297	0.3401132522734207	-3.150830286223631	-4.188478237448606	-7.466361553996397
0.5823999999999999	45.45738382947302	691.1179375160418	-67.91368799355951	0.8722673862801882	0.019297	0.6025675883048446	-3.660422918570579	5.531689427313927	31.39073118191029	-13.76323231031656	93.91605217898844	-28.32338264855152	1.327436803609208	0.019297	0.3410407311575268	-3.868284715188306	-2.876680914899192	-9.562409297758693
0.5919128561131139	50.49023728833191	674.9586113922155	-68.88799389933725	0.8652995377222843	0.019297	0.6024664973184193	-4.125581608270659	5.079821624090019	33.09330606858957	6.997413713680494	152.9524863069633	-36.26926914164471	1.323050168339141	0.019297	0.3429847579739517	-5.729135139502564	-2.590249714758747	-15.42900867294181
0.6088558844730551	52.1956007742026	633.0944580603264	-70.54498402427234	0.8532082796418448	0.019297	0.6021681491780106	-4.44544985391336	3.925082112977099	34.3105161309808	8.856010464080066	260.0603833560606	-16.2800229257593	1.314205774784359	0.019297	0.3454683689729766	-8.304564507979658	-1.375688436723524	-25.23888479453213
0.6232312594138308	59.17130671274885	588.922283840308	-67.73704711856898	0.8433873995486492	0.019297	0.6018078985898418	-4.244083050336407	3.499134300473983	33.50793648557858	-28.69317559719446	340.1490153541949	-17.01283074797703	1.306595616905746	0.019297	0.346713431057187	-9.636389028752054	-4.668903885516434	-29.98912296494541
0.6272	60.01622805487338	575.0993576403665	-67.52288055069378	0.8407531901721279	0.019297	0.6017002198110911	-4.153583714119728	3.413041861536767	33.05369307455595	-50.63825416921303	385.3867672608288	-35.31302393591331	1.304334111608015	0.019297	0.3469659539303839	-10.01587847007794	-8.899958264252984	-29.63354911606827
0.636712856113114	59.46839719313509	536.7375777841435	-62.30614025448261	0.8346369647109145	0.019297	0.6014005753172867	-3.824725221554661	2.691461316665793	31.49040981613011	-95.55738080827244	486.9367806221786	-76.59226825213509	1.297971523457722	0.019297	0.347505298355165	-10.04367970369606	-19.9078932982618	-27.67943214262371
0.6536558844730551	57.65460724428685	458.0161092476475	-51.28714605011299	0.8245726869903396	0.019297	0.6006855923574225	-2.985901210006886	1.486309821401848	27.42353574531367	-48.22574194092118	482.9151984275524	-19.41856564566397	1.284600240065088	0.019297	0.3481708030527801	-10.09032961139575	-10.03425582121574	-28.02000813168607
0.6680312594138309	57.11966778919009	387.7355207188996	-37.85594558799048	0.8170290076495601	0.019297	0.59984635199085	-2.280790956621914	1.178482773588542	23.24992367837122	-63.07089756189571	471.238502902151	54.05250955716881	1.273482971284758	0.019297	0.3484463983728249	-9.873801708780686	1.150131852131079	-26.42099696374504
0.672	55.87013942686963	371.7499820544902	-36.93983565772894	0.8151271551142034	0.019297	0.5995714443848568	-2.200429555454425	1.193374820311873	22.10706901633396	-65.17551987110654	491.9204198725934	52.83539978041281	1.270746029632712	0.019297	0.3485006592020319	-9.717683515611878	0.1257969679232249	-25.7493162845539
0.6815128561131141	52.577595317263	329.3306688836269	-28.65533546241351	0.8109119628452051	0.019297	0.5988485067479397	-2.048227666457735	0.801263461884489	19.18811907982482	-61.70768415875991	515.9062933636466	73.34318637168803	1.263400961925096	0.019297	0.3485947511058919	-9.814256548762632	2.942859897042878	-26.18632251385533
0.6984558844730551	45.30908952738923	252.0040095265474	-16.38810452406589	0.8048082280181582	0.019297	0.5972580186947596	-1.875820413639498	0.4746427904088344	14.12779227146056	-55.16297674332844	584.9473783009992	104.5560538869522	1.249965819959775	0.019297	0.3486960741373637	-10.20208844535783	6.674848631326964	-28.41628216173007
0.712831259413831	29.76340737738169	195.5476490501621	-8.468987806356147	0.8012879462335437	0.019297	0.5956190433301648	-1.822273058686646	0.3036285773292646	10.21535854053415	-52.86725498352396	651.4736083382064	118.4855249364027	1.238392585907445	0.019297	0.3488293900999758	-10.50897852032427	7.9381595945817	-30.83108739556311
0.7168000000000001	35.74877865638687	182.4126191880682	-7.469097222684379	0.8005904394544854	0.019297	0.5951212660762288	-1.80626059691768	0.4148971003717581	9.186230007909884	-52.04511542904372	666.4310458242062	120.0286268992785	1.235169555097707	0.019297	0.3488892782425014	-10.60795422597221	8.029313303314327	-31.60320783018346
0.7263128561131141	8.835127782204998	142.8401206445456	-1.591924656635664	0.7992471016732396	0.019297	0.5939239889053467	-1.647087316200996	0.05188615264054417	6.519365039036938	-47.61276828817643	696.9963733049259	120.6145268808144	1.227396810500806	0.019297	0.349048378962648	-10.83016004262027	8.034683552812789	-33.45128107167267
0.7432558844730551	-0.3782267650202426	59.73973211080299	9.710910926886893	0.7979585154511466	0.019297	0.59180129069038	-0.6859691048394729	-0.1786861254410682	2.215075245964778	-41.38945466150747	736.0102387516541	126.6029139987329	1.213579258169606	0.019297	0.3493540082228682	-11.05202294490925	9.132331667824058	-35.95810443579394
0.757631259413831	-12.56107876846673	19.26834286863945	9.402097524384418	0.798331907264952	0.019297	0.5900440073033086	-0.3555687974248353	-0.5264152973539258	0.6200930984596801	-35.4780335035815	762.9961756181638	124.902856469556	1.201991110655746	0.019297	0.3495140050679258	-11.04825217929868	8.992401945381831	-37.22161450027367
0.7616000000000002	-8.417264976591879	12.05548516471649	6.740699089188143	0.7987981791852715	0.019297	0.5895490360120207	-0.2464396693843868	-0.3768358902330127	0.3746408168322397	-36.20672072012042	770.4477750081533	126.1316978799698	1.198802299519647	0.019297	0.3495224521068396	-11.02791345407969	9.052825983438927	-37.42934250885047
0.7711128561131142	-0.1528069751309001	0.200535387211894	0.1244051721545993	0.8005195860935451	0.019297	0.5884558431229336	-0.00448871861822092	-0.008217017072143118	0.0187380759238075	-31.28953694413818	781.9029661572	121.8024803145732	1.19119022694552	0.019297	0.3494796813228361	-10.94377312295427	8.476052160860517	-37.74149949927642
0.7880558844730552	0.1693920920171965	-0.1827249381799198	-0.0182246468378323	0.8068227747772363	0.019297	0.5867175115977691	0.002581819952470785	0.001020641650089331	0.01667094964360691	-27.60110290682766	791.6195334952534	109.4010645817058	1.177688995485367	0.019297	0.3491445871323798	-10.75073439781903	6.864337838457364	-37.44248079044001
0.802431259413831	0.2173877777141343	-0.2334014849883326	-0.01341831480633491	0.8155764652416415	0.019297	0.5855006671448795	0.002948065324504752	0.001606244330461861	0.02164649057075696	-24.68024255601243	799.0063240791544	89.70329947935122	1.166378162574732	0.019297	0.3486131463338784	-10.51040703383315	4.474578870321524	-36.26086983455539
0.8064000000000002	0.2318358237620608	-0.2489887398555075	-0.01525728387933435	0.8184978913966788	0.019297	0.5851868373646057	0.003144871380858433	0.001655840567698043	0.02310496423625498	-24.86664951722222	801.8379847993517	88.10250102220738	1.163275052061326	0.019297	0.348437335434559	-10.41573365862726	4.166244001436954	-35.75177653814056
0.8159128561131141	0.266530707028115	-0.285936260114789	-0.01279084653989048	0.826415007182378	0.019297	0.5844529541325483	0.003456597161184207	0.002117714372170263	0.02676007674678149	-23.846724588441	802.2027497942331	75.84728775656433	1.155859735282342	0.019297	0.3479718913544618	-10.18062715257556	2.566512902369275	-34.51928990233992
0.8328558844730553	0.3220980478670267	-0.345365114563652	-0.01175691223735074	0.8437299509339864	0.019297	0.5832721624984225	0.003948363787464394	0.002574793077097301	0.03262114991391098	-21.44309105818135	794.3061966750648	58.52220020296563	1.142603002395038	0.019297	0.346989195204261	-9.797348463579196	0.3297448520426767	-32.14280841165899
0.8472312594138312	0.3634816286873603	-0.38966822361096	-0.01139295244128424	0.8615063299949108	0.019297	0.5823823702633114	0.00435944694761079	0.002970401711047095	0.03692960873866034	-18.42910725777702	788.802705242803	51.18153205529301	1.131369905005507	0.019297	0.3460073216013047	-9.359700455685363	-0.7808416251548898	-29.60504407467745
0.8512000000000002	0.3720989780296166	-0.3988859357493772	-0.01104664495921517	0.8668765590559384	0.019297	0.5821506711935512	0.004426906769451604	0.003060512019541887	0.03784885609663247	-18.41565459418409	788.4993577198655	52.40152833698546	1.128283074852723	0.019297	0.3457263944391966	-9.192227624400189	-0.8232502877943972	-28.76708671517849
0.8607128561131143	0.3904575329858956	-0.4184917931131115	-0.008972346732241411	0.8805757572262343	0.019297	0.5816895495640692	0.004526928279809738	0.00333246233557127	0.03988196464009339	-16.83684249144029	782.0633968855309	50.71580470156256	1.120862517788999	0.019297	0.345036436270425	-8.82073917913262	-1.184277461024603	-26.93409945954474
0.8776558844730553	0.4064242182360639	-0.4355260840678239	-0.005003529214501742	0.9078217109801481	0.019297	0.5812183181134105	0.004448533524100076	0.003580289014356045	0.04181998671696202	-13.42916051751743	764.9978573766257	51.26010403169695	1.107571438760277	0.019297	0.3437992676335232	-8.169806210118889	-1.100223376091219	-23.78026056745242
0.8920312594138311	0.4026847926785763	-0.4314831685935245	-8.0091354956996e-05	0.9336479393042691	0.019297	0.5812655729841016	0.004218371437292015	0.003852895195153862	0.04162330533921872	-9.39782479329763	752.8818006977076	55.77036655172113	1.096303692194799	0.019297	0.3427702793149406	-7.432424097043565	-0.6353491324043062	-20.8424701707792
0.8960000000000002	0.3986516443838073	-0.4271620657736585	0.001182391255219067	0.9411814146287303	0.019297	0.5813650653196089	0.004121941509599845	0.003896732817113053	0.04126383412353805	-9.135655707728858	751.130207968328	59.18374403148945	1.093205332876357	0.019297	0.3425054427648965	-7.171893905983636	-0.3406073112585761	-19.90396563881769
0.9055128561131143	0.3849447644782245	-0.4125133724322778	0.005426587891318995	0.9599205238194293	0.019297	0.581804921748043	0.003813730372979032	0.004023728584355827	0.04005455390084436	-8.445855827721193	744.4752679102531	63.49938568336545	1.085779167869862	0.019297	0.341886200233264	-6.551414093476429	0.03576893842045026	-17.90327773929776
0.9224558844730553	0.3466715911092172	-0.3717034594694195	0.01250390873849156	0.9955680519906873	0.019297	0.5834137117226548	0.003214808140830278	0.004156204042172183	0.03630327202799138	-2.300023798350614	726.5733968158312	65.99104067644562	1.072504666608941	0.019297	0.3408750948753964	-5.561190692770619	0.5406768028114575	-14.59664438548047
0.9368312594138312	0.2997629303274735	-0.3216277356168075	0.01554738677165654	1.027919274298694	0.019297	0.5855571602021935	0.002707416118723033	0.004057703859366898	0.03201568244932152	-3.684421173083149	710.5772400777703	68.4194503303948	1.061304610540513	0.019297	0.3401308775399671	-4.727868340126864	0.8565733095040844	-11.70361449113399
0.9408000000000003	0.2682240647360323	-0.2878546961116786	0.01506153541776723	1.037167701721659	0.019297	0.5862483999283968	0.00224030789854405	0.003737029350050336	0.03152735462859041	-2.8650575484383	705.2015699845603	67.76843732150303	1.058232667552645	0.019297	0.3399568315876025	-4.519232804711489	0.6293593105689748	-11.02512692005234
0.9503128561131143	-0.1472726646469288	0.1580360627225978	-0.008144040167676055	1.059795949696406	0.019297	0.5881235046578379	-0.005438908972712654	-0.002207302624887015	0.0475410714222158	1.16180023328921	698.6895019559058	69.4915899611801	1.050847194085674	0.019297	0.3395616493368561	-3.940791253129825	1.084038783502222	-9.024485820608927
0.9672558844730554	-0.7742986433558865	0.8314924073653108	-0.05178389671986256	1.101578457691129	0.019297	0.5920451285894266	-0.01740552670706324	-0.01060489963127857	0.08277226024599112	-1.234279029676381	688.8905040336588	70.36024653624411	1.037797120237721	0.019297	0.338995449303615	-2.890054918211095	1.015765405149088	-5.451382694321818
0.9816312594138312	0.09421118860433117	-0.1014518331376297	0.009812466691910883	1.138207228996589	0.019297	0.5956164808849964	0.0006697484384170605	0.002236389155527386	0.0215071452303031	5.841023403885625	675.5853114661292	70.29257401161959	1.026700253471664	0.019297	0.3386470209145754	-2.22041006360617	1.237782936273428	-3.037453501104668
0.9856000000000004	0.1346347113896144	-0.1448144192994342	0.01185738157107206	1.148465538026207	0.019297	0.596574580908707	0.001665776784185622	0.002862357430760177	0.01659986270903573	0.7405969417921661	676.9103978124392	74.70810412634921	1.023623186623244	0.019297	0.3385674486678942	-1.986010791420989	1.26767635351409	-2.138153908789516
0.9951128561131144	0.1350295432132139	-0.1451540535220305	0.01075955105043021	1.173117237897439	0.019297	0.5987941353757955	0.002043918664826889	0.002885111973625228	0.0120099282966457	3.94438327585111	682.4445602511669	70.92323835703094	1.016352077091183	0.019297	0.338412393294651	-1.379605504600256	0.8169620491274101	-0.1333312976171435
1.012055884473055	0.1062224267407392	-0.1140821235149979	0.007038141118881494	1.216366859795228	0.019297	0.6021782362382658	0.002055672025979225	0.002492699507403181	0.007640029610940153	7.089008921173942	687.6750211161834	72.96484876304822	1.003345744119017	0.019297	0.3382881549946583	-0.4792612580142208	0.8469859139423912	2.937490875479433
1.026431259413831	0.09298107338403144	-0.09973779709494021	0.003824036030497692	1.251075539999245	0.019297	0.6040315495495425	0.002159801243414122	0.002335759577329856	0.004830390155559061	11.59153842449896	694.0683764881614	74.68243386429822	0.9922748709591263	0.019297	0.3383014277111648	0.1902017918634327	0.8314448134523693	5.199851167527022
1.0304	0.09101363726160952	-0.09759778841785451	0.002884236997248838	1.260127210258027	0.019297	0.6043043770811676	0.002196523586265644	0.002319469780010069	0.004209184280424076	10.97047577907786	697.9861711478704	76.72588429613111	0.9892059996673948	0.019297	0.3383119083861262	0.3799756950951299	0.5870275753960312	5.819805792452993
1.039912856113114	0.08864223622008575	-0.0950119034494904	0.0005279315150304048	1.280594485444837	0.019297	0.6045379360680843	0.002282393854644365	0.002299611516234321	0.002932968692669332	14.24453325411149	708.3444016357128	73.91911757728518	0.9818607681472176	0.019297	0.3383637198883964	0.8304737421383379	0.2059308146247649	7.236297942202555
1.056855884473055	0.09275808947033959	-0.09952069693635776	-0.004364175095882017	1.311861248428082	0.019297	0.6034537597734547	0.002510782367607604	0.002419939798268718	0.001120683539763671	19.62150724095278	722.9507514485922	79.02882443148924	0.9687022020704229	0.019297	0.3385134438782464	1.490302489863226	0.2045813532310441	9.180439601998351
1.071231259413831	0.1030563575544691	-0.1110778877859768	-0.01114212816978538	1.332682619397788	0.019297	0.6011555367278976	0.002820059784813063	0.002727038887007218	-0.0002608726685330068	26.1668107673914	736.2990025425107	81.65284910814162	0.9574815206082801	0.019297	0.3386431562016146	1.998950886497549	-0.13571679871818	10.69800524575347
1.075200000000001	0.105915154308751	-0.1143743234628142	-0.01320638615135201	1.33751793424052	0.019297	0.6002951633634664	0.002893894464205133	0.002817849512689795	-0.0005808636067605811	30.16945225736047	741.8654047494261	84.5503735536584	0.9543911454340972	0.019297	0.3386764399527967	2.179975833545994	-0.4364536599001956	11.2282748112056
1.084712856113115	0.1115167048436706	-0.1211539066741752	-0.01865216853011126	1.347460808286476	0.019297	0.5980026710223498	0.003025638958415987	0.003000236152520176	-0.001222667364916012	29.73856118557815	747.6142181942798	82.11835801372342	0.9469845693284341	0.019297	0.338768061549812	2.537999356695932	-0.6272376321089719	12.26685220279277
1.101655884473056	0.1172191909148221	-0.1305876234105298	-0.03319966423390623	1.359459014541706	0.019297	0.5930328060897488	0.003182886288706893	0.00321982648034466	-0.002183813841851345	41.81993422457726	751.9496610822282	86.03594928307237	0.9337803409257388	0.019297	0.338926024545217	3.108587495504239	-0.946171207194821	14.15638074832271
1.116031259413831	0.1126515831060561	-0.1312739111834692	-0.04789207565056674	1.36431578498112	0.019297	0.5880228642700417	0.003173254892370888	0.003416129731482442	-0.002687831529431744	39.32342420138495	747.186487111434	83.42145114861907	0.9225984049198155	0.019297	0.3389842999449186	3.627781973880247	-1.561820618173343	16.03748113094754
1.12	0.1084221843064515	-0.1289301133036659	-0.05196023732456205	1.364904464249484	0.019297	0.5865434738175077	0.003122812698540274	0.003450387500357715	-0.002701540153339501	66.70381362510363	728.9921321894988	230.7432425138156	0.9195213117538626	0.019297	0.3389866029897068	3.503277538242481	-10.75404463473131	15.69897143901498
