DataType=double
version=3
OpenSimVersion=4.5
endheader
time	ground_force_2_vx	ground_force_2_vy	ground_force_2_vz	ground_force_2_px	ground_force_2_py	ground_force_2_pz	ground_moment_2_mx	ground_moment_2_my	ground_moment_2_mz	ground_force_1_vx	ground_force_1_vy	ground_force_1_vz	ground_force_1_px	ground_force_1_py	ground_force_1_pz	ground_moment_1_mx	ground_moment_1_my	ground_moment_1_mz
0	0.02095109507408267	-0.02091751391417789	-0.0004513112155264589	1.317894041159851	0.019297	0.5945846957903377	0	0.00573968648273462	0	95.26733429671214	737.3465629727774	118.9061433309364	0.9216088425559512	0.019297	0.3412712468037951	0	6.299055676375398	0
0.009512856113114032	-1.546084164359698	2.296020085518974	1.485592661973252	1.316334944561343	0.019297	0.5921004700273322	0	0.2405024153847093	0	56.65289699472043	770.1972620860516	76.71771823502672	0.9192402830522494	0.019297	0.3403382679535131	0	-1.178904359295157	0
0.02645588447305514	-6.925479391160003	22.07580021253824	19.39135065273601	1.198774977439933	0.019297	0.5441844069511513	0	0.006457588424498173	0	62.76346640218918	746.4062570026646	80.77099234857921	0.9157139021678002	0.019297	0.339039059267164	0	1.123018355432392	0
0.04083125941383081	13.21986039307519	72.92961843361283	66.60165859387918	1.192441205147551	0.019297	0.5458912618873775	0	0.02756099951298641	0	47.07307907334307	699.6210083495303	59.42051139330042	0.9137693309992816	0.019297	0.3383285900027288	0	-2.609962861188809	0
0.04479999999999995	33.34671144716451	95.78162738358604	80.66901364344838	1.191748064142422	0.019297	0.5470785457570045	0	0.04412132916415068	0	67.81208854929241	685.5291714144253	70.16256928969842	0.9126253776892934	0.019297	0.3381816082215846	0	0.6683094547008555	0
0.05431285611311398	0.1074464511609643	190.4064419895403	20.73600633431681	1.204385055846558	0.019297	0.5525037948535	0	0.1607013805461581	0	57.93188669437215	667.6090277713536	70.49735105494312	0.9095041185094619	0.019297	0.3381541409019005	0	-0.1410274630054547	0
0.07125588447305514	-28.25305416033128	426.2068042730521	-19.18311432911296	1.221528200422252	0.019297	0.5634035448222194	0	3.786093086779599	0	61.49282052637543	608.4978227774948	64.66206954595042	0.9015067968537003	0.019297	0.339439780959843	0	0.2517395855897098	0
0.08563125941383082	-23.91618548441676	500.4307499479035	-27.1030210544824	1.214981553183732	0.019297	0.5662351505000772	0	5.444503932480661	0	54.57375888670543	530.8210902411165	55.68053980661617	0.8951700473928144	0.019297	0.341728603031301	0	0.1553397933396594	0
0.08960000000000001	-32.43010862470796	500.9746898523965	-25.35699089687869	1.212460868526166	0.019297	0.5664338290111252	0	5.122491263192815	0	63.51804139182974	508.5762746004949	50.49285962985701	0.8933121213527365	0.019297	0.3423675408669544	0	0.2285305443107877	0
0.0991128561131141	-42.20464244315967	491.8822803093461	-30.02594135562357	1.205486938592143	0.019297	0.5664510026456981	0	4.959932649414679	0	52.29017421912199	463.2853709423362	49.7835120464824	0.8887151037150485	0.019297	0.343800136575137	0	0.2654201350961989	0
0.1160558844730551	-58.34839061341133	494.8421831821262	-38.47219146916461	1.194457733846713	0.019297	0.5666124047856135	0	3.296783057115933	0	48.80854079206676	379.1864773138351	40.76143579358469	0.8797041793823772	0.019297	0.3457323116569159	0	0.3200461542727324	0
0.1304312594138309	-62.39272652389115	563.3644986470922	-44.88825961505921	1.189970277443442	0.019297	0.5686257590381074	0	2.239167622621041	0	31.10452317767879	300.0508865713545	32.24397091342993	0.8723394938817881	0.019297	0.347114036212901	0	0.1334265478814571	0
0.1344	-61.6128756770558	590.5766294507459	-47.10483271935495	1.189165530796539	0.019297	0.5694820162509883	0	2.314683719291698	0	13.36963907531786	273.3766431213513	30.23438349250005	0.8703290598397944	0.019297	0.3472998587089432	0	0.1267293287533136	0
0.1439128561131141	-63.89982322213241	644.8082894232605	-54.12129634305251	1.184735537714321	0.019297	0.5710797151464004	0	3.663426746967521	0	25.08845921315797	218.1686067619019	22.26717092878725	0.865452247353098	0.019297	0.3482169988928418	0	-0.03701247673309505	0
0.1608558844730551	-55.93900918676952	703.4496296833975	-63.51419490492945	1.1722714671946	0.019297	0.5725184901173068	0	4.012604165562978	0	-6.986418306151511	127.9728711569113	8.060697993709402	0.8551993796027366	0.019297	0.3492431961992897	0	-0.218126837795761	0
0.1752312594138309	-49.94053280009443	737.3688141017406	-67.15992336977249	1.161782184803038	0.019297	0.5732749375840297	0	2.837732946062794	0	-35.60765239955996	38.93890194456925	3.955213911427813	0.8484804479848073	0.019297	0.3530445435792224	0	-0.0209115373306101	0
0.1792	-49.67330642917326	748.5559099917409	-69.42242764314663	1.159389869472977	0.019297	0.5736013236353499	0	2.741588070239858	0	-23.36524736751633	25.40107195477515	0.9071580358349515	0.8474219473988531	0.019297	0.3520173712495301	0	-0.01041201299336734	0
0.1887128561131141	-46.63400364467196	760.1013542226265	-71.37624476190203	1.152627262811837	0.019297	0.5740516265276278	0	2.921211002649713	0	-2.560174083844326	2.7999864848322	-0.5048004179235048	0.8041890390465456	0.019297	0.3708369096644083	0	0.09743830872098	0
0.2056558844730552	-40.45572800383039	767.3206844103985	-74.9602365260955	1.141625804184165	0.019297	0.5747711150564471	0	1.919772187928169	0	0.1431935204460795	-0.1563581490326521	0.02793999617825918	0.8082689380429752	0.019297	0.3737661932675929	0	0.00159174129465532	0
0.2200312594138309	-38.49045648206743	771.3577050271217	-77.55192230088899	1.134191756244013	0.019297	0.5756837778346331	0	1.179176730220435	0	0.184030318826181	-0.1987300555616937	0.02279029739214628	0.8157206139621463	0.019297	0.3758137627358547	0	0.001417079627691608	0
0.224	-38.28642001771071	771.0235738650305	-79.0786599527449	1.132276173347261	0.019297	0.5759641774329005	0	0.9965495838200777	0	0.195940394009697	-0.2112892651808611	0.02186175548403355	0.8183507101801394	0.019297	0.3763143110342177	0	0.001362959806489969	0
0.2335128561131141	-37.29734214782525	763.510157496886	-79.54804952984547	1.127294912075116	0.019297	0.576485194161163	0	0.9160572609910855	0	0.2214137158871237	-0.2380808883035868	0.01769089496829055	0.8257629249399028	0.019297	0.3773326382342562	0	0.001250587004889697	0
0.2504558844730551	-35.62288056892471	753.6614435041364	-79.116025679822	1.118915882161725	0.019297	0.5774717318815523	0	0.4352767523968764	0	0.256816382851009	-0.2755341023038712	0.009793910420674904	0.8425262929144428	0.019297	0.3786377900201473	0	0.0008172000649593267	0
0.2648312594138309	-34.78715900202545	752.8479161168993	-76.9330224538179	1.112272215433434	0.019297	0.5785337746822853	0	0.3300414458319526	0	0.2806110979357602	-0.300872723216675	0.007023473317003177	0.8600181086004159	0.019297	0.3792516157909808	0	0.0003779423645182741	0
0.2688	-35.14770882745442	751.9683022322438	-76.51473380151219	1.110366590893668	0.019297	0.5788230618348154	0	0.3070260515910863	0	0.2846499909465252	-0.3051613544576421	0.006202489366003229	0.8653124045642298	0.019297	0.3793468827669816	0	0.0002811646715247503	0
0.2783128561131141	-33.6164832394678	747.8868844745198	-75.11686712815725	1.105382624597476	0.019297	0.5794355645856893	0	0.5005381236186097	0	0.2909243102415679	-0.3118170328419757	0.003341711765492496	0.8788239379166405	0.019297	0.3793673485602951	0	7.305991958485433e-05	0
0.2952558844730552	-30.53896389863068	749.1848080561666	-71.09972746140159	1.095975208421295	0.019297	0.5805248945034759	0	0.8499221991875213	0	0.2862012141924137	-0.3067398069971603	-0.003446400469931154	0.9055770656744657	0.019297	0.3786385428650573	0	-0.0003675063209093014	0
0.3096312594138309	-27.35350784616968	757.2446422582391	-67.13932449304949	1.087298326093113	0.019297	0.5814730869546195	0	1.479681758029147	0	0.2683698279442117	-0.287695627598532	-0.007790497120622531	0.9307580304537021	0.019297	0.3771212897806985	0	-0.0007783192468784378	0
0.3136000000000001	-26.33832992749355	758.465416255021	-66.12985803891605	1.084680859515752	0.019297	0.5816934272430561	0	1.674475886796566	0	0.2607144226355386	-0.2795259274957026	-0.008855640410625953	0.938074856342443	0.019297	0.3765443822782453	0	-0.0008505675244582611	0
0.3231128561131141	-23.72833498326904	761.0057856418024	-64.5577062185117	1.07806353509396	0.019297	0.5821553105045201	0	2.056654025923511	0	0.2388560260561665	-0.2562310722871974	-0.01144927154879999	0.9562430523032254	0.019297	0.3748433539788057	0	-0.000934736659229003	0
0.3400558844730551	-18.0291547770203	773.369398654354	-60.7255181557818	1.066164020673398	0.019297	0.583073226560491	0	2.645592413451789	0	0.1902646082054301	-0.2044949454554074	-0.01491900668899168	0.9906421371923824	0.019297	0.3706685191377054	0	-0.001010434881914805	0
0.3544312594138309	-14.06287031159236	785.5335279510533	-58.83770670263993	1.05598670742589	0.019297	0.5839752952308254	0	3.333033599505207	0	0.1436758410933114	-0.1547508965581885	-0.0146793022550861	1.021712676136425	0.019297	0.3659926571836307	0	-0.00101254126879248	0
0.3584000000000001	-12.67174020664465	786.6694486393262	-58.50320674098981	1.053029408907977	0.019297	0.5841878429030873	0	3.566695926401288	0	0.1244219020898913	-0.1341029432307705	-0.01352014905484474	1.030593109475309	0.019297	0.3645323343172665	0	-0.0008106279674557402	0
0.3679128561131141	-9.476242154752978	787.9823903158456	-57.48645651390495	1.045916950458091	0.019297	0.584663690987099	0	3.733510490580131	0	0.001439130210131701	-0.001958249872017814	-0.00380576919989038	1.052334639441012	0.019297	0.3607512479444283	0	0.001254910127990937	0
0.3848558844730551	-5.255233133627947	783.3916561688684	-54.68623100278853	1.033674261261364	0.019297	0.5855028895956497	0	3.769901696354935	0	-0.4105580121762795	0.4415936735027413	0.03690835557315841	1.092475127277229	0.019297	0.3531035092482798	0	0.0004844121594116459	0
0.3992312594138309	-1.770854856521931	770.3251346832058	-54.82409327396238	1.02375490172549	0.019297	0.5862332886944303	0	3.642119532255237	0	-0.4361538700593086	0.4692346779449539	0.04021760467724982	1.127678531254968	0.019297	0.3459146873048546	0	-0.004498185194217123	0
0.4032	-1.578865224505732	766.0249667848997	-54.70409163936671	1.02110769119346	0.019297	0.5864410012474031	0	3.525540922652297	0	-0.5691477120564939	0.6121500590496383	0.05047634005111076	1.137555730217812	0.019297	0.3438696308004945	0	-0.006110896749189298	0
0.4127128561131141	-0.4103455006765846	753.376693205885	-54.66550257004903	1.014770479449449	0.019297	0.586938545366571	0	3.459125910840019	0	-0.3535738724585	0.379996600254639	0.02820546943033115	1.161120643810411	0.019297	0.3390184200431241	0	-0.004865810368195535	0
0.4296558844730551	-0.03559850459542879	728.5258210554955	-56.02916686383435	1.004058912560936	0.019297	0.5878714667231226	0	2.849624499481938	0	-0.001357152879327012	0.001452771879483333	9.249221721264598e-06	1.201879983864439	0.019297	0.3309229389423631	0	-0.0005935992480547179	0
0.4440312594138309	0.1508287597479452	711.7306154664393	-59.24165378724771	0.9952745226285374	0.019297	0.5887879237752119	0	2.606377130884329	0	-0.2334733790774528	0.2544055495436164	0.04331980718888725	1.233992028288581	0.019297	0.3251975800736568	0	-0.009886120256150944	0
0.448	0.9963434219735543	707.911070935784	-59.01924924274914	0.9927269423106658	0.019297	0.5890477038671526	0	2.728749335793012	0	-0.4594365914548567	0.5000316852359022	0.08205522893964053	1.242293256283843	0.019297	0.3238815757500907	0	-0.01885220865132832	0
0.457512856113114	3.852292072210473	700.5404491028487	-61.07515380165098	0.9864668302356991	0.019297	0.5896191859074427	0	2.386192214011391	0	-0.8515662343695896	0.9234219719063143	0.1329115070852203	1.260961417569432	0.019297	0.3212387450231447	0	-0.03518171763258703	0
0.4744558844730551	12.15271568347276	700.2109050891818	-62.48184705188786	0.9751662119850184	0.019297	0.5907206156847361	0	1.925461894388314	0	-0.5583242878699014	0.6006854179112078	0.05147030487332389	1.288932629428925	0.019297	0.3184333555894604	0	-0.02688630743634303	0
0.4888312594138309	19.28651240464753	713.1972371017289	-66.19757534458189	0.965942405293518	0.019297	0.5919096793605915	0	1.600589585479633	0	-0.1820263275773514	0.1950666725488901	0.005202795564427074	1.307096315112668	0.019297	0.3177515782667555	0	-0.01218000860046437	0
0.4928	21.20256172686994	716.8581987483583	-63.15111495655241	0.9634204844923897	0.019297	0.5922729862091117	0	2.329750528761603	0	-0.1142132155284353	0.1223363885079678	0.001502275283152931	1.311313491960694	0.019297	0.317806704460285	0	-0.00928713353312012	0
0.502312856113114	26.74335372658689	725.7698252921999	-67.85003843941509	0.9575267786798394	0.019297	0.5931114050058088	0	1.566305468244857	0	-0.03827176440475827	0.04100272316713572	-0.001187457303796276	1.319904781965074	0.019297	0.3182926854089867	0	-0.006210691506540232	0
0.519255884473055	34.652402934489	743.2555459700541	-69.12164058219756	0.9478161080028065	0.019297	0.5947707707409677	0	1.465323541809542	0	-0.08228604526067487	0.09014938607776521	-0.01831009892888734	1.329911201839501	0.019297	0.320254201444806	0	-0.01138313197949457	0
0.5336312594138308	39.48064353871509	756.3711499630904	-73.27639309189766	0.9408394526782338	0.019297	0.5964997960746378	0	1.382544102970086	0	-0.8714427813604511	0.9773700142553121	-0.2707366566993973	1.333745378163068	0.019297	0.3227949517711702	0	-0.08085018814033007	0
0.5376	39.72478460501409	757.6429160709527	-71.4763759814976	0.9391169576701601	0.019297	0.5970273567560221	0	2.010321119068423	0	-1.571924131678597	1.781594874423367	-0.5428592561569839	1.334230341107676	0.019297	0.3236042777670533	0	-0.1462479396259945	0
0.547112856113114	42.70279657993071	759.261104850343	-75.33643072705021	0.9353699520633263	0.019297	0.5983298300634277	0	1.547926050050473	0	-5.399485713431714	6.328177917706476	-2.392214865226134	1.23298718539093	0.019297	0.3774690458808007	0	0.0006543146449242976	0
0.5640558844730551	45.10913559731038	748.5395358119074	-77.69662514588335	0.929576019440839	0.019297	0.6007472621844596	0	1.449584199683701	0	-24.23453520032697	31.95833548609403	-17.30432915913089	1.226143729326253	0.019297	0.3697818469914495	0	0.01235718609691494	0
0.5784312594138308	45.75739705052253	727.62526534455	-81.02090541215486	0.9253131957679593	0.019297	0.6028927651424989	0	1.444809026927083	0	-12.22801256600148	70.15783064417256	-14.20470109970008	1.218812610239737	0.019297	0.3679922446973282	0	0.4164062177926966	0
0.5823999999999999	45.95927738773518	720.1880734985741	-82.29557484444663	0.9242023298031157	0.019297	0.6035115045977453	0	1.22367863326099	0	-10.90152584058208	86.32705393440932	2.582437100813216	1.217240772661733	0.019297	0.3669988070664539	0	0.5689456802006041	0
0.5919128561131139	47.59701910965379	701.8278374956736	-82.42826028969829	0.9211279239101098	0.019297	0.6048098685636804	0	1.117144869475262	0	8.682131745381067	136.6620913854836	-4.268133314167531	1.21389735751011	0.019297	0.3640870606111776	0	0.8957372480704592	0
0.6088558844730551	53.5458303585981	657.3262144743113	-80.26716518760747	0.9143260668919149	0.019297	0.606225347379479	0	0.05908152366281971	0	4.081581426626059	234.1910837778687	-2.436341459850684	1.21058080639666	0.019297	0.3602082522065613	0	0.3740156424093165	0
0.6232312594138308	57.65381647407919	610.3680155431039	-74.54808102414142	0.9070884414864459	0.019297	0.6064334497179455	0	-0.0468808668500591	0	-47.1909275092782	356.3711079795091	10.80788627887617	1.232673327616536	0.019297	0.3570159906781131	0	-1.467988781466944	0
0.6272	62.1523539207654	595.8423821054363	-72.23922234079407	0.9050053052411715	0.019297	0.6064506170768327	0	-0.2050042465499091	0	-58.52575096720575	401.0505515524317	20.7046328449124	1.239814631450092	0.019297	0.3553514485649789	0	-2.252068479142849	0
0.636712856113114	57.37767923449913	557.4195833437579	-68.13210064079541	0.900001452106396	0.019297	0.6062964391996762	0	-0.37006781626719	0	-68.93798663302486	437.3616878245329	30.83251345850201	1.23607218455024	0.019297	0.3542564926873659	0	-3.990021931402141	0
0.6536558844730551	59.97334022051858	481.7690098730663	-55.01029029546829	0.8909252605339856	0.019297	0.6054556457982588	0	-0.8988328544251267	0	-24.86295713393304	398.031532262815	25.16122831245792	1.214758541506246	0.019297	0.3559436806862315	0	-1.502312866850351	0
0.6680312594138309	53.56173528725429	417.8803170671101	-45.0228765966622	0.883377761517014	0.019297	0.6045726965484629	0	-0.7682310522974696	0	-65.37423266338241	406.3529797417947	28.37399004079447	1.213808925338258	0.019297	0.3553882505029136	0	0.2942321084919912	0
0.672	91.54200941416622	404.1638685626968	-35.9504046337337	0.8809607087739827	0.019297	0.6044728325833195	0	-0.7919430875766418	0	-64.20884636994032	423.5490752326589	35.89364545177893	1.215011914867194	0.019297	0.3545757666818019	0	-0.2902070858045376	0
0.6815128561131141	44.57557722791913	371.1408804712879	-39.69904227661144	0.875139085481073	0.019297	0.6044390868688305	0	-0.7112987653686311	0	-60.79575350596901	443.9008974495397	44.27786908747134	1.209710577104537	0.019297	0.3538346259388553	0	0.3926297367535532	0
0.6984558844730551	67.12291199910464	295.3796395555002	-21.51895544479596	0.8661212779995777	0.019297	0.6045930868185323	0	-0.5645362436463819	0	-58.70192018141858	509.1666048056211	55.84231233959597	1.199155275085189	0.019297	0.3518111351157807	0	0.4269499511834574	0
0.712831259413831	13.03292426062255	237.6664137183258	-22.60950656905696	0.8586024551424163	0.019297	0.6054983142249764	0	-0.6328630271482912	0	-55.84932425377755	579.4882782447978	64.63234777311581	1.189519525277941	0.019297	0.3498292598732892	0	0.09537376812939513	0
0.7168000000000001	117.9946223615278	216.1795080450576	1.517967233980969	0.8565831308443191	0.019297	0.6057441622422157	0	-0.3267991137027739	0	-60.32475355746507	596.2829038532986	63.68735152004392	1.186429069022723	0.019297	0.3494209322625511	0	-0.1811011547322279	0
0.7263128561131141	0.07556128485893199	174.1379404774463	-16.21644255749071	0.8504905390534705	0.019297	0.6059639056348943	0	-0.2009416369584324	0	-51.85336188258403	628.6095807659774	67.3270556236869	1.178077614829938	0.019297	0.3487015584834461	0	-0.231522885755846	0
0.7432558844730551	24.76716401549918	78.80917023196299	7.56680454548075	0.84031875817358	0.019297	0.6054299272329056	0	0.1568577902497338	0	-47.42188539422463	670.8746210019372	66.74867660471305	1.163189247083968	0.019297	0.3479077792608204	0	-0.2775361078166076	0
0.757631259413831	-22.04602508121922	23.85027873657418	-1.980297932386762	0.8337724665791687	0.019297	0.606885285161915	0	0.007135813530460652	0	-40.95155308457399	702.9666321655434	67.5165006889311	1.151486356185469	0.019297	0.3472382276342439	0	-0.4330991052606152	0
0.7616000000000002	-11.15458955723142	13.11497380722399	3.860561055758592	0.8357983417001166	0.019297	0.611738984173827	0	0.003689147546140997	0	-43.33314645728729	711.4949047832441	66.20048688950837	1.148318351621775	0.019297	0.3470565344908417	0	-0.7033922727387067	0
0.7711128561131142	-0.1972953165646119	0.247895813179184	0.1417421323993256	0.8034638537281481	0.019297	0.5858928085726753	0	-0.01136751256883252	0	-36.40520923679323	728.4635213654444	68.28943973456768	1.140788263407185	0.019297	0.3465763619590412	0	-0.6044409510981881	0
0.7880558844730552	0.1548692647088324	-0.1664821074287624	-0.005230141471463215	0.8082876422941121	0.019297	0.5853766456651146	0	0.001237063226173813	0	-32.23918100125444	748.1900258845291	69.61633977052558	1.127948425145175	0.019297	0.3456523832608917	0	-0.8604326773891473	0
0.802431259413831	0.1983841845736382	-0.2127024267851864	0.001594140817114869	0.8156775360646424	0.019297	0.5851053264472191	0	0.001728610042426486	0	-27.17719313620048	762.3043228213953	72.0789977424117	1.118231982255606	0.019297	0.3445961673074869	0	-0.9079662180805501	0
0.8064000000000002	0.2117651194128857	-0.2270872705789799	0.001382348370007495	0.8182202694841336	0.019297	0.5850695495629833	0	0.001908470553414022	0	-30.13600464944069	766.5945162290493	71.24807810023957	1.115847375220796	0.019297	0.3442391180060111	0	-1.268460470780463	0
0.8159128561131141	0.2448561113046753	-0.2624979549378752	0.004078599742721711	0.8251961156833763	0.019297	0.5850251113878174	0	0.002209314425440462	0	-25.24856480789806	770.2250279312611	73.27460447427225	1.109712074850151	0.019297	0.3433985179196923	0	-1.049758595446103	0
0.8328558844730553	0.3003515499714322	-0.3220012555022754	0.008850667814251468	0.8407854474604608	0.019297	0.585163410762619	0	0.002857277117704081	0	-22.1243449996343	766.0800142253934	73.39613410934123	1.098430488955292	0.019297	0.3419306483572154	0	-1.206237003487921	0
0.8472312594138312	0.3456771732099405	-0.3705848896193227	0.01038929197741163	0.8570282750854975	0.019297	0.5854545628193665	0	0.003372955467895522	0	-16.45392680673176	761.557157218874	74.138310381653	1.089381304725938	0.019297	0.3404914822221696	0	-1.2212847154657	0
0.8512000000000002	0.3558951100847089	-0.381543736798023	0.010869466444794	0.8619504832840517	0.019297	0.5855529763998133	0	0.003516416228080368	0	-19.91712541880852	761.4609631913895	72.71083207747213	1.087168056873364	0.019297	0.3400305191584673	0	-1.599974480949718	0
0.8607128561131143	0.3784748761088836	-0.405760105185089	0.01220170606625311	0.8745429979688831	0.019297	0.5858860596177783	0	0.003763368870533838	0	-14.95026705844891	755.3433970269708	73.61129101115594	1.081280207060834	0.019297	0.3389559540608746	0	-1.332205076344213	0
0.8776558844730553	0.4034308363467771	-0.4325992183621175	0.01547605540914401	0.899655716704774	0.019297	0.5868172304022063	0	0.004182811325508819	0	-11.78360656409495	742.8582919468748	72.49321245287516	1.070651283356074	0.019297	0.3369971688905782	0	-1.540713589416083	0
0.8920312594138311	0.4074181906547555	-0.4369746031341978	0.01790675911620061	0.9234659249951547	0.019297	0.5879960899231049	0	0.004510432094490592	0	-6.324920614103953	736.2406137461761	72.03663503276678	1.062127847065819	0.019297	0.3352541972218406	0	-1.557302402120232	0
0.8960000000000002	0.4052483614016482	-0.4346894043133642	0.01867828905732635	0.9303953405385877	0.019297	0.5883921401994965	0	0.004580933148493076	0	-10.11636623674925	735.1590816906407	70.57842541352656	1.059928938472805	0.019297	0.3347840398513723	0	-1.821241296855362	0
0.9055128561131143	0.3952982651024962	-0.4241557460758542	0.02088704570233793	0.9476637284899339	0.019297	0.5895114115571101	0	0.00465310319715797	0	-5.229714138890147	726.7502335577274	69.96372835831258	1.053959610978524	0.019297	0.3338038069659844	0	-1.524221359148329	0
0.9224558844730553	0.3626938639746169	-0.3895413151030644	0.02488365694384604	0.9806208305407704	0.019297	0.5921597959787921	0	0.004732399477096457	0	-0.7148273600338553	716.9985926472218	67.72372902759135	1.043675731731587	0.019297	0.3322054537461133	0	-1.478301891457926	0
0.9368312594138312	0.3236023931365739	-0.3478777661293516	0.02622260250226926	1.010589993197228	0.019297	0.5950428864757125	0	0.00475309287641093	0	0.911163553531974	717.183361325028	66.90722455863171	1.035652880645312	0.019297	0.3309072557374677	0	-1.476707760796164	0
0.9408000000000003	0.3113967170209671	-0.3348368855940503	0.02613446150603177	1.019145338492903	0.019297	0.5959262402728498	0	0.004721990951185226	0	0.0274110499257505	715.0798514589535	65.44933799646384	1.033169420230253	0.019297	0.3306469310601211	0	-1.671532546457969	0
0.9503128561131143	0.277453417411167	-0.2985292226177008	0.02531788816261708	1.040133054112518	0.019297	0.5982004263510031	0	0.004489765562584401	0	5.116980303750547	712.6070764857245	65.17604465999433	1.027472828139888	0.019297	0.33000828701375	0	-1.375648289454037	0
0.9672558844730554	0.08728607959769358	-0.09424636641621681	0.0113025656234339	1.079048965781669	0.019297	0.6026358643132563	0	0.001497364875489245	0	7.295888271194156	713.9270614673662	63.64227362894799	1.017707099075338	0.019297	0.3290226410412959	0	-1.394649351902188	0
0.9816312594138312	0.007141994482110142	-0.008257390963628652	0.007050731929958119	1.113396573899304	0.019297	0.6064815925857245	0	0.000554752325789107	0	14.01754880718618	715.3901559996436	62.72501350841186	1.009318300431476	0.019297	0.3284180248291923	0	-1.29383896789095	0
0.9856000000000004	0.01816839671508236	-0.02009750168044758	0.008021840613285838	1.123059168917832	0.019297	0.607507404240993	0	0.001135169846644264	0	8.635920460454731	717.4465484282141	64.20441002861548	1.007190305131001	0.019297	0.3282369175124263	0	-1.417179084867162	0
0.9951128561131144	0.1074523384538641	-0.115774285788334	0.01156473794835242	1.146341476319236	0.019297	0.6098596819177062	0	0.003122115890601487	0	15.66335255375856	722.610619565942	62.18456935292769	1.002048898156033	0.019297	0.3278217252173118	0	-1.37580296283739	0
1.012055884473055	0.1033291618881495	-0.1110648314277314	0.007956165975520981	1.187449078410229	0.019297	0.6134022528004639	0	0.00260225041932924	0	19.08030857398569	729.1832080319962	63.2165082761916	0.9929834561551489	0.019297	0.3272437247371682	0	-1.027664514262491	0
1.026431259413831	0.08404333072063044	-0.09017666909986342	0.003904420821854573	1.220724938541905	0.019297	0.6152681471669029	0	0.002332829117858118	0	25.72886360223107	727.9729065044423	61.15090033888486	0.985264955823825	0.019297	0.3268354009915367	0	-1.108168181329154	0
1.0304	0.08047967173927331	-0.08631530707099502	0.002783336897681474	1.229452508641043	0.019297	0.6155288523843644	0	0.002285854722350679	0	20.31227780122761	728.7073709025263	72.91126434215009	0.9833332832269338	0.019297	0.326680957669322	0	0.04469192939956769	0
1.039912856113114	0.07459137647988219	-0.07995426920190282	0.00018479672510253	1.249248958845922	0.019297	0.6156717636518784	0	0.002200821344727805	0	27.2914304985194	726.9099216315593	61.55289910301441	0.9784605106765603	0.019297	0.326316430852187	0	-1.160719597903741	0
1.056855884473055	0.0728651283300818	-0.07825518966136998	-0.004761771268785552	1.279662256585148	0.019297	0.6142010961662051	0	0.002234801766976064	0	28.26644241640188	715.446418394183	69.35450566515323	0.9700906121044807	0.019297	0.3255961102750372	0	-0.2342248615630719	0
1.071231259413831	0.07731177202646272	-0.08360632650748875	-0.01052462703217718	1.30002950609044	0.019297	0.611385337926855	0	0.002469736663057656	0	32.33685888559984	699.3301527544281	60.83437659102326	0.9633026865926305	0.019297	0.324779461801614	0	-1.825316060070163	0
1.075200000000001	0.07846615616091923	-0.08512694859765771	-0.01243048952426947	1.304772639426423	0.019297	0.6103596977976518	0	0.002546042257693821	0	38.18244492079531	698.9680440974431	97.14827648171553	0.9617635801989651	0.019297	0.3244643053384567	0	3.434373522234195	0
1.084712856113115	0.07893545180846934	-0.08645784283858422	-0.0167092151588277	1.314605630612147	0.019297	0.6076140478467306	0	0.002644406715470642	0	28.7414902337164	694.717625144808	66.16486555736796	0.9578132401981814	0.019297	0.3236689479198889	0	-1.761222375349759	0
1.101655884473056	0.07437526716842931	-0.08421431585310044	-0.0251955484573877	1.326435649021916	0.019297	0.601742908378133	0	0.002710280108905466	0	41.06823619785867	695.6640489135041	85.5568166395463	0.9503729989438375	0.019297	0.3222175851473994	0	0.7506850180288998	0
1.116031259413831	0.06349859418140028	-0.07563932466451734	-0.03057417694589795	1.331172288667454	0.019297	0.5958978875802986	0	0.002820653094760995	0	33.87303596432543	729.6117452765313	66.02183548688373	0.9439283696747904	0.019297	0.3208361704411031	0	-4.600911715049564	0
1.12	0.05898025057619424	-0.07183431814931041	-0.03165802000030379	1.331781273974905	0.019297	0.5941831309367143	0	0.002887419285151139	0	94.43761761365924	737.3502959875019	118.1154078655796	0.9417507715388339	0.019297	0.3205595342738876	0	5.839572565139783	0
