DataType=double
version=3
OpenSimVersion=4.5
endheader
time	ground_force_2_vx	ground_force_2_vy	ground_force_2_vz	ground_force_2_px	ground_force_2_py	ground_force_2_pz	ground_moment_2_mx	ground_moment_2_my	ground_moment_2_mz	ground_force_1_vx	ground_force_1_vy	ground_force_1_vz	ground_force_1_px	ground_force_1_py	ground_force_1_pz	ground_moment_1_mx	ground_moment_1_my	ground_moment_1_mz
0	0.02095109507408267	-0.02091751391417789	-0.0004513112155264589	1.317894041159851	0.019297	0.5945846957903377	0.003743818878465367	0.00573968648273462	-0.006901300962634378	95.26733429671214	737.3465629727774	118.9061433309364	0.8909050616034389	0.019297	0.3467926571903344	4.07119297127698	2.122177448550503	22.63932735560405
0.009512856113114032	-1.546084164359698	2.296020085518974	1.485592661973252	1.316334944561343	0.019297	0.5921004700273322	0.1062573817322714	0.2405024153847093	-0.2628528461296313	56.65289699472043	770.1972620860516	76.71771823502672	0.8837550454207439	0.019297	0.3469038647941201	5.056804710596373	-4.273210902931733	27.33063286825847
0.02645588447305514	-6.925479391160003	22.07580021253824	19.39135065273601	1.308584299434754	0.019297	0.5871487011269448	0.948471174497538	2.433356990035473	-2.424128653831961	62.76346640218918	746.4062570026646	80.77099234857921	0.8714602930145223	0.019297	0.3477637465238655	6.512161158793413	-2.998981186389627	33.03117076695707
0.04083125941383081	13.21986039307519	72.92961843361283	66.60165859387918	1.298680422663478	0.019297	0.5833086018273078	2.728832324619904	6.608617083503511	-7.747985596122156	47.07307907334307	699.6210083495303	59.42051139330042	0.8610577422015716	0.019297	0.3487392191482587	7.283494860348638	-6.232172792872882	36.87813490635965
0.04479999999999995	33.34671144716451	95.78162738358604	80.66901364344838	1.29590517931434	0.019297	0.5825461129757211	3.397141307545407	7.263646344254362	-9.976337994745883	67.81208854929241	685.5291714144253	70.16256928969842	0.8583916012931506	0.019297	0.3491350094335735	7.508876057024557	-3.879644652438846	37.17883579552297
0.05431285611311398	0.1074464511609643	190.4064419895403	20.73600633431681	1.289533627501345	0.019297	0.581671319759606	5.553684639012948	1.923208754697541	-16.21283656927944	57.93188669437215	667.6090277713536	70.49735105494312	0.8518289849926797	0.019297	0.349890351585223	7.835200204012709	-4.886872425206285	38.50443981372195
0.07125588447305514	-28.25305416033128	426.2068042730521	-19.18311432911296	1.277353172075632	0.019297	0.5814985402251289	7.712210164009621	3.226435158282662	-23.79298276702098	61.49282052637543	608.4978227774948	64.66206954595042	0.8408298990608586	0.019297	0.3515337756530852	7.359169439520468	-4.415448044442027	36.92176019983678
0.08563125941383082	-23.91618548441676	500.4307499479035	-27.1030210544824	1.265754456228438	0.019297	0.581333443060822	7.555649869106379	4.429498437643552	-25.40832194769463	54.57375888670543	530.8210902411165	55.68053980661617	0.8322579874873608	0.019297	0.3531778432043685	6.077498151100079	-3.972465735183135	33.39504822832728
0.08960000000000001	-32.43010862470796	500.9746898523965	-25.35699089687869	1.262611856170882	0.019297	0.5813240376333545	7.459617646358812	4.333704209079716	-25.12437548110335	63.51804139182974	508.5762746004949	50.49285962985701	0.8300940074958648	0.019297	0.3536680380179508	5.747164742187231	-3.681318250513793	32.15123283259774
0.0991128561131141	-42.20464244315967	491.8822803093461	-30.02594135562357	1.255164465267926	0.019297	0.5811950938348105	7.252357195189539	4.090587243541015	-24.43549510141258	52.29017421912199	463.2853709423362	49.7835120464824	0.8251652446472713	0.019297	0.3548665855535185	5.126923919963892	-3.476981584423337	29.44172003154835
0.1160558844730551	-58.34839061341133	494.8421831821262	-38.47219146916461	1.242067936608483	0.019297	0.5810425261015968	7.140632735584103	2.307088575723268	-23.55953667637808	48.80854079206676	379.1864773138351	40.76143579358469	0.8176430348872757	0.019297	0.3572530543755114	4.368509847503237	-2.771965843276202	23.53274675916245
0.1304312594138309	-62.39272652389115	563.3644986470922	-44.88825961505921	1.231219159113663	0.019297	0.5809882019868573	6.96456147387574	1.158903635445851	-23.23815554189745	31.10452317767879	300.0508865713545	32.24397091342993	0.8125683217763713	0.019297	0.3595969999779489	3.745524344740707	-2.182110022703274	17.93439318163932
0.1344	-61.6128756770558	590.5766294507459	-47.10483271935495	1.22824067245032	0.019297	0.5810029036300333	6.803966836598063	1.18389070997971	-23.07686545320036	13.36963907531786	273.3766431213513	30.23438349250005	0.8114124458250902	0.019297	0.360289071062336	3.550947269960908	-1.828239254484376	16.1064261634162
0.1439128561131141	-63.89982322213241	644.8082894232605	-54.12129634305251	1.220958091692315	0.019297	0.5811030997973403	6.463161511003909	2.34350767610478	-23.35660306909209	25.08845921315797	218.1686067619019	22.26717092878725	0.8088893623444031	0.019297	0.3620667309372267	3.021576744149115	-1.643976342955759	12.34024581678064
0.1608558844730551	-55.93900918676952	703.4496296833975	-63.51419490492945	1.207555723644122	0.019297	0.5813387691718123	6.204622034596114	2.264950695412364	-24.82069713307046	-6.986418306151511	127.9728711569113	8.060697993709402	0.8057337551442756	0.019297	0.3654720258071177	2.076849920430045	-0.5034729053661173	6.330257985518799
0.1752312594138309	-49.94053280009443	737.3688141017406	-67.15992336977249	1.196156343222886	0.019297	0.5814250383794815	6.009630158351939	0.9361874767846994	-25.34643242978883	-35.60765239955996	38.93890194456925	3.955213911427813	0.8042517734485978	0.019297	0.3682840508387956	0.5934096788640695	0.3467976710992116	1.722216020903729
0.1792	-49.67330642917326	748.5559099917409	-69.42242764314663	1.193081908899428	0.019297	0.5814288789808388	5.859362814653171	0.7914254562747407	-25.22037523234533	-23.36524736751633	25.40107195477515	0.9071580358349515	0.8040033626656102	0.019297	0.3690448924329173	0.4325172907906742	0.3480527134667552	1.102878594983604
0.1887128561131141	-46.63400364467196	760.1013542226265	-71.37624476190203	1.185655262463198	0.019297	0.5814706573493141	5.63921537458325	0.9097755259165681	-25.10462726226444	-2.560174083844326	2.7999864848322	-0.5048004179235048	0.8041890390465456	0.019297	0.3708369096644083	0.07855109239455046	0.09743830872098	0.1366230758873865
0.2056558844730552	-40.45572800383039	767.3206844103985	-74.9602365260955	1.172528526248403	0.019297	0.5815745503662292	5.220416638243889	-0.1214652389231303	-23.71229784447569	0.1431935204460795	-0.1563581490326521	0.02793999617825918	0.8082689380429752	0.019297	0.3737661932675929	-0.0009462307293310676	0.00159174129465532	0.01392491697790796
0.2200312594138309	-38.49045648206743	771.3577050271217	-77.55192230088899	1.161638002083479	0.019297	0.5816898991576382	4.632867959827685	-0.7181540431637641	-21.17087320234052	0.184030318826181	-0.1987300555616937	0.02279029739214628	0.8157206139621463	0.019297	0.3758137627358547	-0.0008264678081969176	0.001417079627691608	0.01815138951639289
0.224	-38.28642001771071	771.0235738650305	-79.0786599527449	1.158663073668596	0.019297	0.5817311768894906	4.446492531497786	-0.8692933704607821	-20.34492218897564	0.195940394009697	-0.2112892651808611	0.02186175548403355	0.8183507101801394	0.019297	0.3763143110342177	-0.0008138875557285035	0.001362959806489969	0.01936803509016432
0.2335128561131141	-37.29734214782525	763.510157496886	-79.54804952984547	1.151510031301255	0.019297	0.581852910303635	4.098305797337416	-0.8100066970627724	-18.48848949415552	0.2214137158871237	-0.2380808883035868	0.01769089496829055	0.8257629249399028	0.019297	0.3773326382342562	-0.0006676920772909216	0.001250587004889697	0.02206752151172583
0.2504558844730551	-35.62288056892471	753.6614435041364	-79.116025679822	1.138761218568871	0.019297	0.5821192115039795	3.502626200894542	-0.9692507808793434	-14.95666488343464	0.256816382851009	-0.2755341023038712	0.009793910420674904	0.8425262929144428	0.019297	0.3786377900201473	-0.0005119455369373346	0.0008172000649593267	0.02560916287263936
0.2648312594138309	-34.78715900202545	752.8479161168993	-76.9330224538179	1.127962855879773	0.019297	0.5823508824690901	2.873701642889604	-0.7443006124335518	-11.8126659625655	0.2806110979357602	-0.300872723216675	0.007023473317003177	0.8600181086004159	0.019297	0.3792516157909808	-0.0006453947247568178	0.0003779423645182741	0.02754543874349445
0.2688	-35.14770882745442	751.9683022322438	-76.51473380151219	1.124971456547188	0.019297	0.5824080716817801	2.69581376810799	-0.6844564738502248	-10.98239602980789	0.2846499909465252	-0.3051613544576421	0.006202489366003229	0.8653124045642298	0.019297	0.3793468827669816	-0.0006389057537126803	0.0002811646715247503	0.02786624043596941
0.2783128561131141	-33.6164832394678	747.8868844745198	-75.11686712815725	1.117748170575306	0.019297	0.5825663919561858	2.341504727948141	-0.323075544739224	-9.24802965618581	0.2909243102415679	-0.3118170328419757	0.003341711765492496	0.8788239379166405	0.019297	0.3793673485602951	-0.0005569412031342512	7.305991958485433e-05	0.02829897481639421
0.2952558844730552	-30.53896389863068	749.1848080561666	-71.09972746140159	1.104738457065954	0.019297	0.5828839275633323	1.767351730146709	0.2989000343263892	-6.565292753797493	0.2862012141924137	-0.3067398069971603	-0.003446400469931154	0.9055770656744657	0.019297	0.3786385428650573	-0.0003395135619638774	-0.0003675063209093014	0.02737686360309625
0.3096312594138309	-27.35350784616968	757.2446422582391	-67.13932449304949	1.093594952953379	0.019297	0.5831818840318638	1.29397743144976	1.103672078305979	-4.76808695423605	0.2683698279442117	-0.287695627598532	-0.007790497120622531	0.9307580304537021	0.019297	0.3771212897806985	-0.0002549134633509161	-0.0007783192468784378	0.0250418779139305
0.3136000000000001	-26.33832992749355	758.465416255021	-66.12985803891605	1.09049217234407	0.019297	0.5832701843063901	1.195915702374677	1.331703742189708	-4.407679803319027	0.2607144226355386	-0.2795259274957026	-0.008855640410625953	0.938074856342443	0.019297	0.3765443822782453	-0.0001968170392408395	-0.0008505675244582611	0.02420893208354458
0.3231128561131141	-23.72833498326904	761.0057856418024	-64.5577062185117	1.082997696840571	0.019297	0.5835125317494745	1.032853219806267	1.770320461797868	-3.754925636463355	0.2388560260561665	-0.2562310722871974	-0.01144927154879999	0.9562430523032254	0.019297	0.3748433539788057	8.519701640650329e-07	-0.000934736659229003	0.02200045774147306
0.3400558844730551	-18.0291547770203	773.369398654354	-60.7255181557818	1.069562991641594	0.019297	0.5840236939364989	0.7350623830238163	2.456324263644204	-2.628660133717084	0.1902646082054301	-0.2044949454554074	-0.01491900668899168	0.9906421371923824	0.019297	0.3706685191377054	0.000246973336477779	-0.001010434881914805	0.01723185066326219
0.3544312594138309	-14.06287031159236	785.5335279510533	-58.83770670263993	1.058138228574162	0.019297	0.5845405308833203	0.4440115562280216	3.214391864895208	-1.69009199806289	0.1436758410933114	-0.1547508965581885	-0.0146793022550861	1.021712676136425	0.019297	0.3659926571836307	0.0002685289528951396	-0.00101254126879248	0.01308595038812478
0.3584000000000001	-12.67174020664465	786.6694486393262	-58.50320674098981	1.054969803879102	0.019297	0.584704969713354	0.4068078627090408	3.459729494839976	-1.526449442077322	0.1244219020898913	-0.1341029432307705	-0.01352014905484474	1.030593109475309	0.019297	0.3645323343172665	0.0004913395753101705	-0.0008106279674557402	0.01250720005443189
0.3679128561131141	-9.476242154752978	787.9823903158456	-57.48645651390495	1.047342415613838	0.019297	0.5851223375324929	0.3614054011495105	3.65591179561976	-1.123241440737875	0.001439130210131701	-0.001958249872017814	-0.00380576919989038	1.052334639441012	0.019297	0.3607512479444283	0.003221381452113126	0.001254910127990937	0.01751092826793142
0.3848558844730551	-5.255233133627947	783.3916561688684	-54.68623100278853	1.033773172613037	0.019297	0.5859218842479135	0.3282369145628268	3.76669452190794	-0.07748632760104002	-0.4105580121762795	0.4415936735027413	0.03690835557315841	1.092475127277229	0.019297	0.3531035092482798	0.005051045747948476	0.0004844121594116459	0.04376767726773313
0.3992312594138309	-1.770854856521931	770.3251346832058	-54.82409327396238	1.022314744531958	0.019297	0.5866707385555527	0.3369786231863037	3.721849504773661	1.109389284072567	-0.4361538700593086	0.4692346779449539	0.04021760467724982	1.127678531254968	0.019297	0.3459146873048546	-0.0005448556793775318	-0.004498185194217123	0.04220552729327061
0.4032	-1.578865224505732	766.0249667848997	-54.70409163936671	1.019150659929422	0.019297	0.5869013874433551	0.3526673204623281	3.633325428016017	1.499134809032366	-0.5691477120564939	0.6121500590496383	0.05047634005111076	1.137555730217812	0.019297	0.3438696308004945	-0.001523680396604157	-0.006110896749189298	0.05294890066914506
0.4127128561131141	-0.4103455006765846	753.376693205885	-54.66550257004903	1.011588299905626	0.019297	0.5874513870568758	0.386362976779953	3.63329179715143	2.397379901913105	-0.3535738724585	0.379996600254639	0.02820546943033115	1.161120643810411	0.019297	0.3390184200431241	-0.002342309026742483	-0.004865810368195535	0.03344397176624781
0.4296558844730551	-0.03559850459542879	728.5258210554955	-56.02916686383435	0.9981699318479524	0.019297	0.5884541269454026	0.4244830168328733	3.179599924340186	4.290274509106229	-0.001357152879327012	0.001452771879483333	9.249221721264598e-06	1.201879983864439	0.019297	0.3309229389423631	-0.0006299313599254685	-0.0005935992480547179	0.0003026724638698621
0.4440312594138309	0.1508287597479452	711.7306154664393	-59.24165378724771	0.9868401230766828	0.019297	0.5893183420618199	0.3775149335821544	3.105964906706303	6.003020384131389	-0.2334733790774528	0.2544055495436164	0.04331980718888725	1.233992028288581	0.019297	0.3251975800736568	-0.01612813793037093	-0.009886120256150944	-0.02941596666857748
0.448	0.9963434219735543	707.911070935784	-59.01924924274914	0.9837063420083346	0.019297	0.5895721800171702	0.3712824730392379	3.260615834993464	6.385782820506964	-0.4594365914548567	0.5000316852359022	0.08205522893964053	1.242293256283843	0.019297	0.3238815757500907	-0.03058365602331031	-0.01885220865132832	-0.05715989212338592
0.457512856113114	3.852292072210473	700.5404491028487	-61.07515380165098	0.9761686912126576	0.019297	0.5901472611110533	0.3699380402975097	3.013118338794038	7.214262936125126	-0.8515662343695896	0.9234219719063143	0.1329115070852203	1.260961417569432	0.019297	0.3212387450231447	-0.05423490750697553	-0.03518171763258703	-0.1046500749057681
0.4744558844730551	12.15271568347276	700.2109050891818	-62.48184705188786	0.9627333910027146	0.019297	0.5910740294502064	0.2474641725909281	2.697992576417737	8.705596832830711	-0.5583242878699014	0.6006854179112078	0.05147030487332389	1.288932629428925	0.019297	0.3184333555894604	-0.03492003794303	-0.02688630743634303	-0.06912917088702145
0.4888312594138309	19.28651240464753	713.1972371017289	-66.19757534458189	0.9513924780475247	0.019297	0.5917162539192937	-0.1379504903187305	2.567489992777427	10.37696791187364	-0.1820263275773514	0.1950666725488901	0.005202795564427074	1.307096315112668	0.019297	0.3177515782667555	-0.01344515081615825	-0.01218000860046437	-0.0265982683846242
0.4928	21.20256172686994	716.8581987483583	-63.15111495655241	0.9482763059977947	0.019297	0.5918797338417811	-0.2819061836982177	3.294460243388889	10.85622851715901	-0.1142132155284353	0.1223363885079678	0.001502275283152931	1.311313491960694	0.019297	0.317806704460285	-0.009804686484068261	-0.00928713353312012	-0.01940873107881572
0.502312856113114	26.74335372658689	725.7698252921999	-67.85003843941509	0.940802613456918	0.019297	0.5922104316845053	-0.6538992499954164	2.725135769717043	12.13789447199756	-0.03827176440475827	0.04100272316713572	-0.001187457303796276	1.319904781965074	0.019297	0.3182926854089867	-0.005924194682476357	-0.006210691506540232	-0.01185117871752475
0.519255884473055	34.652402934489	743.2555459700541	-69.12164058219756	0.9275816059136528	0.019297	0.5926273033093218	-1.593144056177008	2.938241819694097	15.03940589770607	-0.08228604526067487	0.09014938607776521	-0.01831009892888734	1.329911201839501	0.019297	0.320254201444806	-0.009296314911404134	-0.01138313197949457	-0.01826434808527383
0.5336312594138308	39.48064353871509	756.3711499630904	-73.27639309189766	0.9165001442068779	0.019297	0.5928247236619781	-2.779718746960961	3.311135062005297	18.40955073778582	-0.8714427813604511	0.9773700142553121	-0.2707366566993973	1.333745378163068	0.019297	0.3227949517711702	-0.05859866242648984	-0.08085018814033007	-0.107073398183615
0.5376	39.72478460501409	757.6429160709527	-71.4763759814976	0.9134695356253941	0.019297	0.5928748561010189	-3.146112705243253	4.008463094188452	19.43158762769896	-1.571924131678597	1.781594874423367	-0.5428592561569839	1.334230341107676	0.019297	0.3236042777670533	-0.1024764643794008	-0.1462479396259945	-0.1865157595822974
0.547112856113114	42.70279657993071	759.261104850343	-75.33643072705021	0.9062361214444503	0.019297	0.592962157577961	-4.075464941790177	3.971979488537611	22.12018442421053	-5.399485713431714	6.328177917706476	-2.392214865226134	1.334423051950793	0.019297	0.3257289771367441	-0.3274203604867539	-0.5213718352021836	-0.6419042108275479
0.5640558844730551	45.10913559731038	748.5395358119074	-77.69662514588335	0.8935331043699466	0.019297	0.5930555327064283	-5.757563613076288	4.596964329114082	26.97954691647384	-24.23453520032697	31.95833548609403	-17.30432915913089	1.331776760678909	0.019297	0.3298259864544377	-1.276922795677407	-2.783863267149806	-3.375855854381271
0.5784312594138308	45.75739705052253	727.62526534455	-81.02090541215486	0.8829579959779221	0.019297	0.5930949549472445	-7.129134243117514	5.324787954158522	30.81871348594726	-12.22801256600148	70.15783064417256	-14.20470109970008	1.326670926148183	0.019297	0.3330160555674849	-2.453853553550095	-1.543378200994374	-7.567105461070416
0.5823999999999999	45.95927738773518	720.1880734985741	-82.29557484444663	0.8800764222842838	0.019297	0.5931162772311049	-7.486518770760355	5.332802696108145	31.77895232736373	-10.90152584058208	86.32705393440932	2.582437100813216	1.324818176880868	0.019297	0.3337352702781642	-2.871543134371891	0.4841342542185861	-9.286840376149033
0.5919128561131139	47.59701910965379	701.8278374956736	-82.42826028969829	0.8732302353342734	0.019297	0.5931376519128594	-8.19188657082664	5.62083072966036	33.61593119422047	8.682131745381067	136.6620913854836	-4.268133314167531	1.319846929677921	0.019297	0.3353270524182734	-3.930402867905929	0.6932285296082622	-14.47929011385024
0.6088558844730551	53.5458303585981	657.3262144743113	-80.26716518760747	0.8613515756329645	0.019297	0.593036100331964	-8.669637833509551	5.017422949238337	34.82152180294833	4.081581426626059	234.1910837778687	-2.436341459850684	1.310172511822643	0.019297	0.3373887118868481	-5.344132878786398	0.2245160533558448	-23.32348942899707
0.6232312594138308	57.65381647407919	610.3680155431039	-74.54808102414142	0.8517065150313711	0.019297	0.5927825861975187	-8.332050477412704	4.868759853915291	33.80335654733813	-47.1909275092782	356.3711079795091	10.80788627887617	1.301589713451014	0.019297	0.3383746967164497	-6.643218583289726	-1.60284827264076	-24.55980877777619
0.6272	62.1523539207654	595.8423821054363	-72.23922234079407	0.8491280202836253	0.019297	0.592690409265755	-8.198915000418324	4.686756671195558	33.2940545746886	-58.52575096720575	401.0505515524317	20.7046328449124	1.298968137521735	0.019297	0.3385664065760063	-6.73165034750815	-2.009674041860895	-23.72354623629227
0.636712856113114	57.37767923449913	557.4195833437579	-68.13210064079541	0.8431174919339648	0.019297	0.5924209792716808	-7.73445309176625	4.301697572027562	31.70823337825956	-68.93798663302486	437.3616878245329	30.83251345850201	1.291700295839969	0.019297	0.3389670801320545	-6.687003281036587	-3.328888759755367	-24.32960464416697
0.6536558844730551	59.97334022051858	481.7690098730663	-55.01029029546829	0.8331546227820283	0.019297	0.5917370123806976	-6.609212438390022	3.101898968176353	27.83210294949604	-24.86295713393304	398.031532262815	25.16122831245792	1.277854374727751	0.019297	0.3396789790818708	-6.473864101381168	-0.319132780384723	-25.11413117655473
0.6680312594138309	53.56173528725429	417.8803170671101	-45.0228765966622	0.8255738526834009	0.019297	0.5909995851714289	-5.671936085822145	2.561266600524118	24.15511575110859	-65.37423266338241	406.3529797417947	28.37399004079447	1.267226930048105	0.019297	0.3400392020681549	-6.237131567665324	0.8064817785928651	-21.7065653857076
0.672	91.54200941416622	404.1638685626968	-35.9504046337337	0.8236334439558285	0.019297	0.5907873134546163	-5.531192354345456	2.521795200098708	23.16960912302337	-64.20884636994032	423.5490752326589	35.89364545177893	1.264543800933728	0.019297	0.3400212975606055	-6.164531936784996	0.5531471994265951	-20.97918453800975
0.6815128561131141	44.57557722791913	371.1408804712879	-39.69904227661144	0.8192600812109483	0.019297	0.590256360357292	-5.263789604975878	2.139247408443542	20.73898284467296	-60.79575350596901	443.9008974495397	44.27786908747134	1.257226904264331	0.019297	0.3398333162649861	-6.215193929699444	1.645331278559094	-21.09254026973863
0.6984558844730551	67.12291199910464	295.3796395555002	-21.51895544479596	0.8125589793750513	0.019297	0.589202239397459	-4.546142963690333	1.62114697101201	15.82121246147669	-58.70192018141858	509.1666048056211	55.84231233959597	1.243830954419258	0.019297	0.3392273532488347	-6.407241488807388	2.18305103180633	-22.74736396391263
0.712831259413831	13.03292426062255	237.6664137183258	-22.60950656905696	0.8082814107624281	0.019297	0.5882680534580845	-4.095054283898761	0.7294316398885361	11.95962215235252	-55.84932425377755	579.4882782447978	64.63234777311581	1.232276345497317	0.019297	0.3386558108177662	-6.47488275524099	2.234817862885724	-24.77707613214857
0.7168000000000001	117.9946223615278	216.1795080450576	1.517967233980969	0.8074551820210232	0.019297	0.5880524748834357	-3.82458026970803	1.686150238548233	10.62045580788289	-60.32475355746507	596.2829038532986	63.68735152004392	1.229042611734309	0.019297	0.3385199492231553	-6.500069821586481	1.875243404069263	-25.4097269915407
0.7263128561131141	0.07556128485893199	174.1379404774463	-16.21644255749071	0.8054356788298938	0.019297	0.5875116902602383	-3.213230782588862	0.5310821888951756	7.845760567832865	-51.85336188258403	628.6095807659774	67.3270556236869	1.221257088722671	0.019297	0.3382462238591212	-6.57232351496493	2.133479704943071	-27.14303098140615
0.7432558844730551	24.76716401549918	78.80917023196299	7.56680454548075	0.8027359500624045	0.019297	0.5866429116905701	-1.48058910602645	0.3377771223009134	2.96186992222883	-47.42188539422463	670.8746210019372	66.74867660471305	1.207366543178874	0.019297	0.3378946324898652	-6.71756604500132	2.196397643885114	-29.63742677456022
0.757631259413831	-22.04602508121922	23.85027873657418	-1.980297932386762	0.8018986177814094	0.019297	0.5861108872367176	-0.4954751811004662	-0.387737367304259	0.76020017823398	-40.95155308457399	702.9666321655434	67.5165006889311	1.195716133995508	0.019297	0.3376107965604187	-6.767762798372851	2.158882464034374	-31.09205794855391
0.7616000000000002	-11.15458955723142	13.11497380722399	3.860561055758592	0.8024408529930975	0.019297	0.5861859026969987	-0.3351279942624645	-0.4101236100705968	0.4374825906673245	-43.33314645728729	711.4949047832441	66.20048688950837	1.192483439122016	0.019297	0.3375074175932082	-6.794148017845759	1.806564742232115	-31.42323472572805
0.7711128561131142	-0.1972953165646119	0.247895813179184	0.1417421323993256	0.8034638537281481	0.019297	0.5858928085726753	-0.008589884007845622	-0.01136751256883252	0.02023410609332522	-36.40520923679323	728.4635213654444	68.28943973456768	1.184799406541048	0.019297	0.3372309029558668	-6.80782597422887	2.060831965166742	-32.06051230661247
0.7880558844730552	0.1548692647088324	-0.1664821074287624	-0.005230141471463215	0.8082876422941121	0.019297	0.5853766456651146	0.001327891109731556	0.001237063226173813	0.0149069411223974	-32.23918100125444	748.1900258845291	69.61633977052558	1.171165719080781	0.019297	0.3365207817733852	-6.832173153304726	1.853801788007668	-32.33474826834077
0.802431259413831	0.1983841845736382	-0.2127024267851864	0.001594140817114869	0.8156775360646424	0.019297	0.5851053264472191	0.001397485576210832	0.001728610042426486	0.01949757596963597	-27.17719313620048	762.3043228213953	72.0789977424117	1.159738847264168	0.019297	0.3356803068339719	-6.796598980632929	1.841498949102054	-31.6408626227911
0.8064000000000002	0.2117651194128857	-0.2270872705789799	0.001382348370007495	0.8182202694841336	0.019297	0.5850695495629833	0.001542917152113047	0.001908470553414022	0.02078839808592332	-30.13600464944069	766.5945162290493	71.24807810023957	1.156592129226026	0.019297	0.3354159016523756	-6.763829272199415	1.368628455703028	-31.23470498551091
0.8159128561131141	0.2448561113046753	-0.2624979549378752	0.004078599742721711	0.8251961156833763	0.019297	0.5850251113878174	0.001675564913679469	0.002209314425440462	0.02430652295363978	-25.24856480789806	770.2250279312611	73.27460447427225	1.149085659017994	0.019297	0.3347400035493323	-6.669004472753771	1.616710149966899	-30.32651996543071
0.8328558844730553	0.3003515499714322	-0.3220012555022754	0.008850667814251468	0.8407854474604608	0.019297	0.585163410762619	0.001997577965572353	0.002857277117704081	0.03015982634502515	-22.1243449996343	766.0800142253934	73.39613410934123	1.135680585277345	0.019297	0.3333711947815911	-6.557226316975909	1.338403757835926	-28.53655432029591
0.8472312594138312	0.3456771732099405	-0.3705848896193227	0.01038929197741163	0.8570282750854975	0.019297	0.5854545628193665	0.002415542680454567	0.003372955467895522	0.03482812876710409	-16.45392680673176	761.557157218874	74.138310381653	1.124340943611922	0.019297	0.3320842058839047	-6.402621468122524	1.232231133580131	-26.62376320740859
0.8512000000000002	0.3558951100847089	-0.381543736798023	0.010869466444794	0.8619504832840517	0.019297	0.5855529763998133	0.002517416829591217	0.003516416228080368	0.03589149286429003	-19.91712541880852	761.4609631913895	72.71083207747213	1.121208769381563	0.019297	0.3317248226871473	-6.324463635026674	0.709728451721606	-25.92067373421433
0.8607128561131143	0.3784748761088836	-0.405760105185089	0.01220170606625311	0.8745429979688831	0.019297	0.5858860596177783	0.002691951583724182	0.003763368870533838	0.03833451059510272	-14.95026705844891	755.3433970269708	73.61129101115594	1.113717468164237	0.019297	0.330866350680423	-6.110428497991167	0.9346018594085157	-24.50127099209484
0.8776558844730553	0.4034308363467771	-0.4325992183621175	0.01547605540914401	0.899655716704774	0.019297	0.5868172304022063	0.00287667607400787	0.004182811325508819	0.04112207797373435	-11.78360656409495	742.8582919468748	72.49321245287516	1.100299204989057	0.019297	0.3293702868377184	-5.665692574667728	0.518687314888308	-22.02420442405271
0.8920312594138311	0.4074181906547555	-0.4369746031341978	0.01790675911620061	0.9234659249951547	0.019297	0.5879960899231049	0.002962015674782235	0.004510432094490592	0.0416338893202474	-6.324920614103953	736.2406137461761	72.03663503276678	1.088943490498354	0.019297	0.3282027383168493	-5.191570432016776	0.3298063992104514	-19.74276577876861
0.8960000000000002	0.4052483614016482	-0.4346894043133642	0.01867828905732635	0.9303953405385877	0.019297	0.5883921401994965	0.002947104374352529	0.004580933148493076	0.04146477879407406	-10.11636623674925	735.1590816906407	70.57842541352656	1.085805303662821	0.019297	0.3279183708853502	-5.047358892252736	-0.06438380803923605	-19.02324487058351
0.9055128561131143	0.3952982651024962	-0.4241557460758542	0.02088704570233793	0.9476637284899339	0.019297	0.5895114115571101	0.002815334436798518	0.00465310319715797	0.04065735724989464	-5.229714138890147	726.7502335577274	69.96372835831258	1.078306031634602	0.019297	0.3272847340958911	-4.737737730920099	0.1450521145695376	-17.69376689809926
0.9224558844730553	0.3626938639746169	-0.3895413151030644	0.02488365694384604	0.9806208305407704	0.019297	0.5921597959787921	0.002518460540264358	0.004732399477096457	0.03754830745886231	-0.7148273600338553	716.9985926472218	67.72372902759135	1.064943222382686	0.019297	0.3263280709035989	-4.214075226531762	-0.04218943156728749	-15.248760865976
0.9368312594138312	0.3236023931365739	-0.3478777661293516	0.02622260250226926	1.010589993197228	0.019297	0.5950428864757125	0.002364701416324446	0.00475309287641093	0.03342378601356416	0.911163553531974	717.183361325028	66.90722455863171	1.053705310993734	0.019297	0.3257017499815814	-3.733302115403286	-0.2641266825227881	-12.94690267736698
0.9408000000000003	0.3113967170209671	-0.3348368855940503	0.02613446150603177	1.019145338492903	0.019297	0.5959262402728498	0.002323288061277932	0.004721990951185226	0.03214164713825311	0.0274110499257505	715.0798514589535	65.44933799646384	1.050590812360959	0.019297	0.3255645894973545	-3.634280049766799	-0.5311746522080938	-12.45768649703387
0.9503128561131143	0.277453417411167	-0.2985292226177008	0.02531788816261708	1.040133054112518	0.019297	0.5982004263510031	0.00211800547750309	0.004489765562584401	0.02906103792455644	5.116980303750547	712.6070764857245	65.17604465999433	1.043141057101697	0.019297	0.3252807594322789	-3.368869608837758	-0.3302644333763411	-11.16529083418354
0.9672558844730554	0.08728607959769358	-0.09424636641621681	0.0113025656234339	1.079048965781669	0.019297	0.6026358643132563	-0.001390847160760816	0.001497364875489245	0.03096183870605951	7.295888271194156	713.9270614673662	63.64227362894799	1.029928905012336	0.019297	0.324946581040137	-2.910009538992093	-0.587087355864689	-8.725477998425713
0.9816312594138312	0.007141994482110142	-0.008257390963628652	0.007050731929958119	1.113396573899304	0.019297	0.6064815925857245	-0.002015189257025784	0.000554752325789107	0.02946755992614454	14.01754880718618	715.3901559996436	62.72501350841186	1.018761925290275	0.019297	0.3248371429077402	-2.561727676403901	-0.6512922839476967	-6.755876260938116
0.9856000000000004	0.01816839671508236	-0.02009750168044758	0.008021840613285838	1.123059168917832	0.019297	0.607507404240993	-0.001086535981256444	0.001135169846644264	0.02666304994393175	8.635920460454731	717.4465484282141	64.20441002861548	1.01566742687728	0.019297	0.3248277202165487	-2.445916832838241	-0.8434689277253953	-6.081881737473324
0.9951128561131144	0.1074523384538641	-0.115774285788334	0.01156473794835242	1.146341476319236	0.019297	0.6098596819177062	0.001910079195757806	0.003122115890601487	0.01510943143243983	15.66335255375856	722.610619565942	62.18456935292769	1.008325907160993	0.019297	0.324847511732786	-2.149198248774518	-0.9388837066612072	-4.535833366095492
1.012055884473055	0.1033291618881495	-0.1110648314277314	0.007956165975520981	1.187449078410229	0.019297	0.6134022528004639	0.002054423354091522	0.00260225041932924	0.008047157858084042	19.08030857398569	729.1832080319962	63.2165082761916	0.9952600408416954	0.019297	0.325034505113397	-1.610925852508715	-0.841594187454717	-1.660047325092439
1.026431259413831	0.08404333072063044	-0.09017666909986342	0.003904420821854573	1.220724938541905	0.019297	0.6152681471669029	0.002134776915273738	0.002332829117858118	0.004863695133226649	25.72886360223107	727.9729065044423	61.15090033888486	0.9842035520056899	0.019297	0.3252964901344264	-1.120285409501869	-1.133479552892663	0.7726732224627213
1.0304	0.08047967173927331	-0.08631530707099502	0.002783336897681474	1.229452508641043	0.019297	0.6155288523843644	0.00215875952534014	0.002285854722350679	0.00416450606942222	20.31227780122761	728.7073709025263	72.91126434215009	0.9811326993031797	0.019297	0.3253653409211931	-0.9586996216443309	-0.08903225390441172	1.603581725529203
1.039912856113114	0.07459137647988219	-0.07995426920190282	0.00018479672510253	1.249248958845922	0.019297	0.6156717636518784	0.002205552066026676	0.002200821344727805	0.00273998539836151	27.2914304985194	726.9099216315593	61.55289910301441	0.9738376020145764	0.019297	0.3255277504831463	-0.5732995852517524	-1.423748812860065	3.360438173192609
1.056855884473055	0.0728651283300818	-0.07825518966136998	-0.004761771268785552	1.279662256585148	0.019297	0.6142010961662051	0.002354147683827759	0.002234801766976064	0.0007969837449000889	28.26644241640188	715.446418394183	69.35450566515323	0.9608130943128492	0.019297	0.3257567874759755	0.1149559279289107	-0.8822042946492861	6.637566875611022
1.071231259413831	0.07731177202646272	-0.08360632650748875	-0.01052462703217718	1.30002950609044	0.019297	0.611385337926855	0.002566436817339455	0.002469736663057656	-0.0005338121501396568	32.33685888559984	699.3301527544281	60.83437659102326	0.9497628506410976	0.019297	0.3257930415506626	0.7088268807309452	-2.68177952464068	9.468815544255417
1.075200000000001	0.07846615616091923	-0.08512694859765771	-0.01243048952426947	1.304772639426423	0.019297	0.6103596977976518	0.002614534475768269	0.002546042257693821	-0.0008338302935621627	38.18244492079531	698.9680440974431	97.14827648171553	0.9466890552894642	0.019297	0.3257790979181897	0.9189979978498126	1.919707413237569	10.53661119169201
1.084712856113115	0.07893545180846934	-0.08645784283858422	-0.0167092151588277	1.314605630612147	0.019297	0.6076140478467306	0.002641384921229754	0.002644406715470642	-0.001371791146181306	28.7414902337164	694.717625144808	66.16486555736796	0.9394199777900609	0.019297	0.3256778316826279	1.395606956842015	-3.035948422791873	12.77812357883468
1.101655884473056	0.07437526716842931	-0.08421431585310044	-0.0251955484573877	1.326435649021916	0.019297	0.601742908378133	0.00257110916872495	0.002710280108905466	-0.002085422878571767	41.06823619785867	695.6640489135041	85.5568166395463	0.9263885290938945	0.019297	0.3254144549104968	2.223947363245446	-1.432639673644081	16.68513340685526
1.116031259413831	0.06349859418140028	-0.07563932466451734	-0.03057417694589795	1.331172288667454	0.019297	0.5958978875802986	0.002414727579562445	0.002820653094760995	-0.002478161820178869	33.87303596432543	729.6117452765313	66.02183548688373	0.9153704663878925	0.019297	0.3251677036297489	3.160337489491113	-6.633079087187142	20.83618165859193
1.12	0.05898025057619424	-0.07183431814931041	-0.03165802000030379	1.331781273974905	0.019297	0.5941831309367143	0.002363522472668927	0.002887419285151139	-0.002559356352589116	94.43761761365924	737.3502959875019	118.1154078655796	0.912370135906871	0.019297	0.3251814251703269	3.40795262051148	1.932786438990513	21.66382037952883
