DataType=double
version=3
OpenSimVersion=4.5
endheader
time	pelvis_tilt_moment	pelvis_list_moment	pelvis_rotation_moment	pelvis_tx_force	pelvis_ty_force	pelvis_tz_force	hip_flexion_r_moment	hip_adduction_r_moment	hip_rotation_r_moment	hip_flexion_l_moment	hip_adduction_l_moment	hip_rotation_l_moment	lumbar_extension_moment	lumbar_bending_moment	lumbar_rotation_moment	knee_angle_r_moment	knee_adduction_r_moment	knee_angle_r_beta_force	knee_angle_l_moment	knee_adduction_l_moment	knee_angle_l_beta_force	arm_flex_r_moment	arm_add_r_moment	arm_rot_r_moment	arm_flex_l_moment	arm_add_l_moment	arm_rot_l_moment	ankle_angle_r_moment	ankle_angle_l_moment	elbow_flex_r_moment	elbow_flex_l_moment	pro_sup_r_moment	pro_sup_l_moment	subtalar_angle_r_moment	subtalar_angle_l_moment	wrist_flex_r_moment	wrist_dev_r_moment	wrist_flex_l_moment	wrist_dev_l_moment	mtp_angle_r_moment	mtp_angle_l_moment
0	-0.02279002460588231	-0.008855088512251868	-0.001404640680490708	-0.8453947670638939	0.4749574965027819	-0.1055318662731093	-33.42901901206935	5.887111846901862	-0.8289971590456382	14.29331280213041	-47.38474204828082	-2.538086434627906	41.51192303672273	2.943527441191346	14.30869582723807	25.58361950042967	8.931776293846118	-0.02872933917784178	13.58496000937458	-37.82850717281966	-0.04324576001135162	30.91470217260596	-2.243957262802678	0.7475707705807038	4.797753837899562	-1.496597391181211	-0.6514526149946345	-0.6437463684405926	-89.77389919879712	12.43361910118475	3.48553525768843	-0.1771197644021965	-0.09145248150439311	-0.05479901359396452	11.0452419106694	0.6982093615633719	-1.52353764586178	0.04352583873148265	-0.3376076735815221	0.06045141234569056	13.34049779977739
0.009512856113114032	-0.06443874570717156	-0.04396448399715457	-0.02033562462024094	-0.9671761016140152	0.8378426050214784	-0.07869717270468968	-26.10274596272695	3.844902755116717	-0.3975468160319648	14.82066461131738	-49.1809240026241	-2.952977892854886	30.88077340204002	4.710492121736337	12.0659738898735	21.24382498024274	7.269208734955365	-0.0264452929914755	13.06430818658455	-30.45229766760643	-0.04432574077748066	24.61491180981242	-0.7186184075572573	0.9671312495816711	-7.74856242968398	1.716540155039199	1.972495309621154	1.304006984161354	-92.9000495967979	10.41902488766772	-1.741052736282702	-0.0928012653970256	0.06651221533942685	-0.947915692452969	12.8621912660375	0.6792755727490163	-1.29803181253781	0.1843305516660973	0.472905566459495	-0.08189690774253562	14.52563860103305
0.02645588447305514	-0.06436472680343286	-0.04941439743546743	-0.03873960659070314	-0.9708727021522634	0.8177604044841473	0.2345111750982412	-19.01118529529487	1.288709921248107	0.02691499111348472	15.67815909695756	-45.96696553105946	-3.391309348665525	11.17102121538337	6.689829795638943	6.366631904564466	15.96649995445209	5.558886324011012	-0.01667098084619455	13.30697323502038	-27.57647499364237	-0.0380457429087841	-32.36155884079992	2.762016561341673	-0.2732630882196121	-7.966890285047856	-4.274343790460319	-1.257225893009267	1.019888897024082	-97.98428253872001	-11.81419777421659	0.1013522637129747	0.2566453782721003	-0.04414265386351356	-0.6943510083835138	14.63668374669477	-0.4196814524225442	1.497830551274246	-0.1167777302864913	0.1065245240092764	0.05146513658197839	15.16420642379948
0.04083125941383081	-0.04419865758787012	-0.03351522667382896	-0.03074586827883047	-0.9478047142604291	0.6557571716809889	0.2812126284377712	-18.86388989705542	-2.414864101156147	1.378681424917471	17.80759224656401	-41.54931734641767	-3.086311838193871	12.91018625596847	5.269524509465869	8.011247460802254	7.931364039985737	5.973571025425874	-0.01860736981985249	11.45624353532625	-21.10495518176421	-0.04023161079275126	-15.85121885664427	-0.2468752049794436	-0.3312105469016098	-1.379043934949648	-3.887211573763262	-1.52796812144874	1.510666885724105	-96.54737589692596	-5.485627936274408	1.994162844585306	0.09445373543546265	-0.08224045582611741	0.3273882146868941	14.90570147778533	-0.222051305112982	0.705920340169632	-0.09537898363804204	-0.1767459258007366	0.05476003529268618	14.92105851889635
0.04479999999999995	-0.01516280962854921	-0.01066751790042844	-0.009605900850415239	-0.8285399382578014	0.2847300691230998	0.101132801209161	-20.23567875521179	-5.004598091214265	2.169315479023389	17.31828962370356	-42.10567426403669	-3.92813777511474	20.98651883187609	5.545656809752595	9.443590888193	2.32360710148726	4.481437885856489	-0.01242470934569193	11.50607827105239	-22.52617279189965	-0.03840793640066081	-5.152359401465083	-2.227559688221774	-0.2126693066576664	7.258267185923466	-4.18709114532078	-2.485638189232015	3.639431592108285	-98.29436847318121	-0.978333635813643	4.574653546541068	0.01205486317047827	-0.1569745332800558	-0.03210762225011421	15.30075322680886	-0.06763931279241428	0.1062373552105308	-0.1457855665763858	-0.5629180383640244	-0.1787997752039208	15.01346202232215
0.05431285611311398	-0.05495099318908814	-0.04079732053318422	-0.04759389148135294	-0.964417981899615	0.7179687960294245	0.2761190078493669	-18.0286912922805	-6.774134943972759	2.524942397869791	19.56540696288744	-37.3842642811253	-2.802250785808652	14.00175488839858	7.844001904941621	10.17541327806009	-0.4258609348496074	-3.816248424905964	-0.038851629935445	10.14734129678985	-20.67798926378232	-0.04446324503492344	12.9549476329121	1.958254308782492	0.4802899190041066	-3.784108904374775	-0.9428264125343404	0.4495785907464153	3.374501877105661	-96.76747547580568	4.752187549981029	0.3741753856466211	-0.06808966340698885	-0.004896792640875614	-0.5154992719736162	15.12844065141425	0.387921472280879	-0.4798143789996381	0.07932967710027786	0.1125998035296107	-0.126371837977748	14.95728409260301
0.07125588447305514	-0.05757692489263277	-0.04274310810666759	-0.06020515121952973	-0.9692987302260967	0.7229567724147046	0.3449265457195807	-26.99795891375179	-9.585063114012851	2.069866345108228	21.87866247550114	-32.75254629112622	-2.268900238323647	17.30428417646134	-3.200576287756089	8.051746788952656	-2.547213502345097	-14.33343064241792	-0.07906612458208379	6.18270084184442	-17.44902641825938	-0.054227712555419	32.84789113961251	0.4343266797993404	0.4612743204247858	-10.88112393314769	2.118898338467393	3.096026058076109	-4.965027517905394	-90.8807849896816	12.42518945702688	-3.272254063848536	-0.263573442976091	0.1240224158650056	0.7989970281269818	14.9801562646789	0.6352736225761767	-1.445766834875736	0.2726425211718061	0.7109152108971023	0.1513060483728791	14.02783921663341
0.08563125941383082	-0.03958793582498288	-0.0257577144343686	-0.04924260778588124	-0.946175007483566	0.5249983753524816	0.2491227204233608	-41.43996431040514	-14.40675430939755	2.098908816202933	23.84352454733652	-28.43545228480859	-1.50372400803625	25.30493867923335	-12.77432756344175	9.999348973208942	-6.947166779657718	-19.39535131351219	-0.06555593876986461	1.579916337124877	-14.19415084615972	-0.05420587670277181	9.671545722971834	-3.225342526901555	-0.2679248683732678	-5.576014944128247	-1.76296704556583	0.2763282127777535	-10.38078175232644	-80.56071759156997	4.525185509733944	-0.6932782983963107	-0.1396380031225007	0.005404020773940962	2.484042019391659	13.68000633579439	0.1049817336623283	-0.5653471050981809	0.01959347459796109	0.2772663472378289	0.5787462809086227	12.55707245788577
0.08960000000000001	-0.01272155328049962	-0.007870695731820216	-0.0190527403177885	-0.8224438477824982	0.1896824625304134	0.09329407041912008	-44.03514913483554	-15.58615573915259	2.359217442315712	23.35559035301724	-28.70252276387543	-1.904270092981633	28.3012216601536	-14.78754346763664	8.558992209524231	-8.613375124753434	-19.79853881159895	-0.05740621492716461	-0.5259044286499197	-13.20338778987409	-0.04907379450721638	-3.867326480696294	-4.76151652118307	-0.5228239850773327	0.2080575734471829	-3.364218885395548	-1.29579467327284	-9.912651321931513	-79.03229048488039	0.04177169397517506	1.767150256610619	-0.0478117379533303	-0.08024432294266479	2.714837687851535	13.71424644482316	-0.1479011091638964	-0.07434328824405974	-0.09667721923552897	-0.1180318115329214	0.5285438290402774	12.2655741216857
0.0991128561131141	-0.0505562617673263	-0.03445446933129223	-0.06526856506063444	-0.9633678346497305	0.5986311105227742	0.4085973304564083	-51.87235383533098	-20.01976683103388	3.125311459908381	25.62526054248586	-23.79675135814434	-0.7885282374446172	36.38443485711162	-13.07103843400427	17.49051030512009	-14.93401963173497	-22.29173001908979	-0.04298913552671228	-2.161454660097809	-11.69374721558161	-0.0535245720080063	16.44496387566375	-4.316993367184207	-0.2652744133962099	-4.16255197329026	-2.833404831060499	-0.6027897946293621	-9.98650079587509	-71.13412412441284	6.839267263301179	-0.04375906454612072	-0.1921425304526306	-0.03006443676810345	2.869999496624119	12.38812765445876	0.1536739346822831	-0.8399218208594008	-0.06916646513150715	0.1668622801637748	0.5531924549789049	11.13977884281329
0.1160558844730551	-0.05480460869394932	-0.03682721483402558	-0.07320668791173701	-0.9687226734675178	0.5770329711123168	0.501978171942536	-54.33511811145659	-28.4560020261752	5.951673063777617	27.45473989628811	-18.67954732029251	-0.4624133798196031	36.45614283678115	-10.20063216634984	20.55469391189112	-25.181619852618	-27.75308682511986	-0.02299296598633469	-7.654301084719803	-8.088475633333932	-0.04981662676147162	7.287237415581527	-5.882775804694252	-0.4807182659866578	-2.310227789350892	-4.922715983382509	-1.922415047495992	-11.41281630731569	-58.69253740419794	3.716552115881501	0.1351013695262736	-0.1353696484989337	-0.05843588256728081	4.217263326002666	11.10023288563187	-0.04012659356911985	-0.5001674846600017	-0.21095924806308	0.1189037905501649	0.6454522872407393	9.359971154868004
0.1304312594138309	-0.03767087516617806	-0.02100991543452005	-0.06178980172240629	-0.9453685186637308	0.3329931299211353	0.3445995778587481	-51.78277650457095	-33.77709209585226	8.097357020024031	29.82555129685711	-13.96389444198412	-0.07480067480730668	27.65234363393274	-8.819789651497175	19.05336642424048	-27.37762551320112	-31.91118928125773	-0.03393076778590452	-10.26091331168214	-4.931095015017848	-0.05323301651058817	4.746375645045207	-4.204245067265962	-0.1864518841110477	-3.177246680753016	-4.939247519785997	-1.779589333365732	-16.60417537745659	-44.51694133483954	2.96104481127075	-0.2073891686813044	-0.07433603930192817	-0.04273250754616424	6.81782362421046	9.303975902616317	0.01923669924202424	-0.4224311830400086	-0.1939166096815457	0.1652074646972413	1.094700775874668	7.440559106935789
0.1344	-0.01180273975731438	-0.005673083571209726	-0.027574243162357	-0.8198889445149486	0.09363526618147944	0.09761703550421252	-51.16031445422102	-35.21392957747358	8.710922400168926	23.84344786796198	-12.02913120069381	-2.178951095425964	38.14802503482542	-7.382643112653211	11.30726355462342	-26.27057787830186	-33.40335477265234	-0.03816888436034049	-18.03841312747232	-2.578050059963869	-0.02989821408621509	10.12662830478559	-3.698960435189893	-0.06920589265924648	6.139925283486025	-3.340243392420696	-1.671203728942151	-18.33737739895372	-38.09157781075218	5.050378328115065	3.418990092954084	-0.1094366364173168	-0.1149018413045235	7.460899280261219	8.53234800698433	0.1314791663637574	-0.6818828596324141	-0.0959586055239578	-0.3715180686608027	1.281897351304921	6.514554889149672
0.1439128561131141	-0.04870132306492891	-0.02829909405572049	-0.07399331638361761	-0.9627274950426923	0.3616438787632319	0.4877738136339627	-50.5201925174775	-36.97819350224257	8.614659027120869	31.12442861924349	-8.675841033908881	0.1670168795589979	20.68225557145126	-8.23046388604542	17.07501502328617	-27.9983066622707	-36.20991801374936	-0.04628395280000236	-10.85091647802202	-2.19245880752992	-0.05585384135619727	-1.651712985348648	-4.15420316352372	-0.1705275269519283	-4.830616515809179	-5.116109888744151	-1.743349230018528	-21.31386151580199	-32.94844006620165	0.8616112497407447	-1.640016641485243	-0.01723896172492861	-0.01189313514871629	8.227082335995259	7.644413791731481	-0.061642304888573	-0.1968458223291014	-0.2305447624629491	0.3764497991480055	1.636449033072926	5.607722958698384
0.1608558844730551	-0.05315778644306945	-0.03098549672823926	-0.0793137183131731	-0.9680300788356249	0.2793014878596978	0.5812625372427433	-49.87357787752656	-43.61361880346224	9.590477383823028	31.25052905995435	-6.854022909816506	-0.7669100957835253	17.69744047612495	-14.25135579147397	13.55345404021854	-29.87331136763402	-41.48272233889372	-0.04604268243709972	-12.91800212685606	1.318512572492748	-0.04440857349872225	-0.6804080907510537	-6.687683964493218	-0.3534678412235434	-6.335737803586394	-3.595608000052867	-0.6891965076282374	-24.83570759061554	-13.40077282119394	1.927359822546351	-3.263874667712796	-0.05869975776064623	0.04553164773072144	9.689247956866923	4.682963622462545	-0.1278590483430742	-0.4167933161236807	-0.1564597213015866	0.6266676418463724	1.962377369813944	2.602025209415978
0.1752312594138309	-0.03700115299891316	-0.01760154092033673	-0.06873729237710582	-0.9441920161779223	0.1274686767163757	0.4320331425865049	-48.22714496562568	-50.78512405199346	11.1361841287633	34.11288737625474	-8.003083971937519	-1.821087006728565	14.56869625624858	-16.52475504812023	10.53007941551934	-30.04118340617996	-45.39627335845694	-0.04467594752872505	-16.55478173861556	2.62333761833015	-0.02832353529006493	0.266210696173561	-5.406467578215773	-0.3092463247890413	-5.339498014368015	-2.556344099078383	-0.2079856160192195	-27.41813894876868	1.180087226610854	1.849293259871827	-1.773172453347958	-0.05651430739337171	0.02896286052504818	11.44664010872308	1.058975246410295	-0.08718239507089096	-0.3599500411377469	-0.05070153953790961	0.410171117359955	2.143747058227901	-0.1000716810549918
0.1792	-0.01189428129327297	-0.005941570666517616	-0.03384998328896081	-0.81697493465958	0.03703537254546063	0.1938050042052808	-48.19994207113497	-53.18334019901822	11.7836710816163	32.3533239965269	-8.909155774019597	-2.351976954609627	19.591779699036	-13.77285906424174	8.789160342215341	-29.05112822736066	-46.8330968283059	-0.04640456297275583	-19.79144621140444	3.137774900966217	-0.01860478265764708	1.161865715085601	-3.297711728689945	-0.1572262942679456	-1.460859729181007	-2.49580057939855	-0.5196902316991883	-27.97883138574347	0.2597196237290517	1.633778020414745	1.16974322859218	-0.03972709329091961	-0.03627632401135704	11.70787132325577	1.522573434598801	-0.0100551561801074	-0.2641664282577859	-0.0006566020750396408	-0.02174843283735415	2.210137868316923	-0.03017247733852675
0.1887128561131141	-0.04897353567499607	-0.02447111264753848	-0.07884631990419393	-0.9619463951229044	0.1477141141747325	0.5793928835888558	-45.83170017321299	-55.17263017583156	11.60540839886096	35.16116332241315	-7.960819930162341	-1.591536955156745	13.85809718340892	-13.63462177503275	9.855521239950074	-29.47751304293817	-48.42762016790832	-0.04651210995560864	-18.63349427294628	2.387854065514195	-0.02467869171023078	3.164600050402111	-6.69728149877561	-0.3480121493122512	-2.69729223369601	-1.844749712924299	0.04470448419755857	-29.06509404146642	0.253223615401347	3.315241193231002	-1.388104331776101	-0.08378284984346934	0.02720403871359486	12.12727262379851	0.9707906203984393	-0.0617261230477783	-0.5754196399636118	-0.01852708238463358	0.3727538727420315	2.323969481242862	0.05606704562972947
0.2056558844730552	-0.05447629950896271	-0.02749430400894648	-0.08302140183261736	-0.9673765339863962	0.1278132883721241	0.6531814773207518	-42.47614256510333	-60.37799409554262	12.39431328890804	37.51312553139037	-7.625926277846315	-0.9446936750082084	7.463533558241377	-12.79221591712306	10.70897759493232	-28.21733861436481	-51.45319075321524	-0.04391897188230968	-16.02092315149245	1.195900439926286	-0.03277994063015673	1.604533376352502	-6.500438568442912	-0.4522443375351004	-4.551439725884947	-1.648905465015252	0.2527447914314895	-31.49128933698828	1.704203730507347	2.606563285219798	-1.835806640505262	-0.0745701683977672	0.04510260679525036	13.28261729814907	-0.1585812298330791	-0.07498384578553778	-0.4641399314042863	0.003102343994194177	0.4458566654825757	2.548943490000319	-0.08987290990375248
0.2200312594138309	-0.03828045364980426	-0.01633841336969705	-0.07368426578602992	-0.9428844522605395	0.04075797300271233	0.5111972098403417	-39.52427684532432	-64.14126761326432	12.97071664747448	37.0164067027842	-7.968116597342327	-0.9237947194993925	4.948557047555219	-9.420633965865362	10.63017100006824	-26.10707031786826	-53.22400500852191	-0.0436968850307486	-14.26271895968114	0.9589664248121174	-0.03349369812282315	-1.24181632714806	-2.848774264575058	-0.1868411123530583	-7.076946283794453	-2.071921049234222	0.1583540599790587	-34.20751188886072	2.127644336890511	0.8909645626600444	-0.8724624730354963	-0.01490250147377317	0.03001535473855924	14.32667810526417	-0.3710280986336943	0.0119416131329723	-0.1519797322468689	0.04527470119508051	0.3029319289088488	2.871415551638529	-0.1565020851649259
0.224	-0.01251556445808077	-0.005168183588163153	-0.03947108279179534	-0.8131325342695384	0.006673248927540953	0.2126327793420408	-40.75328095636949	-66.77846407490296	13.43783409729002	33.17881158547097	-9.313360721021855	-1.162003540668767	12.78501206837593	-4.71268738851247	10.83840413748555	-24.76254981147122	-54.08841349381085	-0.04380434748598291	-15.26952744278323	0.8126233014261176	-0.02617450272585941	2.902803591482097	0.2984423047753155	0.2706674439061904	-4.919968581375836	-2.286266574352692	-0.03262021420857475	-34.78380011473824	1.766565217193095	2.123039590827252	1.277159120767749	-0.003657630894678965	-0.01320271254818627	14.46562855613202	-0.2573662563737283	0.1976502189419621	-0.2442601065470507	0.09755828755466146	-0.007485127229143009	2.950592956349537	-0.1063393202034314
0.2335128561131141	-0.05018768000242346	-0.02449119124940817	-0.08221680678620169	-0.9609094896849975	0.00475409387684067	0.6493994913658891	-36.59785007365545	-66.28441991891994	12.81570791445238	35.6584984702382	-7.768964153640789	-0.9398089273416881	4.210899206177539	-8.958482402011965	8.974567671994995	-24.37744291631456	-54.37057755729455	-0.04085386518093889	-13.09765779780593	0.7604162682737358	-0.03192705273567434	-1.369540359117149	-3.745418660891471	-0.3384208914824202	-5.366941340988315	-1.367159642130112	0.3799405636260083	-36.13795858055155	2.548579655393509	0.9076275711453573	-0.4569435442241612	-0.02483145385061444	0.02730042378608785	14.74002200259747	-0.7245089720165521	-0.02253127937045745	-0.153878646586099	0.07922914448562071	0.2518096371385906	3.150335190385198	-0.2051776323952607
0.2504558844730551	-0.05482452333666998	-0.03033427389934622	-0.08551881058895953	-0.9662327669419568	-0.09899400978991935	0.7156155082767262	-33.02741747915753	-66.71442131114279	12.18511841269646	32.48200945881087	-9.114647422240562	-0.776556709617394	5.245157984224882	-10.96832918500145	6.135603732096454	-22.5139337453324	-54.16553797064809	-0.03757422874273484	-11.75035371043253	0.7024166138148673	-0.03014893023286449	-3.805572722560915	-4.643539797175747	-0.6929943363643014	-3.317877848767286	-1.28013950015585	0.1504068116490385	-38.95968256453246	1.477032459514857	-0.1197926141955788	0.6227901042033952	-0.03629171691040979	0.0005423008584198065	15.51371798266235	-0.1906997157890528	-0.1207553218709336	-0.01128078983430875	0.08514199760844345	0.09086157097270749	3.550874264091811	-0.1517337738902617
0.2648312594138309	-0.03727720502792664	-0.02005722058615319	-0.07700605821733485	-0.940319835701267	-0.1204910401359029	0.5907083959296422	-30.99261764854036	-66.50287820672536	11.24078290566451	29.39858471492242	-10.47779708513799	-0.1089444464867282	7.590601385820337	-10.33260107591065	5.873706271383295	-20.5189192364503	-53.00330786898848	-0.03848099780242577	-10.39462603061865	-0.02990124203610123	-0.02715272864001082	-2.69875133046159	-2.306366241167977	-0.3345241043723448	-4.954705905780234	-1.433057111119339	0.214733569301966	-41.7664760159488	1.075287243333565	0.2502541290808379	1.187552075099849	-0.01788232074149845	-0.004215832484900622	16.4007454569284	0.04923495809578707	-0.007341062257950217	-0.01854446224831221	0.1308608253239974	0.0008684360615078635	3.995245830594321	-0.09424876325247107
0.2688	-0.0119165539603614	-0.006208002423904021	-0.04388023126994363	-0.8049484808307383	-0.04146314564201248	0.2532248287215459	-31.88613212028741	-68.09237006398098	11.17689560549823	26.80981304330909	-11.46629754309492	0.1174885422126875	12.71937303769705	-7.063616943705306	6.94464100103305	-19.66302215062617	-53.09404987643935	-0.03888412697611833	-10.26504692912891	-0.4715352890320795	-0.02339469556544187	1.62500664609839	0.1001749923939757	0.2239602934259304	-4.851741217603948	-1.146125873422993	0.4696711418680404	-42.32747385944368	0.9659524194132849	1.924731622398512	2.053074549279528	-0.01214145772619657	-0.009700317140487455	16.56648478863099	0.04853690710702032	0.1715928717639101	-0.2013510434018304	0.2012146215391538	-0.1182722224005717	4.106934794240816	-0.0551547953595892
0.2783128561131141	-0.04770361510934862	-0.03126195615311028	-0.0843798507654081	-0.9587668926368238	-0.2628614239001763	0.7154169959315908	-29.33616129685055	-66.2059769055634	10.06774057887963	25.9574461501604	-11.53333037090311	0.5654297784785776	11.76136900666652	-11.93409576091237	4.365106416046041	-18.9850861065063	-52.14461661363966	-0.03685842084480514	-9.542828451864953	-1.044919850254	-0.02187871434373871	-0.336276730975788	-3.248186449642062	-0.542415315938278	-1.146619654721935	-1.336305888865619	-0.03502401176616352	-43.75523971046651	1.660102435129061	1.272603821682864	2.260022454910935	-0.05347005797929169	-0.03288977655068773	16.88251442099974	-0.3691794478473933	-0.02479077714014359	-0.1554849084144496	0.1254501653024244	-0.1494625119925772	4.386386590291906	-0.1464186022805624
0.2952558844730552	-0.05029130481076294	-0.03949452293472899	-0.08709015983899328	-0.9639399894489724	-0.4127674196435578	0.770305726008548	-27.69342415980701	-64.4100994426872	8.311705397667575	21.7337276258334	-13.31743060895513	1.760694840178003	16.7702015991898	-14.91975598508529	3.315473987348662	-17.27118962027625	-50.15989090212264	-0.03623404817626778	-7.92481333144732	-2.360213463331509	-0.01859871387100358	0.2400922263581241	-3.51818929588802	-0.7419113986457542	0.9447725712649633	-2.431269283686964	-0.7463536239132267	-46.41885259983314	1.077238002586014	1.694595543072857	3.051605823393138	-0.07826883425643377	-0.07002344953124826	17.67318879029782	-0.2052840163033578	-0.04647430942751723	-0.2132409049052134	0.0597228191233358	-0.2846672861375381	4.901979412882104	-0.07367773514690147
0.3096312594138309	-0.03126676940774331	-0.02746507212453354	-0.07906973155663721	-0.935639758483453	-0.320626891427878	0.6566063504641448	-26.55857897365803	-62.47121365596381	6.619362437861666	19.12363369995577	-13.92864585752621	2.848221584124702	19.60594886388466	-16.31843328829723	3.678044203636021	-15.58444644275125	-48.24954330379169	-0.03821046103516723	-6.168960988127742	-3.444753662819442	-0.01754401461961897	2.94305878496834	-2.27842728516129	-0.4135647034625425	-0.5025340255171866	-1.805555183156274	-0.2864832217129117	-48.53561289904898	0.7970866607951901	2.965686345890756	3.060905556995968	-0.07994157896434462	-0.05399043682193624	18.31626852975429	-0.1027601617707412	0.06006795995578237	-0.3590672572423309	0.1329061930136674	-0.2927026017144307	5.350950990977619	-0.02198409473858702
0.3136000000000001	-0.009406818619021706	-0.008714579634576759	-0.04692065320272928	-0.790663739195038	-0.1071536784249361	0.3064186437335081	-26.43928509951886	-62.65701363622371	6.233250010823851	17.07521297119428	-14.07808026538483	3.047568034251101	22.47661597028144	-15.10070801028887	3.752560320320529	-14.99347588209495	-47.98704223145712	-0.03906880984402993	-5.813278740499467	-3.706942826268451	-0.01532504190624833	5.635042639266724	-1.336536551481858	-0.06921087517943225	0.2745471913787406	-0.3845390623012478	0.3414895555591437	-48.86790879569894	0.7626388909733233	4.021370484826364	3.756941093749497	-0.07705213356511498	-0.04456763011832535	18.37824459075227	-0.1178531658742688	0.1547556138053879	-0.4756742185666072	0.2438523215166186	-0.3752954580520955	5.447179669096585	-0.01025072475523316
0.3231128561131141	-0.03895556051393889	-0.04093896307900814	-0.08567845539856192	-0.9550518432758022	-0.4790522299977056	0.7640603037370397	-25.11017739138593	-61.4054977431061	5.091028799866352	16.85651342503961	-13.17019022574938	3.304767019281241	22.72122365613838	-16.38533739259763	3.971110938278098	-14.64341592579515	-47.18035868538345	-0.03799827646278911	-5.247808000872062	-4.145061063485257	-0.01370985978438247	5.281773062219258	-2.048632658645564	-0.388041001410925	0.9503401561555477	-3.099236429197295	-0.8783627649098216	-49.77663588266774	1.822365608584679	4.234053223559476	3.183249919084108	-0.105926254871344	-0.07625821811080007	18.55501021925906	-0.6444487561190726	0.106811049482492	-0.5269995695397398	0.05124240300555523	-0.3284233358873261	5.650588198720078	-0.1081092941796915
0.3400558844730551	-0.03827064779783562	-0.04936026701581026	-0.08798613172281086	-0.9601874409750106	-0.5580814337632205	0.8072964808293435	-22.90135570336215	-59.88680609757519	3.257985183357695	15.04174950301477	-11.57721562233111	3.66244833033775	23.16408354262327	-14.74806190488259	5.262171295528198	-13.00549843580768	-45.60485932336709	-0.04008184915649076	-3.595368787546863	-4.563621430117339	-0.01420600290918666	3.930362705453453	-0.4683860511383592	-0.06154251462790827	-1.76237689828425	-4.921691488569801	-1.3131222198391	-51.82651209206736	1.395980569167794	4.134000658929893	2.288818155955408	-0.09043584768493879	-0.07690597247225985	19.13425494063371	-0.6583293316268007	0.1712158043139586	-0.5013493587427913	-0.0341792019186845	-0.2521282146007343	6.044148320968533	-0.04581794614995025
0.3544312594138309	-0.02008173348898978	-0.03539134180410862	-0.08016207082469767	-0.9285104273631788	-0.3935999961672678	0.7010679130504656	-20.19570036609717	-58.17636515301829	1.747998498119295	14.20346168426667	-10.30664027941167	3.980273157887239	21.6379975267798	-16.75671915204482	4.857608815852084	-11.31718771266661	-44.73455047172592	-0.04189209160071416	-1.874099709801626	-4.415910003694086	-0.01708779016381767	4.845066684696409	-0.6411002998540716	0.01479793128546225	-3.435176697369024	-3.16446265094234	-0.5050090153571816	-53.41225214181223	1.098186168967376	4.561677116112597	1.758388209649276	-0.08810790248391476	-0.03606450709308406	19.41416744382371	-0.3625741799474981	0.1933729205378415	-0.5361577668274469	0.07615282436204496	-0.1772264809454953	6.397776481565016	-0.01624006790477034
0.3584000000000001	-0.005612306664598776	-0.01150470104910565	-0.04853729886780333	-0.7699213534162617	-0.1363613107783976	0.3451267067964139	-19.95428548482388	-57.75084143365564	1.329815560094496	11.47545334675618	-10.19752790171277	3.939083631601384	25.90982917143594	-16.8921615269223	3.855015567548772	-10.6420037454152	-44.60540568965303	-0.04231933197714127	-1.541074539980847	-4.433341787988017	-0.01484595040213675	8.565722029636865	-1.102297010220985	0.03189101891995483	0.7228677223793362	-0.9432133263119975	0.03235858196879659	-53.58462416589472	1.028123673001283	5.869805559258103	3.221924866131504	-0.1089213153242381	-0.04152854138258855	19.31872275896612	-0.4059926520721747	0.2264815457342177	-0.6917033934919748	0.1971862673337308	-0.3404291023022015	6.466480053218384	-0.001740157213701091
0.3679128561131141	-0.02367227797748939	-0.04943268722253472	-0.08629236930053676	-0.9497483327742771	-0.4913246807620339	0.7940072784572436	-16.79055987282626	-57.09245223853146	0.459684718544434	13.36110107156426	-8.499128608218935	3.658757859573244	19.34877308176287	-14.5736923352338	5.391123074577409	-10.15795835049163	-43.90925311815458	-0.04270917860783149	-1.159690451996975	-4.203477690207613	-0.01523169902855333	3.094923161197856	0.6684615020013682	0.3762426434793569	-5.901853220230055	-4.939496642641521	-0.8593336269853059	-54.2755902766887	2.030488895228169	4.294942321460627	0.6879088782739919	-0.06937034616203697	-0.03165054679840219	19.35034023760053	-0.7635737712186645	0.2489164489086597	-0.4915026598978345	-0.01247684938057884	-0.07893616879728184	6.586404908854655	-0.1017043808574411
0.3848558844730551	-0.02035250083131501	-0.05714889653784128	-0.08834781924249127	-0.9553244711086535	-0.4782722608413792	0.8305126949709916	-11.29053404436081	-56.58223583441383	-0.8193386520884478	11.00305052727177	-7.191939729788176	3.600364721195539	15.16433578156765	-11.54469568382432	5.182467822884002	-8.091137064148372	-42.87822338269807	-0.04403132195826685	0.5880485593249529	-3.969661168772086	-0.01555482199564416	-2.423579811726339	2.516293310914501	0.9705659147460721	-8.486427963342903	-5.519148691881847	-0.799845664155039	-55.09714911039691	1.250001588992113	2.212411758311862	-0.1491848146772023	-0.00433228448077741	-0.01649999971784855	19.25183886194635	-0.609950372041239	0.2781343315845264	-0.186990488274341	-0.02453439070247654	-0.01886105859280587	6.676213635309002	-0.02493443385578632
0.3992312594138309	-0.008796847559352727	-0.04238720786947311	-0.080556017539094	-0.9201072971594328	-0.2673875526767802	0.732263917666117	-5.818087240514898	-55.40528974849344	-1.686647971343019	4.284074277116789	-5.501540327259722	3.273692912856471	18.02178125903238	-11.6909326183225	2.423748276730131	-6.230151111687271	-42.54677721430568	-0.04341054859866298	4.871712645893142	-2.749662288776515	-0.01784103536440029	1.294159588941136	1.145847214919267	0.6871270422385826	-3.220247157286119	-2.482233374601469	-0.210395421100199	-55.49173797079298	1.067760046110907	3.377572260488139	1.375831191866272	-0.03718875833228041	-0.01735194344455457	18.75026463601899	-0.4296708204648555	0.2515128620262433	-0.3327481747374271	0.1145473423217324	-0.1859980800840747	6.690905275569634	-0.006794884707775915
0.4032	-0.002243497773289249	-0.01497055805574985	-0.04893277225073883	-0.7462747883097656	-0.08830276972048523	0.3928356099993451	-5.031731655532933	-55.52961058298521	-1.936012143338948	-1.085246303777675	-3.712103992932388	2.491087549047982	24.34336991432583	-10.02997289127836	1.376801061481887	-5.48431211145581	-42.72060879266815	-0.04249427265544912	7.61314911814097	-1.566287232962033	-0.01735215188301543	6.5262405423025	0.006694154414718656	0.4527939031830268	0.9346224520764908	-1.320969938711622	-0.06820826851677095	-55.53732202979365	1.397135984329542	5.353838154420406	2.349478606456243	-0.08370784432763528	-0.02789911140938069	18.6088005251841	-0.5541617190572533	0.2671290599614216	-0.5978740688928823	0.1496792626911218	-0.2672451183441433	6.689842523015114	-0.0316274843456687
0.4127128561131141	-0.006708468123321154	-0.05716678313504255	-0.08650663402238265	-0.9433079170323051	-0.3164459734142042	0.8249380753731828	-0.4888184871319847	-54.69007830466531	-2.349453320158283	-3.730469770909854	-3.186130105665435	2.380832392243807	21.28370149299095	-7.109102383748344	1.256540512937502	-4.749517967767988	-41.95062699079093	-0.04296767938898705	9.47671268602716	-1.266516666846864	-0.01836013188709923	1.410503515644432	2.159681918172726	1.036997554654375	0.3704631782396901	-3.434066204308697	-0.4523467302052024	-55.57773026744361	1.821273607925482	3.497564837471231	2.687135590803187	-0.03501037239596577	-0.05989347635698239	18.13181863439107	-0.6871958328381249	0.2914809855505466	-0.3370294264193497	0.08148341033505574	-0.414615836885393	6.646938147742512	-0.09790150425718962
0.4296558844730551	-0.006027571692882816	-0.0624612849562053	-0.08832788480471593	-0.9503381172431808	-0.4027292141966541	0.8444490841043688	5.897641178808371	-56.44071824212279	-3.099735538902967	-13.85032596568783	-0.1122826700310839	1.127069179593242	25.53004649738016	-0.1912235018977158	0.04014251403882629	-3.284629211906872	-42.46471734935139	-0.04027735104501302	15.38491182445324	1.201449224972638	-0.01881742482740016	1.051979025505239	2.304433051960251	1.058394708251292	4.411891756773147	-3.449943816172532	-0.4495389093381117	-55.8370247091349	1.784319721638693	3.076338480825692	4.149754052599041	-0.03455058846060954	-0.09441831458825813	17.39487299258555	-0.7508711547375689	0.261109695838066	-0.2749743729204029	0.08364789918414584	-0.6541499627130344	6.540400060409248	-0.09235065680922307
0.4440312594138309	0.001151092600103709	-0.04965000012141356	-0.08044116900939058	-0.9104955331122184	-0.2969291938939023	0.7754218004092976	10.40091240481147	-55.90356206770382	-3.625613656699267	-22.54824264915863	1.499657443103943	0.3804668240254889	29.64508033042554	0.4049942185426731	-2.909854524166006	-1.90213671541218	-42.91372912263871	-0.03718790272616321	19.94466169556117	3.26955625864391	-0.01925990247944752	2.974274365775404	-0.4176418704051135	0.002579992515529206	5.286768058020868	-1.922987040762234	-0.2067004988954639	-56.21308552657303	1.173570122379908	3.919996580165824	3.77770973299624	-0.08222102852658314	-0.07542227398976772	16.57458231237544	-0.5187342670610096	0.1441313853087603	-0.4183068855283723	0.1016457049461388	-0.5584245989112111	6.520504973853083	-0.04502308025050426
0.448	0.0003452061802491357	-0.0168377334415776	-0.04838879304360599	-0.7198886913956954	-0.0918337999993355	0.403668625746505	10.40701005679867	-57.83319112076273	-4.029169490085119	-23.44799553342887	0.9953886719079792	0.6029118009390935	30.70687577704225	1.882530072033409	-2.27099846617488	-1.379178278131759	-43.43069880409908	-0.03636443985066567	20.6443218256441	3.190993862495318	-0.01995239117501057	5.999704184026463	-0.5694765388639416	0.1777543553397498	5.394135110957995	-2.635907073193157	-0.3077739150734297	-56.36475483591939	1.353464042879078	5.205340757127449	3.058407714479215	-0.09755627646485099	-0.07404159788480215	16.35755098147721	-0.5796222076779026	0.207199080039236	-0.5877706158459649	0.02481294266909347	-0.4206038500700187	6.534160000105068	-0.05997633027003716
0.457512856113114	0.005112082772249948	-0.06023573966254931	-0.08607748702438754	-0.9364638369985876	-0.4412351752501991	0.8280655736128786	13.71370951880717	-55.73530103529409	-4.126064615536577	-28.75679524780512	2.872779968082671	-0.5508091859227537	31.99183766090352	2.839062608534198	-4.264867072220723	-0.263342621661991	-42.95864728626364	-0.03595208317808116	22.93177283431089	4.774085540108396	-0.0191447617963963	1.642033717229035	-1.004260520531409	-0.4096217880841233	3.518867660704432	-1.965039319606292	-0.1341102922771617	-56.83684901513067	1.820321577017266	3.469336981145203	3.351656918697361	-0.08888056458470224	-0.06035355237814618	15.97554990095153	-0.6580789510693719	0.07463405150905197	-0.3659110427984379	0.1023267053752043	-0.5427045398649913	6.520053634533439	-0.1368526480696634
0.4744558844730551	0.0112298051139561	-0.06530667615190962	-0.08782571477936692	-0.9429972551670183	-0.4989427001154922	0.8522191790985616	17.4797284882224	-56.04473990408927	-4.602257406210228	-34.05122231795313	3.318545329891334	-1.165649978866682	33.29345324152042	4.560823204175952	-6.395732334882699	2.309136835517825	-43.11637586712133	-0.03796946531543407	25.45067384576997	5.041810593175263	-0.02119091405623975	-1.745736703156848	-0.9976277647504138	-0.4398031630916939	7.482898885670213	-1.412528307947122	-0.09235693490282781	-58.92217798980545	0.7971817259181638	1.605706363115601	4.807107017213315	-0.05120075419416999	-0.09202147238525582	15.90644942441892	-0.6574640530499586	0.01551707653090573	-0.09498564094876186	0.1280861604631213	-0.7425793413373801	6.728629001877318	-0.04398961941873564
0.4888312594138309	0.008919972311431934	-0.04949700550281907	-0.07929358168954914	-0.8973879751414486	-0.3166246598774478	0.7569261667925744	18.9919215220194	-55.53612833016773	-4.973138555271843	-35.27900915856537	1.258676095355072	-0.5378317063054752	34.18731366491969	1.538911190832192	-7.970239221847883	4.762200574419566	-43.21888142222927	-0.04122939673353203	25.69515841384879	4.134679980374201	-0.02267637671553044	2.108126152669193	-2.125041374778721	-0.8243694538864053	10.14607664687898	-1.332771145122027	-0.1336548336254127	-61.78495646323057	-0.3669236484567847	3.21669005299816	5.129526268853749	-0.09091930998122336	-0.1112655123738345	16.20789643121218	-0.2750645020043805	0.0135159384034521	-0.3216957706783946	0.09460715909796923	-0.7377962212512563	7.177448373961474	0.0494824987743113
0.4928	0.002874592430913481	-0.01799246096061055	-0.04683416859773137	-0.6839061040308891	-0.09365467652395409	0.4126981609885974	17.89166091778556	-57.69750728990442	-5.57540072707296	-34.78274787233576	-0.8580131244813236	0.3202381895161945	34.58775531264003	2.885742421244305	-6.387540477931368	5.232633404793983	-43.07698184453436	-0.04144725049615593	25.35791990816052	2.990115573399851	-0.02116309297314923	5.402246022778528	-1.990620760658088	-0.578872734389557	6.315220231648431	-3.264500835979633	-0.3088704044137215	-62.55819395362227	0.01487553986275614	4.914660623040207	3.11696949374757	-0.1160583598844884	-0.0913161570951906	16.26574819746544	-0.2782624277815072	0.09442425120194285	-0.5561496440625969	-0.03703611936978916	-0.455140142020929	7.335280040780926	0.005659767524087609
0.502312856113114	0.01668260475484118	-0.061416656673843	-0.08525658007125597	-0.9264753673036843	-0.3943870804649237	0.8288476303862957	20.33785223334187	-55.54050150195347	-5.22782057876419	-34.86137005130747	0.2828868004395	-0.5947210940539245	34.43395005451901	-0.6002546390609576	-9.195444260557879	6.505933524920609	-43.08400281337848	-0.0427114101604484	24.66042820832731	3.359441778514417	-0.02428751459168276	3.796670863913139	-2.43815788386714	-1.052918064887775	11.9971679822214	-1.089627805623913	-0.08909515007952501	-64.85486874183816	0.5548680853393654	3.507399643753339	5.955566589537925	-0.1055061357817823	-0.1225825925668181	16.7078326869315	-0.5917306716916473	-0.01663498953252067	-0.3555930964207469	0.1204655323878427	-0.858218704711276	7.695017795168607	-0.04710243847113611
0.519255884473055	0.0248852378190314	-0.06584241085574903	-0.08699674756192688	-0.9329934993549927	-0.3784930738718799	0.8511164351014813	21.10357140961336	-56.14357923485071	-5.567075336888728	-30.91515286459517	-2.357153600833995	0.1004085405192594	29.53668688439418	-3.030951889327174	-9.486037895215915	7.850248445824986	-42.40013793355111	-0.04392854333945697	21.81182950190437	1.552272986990563	-0.02520712825816212	0.7325344979890649	-2.307487564132076	-1.00848485952409	7.359015351487915	-0.6834595668206771	-0.006455912571380173	-69.47940025161678	0.081046990407404	1.985023194962758	4.046949609109501	-0.07165305125429339	-0.07348636095915805	17.80794433893004	-0.5688964757369017	-0.05200382299709241	-0.1302442745786428	0.1127070749978483	-0.5824584016295059	8.590247892801349	0.01572307922756375
0.5336312594138308	0.01749392947719031	-0.04946398789607614	-0.07781742274754663	-0.8785593036696859	-0.1758804017395619	0.7515789583208914	20.44268891451315	-56.76514136537651	-5.870510078865618	-26.91631065320968	-5.689417207767411	1.366173290990528	26.87991462695254	-5.899638686344344	-9.408504908186167	8.729506681738108	-41.80559444657739	-0.04451145586958023	18.85923305439571	0.077994540251448	-0.02600117408184712	4.370909183458154	-3.19603087976567	-1.47242613892093	4.312567421592123	-1.361462106028671	-0.08484538681897595	-73.8245651369777	-0.2087245673272463	3.782713795744079	2.504283352018576	-0.1177255329486487	-0.05238147708743195	18.75500153546216	-0.2263712570174678	-0.05661112611597227	-0.4007325335508738	0.04826393415534917	-0.3532768234155529	9.548246743283087	0.03677099339420247
0.5376	0.005593145681757505	-0.01821062924569605	-0.04449005981009151	-0.6346664326366422	-0.04170206098922336	0.4149649039641936	18.55549181030839	-58.51536571601235	-6.536735716804571	-24.86867235508062	-6.571228175710572	1.68402395097334	28.45387134951517	-4.379004090032138	-7.365051252884453	8.435522135303053	-41.57216127584338	-0.04199687610229944	16.97286274560198	-0.6290568256144051	-0.02454804132948795	10.14867909193401	-3.216209464427063	-1.349370181531872	3.592113359116026	-3.374907986982363	-0.3054179204996572	-74.90060089378754	0.2224895482625333	6.17265890620852	2.008743423666716	-0.1629209998468495	-0.0661522292902486	18.94555144893605	-0.3920087693397651	0.01943999648114088	-0.7425383647456305	-0.05549805288160137	-0.3013403246853028	9.834308190368684	0.01310701168364789
0.547112856113114	0.02778168844746176	-0.06077953552491475	-0.08397583255831879	-0.9126969209682123	-0.1258000661482583	0.821897612465996	20.44859147785668	-56.78043478222664	-5.877771502821265	-23.71952918162684	-8.41110816870639	2.405895804000702	23.84464547040531	-8.4621394308879	-9.005594617646594	8.96309565416343	-40.48854567330253	-0.04395917126229114	16.69638782603878	-1.077364619814284	-0.02875642043747625	4.635392686682653	-3.037991019808353	-1.402141495125635	0.8032060720473023	-1.2519882891523	-0.01602036536765162	-77.7908111241307	-0.2179645032622543	3.748345549335673	1.103641555071888	-0.1146792477452038	-0.01363002471956287	19.60764686682419	-0.1144458767711106	-0.05078868253482557	-0.3879271967895954	0.04144208704719701	-0.1534852579599592	10.45534709256139	0.06753623469997942
0.5640558844730551	0.03502947566501291	-0.06463859259899499	-0.0856236128518343	-0.9210693933443466	0.04501282401156459	0.8421915467987375	19.99712330984285	-56.89257136420733	-6.098861530038805	-17.44160609885722	-11.60551258344613	3.304793640496016	14.88849550390387	-8.958368566920296	-7.705544654673739	8.987183346339405	-38.28106749038747	-0.04316375595378364	11.7778253932956	-1.325428657181488	-0.03335997167279083	-0.7768057373810112	-2.304481900612931	-0.9039004355868139	-6.868515113436285	-1.022672390796134	0.08218491149255397	-81.91373082025966	1.486653292902011	1.733331067980122	-2.119791694479837	-0.05722026915609074	0.05984337461070065	20.484673493321	-0.2285841550974366	-0.03509518135030854	-0.08785075576498508	0.009601209254692669	0.3142590148882427	11.40856429200547	0.07558211818311109
0.5784312594138308	0.02310140393120719	-0.0475551371716052	-0.07528415519110467	-0.85985496786477	0.1076292631701676	0.7325367718796052	20.01985557258246	-55.47768354794307	-5.956218917581613	-14.54218069792814	-11.31099969123348	1.984155789156573	14.78462770583033	-4.986381379461124	-8.707984758095757	8.756023466714421	-36.460168282998	-0.04318269862284983	4.920215613542908	-2.566989913288289	-0.02952219923651721	3.217718664643985	-2.576011785350056	-1.217985886276189	0.4377171549199051	-2.215071205860071	-0.2178032291442607	-84.1224268798435	3.946805312636413	3.091886295793653	0.6029357574131334	-0.09552504368622888	-0.03018683345019072	20.62605925580387	-0.7257789445319338	-0.04726137117972779	-0.3103383574725641	-0.03476726615633467	-0.06773936259069366	12.0066738909443	-0.08616231632695369
0.5823999999999999	0.007542729505793488	-0.01685938012232934	-0.04074645176387869	-0.5880148580045059	0.03857658512248463	0.3836102765386116	18.20018876528108	-55.43736888543378	-6.44178595547015	-17.71537533038741	-11.05011970564305	1.309384388759669	21.84464663420723	-2.637378569988959	-7.615805549967529	8.490144421288521	-36.08205401117343	-0.03997889063243467	5.746910908001609	-3.470919817334585	-0.03017056015260574	9.969256148113525	-2.943032562155757	-1.394541097221809	2.510675841884259	-3.729484282338412	-0.4174603245661861	-84.62758949947835	4.588715024442937	5.394982973727168	1.615985508673084	-0.1479338135360864	-0.06736241040273121	20.67386864939699	-0.5999405849010401	-0.0147146626268442	-0.6555896222780391	-0.08505168840086749	-0.2481609679626313	12.15046903562835	-0.1058915150042462
0.5919128561131139	0.03456149953626309	-0.05834699818217742	-0.08177107531837761	-0.8991881757572777	0.2175332450409542	0.8001876922684517	20.63223949751916	-51.82975104993818	-5.354808851017246	-13.94250231587442	-7.891280561477325	-0.01562758425001531	9.220438631779269	0.07821497513593001	-6.556826864445649	8.636006153368243	-33.76573125622708	-0.04526904735101633	7.5868732548383	-2.56180845370363	-0.04500153486420097	-4.678029067842699	-0.7218859133270205	-0.1980822757843395	2.889916664327471	-1.115402117575965	-0.2067819270947532	-85.32476981854724	4.395362555563485	0.1077461139419778	1.486039786456999	-0.01349339324029005	-0.05412003044035647	20.72125191277244	-0.711698070451572	-0.008791366188795492	0.1418647952909869	-0.002854829203488812	-0.1653322107133806	12.35592703600661	-0.08918509976443541
0.6088558844730551	0.04150242671070359	-0.06194659019083736	-0.08325179497277332	-0.9088370894545861	0.2952321276367798	0.8165926535298862	21.95550774850948	-46.74782640517965	-4.37071533874982	-19.00964348287502	-8.034163083604319	-0.6044553949520841	11.67387181274015	4.028948534357643	-8.246672625396538	8.519541257040228	-29.96607175117899	-0.05056788450349198	4.035481321186501	-1.93731265494002	-0.05337839367371126	-10.77425429664061	0.4114830757416768	0.5435922923064269	17.34174742778686	1.158974886919601	-0.3430899410677873	-84.28907412592744	5.130027668567316	-2.774583100366142	7.084170083367839	0.05711445135128274	-0.195583330379439	20.48185894165383	0.0178039453269897	-0.00891309615073535	0.5780034023214761	0.08996004185870599	-0.8998275659975807	12.18050232901659	-0.05802392326326482
0.6232312594138308	0.0279750293370995	-0.04472691967475079	-0.07126321706876407	-0.8373283968744012	0.1886931815513435	0.6923236173483875	21.94007723067124	-41.55961484169502	-3.567160048727936	-25.45401658541573	-11.9394572571658	0.1259956851010027	16.08638908896192	6.934066682483802	-7.807628953396568	7.466848883005199	-26.27278182546369	-0.05280883224481789	-1.293987682819722	-5.595898991978786	-0.05439103454802285	-4.071359972440616	-1.251434167942677	-0.3507262831506528	7.616223843290362	-0.9476551291471756	-0.3366828014753216	-80.67845940811071	1.054776050406975	-0.4018503597818302	3.804123842193299	-0.01180951645838599	-0.1168830160759245	19.47972539858229	0.4558064357978838	-0.0537989805050927	0.2101632099321116	0.009497498396598178	-0.5224444118785064	11.76267792322243	-0.1902538875555356
0.6272	0.00879946485034111	-0.01561926038313463	-0.03552843528161669	-0.5445712763772228	0.04937613006188712	0.3399144729181289	20.28603258416904	-40.59414023247165	-3.952391904347309	-25.69108221585017	-13.0181798204688	0.4665755139740759	16.20345539745829	10.50564067613624	-3.726785180604041	6.943083911667816	-25.10364039092724	-0.05086348685510768	-3.574638053139211	-8.346974103852144	-0.05087705745037847	2.275468753832127	-2.088115191896678	-0.7301116175621737	-10.11925782545634	-4.423532670790612	-0.2826129230181319	-79.56727452176457	-2.719842036730697	1.976401055476058	-2.727075218339079	-0.06726868250466439	0.03722442601830336	19.21199561333791	0.6601480632029748	-0.03390407698135197	-0.1512860003524214	-0.1318294094554598	0.2959885341702372	11.61507271602271	0.06005278927148894
0.636712856113114	0.04023129511930179	-0.05568485921682936	-0.07820611539281126	-0.8813578992494868	0.2937997609895433	0.7624198598333107	22.96775869388593	-35.73597248252269	-2.429867895602373	-26.127962209678	-15.03999212225124	0.2427221396535946	12.07466257691769	10.39750477713885	-7.891139246201483	5.086741349250472	-22.56026787370447	-0.05501819718977416	-6.731134390520939	-10.90085697432087	-0.05606380898127444	-9.892480795963282	-0.3556669503457213	0.4028283994342627	5.735690380419684	-1.21674422641637	-0.3364653846011557	-75.51930595591979	-4.55728551577931	-2.449039747423213	3.141393122925542	0.04693711009903145	-0.1033321297281627	18.34871066313542	0.236007004814293	-0.0140260145522102	0.5445715744679406	-0.00414043418152972	-0.4395242742292655	11.06989990088155	0.2626897204725734
0.6536558844730551	0.04687726030604367	-0.05917062133172554	-0.07952526946468406	-0.8913104286131066	0.3912014827746475	0.7677847643741078	23.72126946327294	-29.62815367772622	-1.181435220571435	-37.89117305573927	-20.98761375344842	1.933198702946696	22.91806950288635	6.990064356252278	-14.06827914793896	2.071606933322896	-17.59990580939071	-0.05059145313132954	-6.375697772666086	-11.52999547888548	-0.03746634678964683	-7.26237431209973	-1.962757449015416	-0.6402208371844185	9.796859029247212	-1.381974675373795	-0.421137994225192	-67.3860672487673	-7.051493841997471	-1.601081146384792	4.619839129348339	0.007507419565204398	-0.1418915824691135	16.88141130348068	2.1867238353267	-0.1156370175724458	0.3978814823735491	-0.009504665649364447	-0.6498876676440811	9.77938744886368	0.4013372138764661
0.6680312594138309	0.03175230657473094	-0.04170006562108294	-0.06515556212184155	-0.8073705855285773	0.2964035382100292	0.6051583974111718	24.7942709626791	-23.86159770074072	-0.1673102724093294	-44.41628455938152	-27.6589308453649	4.656595281277572	30.87205407315381	1.024346284804603	-18.80659047353701	-0.1930214372046462	-13.61194385748593	-0.04858603233232017	-12.40258886698481	-14.52429116401404	-0.02271941495322258	2.272897651858981	-4.195027188089503	-2.25840768597278	10.71149756927186	-2.113534646863926	-0.4425159504369728	-59.37874785090654	-6.698235992679313	2.173434360475385	4.894441330685108	-0.1034577798108546	-0.143347979831548	15.33840252154455	2.994649096491048	-0.2126749799034517	-0.2134276721370499	-0.02996835527382376	-0.7021650418672597	8.688008133738117	0.3309252940508102
0.672	0.009951881804280305	-0.01371079462755525	-0.02896992431954014	-0.4915850270916255	0.1010454994765837	0.2377223873387262	23.4325204142829	-25.34529511107782	-0.6061083504846176	-41.98723612266335	-29.01105078341312	5.341229889251325	30.60920796674174	2.561818716500965	-15.19776177919756	-0.5598662888549404	-12.61769768030524	-0.04500893385380841	-13.08718291777225	-16.69115453598002	-0.02525098678215877	7.086150756755735	-3.967219080432365	-2.148095732099767	4.910426148938249	-4.196574535694238	-0.5117789327146629	-60.60253127326526	-9.383338122285942	3.885325769852008	2.60199416751219	-0.1372686006672756	-0.09809352259566054	15.75801161813921	3.026971550732195	-0.1634323208342073	-0.476720730031563	-0.1163132950582512	-0.4143532066332813	8.672363584167917	0.6178866681513266
0.6815128561131141	0.04400457654951495	-0.0527037375786745	-0.07284808950978577	-0.8579322193200749	0.4664873302668866	0.673235792878093	25.4569626280923	-19.15306419828087	0.4048887439950692	-43.52870006894439	-33.20887122174899	7.066412649090573	25.01822908529851	-1.148337383379307	-18.61882485806758	-2.014453324252038	-10.4092027888186	-0.05148353392910321	-14.1120468315018	-20.10208164025002	-0.02512123281531812	-1.695524264868789	-3.746756465066279	-1.752465748382405	5.548274155862875	-1.927023255031249	-0.2704150295831008	-52.12495413379431	-11.62218855286119	0.7728103510681001	3.191733260713606	-0.05942717221946332	-0.08625866931345652	14.11066002946159	3.643044826819595	-0.1784793934714622	0.0216848026459755	0.0008334613247124867	-0.4854768882323179	7.816602382640405	0.8066180755857529
0.6984558844730551	0.04953069899542939	-0.05700865238224994	-0.07439185994325279	-0.8699055959397128	0.6005078629775653	0.6784037815860531	26.24088142604153	-15.33485458754686	0.812481818953307	-42.68951678562642	-38.0352844903281	8.825983441414818	19.78135630597767	-0.004974118161863661	-16.9368901921547	-4.197848388064188	-5.754019254855764	-0.0523465141737914	-15.2448884755169	-24.59175465301739	-0.03297128707404695	-5.787818178076529	-2.750311955615386	-0.8959240817564935	3.496548631469055	-1.787470359845237	-0.2110307637865212	-44.51264430895334	-15.34157303452674	-1.419335791857276	2.766554190132915	0.005821665775351426	-0.06907188600240528	13.208795861332	4.530710080815623	-0.1307185164932435	0.3822716925023503	0.02930103338697896	-0.4488325977275079	6.827010219017951	1.086081488058924
0.712831259413831	0.03331021936120138	-0.04005923838106089	-0.05784114487005711	-0.773547469019185	0.4765368321160395	0.489747582448806	25.96112820781227	-12.21164850533859	0.7636052759092689	-42.03477789586303	-41.85587505596157	9.462102946169878	15.19290699141464	3.768603262179623	-14.85398607703672	-5.808137753035355	-3.301029969169073	-0.05677912987939181	-15.85882002136999	-27.86477758771874	-0.03872150989506951	-6.827192788340769	-2.6102456927471	-0.8361490397468292	-2.142642552957597	-2.253646006086611	-0.1203570462987974	-31.22448067116949	-19.17195602359947	-0.7887619739038944	0.4679124070529007	-0.004731752085081781	-0.00964037138901714	10.47801633674429	5.571768962347721	-0.09837747478598265	0.2980926426711198	0.004631225151082143	-0.1266845897457674	5.127741163091659	1.414690167571556
0.7168000000000001	0.01072057613083643	-0.0131149339803055	-0.02264513852822454	-0.4265509120037265	0.1940364244541684	0.1623346946680719	22.93402657265482	-17.60935486730967	0.1077601740344143	-42.25901999754731	-42.8256640507705	9.397160662996765	23.42438154949234	6.101347470935899	-11.2616993910738	-7.921205790223702	-3.601266762555552	-0.04259501849745417	-16.11447375416633	-27.89056962868781	-0.03980923560010458	-0.2644663471433332	-2.358258342393497	-0.7145493474193055	-1.182227638148792	-3.963909702873243	-0.3680097610060624	-36.81850404249086	-19.17285432400295	1.841719945306542	0.5186418765429124	-0.05960661947228013	-0.0348829933404846	11.94521483267213	5.716594696374184	-0.02933817278645762	-0.1015062388053808	-0.08811921291496509	-0.1336915528561903	5.933155818887919	1.423213650645261
0.7263128561131141	0.0443401860100483	-0.05136693219995039	-0.06685591241645776	-0.8348045240732276	0.6199373752041879	0.5652822418198884	25.23398861582534	-10.41195107680733	0.3964914948850033	-41.14077052340564	-45.23458415736489	9.394292094959699	15.58080214979744	6.180126563317879	-13.638240104018	-6.281307773971573	-0.8789836668633021	-0.0577606760910413	-16.52403182811202	-29.63234162422141	-0.0422305230855658	-0.9103924611100449	-2.756933422063061	-1.21272142200672	1.729771378054882	-2.945449549417261	-0.3243231640161472	-21.32414846905593	-21.04842938266668	0.3677854147131292	1.941105695043988	-0.04329557343935504	-0.05709924168778692	8.029407820299285	6.358334363392307	-0.1395213373613523	0.0842576544456176	-0.03067614191067319	-0.3443017574897848	3.714207639899139	1.551736901418016
0.7432558844730551	0.04878149845854551	-0.05682388589663004	-0.06803483628560604	-0.851223884021973	0.6719280285190621	0.5958010864538856	22.7549687326842	-8.082728802378469	-0.4257541841548504	-39.77647954784737	-49.48432177593421	9.018014298942646	18.61098467467135	8.202899838428102	-11.77062279218257	-6.422302266201807	2.309501190355252	-0.04338416921887216	-17.37964165298358	-31.22266398449062	-0.04153337081692907	0.6041614594922334	-2.241086044283853	-0.9962859827587177	9.782589244972446	-3.727492641463261	-0.7842329768083445	-9.830525249041548	-22.30769445005059	-0.4023871321542337	4.665424670302657	-0.02650358502699549	-0.1552834868274378	4.79440464364784	7.24056126630848	-0.1504571816516465	0.1827110782916588	-0.1027346659477658	-0.7082235916894426	2.01256058940831	1.551840430127846
0.757631259413831	0.0318957157379085	-0.04004716532718266	-0.04945302091864721	-0.7450375880122948	0.5046753007040365	0.4005484771638379	21.98975816608141	-6.219594460152566	-1.322308409504307	-38.30615521506087	-52.80041709216123	8.572896261522025	15.45912933080469	8.713364992005793	-10.03980031855334	-6.350522622998222	3.134358895051257	-0.03623399598837337	-17.04482306608134	-32.79359533937615	-0.03942836635592864	-4.650048766809411	-1.960878285376659	-0.5140465876881175	1.508284764783166	-3.003901957740206	-0.450167372228309	0.3584732769878864	-23.93498838207622	-0.7310549657654362	1.477647093212023	-0.0009150421014738896	-0.05743752505983285	1.227317556108854	7.83690470465973	-0.06586296836628139	0.2780629041658528	-0.06089930172244322	-0.234418005235764	-0.107907519000939	1.659043333429564
0.7616000000000002	0.01022886347492857	-0.01353972169800672	-0.01713826755851429	-0.3864367617304616	0.1865118473785969	0.1354293124699097	19.83509152854605	-8.269163238591322	-1.751540480071003	-36.81507431341696	-53.14774016999827	8.410453259135707	19.16798045315716	8.050823850280572	-6.713302450428476	-10.55357047040497	2.392792067966667	-0.01980270207761754	-17.14902909401706	-32.65399817781019	-0.03961042155882186	0.7526936419167776	-2.475366892568158	-0.8100583669169257	-2.047941189168957	-1.51745109539392	-0.09764866505866951	1.161366737485896	-23.76150938738495	2.435363986173213	0.4259883089967246	-0.07095936521609553	-0.00589914129866273	1.06398697251646	7.82832021442098	-0.01606841091940109	-0.2070342985823492	0.02130810697913707	-0.07377559019247375	-0.1049794995919775	1.635768725792976
0.7711128561131142	0.04259290038810093	-0.05169308827246401	-0.05844915851904114	-0.8113610579521975	0.6164630632836747	0.4730041838291257	26.68612604204933	-7.932193512956632	-0.7981447828666033	-36.22976222605329	-55.9296933862331	8.234971048709616	10.58213759044308	8.577510275056653	-11.46103493767887	-8.751687123880446	1.33777212593313	-0.03407042690216033	-16.51238160932999	-34.35484806810571	-0.04282922945468436	-5.654235288930888	-1.694931796905232	-0.2569045856254053	4.089371018360661	-4.724391039835393	-0.8455759173794091	0.9564088127674466	-25.05191323635393	-1.738197917307591	2.081168533695297	0.02469961821822098	-0.09690421883824059	0.2588714551272764	8.197460743646499	-0.06132440363755978	0.4459814264964768	-0.1514582203311367	-0.3126795651868745	-0.06191171153297064	1.724020091258528
0.7880558844730552	0.04631567659541957	-0.0561566115632408	-0.05970568420909591	-0.8292312166946232	0.6549574613674167	0.4397025961571401	27.84050448200948	-8.696864000445526	-1.084773863686081	-34.44899981792402	-59.04980730007712	7.735880747196543	9.948934025753173	7.793507904754797	-11.37209170770689	-9.472732545294141	0.1440330363175478	-0.0324980239500307	-16.35228733923499	-36.05238694511277	-0.04207596181752021	-3.725120619583414	-2.612353094331156	-1.108355292112188	3.350124397809639	-5.159358324252884	-0.9609977496719005	2.189070910183458	-26.51038481715506	-2.05410351736195	1.586842772801643	0.01115828786431133	-0.09160562269214244	-0.832317030600522	8.402313472465046	-0.1814076768961319	0.4663074309911005	-0.1774099090928286	-0.2201275354485208	-0.1588073075882472	1.808015180793344
0.802431259413831	0.02914264787392895	-0.03962614915369372	-0.04029704209711822	-0.7127288477510412	0.4828846982067034	0.2611159568027084	28.21036847748058	-9.155561599818956	-1.254962064485861	-32.88972002553116	-61.42193843679453	7.440417414183536	8.151797486099564	6.686849590074647	-11.05603951787066	-9.47164817361584	0.4733035367727716	-0.03249270297867193	-15.49679991569204	-37.47362173902614	-0.04180437999106885	-5.996430183928267	-2.693838147927345	-1.187320212011364	-1.659504187726072	-2.901760989556111	-0.3479373063430911	1.291863420096609	-28.68886778583915	-0.4888159225465497	0.2766574448094158	-0.01536129781506648	-0.02044102433845739	-0.2457692191903047	8.629264338322635	-0.120208032732095	0.2566644632794072	-0.03478247938482047	-0.01496579337696885	-0.097717468269126	2.070760298418026
0.8064000000000002	0.008982055154000079	-0.01335538946984655	-0.01257541436757552	-0.3496510885378186	0.1741600671801393	0.07919632516100705	24.35707960456878	-10.52493985689322	-1.696948714794526	-31.35541213907293	-61.13077246280063	7.258378122914777	12.16634385005547	6.223657232501058	-7.832667605684228	-11.02717570689773	0.1186387245299199	-0.02294701197846464	-15.27211771368501	-37.22514370429801	-0.04255263865521575	-2.377787263029913	-2.710148229749092	-1.077576992294005	-4.007295809505272	-0.8538659722153921	0.1399539161854035	1.733505872980326	-28.78681796640991	2.837492490387344	0.03087005116372004	-0.07771152889726091	0.01798373015128005	-0.4727971433653929	8.486271015342794	-0.006355395253251303	-0.2296892478545973	0.08818365170302461	0.02267914724125935	-0.1160539393803111	2.113232650198538
0.8159128561131141	0.03887746879872367	-0.05086874796178092	-0.04904512947337621	-0.7855742588114403	0.593611011069072	0.2563084748747819	28.3157339254219	-9.43534406824562	-1.393405885324732	-30.99174708164173	-62.66915249295798	7.02214074548028	7.51175807600737	6.94032009616341	-9.806912180381778	-9.679594370216666	0.2944771660592045	-0.02953893370813877	-14.41354553836306	-38.40876098635687	-0.04273917588046776	-5.410375728166676	-2.242044134913643	-0.8806316320935509	-0.08126587933748808	-4.018135871439115	-0.6607594545164492	1.964266767549508	-30.4969155326162	-1.159875072395346	0.5675094946995695	0.004342112487474542	-0.04690120473008975	-0.6195388222672399	8.718942446124077	-0.1056300591870847	0.3608496971458237	-0.1025539037244891	-0.05045102355055023	-0.1651807390049672	2.350086033385567
0.8328558844730553	0.04140851977216187	-0.05580375066926969	-0.05101544135875383	-0.8068465968532479	0.6238876726644094	0.2246792949721161	26.15706545139309	-10.21955065949642	-1.627892555533678	-29.17971467773372	-62.73371286623153	6.323383654239057	10.08546695675213	7.735287435627996	-7.430236798173016	-9.926220953637694	0.3977187681255772	-0.02469216375040503	-13.55613522205418	-38.69045985201227	-0.04063509121691609	-3.594358059334883	-2.393081607744183	-1.166670792412984	-1.109481276103383	-4.056271194708986	-0.6526553960140213	1.517967211138115	-32.10164753554832	-0.7588341572627127	0.3043955867648512	-0.01007144714033417	-0.04185021094014743	-0.3669979905202479	8.542803574593581	-0.1301938042440458	0.2862738521109532	-0.09725485822864929	-0.01114106786114154	-0.1315989234368695	2.646275023157039
0.8472312594138312	0.02472873017818245	-0.03889224828768147	-0.03212472294220081	-0.6788191728760609	0.4397074106425407	0.08225247685830439	24.08475158121272	-11.40824148706597	-1.176382903062922	-27.18439800059842	-62.15188943573695	5.703894755892207	11.17765416987478	8.504996370339155	-6.02392193838391	-9.176411361737038	-0.06886468320202692	-0.02186576337970808	-12.10035810466648	-38.61691326326486	-0.04044213446963615	-4.141414504378619	-2.054750778098373	-0.9154610332602555	-2.763415645568706	-2.055028747133377	-0.1575075853354597	1.200357157933356	-34.10846278287008	1.375190577045973	0.3458116709662101	-0.0415383133977088	-0.01192494692255587	-0.2243419769857842	8.434779041673568	-0.01510509071313235	-0.01822034605809641	0.02734292868699889	-0.01137045346344981	-0.08392241158999542	3.072475041946663
0.8512000000000002	0.007022377633546739	-0.01274727604891427	-0.009632986891964065	-0.3225643824231614	0.1480867971816338	0.01571178154273412	21.33392043937924	-13.49751066423274	-0.7746222978847568	-25.8561927320791	-61.36436521251252	5.463085737807335	13.32972356692776	10.14261133573451	-3.896868269191379	-8.922480904860485	-0.7266685142304441	-0.01814800922757439	-11.64190447103907	-38.06292483907362	-0.04156070655373051	-2.373378257738721	-1.365356694139672	-0.2520663590645265	-3.368925917992875	-1.656224331428552	-0.02378826358203934	1.321234098473174	-34.04438035888339	3.783129472680615	0.2980861581998047	-0.0707825984736557	-0.0006824770743274061	-0.3090972787084262	8.205614931343396	0.1462983701718652	-0.3538780950727628	0.0567227105917238	-0.005082726916010706	-0.08372179377555236	3.147665018585235
0.8607128561131143	0.0322910206009972	-0.05065338405262146	-0.04181541319685142	-0.7615698624575371	0.5398482846229626	0.0747802392664525	21.47944105044949	-12.50441445098149	-0.62885885538451	-25.24727496463267	-61.08349025320429	4.991529748882291	13.59955508154578	10.61717234185311	-3.390045271781996	-8.543971914551506	-0.7299456499778488	-0.01719715554633228	-10.60098487261289	-38.22461878374579	-0.04004241713237029	-1.548053241437318	-1.366094518464625	-0.4225441523917655	-0.9760738161316456	-2.641503315826326	-0.3970386827978468	1.613477622905869	-35.63758835251046	1.336753982450203	1.07510671934138	-0.03145851057424226	-0.04070608394562733	-0.4942702851608731	8.328170096632171	0.030882617548638	-0.005556594925153786	-0.00235631902401105	-0.1243727886474458	-0.1194299916822946	3.523161331052809
0.8776558844730553	0.03338156749707366	-0.05553901567248105	-0.04502119766155255	-0.7848699795799732	0.5625144666892083	0.03429331566178817	18.15738007846149	-13.6778444678927	0.337974533389195	-22.78037654825818	-58.46191227612145	4.001113325311443	15.72038283180513	13.77265620289713	-1.133137009084801	-7.136644310815977	-1.561099509833155	-0.01330070965619112	-8.909645098747358	-37.06699539658283	-0.03850053356181347	-2.145969944614385	-1.171019133376746	-0.4609333030451692	-1.654342825845684	-2.052598622604228	-0.25377718305443	1.268771648337178	-37.26654787466859	1.133373893717021	1.372642228081615	-0.02796557339883007	-0.03906056306392915	-0.3967279276671094	8.108796157840878	0.02505700406301694	0.0173217700267797	0.05078292726815845	-0.1778071191521091	-0.07326379543652359	4.059007327225261
0.8920312594138311	0.01811109521532472	-0.03856894838480329	-0.02807209321631899	-0.6483911734476457	0.3734567791937025	-0.01337000149071343	16.05969289845769	-13.86846692354545	1.366453559527285	-20.24631806646217	-56.37681180589892	3.139540220138046	16.35444779648729	14.34444564128937	-0.4111984925143976	-5.473878235937994	-2.365214078034044	-0.0119539853879049	-6.843720028631575	-35.99995611499676	-0.03919429664942176	-1.579113445877287	-0.9260717130432203	-0.1796909494899091	-1.748637969775904	-1.269073130679887	-0.04839571455643327	1.139216783371023	-39.52382566953002	3.181848101632682	1.428404383063297	-0.05629620177493072	-0.02613756297560535	-0.386468205120757	8.149804776150516	0.142879769943681	-0.2786377308037568	0.0945436720510846	-0.1698507717893945	-0.05382174642639635	4.665886285787035
0.8960000000000002	0.004871976582574433	-0.01256572875102002	-0.008310772810539642	-0.2921935828667408	0.1210186403794182	-0.009664818392813856	14.54403991114156	-14.28324555644615	1.728865238494834	-19.16681921574829	-55.89608969560047	2.892173301847359	17.35314989982281	14.00270801795615	0.3967701028972495	-4.705344454202369	-2.724302057676346	-0.01072131298061811	-6.346522402556007	-35.49484677072011	-0.04040105974330826	0.6688906675605262	-0.1527519855549279	0.5218639143420555	-1.087982376756937	-1.606505607049783	-0.132422015942524	1.355747169874368	-39.38816215460023	5.188812451472427	1.279503160645629	-0.07275405034731891	-0.02483027046170333	-0.5148614376718381	8.019449228991363	0.3009451045096777	-0.5529554810135395	0.06368568749901589	-0.1331419833904664	-0.07638039918738236	4.76555096954712
0.9055128561131143	0.02300124002419679	-0.05027953539269691	-0.03813827374036006	-0.7362063337523015	0.4771097942534084	-0.0401991931818344	14.25028453989409	-13.73335596247931	2.125408048110658	-18.08925721281347	-54.98217067907515	2.359016545284015	17.90980761733991	14.62122974656832	0.4925199045194907	-4.460340261628188	-3.133834858895042	-0.008724356586228499	-5.039067570983295	-34.95848688543106	-0.03887002390062497	0.9597977733347218	-1.381143242834846	-0.4992441979168718	0.8588846309596394	-0.3759196759089612	-0.04518758867141853	1.800161063766803	-40.77547043068446	3.349935453154073	2.933701750102697	-0.07305533417944712	-0.05806694205396218	-0.8239723571669781	8.222287274464934	0.09506849583474555	-0.3064347158596781	0.1442478751373867	-0.3882861317583775	-0.1061796453645379	5.139167329204659
0.9224558844730553	0.02202788935263911	-0.05507751043556029	-0.04221285822465315	-0.7609327124615675	0.5167356126903542	-0.06255678299715584	12.80434819858548	-12.7585790577667	2.829681773935488	-15.26499048419711	-52.78921593780341	1.483571306505209	17.51510745959204	14.39953438524337	0.4807778123333097	-3.072881204498035	-3.546003386818914	-0.007931070043028527	-2.528310335352788	-33.55022484786083	-0.03862995597188609	-0.493236252361284	-2.778979196914422	-1.327961577924659	0.1120796071378493	0.7362506850619059	0.2668533704347011	1.537454300797165	-42.80358557538281	3.248001780910529	3.231043052032136	-0.09910802206608524	-0.04877132880350671	-0.7610891491232122	8.332871820200994	-0.003266919569151542	-0.3297315429918812	0.2225050158369092	-0.4251917694430353	-0.07754369499729086	5.600188353705496
0.9368312594138312	0.010375738430767	-0.03793393036697012	-0.02652762428365966	-0.6114414901596064	0.3595032976091943	-0.05288864424991857	11.80099078333963	-11.13422252955454	3.075735270099146	-13.10935821265043	-51.35101491116815	0.711593973405741	16.59808781957796	13.10150555136412	0.3939867448867841	-1.689746999194983	-3.367226937206462	-0.008276855068698427	-0.4462876367566349	-32.67428564046922	-0.03903433310617355	-1.41055432269711	-1.988660247590549	-0.6657434198477477	-0.7738614370282739	0.3667981851652465	0.3213454839693706	1.339681646919963	-45.16214126235104	3.779256062907807	2.434351130097047	-0.08452751105020655	-0.02650710588061939	-0.6175443548785989	8.555593402599797	0.124995009883694	-0.4111477483564097	0.1992609984524127	-0.2831392773205519	-0.06625097585219548	6.092050834538099
0.9408000000000003	0.002431375199311248	-0.01182036623841626	-0.008226589628655526	-0.2650000290837369	0.1169382240311165	-0.03690352717320167	10.37411708859385	-11.14949511952579	3.268091349258139	-12.63094430323927	-50.89343246751454	0.3850748307264636	18.00425718625451	13.11013269869117	1.318524108122859	-1.026346412919514	-3.50132747762193	-0.007214892057645833	0.0998619994044363	-32.26322752504765	-0.03948840605215338	0.9811552457968261	-0.118524917776362	0.4490119761273531	0.9250003476387273	-0.6160211597402068	-0.006890855171611254	1.574320456292011	-45.26781705700305	4.869249450317895	2.422297914434511	-0.06187880171041595	-0.03829846832474232	-0.7458261244868565	8.495200504126217	0.3186655921498752	-0.5288061464068036	0.1273640868729397	-0.2654696471008767	-0.08927696231430075	6.168560406174379
0.9503128561131143	0.01183103695201027	-0.04948943893289551	-0.03669684954420781	-0.7020417221453581	0.497333856553837	-0.07310248994954094	11.11041178535241	-8.97018682439735	2.681754603824067	-11.2885713241743	-50.36120076475262	0.1343851848493536	16.66722293546277	10.5175676887061	-0.0422156127772132	-1.224391962850947	-2.913665849418217	-0.006280072991035644	1.471868852802173	-31.86094268851265	-0.03878539965794633	-1.240251616798759	-3.918127793084174	-1.547733892413299	-0.7944807714175818	1.524392260125683	0.6152140650431704	1.89840887070168	-47.02383631551695	3.548198339234729	3.006435385556882	-0.1221412286176665	-0.02910169825507269	-0.9328663487196174	8.776656009280995	-0.01256244519684886	-0.4217243943842683	0.2692601315711287	-0.3597379377556561	-0.116293289497839	6.454821680751275
0.9672558844730554	0.008729249567554831	-0.05377483171458115	-0.04099606436102131	-0.7242197732066558	0.5897099178164922	-0.09965114217961002	9.841352043423928	-5.752109623805259	1.769490208139006	-9.086811771917811	-49.02912894617317	-0.5502968001161082	15.45410963729246	7.146016415740543	-0.7884097978269706	-0.2332474878916889	-1.385511581076687	-0.006159268008220659	4.019905765158911	-30.89610578701918	-0.03967681170118503	-5.907782740560839	-4.288473662544034	-1.498186190146097	-2.83649984144792	2.095807765895039	0.9823025372480902	1.336379720155479	-49.535016744922	2.173385349820248	2.338979102614741	-0.09762651626997623	-0.00435096671029353	-0.5732148647690595	9.063773218531336	-0.02411704011157752	-0.2907110428440798	0.3016425698920165	-0.2443030055587395	-0.07316597855856874	6.819639806656202
0.9816312594138312	0.002411931913808729	-0.03652091062002107	-0.02561971614267709	-0.5585451452460557	0.4670926952662739	-0.05456488351319422	7.902106075508523	-3.629203064109424	1.241025286472717	-7.630844504629945	-48.10659409962589	-1.156054434064032	16.77567192455096	6.681305078362118	0.2548236000395439	1.377347145437388	-0.03869074975503682	-0.006797090051338616	6.168041231646239	-30.49955972704781	-0.03983534180309954	-4.183167166320004	-1.450636223220497	-0.2107689080764332	-0.4015481380705658	1.014873282082176	0.5854931748444859	1.403545410452499	-52.30443354349441	2.350140886238246	2.598407777858205	-0.03805164368619392	-0.02332471175716153	-0.4753769374788905	9.384163689991613	0.1997704307644376	-0.2787491519987176	0.2263481495518752	-0.2598248363479738	-0.08179965353353391	7.220596609974585
0.9856000000000004	0.000561959841029136	-0.01216157391243833	-0.007834243661833516	-0.2133665875687676	0.1746377444165432	0.006593963270915992	3.107883345037576	-2.58992034139753	1.033324085916925	-7.459931350214847	-47.47889734294284	-1.490996307090646	22.74444621105657	6.606219888572153	2.156303880921806	4.530105455357209	0.729203019342508	-0.007141423875266263	6.156753608416585	-30.55926611150051	-0.0390875958972939	2.61772923393408	0.2535685708215879	0.535548763234051	2.959542518833755	0.2458167908513304	0.1182915621918215	1.608612682626235	-52.30259141955641	4.29576950516573	3.546120431581183	-0.03923594224582999	-0.05697891962801344	-0.6436391686735565	9.282478915984834	0.3734871380755938	-0.4740547288066199	0.1749664063690177	-0.3917588660002291	-0.09674269110774163	7.271409095209695
0.9951128561131144	0.0004145777169384246	-0.04753337129196335	-0.03542430039771226	-0.649460501237062	0.6241622200825532	-0.07879772324494638	1.804815819970154	-1.21833274015122	0.6299281432256284	-5.994690353327646	-47.54756933186454	-1.485162517218749	22.21263666978518	3.495051536462781	1.328807210381279	5.568055200994246	1.415229744825475	-0.006593149031050028	7.979696564941181	-30.0185783465376	-0.04063464925178244	-1.878613675829672	-3.212916682521003	-0.6513933501246859	0.670242996199327	1.479053135933779	0.5763554043372956	1.93178374423941	-55.07758849617149	3.139119957541258	3.204875102961631	-0.08361099497487774	-0.0438491407512473	-0.8525680787039794	9.777902749308796	0.144073361528496	-0.4412522996706604	0.2302335544913109	-0.3381026699938122	-0.1339471757852304	7.678520735378251
1.012055884473055	-0.003990218855587813	-0.05165058090373863	-0.03934949493300292	-0.6658217411785277	0.7066509297550283	-0.0778734930211229	-8.50338815377348	2.623040329405683	-0.2443490715130996	-3.888796430770232	-47.81404540991937	-1.87900803729231	29.20804871699949	-2.054070820808199	2.621988886588781	12.963030260714	4.576682566764385	-0.01030534660400586	10.32946671452473	-30.01788656912448	-0.04214730331145557	-1.599275467743598	-3.337859860124908	-0.3529691340288229	-0.8946440131548515	1.526836057142666	0.7327771622760256	1.255001122731963	-58.52655769103159	3.25184762168095	2.255927627420023	-0.05508060864897288	-0.02545700969937734	-0.6046988304585981	10.38693041102762	0.201052455975511	-0.5077015588688948	0.2074699131145576	-0.1871885657310436	-0.07909641657314048	8.209974557395936
1.026431259413831	-0.003925460698951611	-0.0343956687385813	-0.02388058828229246	-0.4722498052328827	0.5854298642849471	-0.04013706232718306	-18.17645350659184	5.963012489690233	-0.988722290040652	-2.784650550867939	-48.60046439819222	-2.298108311423816	38.19840289523465	-6.469807575449001	4.463977015673668	19.73361167271831	7.902524475811117	-0.01812462615667236	11.81473810031112	-29.93467129176602	-0.04177701666143526	7.851709638129561	-3.813206518432745	-0.06026813228276895	-0.7252942986803426	1.727090313949306	0.966921290771009	0.6981679745904129	-61.51112652361947	5.935382935774187	2.19390575315406	-0.0954903374779556	-0.01406175428875464	-0.3304704515464926	10.84242117051962	0.2957301803892612	-0.8186915970205008	0.2320904820952856	-0.1664272997143097	-0.03418834544556008	8.704286664215651
1.0304	-0.001227463857070177	-0.01111143441844175	-0.006959803395703505	-0.1630802980406401	0.2428925456449633	-0.001590567414666566	-23.56642030502939	6.934580769058301	-1.219008749080071	-2.196751664976375	-47.85889714519251	-2.508334549174399	45.00832346634738	-4.245082547831061	6.786872908224607	22.70825822519429	9.091633334061616	-0.01991678348598074	11.17530151791418	-31.63934752874333	-0.03928280413978837	13.16651295891313	-2.467705604879818	0.2503581803402155	5.742074348831304	0.09645697010652915	-0.2082651417623667	0.7866003379118305	-61.44759101379681	6.987295791500967	4.800794153406538	-0.1047085598628287	-0.1008707864851632	-0.4047942835257808	10.64302793916326	0.3867595470590582	-0.8749709211942422	0.1485092341089853	-0.5608480928254495	-0.04261243248549119	8.763965533531119
1.039912856113114	-0.007433011319420757	-0.04522578581238985	-0.0317559015703914	-0.5516829978048907	0.7099132762588738	-0.05748158816896876	-26.18476537486763	8.62220127997843	-1.738435840598711	-1.360836469424201	-49.15734267328918	-2.433714073055544	44.7281026230089	-11.42355855753306	4.623380129943895	24.52830756238179	10.08675187027294	-0.02206256595750552	12.60069961236468	-29.8719588004938	-0.04245999517082471	7.910140712061296	-5.796319630789641	-0.1997397099757231	2.094087774548048	1.417134973829469	0.4419137246982769	0.7939634156343522	-63.9453357286319	6.159120542730408	3.100329336392133	-0.1071530543804352	-0.0591285841005614	-0.5310018210688459	11.16409897031209	0.2276275679117959	-0.9131460704644337	0.1673643787734854	-0.300735257380975	-0.05541017620564219	9.156507400797846
1.056855884473055	-0.009982344952859989	-0.05014255225926954	-0.03378002214852087	-0.5318344655505918	0.7555429900052104	0.006223579210292485	-34.2882269086663	11.00076799317235	-2.269453453029469	-0.8271580942358411	-50.75734038860502	-2.884242798651691	51.96444877535902	-17.38816958142273	3.801902808887187	28.92289229185823	11.91050723296058	-0.02416521428038466	12.32238457768634	-31.15327111042221	-0.03995593591844721	11.07732035085878	-7.56360076340488	-0.04327061347952599	1.640598193827466	1.683285893932566	0.6357158244420604	-0.1557474344668526	-66.06516200416965	7.533218430779923	2.463861111077337	-0.117108418605305	-0.0456259808103204	-0.3138076519017929	11.21929200318167	0.2200713729529397	-1.137656958163498	0.1594641978178704	-0.1976664147556618	0.02559093378051302	9.521607333307585
1.071231259413831	-0.005650843700223618	-0.03369619318746377	-0.01842243165654065	-0.2917908226556776	0.6168866191707707	0.02475745046715616	-36.87507740807175	9.446275504113901	-1.212573496725539	-0.3194716305515987	-51.70055884048939	-3.117646787891089	54.69143841273608	-16.34501195938389	4.228445675866312	29.18090768990056	11.08845725617757	-0.0227190059639265	11.98505176157622	-29.9757422047805	-0.0372576228326182	13.38379872053529	-7.737519244498269	-0.05048988832428036	3.947472803362148	0.9161625362143454	0.2229695185315821	-0.7762943363476184	-68.18472812274484	7.628181127358972	3.620201820794607	-0.1401494196648095	-0.0776057699883245	-0.06950779640890824	11.08188586249656	0.1884593792530615	-1.100147249084406	0.1442060942704461	-0.3708201961383035	0.07228870724633096	9.908189984402075
1.075200000000001	-0.001546417482323648	-0.01053772742210726	-0.004932966069999973	-0.08192091379381949	0.2604471476241201	-0.001405247252137087	-36.42897047694129	4.017961812395811	1.460417464502173	0.6065636475937027	-51.22337534435826	-3.240823466068568	55.38503395166843	-7.907928229434412	7.235757316687881	26.93225388231101	7.213996152499186	-0.01910148878484498	11.16816595968851	-35.168617420503	-0.03398426406252038	14.16528653508612	-6.173109630489487	-0.03381036562741468	9.88120749313167	-1.343392088938719	-1.287797281505441	-0.1672764445768047	-69.2946037984801	7.048428385692821	6.336176861535436	-0.1415806978049312	-0.1687240073453785	-0.3125365281481337	10.81061959406527	0.2037490098825336	-0.9559780014354607	0.04277025411258331	-0.7888547719312413	0.01246856023378016	10.07715116865113
1.084712856113115	-0.006884718455893335	-0.04592542310863864	-0.0233681222593103	-0.2709170352985133	0.7120640273564049	0.1166370032997435	-39.08405035905828	8.099123890016793	-0.6871284395025068	0.6455313792656647	-51.72542756203617	-3.141033353976864	57.31424794089428	-14.38580115461613	5.458961862475149	28.83762725241634	10.15960836199924	-0.01937210654480045	11.47491218832493	-30.35932224839853	-0.03546457732245765	15.22467071495618	-7.114994985999587	0.2000267535952041	4.253428316592726	0.4067639564391009	-0.05829176154741855	-0.1104611153355466	-70.42660009929384	8.499189449704399	3.53702453488683	-0.1268801758459857	-0.08666671864616325	-0.4015653214795426	10.92482456783876	0.2752618318948984	-1.227739552894504	0.1006156487445112	-0.3563205769356717	0.0005933797368874033	10.31259413998336
1.101655884473056	-0.00507255477641877	-0.0524669568857844	-0.02254742548110813	-0.06085912522107328	0.7332307648794085	0.2749803342140247	-38.32566678362517	3.848183539812394	1.091416656792307	1.279355617279565	-50.93011495940597	-3.471513353465934	56.86476782883134	-2.81777390770108	6.890207138851401	26.39426592522737	7.388290353013433	-0.01257010082181789	10.85915631811745	-32.72313081799808	-0.02779106294421289	4.506993433079721	-2.534571924950019	0.4323204855084029	8.355707816697675	-2.915787696908817	-1.935608723690665	-0.1353783505860962	-75.57679629778023	3.932349563239267	5.046919675992689	0.007098538273192012	-0.1626881191785134	-0.4628581419096618	10.87971252138869	0.2182128672123291	-0.616778254574385	-0.07732514072948343	-0.5942024046958377	0.01089913569140602	11.11702458503106
1.116031259413831	-0.001843066627870371	-0.03684861843355909	-0.01051704690196198	0.08292345432511361	0.5740361224907815	0.2176025942102982	-34.37330843962024	-2.403513622916395	4.033790333668021	2.530907021443248	-48.20932483998679	-3.651470625010659	51.35128451537097	9.705611750333114	8.898427351542544	23.34313330234863	3.509390492404513	-0.01045716460234242	10.8328018456186	-27.93233502932148	-0.03033655378822642	-2.850469054580425	0.07675263664904575	0.3433192404386011	11.38556127754955	-5.183938765651189	-3.242726311704438	-0.3367886088467208	-81.74036929975676	0.206080803168954	6.702784081328844	0.06779967742755179	-0.2199291223918824	-0.2503278571638024	11.26391143292489	0.1164299589570964	-0.06862414743769535	-0.1670258428384556	-0.8446111842681184	0.02202267640491216	12.30310111348474
1.12	-62.3795006290615	61.8153098536515	-13.79350501157647	-65.58812383718693	7.361103569525767	-62.86228429289404	-32.79846932861258	-4.252431919587674	4.975041742936743	-51.84616972472344	-104.3480875371903	7.393742150369355	48.15056545185256	13.53914995485647	9.13929462414994	22.28001691409201	2.330249238865404	-0.01011192908801064	38.78365596463009	-59.51113560979046	-0.03240144203856166	-5.787166044355991	0.5484131249009003	0.2454963733238728	12.10121039048828	-5.705851234841562	-3.559584477301429	-0.4274233648417844	-86.24594668646061	-1.204303860828602	7.17895745246402	0.08227840362143689	-0.23432080220122	-0.142327327485445	10.87368560253747	0.053977830652378	0.1322602094597784	-0.1848966213618158	-0.916512512487655	0.02533195972602244	12.63972451478264
