DataType=double
version=3
OpenSimVersion=4.5
endheader
time	pelvis_tilt	pelvis_tx	pelvis_ty	hip_flexion_r	knee_angle_r	ankle_angle_r	subtalar_angle_r	hip_flexion_l	knee_angle_l	ankle_angle_l	subtalar_angle_l	lumbar_extension	arm_flex_r	arm_flex_l
0	0.4963526929109267	2.266032146852885	-0.2863340886034855	-6.747372757630188	42.93412790477272	21.46995213484092	-5.57280049224732	9.98654901007097	21.03854402200261	-22.60068407639319	-13.17822479453606	6.50448557083403	10.802994391765	8.111115511354951
0.009512856113114032	1.986201354941772	3.425903721194027	-0.06354770882449146	-7.047144214137131	44.88493933548906	15.30447732718697	-14.05796524228293	5.096617978472298	19.52857136503187	-7.560210882734651	-5.957246888451138	5.861370111176737	-21.38451213875527	-25.65127145758282
0.02645588447305514	7.409128508186386	3.184361977727192	0.8555194676571193	-15.35207551784013	30.22408730674542	-35.16306490019355	10.29925238189314	1.465923321543422	22.15223318176785	-9.192104604910071	-21.14973736496857	-1.78655344661986	-6.093740234985123	-43.13266661109241
0.04083125941383081	5.50951459820612	2.043480985287175	0.6887989599203322	-15.6617675481965	3.158454599147301	-23.56397259150314	15.40056520936009	7.224580012176641	24.95558296709993	-14.20651823504863	-28.36099119996371	-2.635700874946788	8.778274676932487	-21.34689954577598
0.04479999999999995	-0.2745779886174847	1.600702099995785	0.2648202872450499	-21.69660065696677	-36.9425720581777	83.43799640303361	27.79454370472792	16.17085218412766	30.93351166149576	-7.464827646418996	-11.11838424978372	3.338637011823587	11.14961162099236	0.7472400979631707
0.05431285611311398	5.044408663527974	0.5220072434175393	1.898985065329629	-14.94332082727801	-8.85701766950536	72.37482793973705	-69.57341156504587	14.05158544993224	34.81549417981176	-14.32850082774216	-38.20965969446492	-5.487654169066304	59.93041717153282	-36.82710923669851
0.07125588447305514	-0.6082875382571939	-3.132995801738912	3.513841475762189	18.85344766845557	26.48400730824724	46.37055667652265	-12.87611568913475	34.5301717598835	55.92373100557952	-21.46958078741764	-28.44334387064744	-6.163910458408121	117.4442758903259	-32.23609164599667
0.08563125941383082	-1.489048896037568	-2.402129324095911	3.724256836694329	16.3341046915614	21.81501083282859	52.48567945158172	25.05434424031201	34.94337182574728	53.52141014401766	-33.94336052094972	-21.77528634253115	-2.835359086073097	50.5913643863091	-24.97238295783307
0.08960000000000001	-0.9789513009972846	-1.249937713258177	3.417957244485003	9.955655744987075	18.45114305169061	31.95248742728782	-9.922153130033013	29.29630306196638	44.45385454834385	-32.27429305233504	-18.07846818215533	-0.8445427417633484	11.80358721056903	-16.89048892338295
0.0991128561131141	-1.384005901077618	-1.013995288313693	3.514686699211391	-7.892345124962906	-22.8976793799165	-9.008303626900911	-4.724671980145	32.58163051297191	48.8678786655581	-44.336673523714	-34.23072599655245	1.696659988492089	32.10565565157413	-29.20936751799551
0.1160558844730551	1.864506796102951	0.3112483975264385	2.979402368966801	-35.14149462070399	-66.31360145574747	-59.75805606069275	1.99714510780511	21.25609551462665	33.48017495886516	-42.4172302775786	-25.20419468290496	1.004992292131357	1.679309323698625	-24.10655869284145
0.1304312594138309	2.118830481519259	-1.41880225124668	2.33757014290601	-23.54288914711193	-44.81183901811779	-28.40411922870509	11.97872439537025	27.32700165529097	41.64080071036899	-27.6115151058302	-28.81886771648929	-4.136930261232483	4.453985299825515	-21.25036082988094
0.1344	-1.931950961753143	-0.7654288124762884	1.654020702639134	-12.17360438978565	-29.64237929501642	14.24860267938044	10.55948895960055	0.815251911640428	-32.14996668209588	112.2761745650004	28.23622391114796	3.435910145240148	17.02609031309721	-6.29381634300815
0.1439128561131141	2.938299601165916	-2.472328252345902	1.783401025594913	-11.46096759537091	-21.48462611181086	3.076647723443762	8.107288137759411	29.4371779596579	46.4936364763288	-113.5977105966108	-59.86125392531746	-7.404427063861149	-2.178834414605014	-15.01695120166901
0.1608558844730551	6.131447632323656	-2.838702356296734	1.089301825373809	-11.1023807993921	-17.851969186108	-9.756992845130792	5.381433746073004	9.540806397839473	4.126546693016274	152.167383724409	52.62284400719841	-11.43850087545594	8.85558189265922	-8.228693245602672
0.1752312594138309	2.327950162866984	-2.303026082068556	0.01075262688364831	-2.968269187091719	-9.682908218006659	-15.21602219546997	7.769637656201565	-10.37232625528754	-39.95411075562712	98.98867770292465	48.09612585849865	-6.603867608761377	2.539952127724174	-6.378973521502588
0.1792	-2.061864882290226	-1.834987705180585	-0.03995936462710348	1.326261797168393	-5.615191827711964	8.161677687390512	12.94949919710236	-8.189273909394476	-74.42047750421966	-86.76993393602615	60.77511514258082	0.443188536110438	4.474064201704341	-4.232075482938884
0.1887128561131141	2.262567912457445	-2.544352907195409	0.5999896573102236	-1.010103438102905	-3.955712067112538	-5.670183463489426	11.49063985751945	-8.436241732616168	-84.27294229927276	-79.30654312820914	91.57145134731169	-7.649279888739146	-1.226495219984056	4.650442230759305
0.2056558844730552	2.504344421570834	-3.021513975282296	0.5778721910354045	1.247850740469582	0.7319186925657517	-10.86375528418853	8.407392361216367	0.005882779453918907	-65.71628062966909	15.68921571548104	3.559312097121026	-9.723111109336493	-5.052686376614844	8.543653669030014
0.2200312594138309	0.3937406337270339	-2.592018054734246	0.3136305690239765	4.99249628290838	4.12477571297757	-8.910450564188459	3.714108047604924	1.308953971680892	-60.4132578023212	46.10571411635662	1.815345986537501	-7.14134356371906	-1.982598693665082	-1.551363716975877
0.224	-1.623931778606531	-1.990762275557398	0.2203703158099698	4.830827477917687	-0.08490740905362415	8.851675833338762	-0.09972918223710703	-0.07355331678332533	-67.11807893546862	3.216694717084128	5.5602117283679	-1.854986145355719	2.299961451598865	-5.122450918284414
0.2335128561131141	2.221943306091635	-2.66863427911627	0.2941813525330337	2.648464092164182	5.781896243626578	-0.5308709085180698	7.297852017320623	-0.3067900577259017	-57.22375714559197	56.22509609375153	-24.83929944418506	-9.591836112228174	-0.6324203515356395	8.597317617461492
0.2504558844730551	2.356610438949726	-2.361188847865567	0.2779877237205743	0.01757354395881316	1.540513145777985	-4.041709572896311	-0.9921006801033201	-3.269942914181962	-58.0745780649824	-5.122147633798875	1.656995941282378	-9.158831052083576	-0.2420291238174102	15.39736902485511
0.2648312594138309	0.1404894577776299	-1.691411499265584	-0.1346286745880176	1.800406983432182	0.3319853990677863	-2.31663364139189	-3.12576118088904	-4.293113495534184	-54.92872107860471	10.34910042276059	47.81319627812421	-5.136353006796623	2.151348653153715	5.128569246029947
0.2688	-1.677084210877994	-1.333485835883419	-0.2496578782429306	1.622926564227365	-2.852612558856105	8.428865855150864	3.650083316162268	-5.10210854632899	-58.35512543064212	-14.94625286786394	23.54266760252609	-1.240050596780665	5.723796460841523	0.09036830313559863
0.2783128561131141	1.560462850386998	-1.524689084752439	-0.1454005048615661	-1.688328878214933	-1.124423682776561	2.092013298955527	3.409193307631828	-10.83609502252457	-58.82405592386266	16.17896787005528	18.83984252563976	-6.195674808520785	5.91107098205611	14.43973211543837
0.2952558844730552	0.4600267551937794	-1.006116840280899	-0.2528161563041953	-3.297072149021872	-6.505016771510277	-0.01395234120010258	1.891831952499554	-14.9619912239249	-60.23675759800911	-13.70434717835649	26.99789467065808	-3.861295555324076	4.068703483425384	14.39751695154617
0.3096312594138309	-1.500652208420325	-0.6110050483782604	-0.6302370261548402	-0.3962874756220405	-5.07274299479946	4.850425627564534	4.860021203362588	-13.92289845872726	-54.83001623570493	-4.985674038137525	42.83144881801747	-0.2068273609722691	4.019450997832696	5.812479709630469
0.3136000000000001	-2.256315643876414	-0.4994243214342124	-0.6807502891221111	-0.5782639161523293	-5.362550601405227	8.50378050000716	9.992775073105193	-15.56188055789519	-57.44516673063792	-19.39502808415417	19.87829509665545	1.5546566931449	9.127906497358129	5.730967311508289
0.3231128561131141	-1.323877412409526	-0.435447543786861	-0.6515615855449566	-2.372312031471138	-8.210547670287601	2.004215228033072	8.704254119759975	-18.41356767261841	-57.26085800286525	5.001095354107793	13.82069701206243	-0.3043913244778176	4.921815182531503	6.252444410705633
0.3400558844730551	-2.873311551842722	0.03839418609413189	-0.7992805899246336	-1.533175811260396	-9.303455691996017	1.335043622424932	13.14256563357588	-19.3156958285781	-55.10068266960621	-25.02258120330636	4.597029894147408	1.896385637724649	-0.563377349687741	-3.422805952131473
0.3544312594138309	-3.423177503311452	-0.003239511069944356	-1.023886248693425	0.5983296899685691	-6.019438877912039	8.39136647009734	14.43886669650615	-16.94846840212388	-47.37095401883344	-17.76396461869034	27.04071333995862	2.616324686921254	2.141303492905539	-6.75058519606349
0.3584000000000001	-2.938038272480821	0.007872602592879308	-1.016760588167015	-0.5309043557185271	-6.293791376043112	9.269406182611617	13.625772785404	-19.73750301194762	-49.06946877688871	-25.69306765650875	12.80267438422604	3.317290263236115	11.97532304640313	2.086642084649722
0.3679128561131141	-3.253691693417402	0.3077421072485997	-1.152667124073219	0.1004159606035606	-7.049682272116955	2.702567076944274	10.92017931906667	-18.10343303088453	-41.27937924341062	-10.27715548346961	7.12342597169612	2.588805480972269	0.9388390968097511	-13.08410989389051
0.3848558844730551	-3.886019593960731	0.8885124398651085	-1.39125381347804	1.530980549372142	-3.823454829069293	1.992708412569277	10.59697932550173	-16.53955610856729	-25.84992817989341	-30.00043889667975	9.225283725374823	4.676776023032034	-2.209018396459122	-19.98369299882794
0.3992312594138309	-3.134041886378286	0.7885292779927086	-1.489256090587287	2.143546729925604	-1.113465939272448	2.206062527490637	5.035402347850948	-12.16045573832934	-5.792908044511601	-28.94255717097899	18.79280314378644	4.899312897174243	4.623518524805405	-10.14068074420982
0.4032	-1.710772809466782	0.723435219339931	-1.457694962798105	1.43726232372948	1.011699661029367	7.912874488946263	5.335925991454822	-13.06890912590153	1.710847177701996	-18.19423869435419	9.20265945281561	4.475302133220243	13.50023898029415	3.912521350309135
0.4127128561131141	-3.069795565107566	1.218238372524118	-1.595391612929047	3.543763748487521	2.176208308958416	1.280146032274683	-1.322803168562285	-8.720064229108127	15.2956346661258	-12.64061370082661	10.42157921537247	6.259952268690705	5.096572514972426	-16.18090634931916
0.4296558844730551	-2.42661123126163	1.809633329208335	-1.5105098424756	3.95479694856441	6.606653203691834	0.602880387923852	-1.257171474639704	-3.992863977023967	42.65019198362978	4.347816301724116	-2.650945918243476	7.346551890293726	-0.8246907539766468	-22.85098140584462
0.4440312594138309	-1.652220817758119	1.483165117293177	-1.316681410404409	5.27662430966881	10.15368498621499	-0.114310249564932	-5.077657600400745	1.922151563609938	63.79116913058411	-9.824203592808722	-4.763579298668969	7.177843724060125	4.871120072273396	-7.138320040951456
0.448	0.2064177158242508	1.098651097691021	-1.149182244230983	5.262214876993932	13.72201703688686	8.510909069003205	-3.205803924828352	1.913156554240929	68.42298510441972	-2.314598214565457	-15.69032989125514	3.930788305729629	10.69942766631272	4.332706468912841
0.457512856113114	-3.086538384234565	1.722211783921004	-1.359664334924361	8.867787219286043	14.80133396445069	1.625084822439101	-8.916080417280291	5.440591773200411	76.52396775826286	38.45464323220882	-6.614572191782795	9.589067404548375	4.085444870907455	-12.71341922339186
0.4744558844730551	-1.584590367820799	1.617586548390776	-0.8981894883133561	9.252456543332981	19.00497193329085	0.05105096178308699	-5.966388988095843	4.092602757872925	80.11643895200751	22.80090852096661	-35.12360214635986	7.125701275541002	0.4372344635807401	-10.96452956904539
0.4888312594138309	-2.208554917568952	1.25262857725514	-0.8002208166626248	12.70822392673361	24.25202960686966	7.439616007393985	-2.798278933765523	5.026764848209919	73.51322662187113	-13.04675233552863	-30.2888113081319	7.285384914362837	4.475952812622992	2.055614115885437
0.4928	-0.06550806319509644	1.119903748246424	-0.6073590665377859	9.747867633379821	22.46976499923175	4.550241072950159	-1.181129971313308	1.582878227332877	71.34334489101339	6.697896232499929	-18.09758188107606	3.496804909715723	9.953139861017968	5.857935653689331
0.502312856113114	-5.16271645193993	1.373321099951713	-1.015549816911469	16.40456411128629	25.70312790223234	9.096496594576081	-4.949491654174637	4.848276020827452	66.82497736621413	43.05613206983742	-23.6607387602518	9.870611062918421	2.98733395435832	0.1874895757518339
0.519255884473055	-5.910642792328763	1.225918786185807	-0.8545562482565454	15.99619125879034	23.53340258675778	5.548878402071756	-3.446926032240719	0.8316586870279208	48.77346964229881	9.754133499064935	-40.70701075266427	9.050657135525	-2.745475978963576	5.795958804143786
0.5336312594138308	-2.733358496978716	1.136443474071179	-0.6396773621855973	10.74067935887208	19.70725782609503	8.665864693922755	2.60069647878774	-4.216882102408757	32.43730384821925	-24.74639448829952	0.3620182694643859	4.851288793139932	3.748775382863332	12.3793680258138
0.5376	-1.62370085180521	1.08563358691441	-0.649868491770287	6.676731488370958	12.05125161862379	1.926116725783764	1.318805848494541	-6.454989387462819	28.60578322792867	6.868326043790766	-4.192504244026917	3.167254434892165	12.61616029314297	8.55537228195525
0.547112856113114	-4.326853897643939	1.181936599184237	-0.676700567363868	11.15538276054338	17.02864234649643	6.888191828552644	-2.042270752302559	-6.066745735309368	18.79244965815715	-70.80517942814221	4.100229506669617	5.766681206120222	2.616996153768333	16.7885471249646
0.5640558844730551	-0.5580168375829244	1.815693749521693	-0.3472628923641599	2.440442259024837	8.72360361034066	0.7541764754131446	1.531789532437231	-14.89276325367937	-5.454711467774025	-2.138454925587375	16.61628644999053	1.361620027211963	-9.200270807118955	4.438426935408716
0.5784312594138308	0.4148929213377476	1.92058342783925	-0.2921557679828246	1.660079299943681	8.129347842273834	-0.6722541549843193	6.409104924006897	-26.42389689965688	-69.68258850068963	59.61518085506243	-10.39458631962675	1.736061643075503	-4.947616489503694	3.942528525259263
0.5823999999999999	-1.318295694416477	1.267997146172165	-0.5255896489320684	2.226984115910346	5.077697965755771	-2.714344528221545	10.50246692074873	-11.90592685356916	-35.45762154598087	47.30508778448689	-15.20318790083154	3.89628748159771	10.51085712831159	10.3392778370727
0.5919128561131139	2.045710471650872	0.9522031802786529	0.4480652363263053	0.9466067539943843	7.784183166361398	-7.892859946972738	-2.266751993095103	1.837951720397494	6.57666849393953	23.01612058506718	-84.14999314477127	-0.7788952483757743	-34.07823338238565	14.82250992971433
0.6088558844730551	3.698753170189631	-0.4371517538934483	1.846292042673807	5.801854074797694	19.57425071001061	-13.09343396792327	-1.049682976480324	8.413654561214042	17.05914583821113	-25.77293841080171	-46.3202760198744	-4.808876373973915	-55.16208702736985	48.13163125465709
0.6232312594138308	2.482440666909685	-0.6062530272244104	1.954908626994049	11.55711149747306	27.98360055590773	-7.69020879439821	1.790439016534243	3.147736492223272	7.472513778210127	-1.056318402094377	19.01382108784158	-2.889703100317815	-35.97005661754833	38.51908896433086
0.6272	0.003868498182961005	-0.1809532576286153	1.332018878665435	12.28212062304342	22.48694601858921	-7.696268955845387	1.910641024753142	3.522508177955151	7.412334197839442	-0.4256267637159112	-28.35457788512379	0.424573888001702	-9.796379175597011	12.78088470452239
0.636712856113114	2.113906762711125	-1.21254202213197	2.359140594483947	17.12640547160935	35.26479959423533	-18.56912347120727	-10.39501742998738	5.162713257761872	20.74363558838735	93.41715513094381	61.10582394845848	-4.240622239157084	-49.69037188861526	48.27669971684584
0.6536558844730551	6.210180271884779	-0.650488057241209	3.005706805919062	12.96411851406295	36.26724501246902	-19.62279386034253	-4.72904416177288	-4.973614593962372	6.470105852700287	55.55510201060277	25.42407521194739	-6.647335700854874	-51.28663399506672	27.75057050541073
0.6680312594138309	4.533888179831223	0.1708014412360685	2.156378022408746	18.2955547044831	41.49794181083091	-17.35011322784153	-4.055223248386783	-32.06483778437393	-56.68446706324801	-56.86990443036493	-7.483694270904756	-2.816627713983155	-25.98156692189012	13.06582327389382
0.672	0.7230325145604783	0.03148931393308932	1.263950802381152	18.94067975416713	35.2605595013892	-21.6934501173504	3.581831775749943	-20.84341257834424	-37.96795692742004	-4.194630335051066	8.459537260551631	1.725087895803248	-6.855097363008404	6.202274624052158
0.6815128561131141	7.063252471160572	0.1338272518389479	1.923730907279003	17.22950539175007	43.70443978714785	-18.53465678482443	-13.79040294271005	-32.46435689085185	-46.2445202481795	-3.760276672440085	8.47968855215208	-5.958028871581705	-35.08105308600226	9.467097432297413
0.6984558844730551	6.672855874734066	-0.3324370946777225	1.349249836855734	12.63298457774841	28.5520594695839	-33.6780171517787	-6.742407786086146	-26.89354860863487	-38.96582618604581	-10.29828596033622	-3.735748732546138	-6.861528052977739	-24.83097208590785	7.34252785405006
0.712831259413831	3.048002295873865	-0.9869646186125951	0.5839086866378299	18.79553987072343	30.47237511487496	-17.83818384760694	0.2678941284411322	-15.97928430209386	-27.97053353654856	-9.913171976439799	-5.713477893156682	-4.323732345769785	-15.55408362801998	6.605820030728452
0.7168000000000001	0.7897152234433076	-0.5592799804392893	0.08245495933075941	15.09536953026732	21.27317212318369	-19.5606692268634	1.455661362007379	-11.79896583698724	-22.95621152725932	0.9154375093498928	5.814481410030101	0.2759402388353791	-6.371906648910116	2.571561237924521
0.7263128561131141	3.642418572259755	-1.841034482618544	0.1346009296860987	24.69825985163549	49.96770353195953	24.30684230484174	3.105721086297585	-8.947854890729372	-14.64496067960244	-2.754647411585417	-1.474014128587267	-7.428492345770772	-16.7896443617115	8.063316935304631
0.7432558844730551	3.315533058491229	-2.126586913594817	-0.4596813630306291	14.22149253789247	19.98583593418014	-8.45030845230314	2.550207606062204	-3.744693514502629	-7.221933575971782	-11.50028748129586	7.943339851917045	-7.231153658037424	-3.430155125536736	16.3827556430285
0.757631259413831	2.02114580262819	-1.66818768797484	-0.7161309522457942	5.335209720244452	-7.803572882513361	-11.2988674824973	21.44291107455489	1.407365361692993	1.454432957612401	-2.587038776735284	15.7621454499843	-4.237547543827666	-9.324238180798353	15.76432729969857
0.7616000000000002	-0.6430130389090093	-0.9958925463525754	-0.8820457580255125	-5.772896409895291	-44.93599971515621	32.13931471348806	24.43235725879494	4.721434340464774	4.46136942021394	3.008658865657118	10.75459944795876	0.8488990175007158	1.324211632833723	6.537599504098631
0.7711128561131142	2.21127149463407	-2.091034261416578	-0.2124482761885955	2.694961610263432	-33.33542874300322	6.67630384657495	48.59528855522851	5.485901406598032	9.498978496300463	5.147190697736935	22.22251439506185	-5.928202351761183	-13.62897434407947	24.77089086860691
0.7880558844730552	1.971863963791395	-2.030922969460959	0.2770669716701112	1.856366690970653	-47.91257692444905	13.02424884510531	-12.02875490847253	4.699687691587171	6.552527943322855	-7.358567541279889	18.46959023354755	-5.805845056812497	-3.950627203155914	24.46503745380027
0.802431259413831	0.6842220710822742	-1.482422638263341	0.3683634297269138	2.371656509876903	-49.29718515554573	-6.56676261475452	-13.19358131340378	3.843315375439542	4.481753563230884	-2.900488285021673	13.7314561779045	-4.321156487214119	-4.307505175041147	11.24263294778095
0.8064000000000002	-1.391893284464775	-1.067818312956697	0.2521137626324119	-1.614420151812506	-62.01150777977288	20.23365346524642	-2.856173222626808	6.911226866775012	6.795965598282126	-2.161820381057971	9.241952566392454	-0.6613727855027687	1.628240465113144	1.814627673445007
0.8159128561131141	2.27985762313761	-1.567869347547552	0.7379589643499871	0.4306442435760927	-50.84283072750034	20.96298501957514	-18.64653885010789	2.70311192200857	6.503648515808164	3.926762815122743	18.39241982425619	-6.759736647344263	2.443093071835843	14.02069990302114
0.8328558844730553	2.296364137098164	-1.067543175258655	0.8412994992694348	-2.444848236862177	-56.30603208194486	2.561922352301955	-8.597364889002202	-1.389942206461401	-1.320914785201634	-7.764609621555216	10.00442143280183	-5.332422614401739	16.68911659636064	10.03552117666872
0.8472312594138312	-0.02634644686097054	-0.7160102479267734	0.3997865901561468	-1.618174862872477	-55.27008538024444	-6.34253003422452	1.679886886704432	-0.2075586808812373	-2.515655713912262	-3.195596480170018	4.509737102101113	-2.714630141218128	12.36145466428495	0.6714145208376193
0.8512000000000002	-1.727037715876547	-0.5373776225909167	0.2104228052924129	-1.988475757857469	-57.65720260796725	5.652821406896467	8.031612324444655	2.917473816972511	-0.1415364218543961	-2.473508307236344	2.241418601775212	-0.106712532833644	11.65911917008746	-1.374093422172724
0.8607128561131143	1.296073716604589	-0.608009480901828	0.3793932628415346	-5.670929471625947	-57.07731505909321	13.90463378840912	-5.949951324695523	-2.135854707974824	-2.537682812209074	0.5701253792941543	6.277602260171509	-3.750896489606704	24.53318293257566	0.157300861930091
0.8776558844730553	0.07926285451040899	-0.2337544538984749	0.02585964743918279	-7.395406862589802	-57.16434638586273	1.174211157166335	-1.49896797345324	-2.955448290333088	-7.33801370316063	-9.735458830207605	-5.690818541611439	-1.263669987706899	34.22912487319478	-6.620807479751639
0.8920312594138311	-1.961558082141397	-0.1652024705181223	-0.5831686377354257	-7.328999346460463	-53.87765009387305	-3.728473370963934	5.960011631682431	0.4729263652533122	-4.407099167432759	-2.887253752909707	-8.674340611607139	0.637266707424274	24.32033082686632	-7.893595193365719
0.8960000000000002	-2.327352906310141	-0.1390035652735919	-0.6880897265506714	-7.943561048137549	-53.19072007967409	9.334371153127451	6.739161162189442	1.681741785600262	-3.132666770535193	-5.345321745697348	-2.897505785524821	1.231620754063028	20.96030942777798	-2.236996944343176
0.9055128561131143	-2.056314185700115	-0.2128250313429303	-0.8408368501730248	-9.725226088163813	-52.94155653185474	14.64732573552373	-6.249707366126919	1.600591623248646	-2.299039971615449	-1.994053303559092	-6.73329242392904	0.5325531752019621	30.75594814145167	-10.74381884061541
0.9224558844730553	-4.218350163617377	0.01257772352110331	-1.32481214506283	-9.327012576399298	-50.01767344102923	-1.714129517215225	-0.02493892811519272	4.510895516487459	-1.156876928293157	-4.522381232602157	-9.650518475367704	3.090303478773129	25.2728901113489	-17.34465851037272
0.9368312594138312	-4.359105893964101	0.06152780670305409	-1.658420988579853	-10.72002125752747	-46.70528128920883	-6.61699913535492	8.098015861988245	6.231201035900209	2.780413202162234	3.469850620884941	-8.255918884830468	2.915411569042596	13.10275800595771	-12.18062457864838
0.9408000000000003	-3.168987401462665	-0.008958091577181582	-1.605198035168479	-12.91007831741012	-46.35056903488679	3.22676647034826	7.03837920820841	4.866570529944982	1.774795103459914	-4.687457988241036	-2.938000096549207	1.835514023478375	15.80695766597911	-2.589129668783711
0.9503128561131143	-5.333997031558554	0.1290541033776948	-1.886748389379949	-11.72982677881955	-45.4509022952649	5.009537235183538	-0.8292519990369129	8.11236538399787	3.937506205549155	0.02905840270775428	-11.58042751436986	3.8190152221822	8.114109757706618	-14.74327204647757
0.9672558844730554	-6.268179937460169	0.4753501428066431	-2.107871489250871	-12.9073371808823	-43.78323603380927	-11.85768038760942	4.192796161447214	9.707606449122636	6.014230331602032	0.9342673177789109	-8.189252875006034	5.532532505059377	-5.913740316194506	-15.75899281156021
0.9816312594138312	-4.573463083435498	0.5879515860463302	-2.013851991406069	-16.01913573268775	-41.16814735145435	-11.6937950020987	8.476221513605047	8.602237945206651	8.316721130977331	7.222037523579623	-5.977503840939203	4.36546827151827	-6.302195108953178	-8.222251025898652
0.9856000000000004	-3.030814340209983	0.4780169810780508	-1.980285414395313	-17.22211640837936	-33.7886659275953	1.776302025408631	8.149734354302993	5.931887451967748	4.95601451586685	-4.319777478103568	-3.7423730068837	3.479594025994054	7.174628665836458	1.579588168935665
0.9951128561131144	-4.641223744940131	0.952625670994901	-2.103640762428874	-16.04088937098965	-29.74368442914515	2.603352539889787	0.06039682776398436	9.041695362244752	8.813174480146895	2.97048484911117	-14.24559323809214	5.901212786825726	-14.38436079791078	-6.605981741783411
1.012055884473055	-2.570552572413523	1.634563954492891	-1.977298221359471	-14.5604238015118	-5.371424573191096	-15.44122539907656	1.529007238959306	7.186402568533066	12.39156928057938	8.614250803175278	-2.872796143680638	6.385361017384666	-24.99915282062486	-5.470032584954427
1.026431259413831	-0.1923570596956283	1.821363670143308	-1.721551690296242	-11.47317120402942	20.04696987843298	-10.36703098910985	6.662985473100234	4.847729674602959	14.3325571717164	14.15276620216039	2.526843123381905	5.810878704784106	-8.73500697881645	0.8913860947044591
1.0304	0.01956526370919034	1.453383297236417	-1.686555989401784	-9.049940853597903	29.65418100770153	0.5159717273199682	4.194601454042314	4.252907800267472	9.997663364183898	-3.966963099561511	-9.060441087572492	5.653863706902594	12.76578909948427	7.238459699831704
1.039912856113114	-0.6728993554714501	2.162103602712734	-1.660689346463749	-5.487566805494772	45.28984704471532	8.957331480312572	-5.247444278507262	5.458089837769852	14.95437995344333	12.53650484720309	-0.5472762787396164	7.940115777047549	-16.53795051524472	3.833814918683009
1.056855884473055	-0.4199180740062871	2.525622384569222	-1.352563305909703	-0.1442447854417224	69.292323696248	-2.054353118208127	-6.041943817413323	3.423615903370983	12.66415348545344	9.765362492389041	7.495055487284963	9.584512282805072	-19.50679144781919	6.861355937868126
1.071231259413831	0.2550508769868921	2.43670875935884	-0.9799387203198098	0.7122874707375013	73.44421179334073	-5.073661656315384	-3.22773681858726	2.206974511507239	11.69210336694835	9.95927405309093	6.619077948426563	8.755275621001749	-0.2204886186089254	8.43605184366443
1.075200000000001	0.3093905669779287	1.986170937447106	-0.7253319425458722	-2.92681724282116	59.78247455941288	10.81484056556773	-6.003075339928994	2.772247632920058	8.768793051742563	-7.99346952879462	-5.383731928657237	7.427133886041881	16.06382864470663	12.12859827916506
1.084712856113115	-2.907730529838036	2.749586243860289	-1.070011639227115	2.575801383592167	73.84078814360717	22.58457855781012	-4.525795469917314	5.636769890064576	12.0605055413395	7.304144665045097	7.205492591534339	13.12254513518415	-10.30551895749689	10.60290367884811
1.101655884473056	-2.363618306980704	3.478424502226906	-0.7776183277693884	-3.379070756554674	61.11610736910847	11.72862292942489	-18.87592761087947	1.856643646857768	7.076276388850896	4.123123607509591	12.313456099711	13.94577893747744	-18.95108907758248	2.710236865666394
1.116031259413831	1.897078882842092	3.50624553837147	-0.3211438905556958	-9.5523344760058	44.9322457427132	13.93409621023521	-3.709229189289866	-5.513462796039859	2.0069814693949	2.607363288168045	12.84913198926043	8.16390258417297	-1.210241664156822	0.4935817291258304
1.12	3.525747829515038	3.503765838781436	-0.1649958087278052	-11.42945818659556	39.65989642952078	16.31146180611136	4.644927157889115	-8.129813930624769	0.4774889614833637	2.393097433678498	12.79490459205281	5.79277369652874	7.136641531952517	0.7020739733530377
