DataType=double
version=3
OpenSimVersion=4.5
endheader
time	right_leg_1	right_leg_2	right_leg_3	right_leg_4	right_leg_5	left_leg_1	left_leg_2	left_leg_3	left_leg_4	left_leg_5
0	0.07839028784948711	0.06317179359546987	0.1954566889973854	1.181514151074081	1.056312057137982	0.06396811422308434	1.1255385199997	2.817930848079103	0.05929207150463256	0.1267987570019216
0.009512856113114032	0.005454468838449245	0.07660284047504451	0.1523539707541444	1.145392209060994	1.176505300337582	0.05854996890612173	1.252912919346088	2.858433084892023	0.1165299637542381	0.1425450483591293
0.02645588447305514	0.004162996289080568	0.0662332334105713	0.3059091485706951	1.16888613274395	1.114680192407296	0.01046741108887339	1.466998618311287	2.835534685119196	0.1136734449651531	0.1158000437223707
0.04083125941383081	0.1232174652665235	0.08882697516949989	0.1486882129713267	1.053163529499224	0.9873296050696663	0.008112704884935871	1.699479088880596	2.589148575404125	0.1981468062205325	0.1270361606552486
0.04479999999999995	0.3067907142964046	0.0784153675829824	0.06525647632386633	0.8970709184173158	0.9872074148734891	0.01931802278557004	1.748034862189655	2.614686931436264	0.2149812558805673	0.1662698768781663
0.05431285611311398	0.4471728812137848	0.0003592851193916502	0.0122710196489626	0.8524342841113919	1.154079338389863	0.003898883424842125	1.895041565167185	2.322321257772915	0.1497501542565756	0.1415301182910236
0.07125588447305514	0.6680166627420211	0.003742156016962817	0.002905933050260323	0.8737139119848498	0.8579371655166863	0.004035133944785939	2.052864772175094	1.992465123746317	0.04297941759236856	0.2288485330750243
0.08563125941383082	0.979791761748815	0.05641280129713788	0.004479763493824507	1.024321530084036	0.5882007021276063	0.007164274927509594	2.141236393772479	1.668709680349219	0.02384687070150804	0.3531879055280758
0.08960000000000001	1.083134396779197	0.05578248584654411	0.009372443963775012	0.9999425544270428	0.5269751397868037	0.0310167069791154	2.148829973302886	1.650528380674451	0.05471575780387106	0.4030430051270439
0.0991128561131141	1.455319167998856	0.03100991087495242	0.00203541733809498	1.007583580052008	0.470628571899125	0.01128764630216405	2.201892279865394	1.301816466642523	0.01167969426039761	0.489743589275168
0.1160558844730551	2.128382976547829	0.0521746732430115	0.002772957093874595	0.7275063709947664	0.5553240797775816	0.07126619859717918	2.215555302984264	0.8791811652396183	0.004670889056358263	0.7287549424195552
0.1304312594138309	2.546423865736835	0.1612506269231968	0.03637483444523504	0.5117067783317371	0.6107533049011424	0.04819527309519244	2.016058726799201	0.5220728849786561	0.006807233190995632	0.9807337393495672
0.1344	2.558479963352061	0.1850593936406035	0.08516272257821011	0.5071174980104489	0.6344248969613036	0.3723815496635225	1.912196041404823	0.3208664999661641	0.01734674010782999	1.076326130299783
0.1439128561131141	2.720559890350927	0.2101536588113468	0.08093855938335537	0.3933584856580357	0.5927958055011766	0.004523201342576221	1.755509154616157	0.1517751254007269	0.006285087259809252	1.170313709500427
0.1608558844730551	2.931130450704996	0.2381850760681532	0.1729150353609192	0.2652821177464935	0.5568198565477003	0.003361142874877209	1.092273510699428	0.003444242509740291	0.004154490782429576	1.471002528099914
0.1752312594138309	3.025822286714161	0.269243083117586	0.3204751129322929	0.1922606108414318	0.5309377913745319	0.09719262160353369	0.2283961544092579	0.004193373099989905	0.005822067297120981	2.007386632903252
0.1792	3.001400071353625	0.2725739385483683	0.4048140252212011	0.2196159024370221	0.5206502769210477	0.2302586255043399	0.3046018682023313	0.0211627009249673	0.01421385871577652	2.044555370883365
0.1887128561131141	2.977721942341388	0.2830924740807355	0.467389984727042	0.1464305012411247	0.4919957196516265	0.1906209306586968	0.4574345420699855	0.005091558774351411	0.004180547813190216	2.108863956337158
0.2056558844730552	2.890061012127047	0.3184097556272896	0.6844004826609442	0.1027389257366487	0.3979691506666603	0.1148509824930306	0.5211158101252265	0.005795675530597676	0.004195032203659466	2.167084101837436
0.2200312594138309	2.756615322011554	0.3608029720085071	0.8947468451875338	0.1026625842954783	0.3219589364047675	0.08347486560831995	0.3880405070402979	0.01112545851074476	0.006769743161713748	2.183762957429598
0.224	2.719455135338831	0.3573232656242578	1.010173344768461	0.1635474896444169	0.2874109432886689	0.1895384838242657	0.3657206810020002	0.07789315533605111	0.02138052011951963	2.11789982904474
0.2335128561131141	2.600403931382197	0.3726021563879209	1.06060633858761	0.07813545411415124	0.2511238948518733	0.07178430711746751	0.2830472267647774	0.01550758264767005	0.005604594459674317	2.169700806819544
0.2504558844730551	2.450527628028525	0.4102493712924593	1.248269976004563	0.04738864829729206	0.1662515931396245	0.08548096910533774	0.1919089654481416	0.09026107285120054	0.005693222329867353	2.07466309747516
0.2648312594138309	2.341373757404453	0.4485130276255447	1.369519235416615	0.03667213159188343	0.1152710827233809	0.1021886805801344	0.1674789544361523	0.1745345750280371	0.009506882410374118	1.96394020045422
0.2688	2.331683671448882	0.4485888477552225	1.45138287347924	0.08150810308340795	0.1203702919547309	0.1453813502968701	0.1399981546340126	0.2316520102342956	0.02530073359822094	1.892834598401225
0.2783128561131141	2.251196221896553	0.468624712282331	1.446702696557302	0.02403788170373478	0.09995438734121276	0.1313116068079036	0.1034604750486929	0.2609854110471791	0.007533916821794939	1.851394308386437
0.2952558844730552	2.189454337352721	0.5183939487358682	1.504906187009633	0.01658353590834416	0.1067273225419605	0.1601278295451633	0.05306248966080407	0.3718165759752096	0.007557826841059878	1.700418218743327
0.3096312594138309	2.141072641004443	0.5615871242438928	1.497064759505879	0.01771227308188283	0.1427228666142906	0.1610064967873068	0.03456158044425983	0.4243523268132003	0.01238340041555475	1.586901684767705
0.3136000000000001	2.130943354455904	0.5666675652886211	1.517327100055867	0.03454261286598825	0.1740408586412014	0.192084022372641	0.02592765118131979	0.4265534446903176	0.02985145054998561	1.526388893919858
0.3231128561131141	2.118298675648485	0.5925813992753479	1.48354507135037	0.01157305158594912	0.220348606674686	0.1569625441618125	0.008927317061593776	0.4126386033574576	0.01039556396409136	1.47351892034223
0.3400558844730551	2.091885578208276	0.6595083467780736	1.433641996183157	0.007855656340093553	0.3361264800440678	0.1238952642873485	0.005900450917978972	0.3767725415928939	0.01144300498350148	1.329839825283631
0.3544312594138309	2.040965984011724	0.7068350729631927	1.357861824729281	0.01177663811948459	0.4660220041968071	0.07344579378229098	0.009726192577709014	0.3547876813206816	0.02756405364923697	1.225132176851871
0.3584000000000001	2.019043585351193	0.7073562385496057	1.353084737001326	0.02336244605202342	0.4850368741149644	0.1346007058489569	0.01391451706414237	0.3243587144763813	0.06128525559234177	1.172094454191524
0.3679128561131141	1.994422039921458	0.7323931005721125	1.307658779798373	0.00800701162686579	0.6171124652973674	0.02690418092684332	0.005793059926944899	0.2989571223989448	0.07565191649959768	1.122570748466086
0.3848558844730551	1.886796404425415	0.7770865742886945	1.2475714845925	0.00660649595708751	0.8057212821226711	0.009535596703794445	0.005196500654411018	0.2888076110772699	0.1888019810696902	0.9984273135382526
0.3992312594138309	1.753576034652045	0.8052519259983377	1.200478281188368	0.01032902152034865	0.9596332739167464	0.01082971184638381	0.0080723006561918	0.2898666340525046	0.3153628290147656	0.9037354901692289
0.4032	1.709712841172032	0.8048771920643221	1.212651979099297	0.02524006323943162	0.9856670988856493	0.03102309426220983	0.01764058960458215	0.2245795162280846	0.4133034915243368	0.8492508246641197
0.4127128561131141	1.602664324145291	0.8125422208103119	1.191613600270549	0.008861230510954776	1.095109368534426	0.006382054977010831	0.005328325780557641	0.2796627026375624	0.4724959148122707	0.8281333936837205
0.4296558844730551	1.38034839343691	0.819227836779171	1.225409108578106	0.007531307299476708	1.232243427663108	0.004778978930632504	0.005547435632833775	0.2618727381246213	0.6883839404518302	0.7514532569145329
0.4440312594138309	1.176014216424273	0.8276286351641273	1.24596287465863	0.0125087536390236	1.310687466058023	0.006165280257471649	0.00586837025944309	0.2853605696504048	0.8747292135384956	0.668712578017244
0.448	1.133106039875557	0.8182283548522546	1.324638683085194	0.03639900952284147	1.337039607773007	0.01898656683074051	0.009778301552000102	0.326365083574803	0.903628410536732	0.7074281809306608
0.457512856113114	0.9775976515590579	0.8229083294219102	1.300473893683625	0.01335150367574389	1.354574014013785	0.003919736806181183	0.003995065049940294	0.2643064827621541	1.043728147682026	0.6405083430764975
0.4744558844730551	0.7305217451674394	0.8439758766434071	1.401731387081932	0.01571776209191711	1.368642910649716	0.002969821873147537	0.004349551234140492	0.2345707223896269	1.232171922700956	0.6277563428288175
0.4888312594138309	0.5509707207136226	0.8704887555219143	1.479344789647826	0.0604800926120399	1.33579927547532	0.003959881990789781	0.01615752995977981	0.2899338067029342	1.334746761482856	0.6313661514057403
0.4928	0.5317451009940327	0.8618688751664303	1.569323049135764	0.07351337742834829	1.32550129951203	0.01330053796599362	0.006940773025815972	0.3872983696463574	1.356350223144452	0.6914826791678301
0.502312856113114	0.3943365859545215	0.8914701332832529	1.546675696105621	0.06665116829652717	1.275487423768257	0.002903877396113863	0.01114721869277613	0.2595576741969542	1.442451288077645	0.6830891012866838
0.519255884473055	0.2634736882989782	0.934665241141083	1.641193799832022	0.04264426600785498	1.161512861377881	0.002412773961147252	0.003339115467977827	0.2769877720126814	1.495119908048541	0.7687858930054778
0.5336312594138308	0.211641393704551	0.9888035354668681	1.71446343081236	0.0494019649000057	1.033966021525398	0.003502067129206309	0.01874098422196457	0.3721736453727721	1.495881908628212	0.8070829922042595
0.5376	0.2379996988037423	0.9915979009182339	1.780953378022989	0.05142386835835211	0.9926074165075924	0.01463672381598702	0.0252506734750817	0.3612582650131432	1.462169608718243	0.8471866252184626
0.547112856113114	0.1805213540694286	1.048280482173209	1.736810276976494	0.02433723140462796	0.9135035002825873	0.002459106340189976	0.06829243368573756	0.4595515196340391	1.509583007645909	0.8359343556018501
0.5640558844730551	0.1701883751307119	1.127264518184454	1.775695304197354	0.01353915525766958	0.7817376582399858	0.003434287483111475	0.1129628996132537	0.5421863015401954	1.405692662609995	0.8697010908094445
0.5784312594138308	0.1728708376615682	1.204192284556278	1.769042768723573	0.02198940111207648	0.6904816862544934	0.2114937571710928	0.07953104033465408	0.4493939344012307	1.244304991999586	0.9561549028345713
0.5823999999999999	0.2029616037967799	1.216155390827946	1.77464768345617	0.04180479252251779	0.6492782719705641	0.1027161633716398	0.04532524069986366	0.3415273422445679	1.405482371570577	0.8148638915841406
0.5919128561131139	0.1506338855279772	1.288594894836994	1.656259542588519	0.01836610722967169	0.6163468266216041	0.05083785951180175	0.003274454704343732	0.2950138252328553	1.376252581601467	0.8807804137496928
0.6088558844730551	0.08184666344730208	1.390829800775753	1.498072540275533	0.0452677525682752	0.5768909717383526	0.2133765206719324	0.002841186959482656	0.1234793347893106	1.346871647664072	0.731274487157501
0.6232312594138308	0.03528385713667782	1.445007084133876	1.346465413643414	0.0951529114508638	0.5710614452729992	0.5138271489219858	0.004005417811282719	0.1059149321899522	1.362221757994575	0.6650109525931889
0.6272	0.07615191248775323	1.440791528565451	1.319610151856729	0.1412862520767213	0.5809716506037184	0.5885741415189701	0.01091158477484289	0.04386665637394226	1.285076396288767	0.6498442624472851
0.636712856113114	0.01285655723795731	1.47695942269698	1.113849491088074	0.06034284701947357	0.5937633681371253	0.7072462339487701	0.001719055993919305	0.0767161794171116	1.357836328692636	0.7546576760560457
0.6536558844730551	0.005156980047095417	1.497806140972128	0.8577485901413704	0.03421095837240617	0.6242084213260028	0.8574203297880788	0.004425127893702197	0.3729297026055036	1.47224681283877	0.3160744890272262
0.6680312594138309	0.005510801545545619	1.471514515349071	0.6228295677158542	0.0156281329361283	0.7113497638683128	1.294616707299427	0.00544030930286965	0.5280995267463789	1.374102458316346	0.2367150074802282
0.672	0.06397038179260407	1.438712662732524	0.6627453813607875	0.07588552295124362	0.716739293042453	1.328619450913194	0.01724752823852782	0.5982520460690574	1.318583433254142	0.2878925857417993
0.6815128561131141	0.006779847578207489	1.433223050022974	0.420022793251638	0.007131850694977793	0.8143776262972473	1.510354476747153	0.01178533293124318	0.7811994779984824	1.256075706035071	0.2289056312809201
0.6984558844730551	0.09987173640113414	1.375596917265774	0.2354785687248784	0.004487996032677799	0.9431230510685706	1.786243032645308	0.03672715824334283	0.98136492909929	1.089655504022941	0.2144123567868608
0.712831259413831	0.1049729929788628	1.305679997386495	0.134912597846566	0.00715654322593906	1.050544501444069	1.976467824296598	0.06187682031305908	1.150245181432376	0.9687840804828625	0.2031433616326597
0.7168000000000001	0.1594555002493135	1.215175177525873	0.2773580731240042	0.09006682639851249	1.058623408838368	2.017125998078741	0.06748592122840691	1.195056791068066	0.9530384498789353	0.2077209714776824
0.7263128561131141	0.003839916950410861	1.02913613521477	0.09920857338140365	0.008465484073820306	1.224008497848542	2.084775155217548	0.0655660777209377	1.314495382500764	0.86187909421675	0.2032279772869519
0.7432558844730551	0.002214409323468836	0.6203956499384908	0.06080743337319205	0.06129738241166915	1.360019275528658	2.159492066272831	0.06253062127334097	1.548581075499608	0.7496605093812239	0.1994054979245332
0.757631259413831	0.004812702553063098	0.4697877567404909	0.02304652414654651	0.08962956808858102	1.485510700454673	2.153069333088963	0.06123538959093366	1.784002792467201	0.7027628259575476	0.1881781081319076
0.7616000000000002	0.1737421068462695	0.4165593923029833	0.04319086850097609	0.05108306099741977	1.511800237072927	2.130812701195521	0.06811736349038355	1.820377374440454	0.6623535748504565	0.2036031674755785
0.7711128561131142	0.007113370697208412	0.4119657660596445	0.006757411484064946	0.006692368831747508	1.704114454221106	2.090309148333781	0.04475526886493153	2.021529106110215	0.6591980587255541	0.1798191627256234
0.7880558844730552	0.00979839473488653	0.4261145912509754	0.006356396698311784	0.005699180512466206	1.816988383759178	2.041012904716149	0.03511132422368135	2.310197971462164	0.6017885068847173	0.1467651339327345
0.802431259413831	0.03081507149390551	0.4394669899327095	0.01313056301199289	0.009493793810456452	1.903332902278432	1.986569250776266	0.05238773024159027	2.543410610343773	0.5600583669698631	0.1132303080421861
0.8064000000000002	0.1553469447856557	0.4454888517565365	0.03756880523016992	0.02764497385961384	1.896949500729471	1.954851088587181	0.07108799104320074	2.553478724227941	0.543619542819247	0.1395313136105951
0.8159128561131141	0.05739932681536609	0.4222415803323738	0.01482107290383539	0.006295055504956792	2.009021988688828	1.894033560166911	0.06263527746269926	2.715815759676591	0.5169360160603524	0.08629491876001705
0.8328558844730553	0.1451100445640128	0.39259079654797	0.0294179547143294	0.004977683241141229	2.101830963081264	1.826232938885686	0.08017840271751364	2.883812394245877	0.4636761059506993	0.04869049580615581
0.8472312594138312	0.1985621326066847	0.3978433008206004	0.06977517502499619	0.007269533842400477	2.138436230858143	1.75211074699656	0.1222166818470001	2.976674908943052	0.4276030891830596	0.04178797961958303
0.8512000000000002	0.2602078417210443	0.3890843910422879	0.1299121853974015	0.02073928291358218	2.139421952637008	1.719389217326466	0.1455716150565527	2.955018120055399	0.4301337542268104	0.07931548491490048
0.8607128561131143	0.2638047008638651	0.3533441902350045	0.1136197258123319	0.004679122035867067	2.155527099575154	1.651480268019675	0.1543247488089952	3.013429119420993	0.3860203811596117	0.03458078533293119
0.8776558844730553	0.3328753002828809	0.2935246773881532	0.1634167184346911	0.003761578270411903	2.137630324005952	1.548259184099188	0.207139359438421	3.021588420742975	0.3277445628607536	0.02949993130880912
0.8920312594138311	0.3569534849061658	0.2738977770687185	0.1921821219034339	0.00592836087426285	2.086815815791957	1.427384682054118	0.2694518287810208	2.998919843802006	0.2872301149835383	0.04203159418268054
0.8960000000000002	0.3747527862065816	0.2614554532942588	0.2149643772933549	0.01779798496159035	2.075833704294928	1.393412921499972	0.2890406199707503	2.979584152308734	0.2946721263357528	0.0777500984889592
0.9055128561131143	0.367319850288606	0.2170586539082935	0.2232241429519197	0.004195372629436811	2.027814228260864	1.287755322892279	0.3122577796198378	2.97665256704297	0.2425630712948097	0.03479809829530467
0.9224558844730553	0.3497621499141995	0.1739440505177594	0.2363703518550082	0.003870493548292053	1.929989833160797	1.100128963400152	0.3724109314383686	2.933567818165119	0.194683241963352	0.02704784535223848
0.9368312594138312	0.3256274414068808	0.1678479937169595	0.2197875100312743	0.006686394509642923	1.832844156101959	0.9371715628882765	0.4262128834377297	2.868406334061189	0.1758112899469753	0.03182217694347056
0.9408000000000003	0.3400520847471933	0.1596397686604965	0.2269803387490255	0.02107212827362659	1.801550069837238	0.909975204853282	0.4459838761761787	2.835636607215509	0.1905167189114643	0.06376718421680927
0.9503128561131143	0.3039847336120403	0.1457976106324645	0.1808372833514458	0.005354264160946975	1.73235524467624	0.7889953008407894	0.4776964438374378	2.809344233960117	0.1530951389841357	0.01992855205056632
0.9672558844730554	0.2967522482958769	0.144713150308541	0.09782054413311947	0.00617441347311587	1.597221595025131	0.5989634435666041	0.5535765803817938	2.699669469586521	0.142324016089848	0.01505546627031595
0.9816312594138312	0.2937171071111875	0.1526513757494916	0.03666196392983689	0.02150118795298717	1.481706549546116	0.4635931832596709	0.617106286781544	2.597688520118304	0.1631925379197083	0.02134242817949072
0.9856000000000004	0.2915015321489465	0.1452197935621351	0.03636708938383215	0.09867776464169609	1.457886390344557	0.4657173813372237	0.6473298699028094	2.528797048800236	0.1823903182305129	0.04883689273708924
0.9951128561131144	0.2618892027279803	0.1319586179128853	0.01135844719972567	0.1206884572548077	1.382630383358107	0.3417748371403268	0.6888258946096233	2.522252854732971	0.1706729658490467	0.01507948723439334
1.012055884473055	0.2019469100964227	0.1214155291167849	0.008105259018565292	0.295800417808616	1.253102184956909	0.1787076850455733	0.7674251690133502	2.437109820980858	0.1918666805072728	0.01417262523104501
1.026431259413831	0.1398721505353118	0.120301505712904	0.01226921768468436	0.4702111643874991	1.14980989954194	0.09217664945137381	0.8145135824746923	2.401869344263545	0.2334806990295215	0.02146391738314524
1.0304	0.1389385262835381	0.1099179567485287	0.02579812826938088	0.5488964139278636	1.112050943503616	0.1137490265986587	0.8485232306799526	2.319432010655999	0.2316470185832884	0.05214881333247412
1.039912856113114	0.0782977683030044	0.1024468054108709	0.01096241922563657	0.6273809192447217	1.068160664749254	0.02654580784285443	0.8718376961026673	2.384463845568274	0.2342558964210886	0.01615872292676812
1.056855884473055	0.01757077964937537	0.09334224248410194	0.01372661180485402	0.8084920657964574	0.9700253288132856	0.009688019073998076	0.9251344281171656	2.371702223423257	0.2269778120100696	0.01436782183249008
1.071231259413831	0.01536176549442292	0.08981010871123818	0.07868305333930792	0.8866783333464348	0.9002102040411328	0.01603921196598001	0.9740391596839206	2.404992664398977	0.2177787092872414	0.02005301289786132
1.075200000000001	0.07697873466592765	0.05367407722905693	0.229973286355551	0.8377280013671955	0.8357575922829046	0.04080224065101489	1.002593139944541	2.368275637713738	0.1982255937269688	0.05543810085438761
1.084712856113115	0.006941700495410432	0.07041813998448809	0.09963926621713792	0.9831705738422611	0.8574483727749218	0.01798008235208925	1.038165579954442	2.436878917296116	0.1744088576353668	0.01353880697688048
1.101655884473056	0.004230158145536401	0.04823671168806865	0.1525045952889865	1.076457585612625	0.8151952252080781	0.05933144670392653	1.09005464885418	2.536351221854866	0.1151400455070366	0.01043869663231423
1.116031259413831	0.006834606277056567	0.03004199356859338	0.2535551140801635	1.129071697424879	0.8295991601807842	0.1135206494106482	1.138503912851762	2.621590797954632	0.1076274665252122	0.01410630232651489
1.12	0.008312494607081613	0.02511876237972643	0.2893281063755779	1.139118609624048	0.8425447827915997	0.1313198772026549	1.152573047398	2.645257369417292	0.1084152226600086	0.01606171602156792
