DataType=double
version=3
OpenSimVersion=4.5
endheader
time	pelvis_tilt	pelvis_tx	pelvis_ty	hip_flexion_r	knee_angle_r	ankle_angle_r	subtalar_angle_r	hip_flexion_l	knee_angle_l	ankle_angle_l	subtalar_angle_l	lumbar_extension	arm_flex_r	arm_flex_l	pelvis_tilt_u	pelvis_tx_u	pelvis_ty_u	hip_flexion_r_u	knee_angle_r_u	ankle_angle_r_u	subtalar_angle_r_u	hip_flexion_l_u	knee_angle_l_u	ankle_angle_l_u	subtalar_angle_l_u	lumbar_extension_u	arm_flex_r_u	arm_flex_l_u
0	-0.08750806758203393	1.057368434410948	0.9447094814064946	0.6241022705844882	0.3543476738961415	-0.05556951259095902	-0.3689969288722589	-0.04669100597792031	0.1901128179562134	0.2760323611668632	-0.07603083470257627	-0.1897024786424504	-0.2003423313571916	0.4952392306633611	-0.3457704382960132	0.184816109753507	-0.2223219275344093	0.04897954197917165	-0.02702882533781523	-0.1013569562318901	-0.3304618513248365	-0.4873269424015144	0.6977638234539728	1.158362331046421	0.61238195113576	0.6909709984829504	-2.159858419524839	2.078799166120961
0.009512856113114032	-0.09077868464179319	1.059253385790643	0.9425806771407165	0.6243047840286504	0.3560987663178823	-0.05537148625333921	-0.3727120245770575	-0.05094761121430275	0.1976603043590665	0.2863584192438211	-0.07056951087369795	-0.1828059291110499	-0.2211648449785942	0.5147926105985305	-0.3364208798330699	0.212861930161659	-0.2244024324471259	-0.01168283028528155	0.3970889172530523	0.1021304970898524	-0.4458181810289725	-0.4165774234135604	0.8882117443617236	1.028220773541757	0.5360789475289847	0.7539309578078973	-2.245464508743451	1.980664773951982
0.02645588447305514	-0.09587949461592746	1.063360988334653	0.938820852942196	0.6226649901457688	0.3688080062283037	-0.05423780397108188	-0.3811453465497615	-0.05756476553881046	0.2156061931868573	0.302791243774683	-0.06299288513363785	-0.1695843144362484	-0.2619173108823455	0.5432444931718032	-0.2544751551361264	0.2719379843146744	-0.2174710881837261	-0.1989171167125791	1.063327251432189	-0.0693020726026799	-0.5052565098772956	-0.3731318107284958	1.235477129441838	0.9179404827749658	0.330325777393303	0.7905581122907601	-2.553236447993947	1.325760759628942
0.04083125941383081	-0.09879676649625746	1.067568908278784	0.9357830799560075	0.6181719207749728	0.3864041849706957	-0.05879043511011764	-0.3871087856349266	-0.06264446562346682	0.2357420856705021	0.3149216624413012	-0.06068420540424618	-0.1584642584343876	-0.2988346569865923	0.5582998733849862	-0.1484381061830149	0.3096454662395713	-0.204374014329349	-0.4386946028596852	1.317023577681395	-0.6124036948671515	-0.2675360292243224	-0.322817442393009	1.576531583865965	0.7375573190798992	-0.05379089985049046	0.7446599270843653	-2.489858063762219	0.8260752134281353
0.04479999999999995	-0.09932412735276032	1.068809418858938	0.9349804361405444	0.6162750601452234	0.3916222486428313	-0.06160247146425654	-0.3879194410550481	-0.06387016775483423	0.2422090990630058	0.3176723584194922	-0.06120508838014929	-0.1555572415609394	-0.3084657303901568	0.561454766113469	-0.1318509694114329	0.3171945029166622	-0.2023783998826715	-0.4954088899346798	1.311266052636323	-0.6600297648630915	-0.2219489436887022	-0.2874310479369426	1.676101027356162	0.6835275540844796	-0.1602102931463079	0.7384324676510219	-2.463927690701798	0.7626497873538829
0.05431285611311398	-0.1004421558930312	1.071898890844326	0.9330941785207775	0.6105231809590077	0.4028232095844549	-0.06418114380629172	-0.3911656826174962	-0.06603988794038534	0.2595080279230706	0.3236982480397613	-0.06387152314181821	-0.1485642439169226	-0.3308245868593717	0.5679052276869229	-0.1010857378152674	0.3287898992777496	-0.1916476830365006	-0.6856381311422208	1.094751108794088	0.08894337473162123	-0.5351920650525531	-0.1584416905243594	1.978433484149696	0.5762907628521383	-0.4235496222638583	0.7214972613182062	-2.131031576527067	0.556553453771742
0.07125588447305514	-0.1016693372616177	1.077337923021932	0.9302152844530445	0.5985998473248392	0.422224306283246	-0.05379446002121988	-0.4085090717127555	-0.06566718471508931	0.2991797880041539	0.3311066747744676	-0.07632739889342247	-0.1372731901479604	-0.354226167461771	0.5718889389053914	-0.05130377997272471	0.3053863252969854	-0.1435619891281917	-0.6498025279627585	1.286417342111732	1.078924416799158	-1.458452650696887	0.2420291187497079	2.748877228440858	0.2729700702600371	-1.045626946810283	0.604472932196079	-0.5069636357897671	-0.1035531178034954
0.08563125941383082	-0.1025091459710381	1.081405499032569	0.9285311732172261	0.5913059051722021	0.4435438805559814	-0.03346593276014323	-0.4296942620795949	-0.05851898845949233	0.3445125949022305	0.332420281837265	-0.09412360214190835	-0.1291495688708725	-0.3508657843413187	0.5672148174565718	-0.08310334745113672	0.2577651480335472	-0.09035350509651216	-0.3280955743707121	1.684625050509578	1.736056675920362	-1.202900888704378	0.7868929659664141	3.580339004317323	-0.1107784402719082	-1.365878359293454	0.542781724440291	0.8840026686795339	-0.4739604690651441
0.08960000000000001	-0.1028955428691242	1.082398235442073	0.9282012883997453	0.5902456762307651	0.4504326326673723	-0.02623005046404045	-0.4336702163592084	-0.05502811737708629	0.3592167789236277	0.331729395751068	-0.09956845490837504	-0.1269870446767843	-0.3468451690939919	0.565307388558417	-0.08359009098142556	0.2511555284165233	-0.07576777906065163	-0.28709899810424	1.753388896750461	1.964658070894875	-1.14557038893219	0.9105004559436125	3.776813237261591	-0.2570922242350561	-1.463983328107431	0.5317342990462048	0.9923570481097996	-0.5850681731981515
0.0991128561131141	-0.1037625974874586	1.08472412009682	0.9276389528974217	0.5877606008911413	0.4673440725691896	-0.006622496946556242	-0.4449183385138161	-0.04488709398660407	0.3973643880795569	0.3275812781371089	-0.1147313112219953	-0.1219190449916806	-0.3362364186836208	0.5586824289363155	-0.09719910004530156	0.2394602204248124	-0.04247809574275872	-0.2736301735736126	1.727301458574968	2.075508850028553	-1.213269588025405	1.21589406558108	4.235681345100798	-0.6307272518802042	-1.733224330332883	0.5375735711004379	1.238690261140572	-0.8178449577683041
0.1160558844730551	-0.1054456349685454	1.08872465409777	0.9274034799623937	0.5803030304187914	0.4904903409092442	0.02393672995160774	-0.4658638713439753	-0.02023270449411746	0.4752977438543677	0.3103723654312872	-0.1486429434289131	-0.1125277179830625	-0.3120749523924842	0.5407624138750636	-0.09516161687538878	0.2348548490917457	0.01340149848670513	-0.6703189759292081	0.8946920490052727	1.411471315610996	-1.237203475013191	1.67692741769193	4.939994532183988	-1.399796570812755	-2.26603273166491	0.5693529729005515	1.569605356302559	-1.295708867563042
0.1304312594138309	-0.1065998480996368	1.092091616416348	0.927883955606885	0.5671954379180764	0.4968113731624539	0.03860386236727285	-0.4831250133841299	0.00619284379544488	0.5499356768083167	0.2862609476392531	-0.1839139088197479	-0.1043795222689375	-0.2893590896811383	0.5197225778986363	-0.05956165579564978	0.2324792135569567	0.05148470239189887	-1.149905948232829	0.01361819658244526	0.6620865882971855	-1.145890062228903	1.987479835668396	5.42764230215279	-1.910919505176717	-2.609937348190673	0.5514053683135307	1.52020055604133	-1.601488822587784
0.1344	-0.1068047893072642	1.093009758496384	0.9281049074187236	0.56239577091502	0.4964832689016867	0.04093408468347352	-0.4875858841489538	0.01422742337946412	0.5717118797930179	0.2784999727129867	-0.1943881745758328	-0.1022308083252684	-0.283506216949047	0.5132693250891784	-0.05336781035695664	0.2241171431885976	0.0604841413201474	-1.21916929150123	-0.1281393991247455	0.601617129137505	-1.089914513887261	2.112097013577435	5.61474660972364	-2.011029875667951	-2.741861177484818	0.5309837973484397	1.571590542010823	-1.691802908157776
0.1439128561131141	-0.1073204801869509	1.095072932823926	0.9287595266011401	0.5502800889300459	0.4941008003813783	0.04711867664174978	-0.4975085259092912	0.0350579881229808	0.6255495979606971	0.2577681978078911	-0.2218131855047565	-0.09722775951331122	-0.2682893341186084	0.4966625185169842	-0.04699739919456476	0.207549707671763	0.07720426579875277	-1.32981293792307	-0.3651182080330456	0.6814801203884011	-1.001135903816353	2.290219052691379	5.771023104334913	-2.391992125212751	-3.041267997070165	0.5060194360207281	1.617378947873052	-1.804771692188038
0.1608558844730551	-0.1074477327781997	1.098195330907488	0.9302999430260617	0.5260436690934081	0.4850039403364045	0.05840178656754733	-0.5134946189819511	0.07750765031031159	0.7289384895670329	0.2133466216684952	-0.2768042684893625	-0.09006997092825136	-0.2407248333961387	0.4641869076192915	0.04054846067248236	0.1591803129306816	0.102864268116657	-1.526246696294366	-0.6913663120402755	0.6134328879770983	-0.8922553821973305	2.694544328888278	6.390913352421722	-2.52026791896946	-3.295911327805744	0.3243875069850382	1.640595979829178	-2.021187471642739
0.1752312594138309	-0.1063119682949613	1.10019995329702	0.9318584330772746	0.5031843958411779	0.4734801933364795	0.06597912373765895	-0.5257165008219801	0.1166445562769464	0.819982838995952	0.192125456569126	-0.3185361508187523	-0.08649552168642438	-0.2163890857585684	0.4343458627944301	0.1091690724615345	0.1224874090792672	0.1110242942517764	-1.641676215292408	-0.9052920907656226	0.4290459961296895	-0.8048830236326814	2.647607108376945	6.028536095175158	0.2086388148696463	-2.221216398260257	0.1902272002587375	1.779466179810706	-2.104768721644839
0.1792	-0.1058631834992778	1.100673043410175	0.9322971275216854	0.4966335785401852	0.4697805718778737	0.06756414579840934	-0.5288534720502517	0.1268919604950842	0.8431400741448634	0.1958602367948627	-0.3261277516624651	-0.08576899790510244	-0.2091711905449446	0.4260051816875852	0.1141353202337482	0.1134366671187488	0.1104391874305777	-1.644499921325419	-0.9337544659452401	0.3668703707079154	-0.7705822353695262	2.611535242942211	5.886831445410134	0.2538317193999224	-2.154490471187248	0.1673684507248038	1.766258899600064	-2.136767717573426
0.1887128561131141	-0.104781835885714	1.101657332091203	0.9333595231534825	0.4809937071450127	0.4606606958046633	0.07115390537080607	-0.535623026245266	0.1513121942935834	0.8954587442993525	0.1940226130262331	-0.342676754312475	-0.08431677468267121	-0.1922622864469932	0.4056356843661349	0.1183547627021065	0.09236253246510713	0.1136309186599944	-1.645833040280644	-0.9802257656167086	0.3702677839535021	-0.6544485824386881	2.52711085321781	5.112550944506296	-0.58464862586849	-1.347482836541211	0.1277797467887267	1.779674092233184	-2.131200326636068
0.2056558844730552	-0.1023800715154796	1.102821692255384	0.93537799956553	0.4530213099377651	0.443706971076981	0.076204856420353	-0.5451855376953935	0.1933406194133	0.970807969282051	0.1774099561933939	-0.3566489440979997	-0.08345378604441892	-0.162564852278565	0.3705780204856606	0.1681234411074139	0.04375389577565657	0.1249796190325563	-1.651765009692111	-1.008825347499831	0.2054830952987385	-0.483744006781104	2.451352225730057	3.813661157515945	-1.166461858903945	-0.4548549599775554	-0.03532001274306422	1.715068360478481	-1.99673154978632
0.2200312594138309	-0.09975294216964381	1.103146719396942	0.9372282300858812	0.4295147416107645	0.4293991741833786	0.07803820324715059	-0.5514178824640118	0.2286546406207543	1.019052401405408	0.1635558664839603	-0.3632090928401164	-0.08492076960016466	-0.1383764065106729	0.3425136287629022	0.1881357398153636	0.002459023507693614	0.1310584847461366	-1.605920914907331	-0.9717638621365758	0.06491615326574068	-0.3933004438728912	2.476853349949207	2.948918970377781	-0.5811614666566304	-0.6370853558246742	-0.1560773018955119	1.657579408556236	-1.930816661656705
0.224	-0.09901796785901296	1.103136585742848	0.9377483488083538	0.4231950281592962	0.4255827757029133	0.07826097952805153	-0.5529499243261827	0.2385290129759905	1.030391702829468	0.1619318118203604	-0.3662144647346514	-0.08557366870654291	-0.1318088098122613	0.3348295046803716	0.1891368428741729	-0.007333235554948456	0.1323139356406758	-1.584656580331407	-0.9542853966624505	0.02925043621176887	-0.3821442552686827	2.477351122870628	2.697365800059414	-0.4292611352166888	-0.5554389978461324	-0.1837097769556825	1.653264119302158	-1.946845273285306
0.2335128561131141	-0.09721349281533168	1.102961574514759	0.9390177457883123	0.4083107173958369	0.4166525623541819	0.07875780549690026	-0.5563825671294167	0.2621023578917123	1.053245105437708	0.1595628886963443	-0.3719642172677431	-0.0875687811664637	-0.1160387524511574	0.3163154278218942	0.1948782653880636	-0.03016860113455662	0.1347661888271595	-1.549017577618267	-0.9195820527353529	0.0631537841446741	-0.3365547285476242	2.47704344570066	2.115653355887738	-0.0587427338045341	-0.682658109703779	-0.244503792147831	1.658793368848373	-1.924388656902341
0.2504558844730551	-0.09352958114883091	1.10207052576033	0.9413474255022415	0.3822719017580608	0.401744802403909	0.07947087174980848	-0.5613817978317214	0.3038818535280734	1.080885018568425	0.1637469376307624	-0.3864641252492403	-0.09317413563751664	-0.08805446942512818	0.2855224714973339	0.2423087605364591	-0.07463594493688225	0.1400790750681297	-1.530887357535513	-0.8445800928887243	0.007329322538936089	-0.2653002025155786	2.448138800126946	1.154527851135491	0.4782422045651773	-0.9794236924202409	-0.4206311948178622	1.644070028794731	-1.69055213873592
0.2648312594138309	-0.08985566540552828	1.100772199165629	0.9433784932813762	0.3602994518821024	0.3897218995858457	0.07917107770358238	-0.5653800766227929	0.3386945009467783	1.091584594845882	0.1703476927162563	-0.399035440887194	-0.1000696969526125	-0.06438330854377713	0.262586107542287	0.259950995644815	-0.1034914218424486	0.141711006774228	-1.524025283212643	-0.844892780851783	-0.03798579033818744	-0.3174837993897228	2.389506167484849	0.3234691442004638	0.2959950729908081	-0.6126306919911948	-0.5204977455602652	1.657849746321499	-1.52646883989577
0.2688	-0.08883592632014028	1.100351448841294	0.943939996454068	0.3542613969245328	0.3863303785754837	0.07902556675952141	-0.5667276765941909	0.3481341581461562	1.092385891122216	0.1711050684812583	-0.4009107644974759	-0.1021461703121687	-0.0577757232691429	0.2565508184404971	0.2596955480143846	-0.1099914623017636	0.1407697338185619	-1.514024778012895	-0.8392728474358468	-0.04695613686257233	-0.3230358124627726	2.37335585125911	0.1139080938944689	0.4212018248414373	-0.4047547051732462	-0.5402249332426103	1.667426147741436	-1.516100455077241
0.2783128561131141	-0.08636812533243221	1.099238429682196	0.9452698603278749	0.3398755589353095	0.3782908197756903	0.07884460241382192	-0.5696247753113106	0.3703812044625056	1.090839962841593	0.175319669441118	-0.4038102922712218	-0.1074557639421404	-0.04163982107999101	0.2424286574006734	0.2623329419587128	-0.1240149007426477	0.1389858597193923	-1.515715761467358	-0.8530272170744038	-0.0002880460614060887	-0.2882046403099032	2.295332117823306	-0.4420444585699902	0.4746590411672029	-0.2097609408772195	-0.580779843361197	1.724089581327294	-1.435888310965368
0.2952558844730552	-0.08170826307447486	1.096939539596159	0.9476030983433212	0.3138101757073908	0.3633971658945508	0.07892545939971139	-0.5741303575722706	0.4074415482777561	1.074773311943231	0.1843090172744546	-0.4044426624434532	-0.118144800081936	-0.01167358354191675	0.2203836430604346	0.2872125480470478	-0.1462884242110118	0.1361359979654094	-1.565672543759988	-0.9138570953111596	0.002751740240475031	-0.2455705872927443	2.067023773957808	-1.45532387917922	0.554936443212398	0.1547554429046795	-0.6785987000376913	1.809634597209399	-1.158908780291655
0.3096312594138309	-0.07758464539697955	1.094745556565281	0.9495232550677912	0.2910285155225035	0.3496064789553473	0.07907560220238335	-0.5773903476299557	0.4356079370930908	1.047770698311289	0.1910382575161309	-0.3989623189781869	-0.1281971443437916	0.01475155871910036	0.2050030356614594	0.27704728105711	-0.1572724592591848	0.1300984524496289	-1.596883157906396	-1.013089591139286	0.03187028980505929	-0.2051966745664394	1.85543855256938	-2.294322004709599	0.3052864603470717	0.6518674823871322	-0.7034822509359752	1.863700486572739	-1.015398306576509
0.3136000000000001	-0.07651278310009563	1.094119011404669	0.9500342173609857	0.2846915971988105	0.3455144857928534	0.07925247523311053	-0.5781754747110135	0.4428682777992584	1.038222553103735	0.1919433796649596	-0.396004656656757	-0.1309646236115391	0.0221714475111599	0.2009684543885677	0.2711676569196936	-0.1597194497709811	0.1273072094276412	-1.595607044732973	-1.027056607584901	0.055128286211511	-0.1816885917389246	1.801712764148764	-2.505217036162143	0.3301292529144555	0.8312734521973912	-0.7041679780614465	1.880994045271822	-0.9953216864918157
0.3231128561131141	-0.07400686287188005	1.092575528751936	0.9512154555852002	0.2694471930275179	0.3354530994329631	0.08003912249062892	-0.5795033384843044	0.4592516847288491	1.011801184812139	0.1949393337981439	-0.3872229630087749	-0.1376452464018742	0.04042429594956459	0.1918203437100111	0.2558418562839729	-0.1644176599059352	0.1210512455603441	-1.611378499197048	-1.09285359649617	0.1010535011491321	-0.09647634947225273	1.638594039729828	-3.05070726243417	0.3032261664702882	0.9959195161708576	-0.7011173825351317	1.948083415752639	-0.9322987069466535
0.3400558844730551	-0.06992881125446071	1.089752870835478	0.9531678422557889	0.2418109242796608	0.3156428663625596	0.08187466150118625	-0.5796828577132571	0.4842754317795609	0.9519269996184774	0.1993699411771293	-0.3691307118148819	-0.1494772491043508	0.07378812314624747	0.1764589482136402	0.2229272216181963	-0.1677936313350611	0.1090412297542776	-1.649672186058975	-1.248590502149349	0.1122588189563136	0.08374421362935136	1.312259007093308	-4.009109984628005	0.1820052453685937	1.126356055963314	-0.6922984124082726	1.977140136320914	-0.9014681291997093
0.3544312594138309	-0.0670414603536072	1.08734589444677	0.9546459292350663	0.2179970351536828	0.296812687891554	0.08380533000303439	-0.5770674230637777	0.5011993944545552	0.888825474312799	0.1995138749315125	-0.3518973964591895	-0.1592071261065978	0.102193137506302	0.1630108939602186	0.1742364092537864	-0.1665297504738796	0.0959802051231281	-1.656241643880562	-1.363497224068363	0.175949571969813	0.2907069125045056	1.048849096868223	-4.754765851796448	-0.2307648025523492	1.301818648840474	-0.6542569780729326	1.976916273439517	-0.9900539299626472
0.3584000000000001	-0.06638656942172613	1.086686682982757	0.9550183435444032	0.2114369322800493	0.2913573773878654	0.08458568047153067	-0.5757778858278408	0.5052339706174136	0.8695801065368465	0.1982210069810902	-0.3465587645324231	-0.1617670262250549	0.110047835374578	0.1589907532113816	0.1615666362080522	-0.1668972291183385	0.09178918923376855	-1.652929656388005	-1.384280648812557	0.2145623244612044	0.3456959147204011	0.9835510410788262	-4.935772099793719	-0.2611184321508484	1.43756276502189	-0.6454784580053524	1.990412768640718	-1.013362358310239
0.3679128561131141	-0.06498397101796229	1.085102301062156	0.955843700175089	0.1956957240030814	0.2778747937722923	0.0869061345021758	-0.5719437559804667	0.5137344493203806	0.8205345326971174	0.1950337659116525	-0.3324190732178967	-0.167785178633645	0.1293157790389211	0.1491750275706287	0.1323687153195712	-0.1655193024188134	0.08148644666384317	-1.655229133710035	-1.449993973402839	0.26625895317996	0.4593477459792765	0.8047403377230378	-5.365092285599626	-0.4060674520602645	1.527669482420308	-0.619308414209833	2.045355011885881	-1.072875515814697
0.3848558844730551	-0.06325164566488686	1.082375833968682	0.9570463577105772	0.1677387992550486	0.2524282566292366	0.09170985864997361	-0.5625754378644364	0.5248201381495579	0.7243665451131254	0.1857762278905447	-0.3055529698335372	-0.1778067729683749	0.1637755277606557	0.1285280859428697	0.07093367382565502	-0.1549623762483482	0.05984925397716585	-1.641241734655765	-1.546711233727745	0.2942712115090736	0.6412746520564314	0.5102037208446587	-5.94087679744373	-0.7136478436222486	1.647631978195968	-0.5599552600243397	2.010352443336403	-1.385818729801321
0.3992312594138309	-0.06261620545062163	1.080240508600816	0.957758875423814	0.1443283352523402	0.2298869146959091	0.09613523807220045	-0.5524228943286179	0.5305772787080034	0.6369351680531196	0.1723877439865713	-0.2806515678202929	-0.1853588562303537	0.1925989661809926	0.1067513709254861	0.01817548620700092	-0.1418407566798653	0.03896460271719838	-1.613578637372518	-1.579163610455913	0.3301951543606991	0.7658210975317417	0.2976976668058685	-6.179488543477119	-1.199240397000556	1.843372597745257	-0.4862051117057221	2.021856214113448	-1.616673335642688
0.4032	-0.06257097081678313	1.079685022314134	0.9579015143613453	0.1379437311773607	0.2236238576285022	0.09748797321596268	-0.5493264813340728	0.531656789631743	0.612369008136071	0.1672519542370168	-0.2731670874904861	-0.1872384822715458	0.2006850788551416	0.1002792186490764	0.006869966875682684	-0.1391012072817681	0.03305657255651714	-1.605140268954034	-1.583252111402577	0.3367754491353275	0.7787525987848627	0.2538363801031273	-6.188076436487171	-1.292061207803832	1.924402713886938	-0.4683279737211207	2.045022812715442	-1.647972103389911
0.4127128561131141	-0.06261495849944915	1.078401133410408	0.9581469420794581	0.1227864418453203	0.2086162307454534	0.1009057859888799	-0.5418331566061135	0.5335620865276542	0.553767761067292	0.1541255824550338	-0.2543447953851776	-0.1914586199374216	0.2206132983267576	0.08441322273311444	-0.01733154038165477	-0.129863950894461	0.01839358866333198	-1.579645935851375	-1.569280045156801	0.3750184026839454	0.7913385409271572	0.1520007932570905	-6.109085187405853	-1.447045305092704	2.026736958377199	-0.4164257438585515	2.130858321552126	-1.716979507592291
0.4296558844730551	-0.06333560223836227	1.076414054624556	0.9582307906392026	0.09655668748186261	0.1825430693521768	0.1073589169528106	-0.5286291273671209	0.5351066209243092	0.4537719559911892	0.1288714394569319	-0.2191557952057634	-0.1975421523286841	0.2570090436376259	0.05231701126593094	-0.06717597336350294	-0.1032631145907145	-0.008348763435030236	-1.513512904375813	-1.497092231677962	0.3798148285600719	0.7604889553132308	0.04584723149564046	-5.619752952722702	-1.501809132992431	2.100870356835492	-0.2981762100000632	2.149392265427606	-2.094052395468411
0.4440312594138309	-0.06453040489893608	1.075111279125734	0.9579601727719297	0.07525078558070705	0.1618253393902799	0.1128446701664378	-0.5179457758600402	0.5355474401071927	0.378131254169992	0.1074286421396211	-0.1893448840235367	-0.2010654942417882	0.2879354587324624	0.02021636935796066	-0.09489351827579723	-0.07833560101288478	-0.02866735397468771	-1.451043717949434	-1.374715029693791	0.3908454128990183	0.7295228123347286	0.02566152921190817	-4.849004998422415	-1.48652317341927	2.021916476636927	-0.1932367617562618	2.165626085345249	-2.327992146251137
0.448	-0.06491256443398133	1.074812800350447	0.9578367182960377	0.06952449956014248	0.1564580746119522	0.1144214510955194	-0.5150567984043896	0.5356576251638032	0.3594162690188356	0.101515967278114	-0.1814141591963032	-0.2017788240307743	0.29657290832128	0.01095926458893462	-0.1016649781058771	-0.07300798361678368	-0.03380249746584863	-1.428014594783346	-1.333177237355669	0.3871466223837836	0.7021912664152612	0.03832184300671371	-4.586168270633124	-1.550647062717539	2.010551959345236	-0.1649162601842207	2.191675711128309	-2.343303859140363
0.457512856113114	-0.06595333230429981	1.0741814966909	0.9574560200525922	0.05626352793458542	0.1444079877991096	0.1183645007768702	-0.5086578508742609	0.5361967180559639	0.3190262687621579	0.08756653875529614	-0.1626174577873353	-0.2030300663574778	0.3177915316032886	-0.01149142713873468	-0.1192967942107141	-0.0590418296338221	-0.04619534407193024	-1.35731689938904	-1.198341644664048	0.4315950605713009	0.6382157019559385	0.07739180653691813	-3.89306137263988	-1.339303645595341	1.931274539735691	-0.09408141492584809	2.259221005547438	-2.396952047863756
0.4744558844730551	-0.06836138115067984	1.073432080344608	0.9564992939290415	0.03455405382731713	0.1264014905576661	0.125692247006951	-0.4990533341874729	0.5382394125910028	0.2643747459253464	0.0703064419891189	-0.1322975099381539	-0.2033287093689941	0.3563676527711899	-0.05411949405611935	-0.1648175431543471	-0.0292999427881394	-0.065936285615766	-1.200183781516097	-0.9155922315121552	0.4280583551202831	0.4983345611834045	0.1642260093921296	-2.547460932082742	-0.7131621377779572	1.599877465575549	0.05842434127402236	2.283648620947416	-2.639180750173635
0.4888312594138309	-0.07091153528043723	1.073168713542977	0.955463028260249	0.01836177168650716	0.1153699482017976	0.1320342371593097	-0.4924165134363197	0.5410499775942071	0.2358823971430302	0.06142963247108585	-0.1129062895988245	-0.2017478858428127	0.3893226641131374	-0.09285804851319227	-0.1839510895565726	-0.008979780728694667	-0.07708431580296712	-1.051753578234389	-0.6061254676709497	0.4736131049249857	0.4427371757251091	0.2211564738653386	-1.433406006856882	-0.661188175037835	1.04977015309134	0.1498837793356767	2.311789170749458	-2.702439454953036
0.4928	-0.07163791767804328	1.073140312502455	0.9551534694819073	0.01426942097631095	0.1131612890708615	0.1339859470146477	-0.4906489698642689	0.5419454431784998	0.2307611436891717	0.05851021941053949	-0.1091407924951323	-0.2011301983438467	0.3985409052197921	-0.1035037975465941	-0.1959295559439927	-0.004056345914723022	-0.08057510990688418	-0.9962126514302359	-0.5066520595064571	0.5092850225615515	0.4304616534747452	0.2446533206954173	-1.147836566055991	-0.7229322746966123	0.9591810173895514	0.1832374145556666	2.333633452618872	-2.688851414686635
0.502312856113114	-0.07360512119820578	1.073158645511057	0.9543500461675755	0.005370341369211884	0.109433324143163	0.1391652530290765	-0.4866851016893727	0.5444282116673964	0.2230385703676005	0.0528530685927887	-0.1007590951587076	-0.1990934690729205	0.4210866206610958	-0.128960003838152	-0.224235229150005	0.008102033017504659	-0.088716398184411	-0.8666399566291518	-0.2739708456696989	0.5809406549320912	0.3980835304186717	0.2797846271086343	-0.4859177743651563	-0.4392707983895194	0.7734646143943817	0.2521918882354817	2.393836118151392	-2.667487654969138
0.519255884473055	-0.07826114219360959	1.073488495470288	0.9527037628087395	-0.006867687910108222	0.108435823767939	0.1501360902983376	-0.4806683680772342	0.549736849547283	0.2235924480229889	0.05053485515551386	-0.0924122396810014	-0.1933477692752262	0.4616490290662266	-0.1739548327193111	-0.3294961586194951	0.03069919455569455	-0.1055196980564906	-0.5758528628600348	0.1527345338271296	0.7119336195374379	0.3148559561744609	0.3391530231757723	0.5043084296729776	0.1122915500119972	0.1913551035707514	0.4275794244579924	2.380123986391136	-2.63414105319791
0.5336312594138308	-0.08353439975400336	1.074053841786308	0.9511044321382466	-0.01362670944563915	0.1129537902138561	0.1610230379711468	-0.4763317610555454	0.5545467317981018	0.2353373575725114	0.05212346611857163	-0.09282031945226374	-0.1863729604965039	0.4957197381702048	-0.21102635154587	-0.3928579560838204	0.04722598918437373	-0.1158170726294545	-0.3830934750724445	0.4618327250832384	0.7957830629629704	0.3057849546978419	0.3112731196130094	1.083280802068657	-0.04855204195852869	-0.2004538077138471	0.525686726266817	2.371818784546257	-2.496441517158063
0.5376	-0.08510043725612169	1.074248644734199	0.9506418777070933	-0.01508590772953861	0.1149240661252271	0.1642114955902338	-0.4750831913050383	0.5557249092089389	0.2398582601002218	0.05148790818808063	-0.09371218453742133	-0.1842736694150492	0.5051602684875069	-0.2207977574202906	-0.4019602500347031	0.05185581628404493	-0.118416575471836	-0.3429694997117972	0.5388413628590433	0.8381284622941465	0.3199780565325716	0.2933257985755663	1.205001883609306	-0.1446436129418366	-0.1444303710446009	0.5437598832238797	2.394791120280301	-2.446621754318369
0.547112856113114	-0.08907731528948797	1.074789679775976	0.9494835800023385	-0.01789788704801493	0.1207528171207783	0.172414004103056	-0.4720633030100557	0.5582566647678451	0.2523902852188726	0.04845009037307674	-0.0952313942540291	-0.1788733434474419	0.5283721211234016	-0.2434314788017275	-0.4348479363071582	0.06234146102486703	-0.1249492267337513	-0.2488499923946514	0.6866672458903726	0.8880320412443165	0.3121629635595511	0.2377478207754622	1.426372684975074	-0.5496375242361469	-0.1501376042653332	0.5913787346105833	2.466727675479446	-2.31114243715045
0.5640558844730551	-0.09690377057229609	1.076048200899322	0.9472857238484352	-0.02091870336793861	0.1344491098049578	0.1881877808512174	-0.4669618002189879	0.5610799027197506	0.2785837175941427	0.031226219060285	-0.09618348313873556	-0.1682361182435511	0.5697980127151649	-0.2807446520192036	-0.4831513894775497	0.08761144262181317	-0.1338275018951828	-0.1220273988314413	0.9170854349611988	0.9649284455648887	0.296701061401322	0.0730259962682166	1.580834337156053	-1.379825114935868	0.05748630045470304	0.6576476721223314	2.393569949367354	-2.111898874808727
0.5784312594138308	-0.1038682110573417	1.07750126469086	0.9453290044867141	-0.02247317035211543	0.1484895436885788	0.202079426208812	-0.4623938027497138	0.560231979650583	0.2988360148979444	0.01303542941866348	-0.09431348204094864	-0.1586460321728457	0.6032988947880574	-0.3106989565057875	-0.4746844454872098	0.1155256707525958	-0.1377845613209346	-0.1150222535307657	1.015721654538946	0.9491336904359653	0.3567906588517169	-0.2230848357415097	1.112734181282231	-0.8376800660008531	0.1665746961677863	0.6668205587298932	2.270807274086776	-2.086759676706377
0.5823999999999999	-0.1057230414225543	1.07797693919583	0.9447812702514452	-0.02297056436292044	0.1525300385271667	0.2057963946575889	-0.46090453258668	0.5591154324121461	0.3027284555237867	0.01071536989990959	-0.09368349301988102	-0.1560156305323549	0.6122609066367044	-0.3190350596757905	-0.4758575324867521	0.1228540391604911	-0.1391303219314722	-0.1010930240197863	1.055458632624007	0.9514762612331021	0.3835238264451406	-0.3341069768056592	0.7788549147085971	-0.6169185084829995	0.09054679647259911	0.6784108417193241	2.25980185820408	-2.05920586795244
0.5919128561131139	-0.1102479791963034	1.079203875862509	0.9434473986848063	-0.02387480656104779	0.1628099957662967	0.2146543346355458	-0.4570628969008355	0.5556499233346408	0.3093750223350029	0.006799575770428057	-0.09509897858701566	-0.1494603333401494	0.6334212158481755	-0.338277598084922	-0.4707144729119836	0.1339906131773601	-0.1395169213237955	-0.08921889883924533	1.112948802870407	0.9007143588304275	0.4112575150733844	-0.3750553472351109	0.6699152294257484	-0.268533639177703	-0.4551295899973396	0.6920363417208409	2.125391244087878	-1.958353846156437
0.6088558844730551	-0.1178023064343898	1.081537707625499	0.9412276568845968	-0.02506976047790582	0.1833311876231265	0.2284114374022209	-0.4504963992875986	0.5500734208173801	0.3226743250752048	0.002554400962588549	-0.1142000018327293	-0.138116274566865	0.6628629181383319	-0.3674628205705226	-0.4155831143092509	0.1383898804656919	-0.1188856314544334	-0.04056719335747272	1.33892761935953	0.7110736401227022	0.3574835275376164	-0.2614915940074137	0.9499528491663574	-0.3387240276312586	-1.749311490966076	0.6361177538927599	1.280956272529185	-1.42062664926113
0.6232312594138308	-0.1234134975112851	1.083470242775635	0.9397208144936532	-0.02487447818976057	0.2048937089661959	0.2373956086359063	-0.4454078045357815	0.5470962414133004	0.3379615841276837	-0.004567284427498236	-0.1422919786271472	-0.1294436529012954	0.6759208067476504	-0.3830156798065875	-0.3694046308928943	0.1285837851506516	-0.08989743635790948	0.08599959194274115	1.688097187084316	0.5471391760960755	0.3752860150767832	-0.1711035365527697	1.116584884450496	-0.6508468395201288	-1.898879859067428	0.5742472423134176	0.5991266950180238	-0.7150107978080271
0.6272	-0.1248660495702855	1.083971642556321	0.9393808719247028	-0.02442413178698777	0.2118397573558802	0.2395003182344894	-0.443848317249378	0.5464169754688784	0.3423274673770547	-0.00728709603125563	-0.149312107919097	-0.1271864061831229	0.6780946907342246	-0.3854199126538441	-0.3605672874263885	0.1268421840045039	-0.08258392563125524	0.1341347957102399	1.801157467620424	0.5239339715120197	0.3789649665082154	-0.1629547479006357	1.14694312262671	-0.6040374398103525	-1.809503908888337	0.5656733420280767	0.4725907523191295	-0.5943851293586805
0.636712856113114	-0.1282776435608677	1.085145964502832	0.9386723263514301	-0.02244825219133079	0.2302795804354337	0.2439081311908613	-0.440460103764566	0.5450580327802177	0.353801939434062	-0.01102641458529308	-0.1657030776167375	-0.1218655068649378	0.6813372117103008	-0.389626605200933	-0.3515325270133881	0.1190962898030145	-0.06468414016867238	0.2817851207230325	2.087255893522582	0.3905645827865503	0.3243884492302733	-0.118375023168602	1.290855940625269	-0.07483883765921295	-1.558574789468671	0.5456239172584436	0.1601136641987273	-0.2624545105232248
0.6536558844730551	-0.133682026839731	1.087001507142443	0.9379662464472497	-0.01544595797423376	0.2708126473785908	0.2476884531657298	-0.4362745814713252	0.5435647197743192	0.3786843522237949	0.001129844670846841	-0.1840794991899538	-0.1134346472694936	0.6762280526324949	-0.3877512464123442	-0.2772714150051326	0.1006125004248275	-0.01693023834136563	0.5426112238626278	2.711781811080509	0.04598011910964728	0.1716311080235491	-0.08889541407121471	1.600348892684994	1.458309343702312	-0.6261072893844258	0.4427564146901083	-0.7867419501583015	0.4641901019299084
0.6680312594138309	-0.1370495242456021	1.08840384116737	0.9380149921413427	-0.006167813326837912	0.3137183772364591	0.2463577394283	-0.4342764570734601	0.5409798584672314	0.400572116197197	0.02474001510544235	-0.1913448082074257	-0.1076712460212844	0.6602306773065317	-0.3786390957765716	-0.1908117784581178	0.09812833881167583	0.02184696510039764	0.7434395295292087	3.248868018315482	-0.2133566356348959	0.1337306427714561	-0.3312870552831776	1.303916469936604	1.455535673281252	-0.6198538000630762	0.3683101227819225	-1.343425687849614	0.6981192349680915
0.672	-0.137761132353137	1.088800297706695	0.9381180367497249	-0.003117909589094858	0.3268818207958276	0.2454136012354227	-0.4337025849961252	0.5393987632996387	0.4052662654391236	0.02965651205598446	-0.1943507826514006	-0.1062265683773241	0.654825871191316	-0.3759828495295352	-0.1766323553443578	0.09884634649384838	0.02947148223438407	0.8269944947114549	3.424239015009253	-0.2838034130367647	0.1088776422928008	-0.48022494530769	1.025963747206732	1.175488540571146	-0.6204343973954931	0.3609650756161736	-1.435430509166423	0.7642839272803956
0.6815128561131141	-0.1392752186253394	1.08974549740099	0.9384717164164146	0.005610350365378047	0.3613320864410358	0.2419293000300418	-0.4329128853560699	0.5336240718018967	0.4131086942196175	0.04069821205726928	-0.1998019719136613	-0.1028727022155818	0.6401996704470017	-0.3683488719518019	-0.1344284439936493	0.09990671929006684	0.0454440332390182	1.001498809520187	3.81713264848196	-0.4601057284570345	0.04187375607921806	-0.7456082261031922	0.6154354340756577	1.142240432713022	-0.5324382849628249	0.3351260291190896	-1.664466298721932	0.8428865621236407
0.6984558844730551	-0.1404669891569797	1.091440952128426	0.9395016440988503	0.02473409797983583	0.4315448800208763	0.2305489169427454	-0.4340393743763576	0.5164067812324128	0.4170901812702351	0.05917188222177201	-0.2082190902109456	-0.09818917772223937	0.6071560576868134	-0.3527835261293185	-0.003628855350491116	0.09908579556656788	0.07516197822007242	1.24806642299411	4.448087181074483	-0.9041608407476225	-0.1713290456501149	-1.279948166475704	-0.1325296047894048	1.025837165785664	-0.4865036557095909	0.2109715203137925	-2.23371531595703	0.992478238557016
0.712831259413831	-0.1399188437583693	1.092810950327598	0.9406990656455824	0.04412682140121454	0.498438845020667	0.214446875032774	-0.4370080840058471	0.4955321672040437	0.4114796806998647	0.07283614305883639	-0.2157095219942958	-0.09581496255912207	0.5727260027651675	-0.3377810747374277	0.06437802670093087	0.08963202319332673	0.08840107549368745	1.455347848476075	4.82677409858869	-1.338195897634633	-0.1948699578807628	-1.581783373679297	-0.6077058021314192	0.8654110671891055	-0.5770927705558043	0.1331368472089354	-2.485497450344797	1.085686908339843
0.7168000000000001	-0.1396633998604773	1.093157392783766	0.9410503072028433	0.05003123298911483	0.517734166918446	0.2088992793208458	-0.4376851024492614	0.4891871890526207	0.4088987340717091	0.07616343853324709	-0.218092593972167	-0.09529474035292315	0.5628901490185265	-0.3334419921021851	0.07560187620554576	0.08537669349117678	0.09058337198190572	1.539196484971288	4.964349758660335	-1.37948100001862	-0.1988683115514546	-1.642388954776896	-0.715545309982306	0.8313386506828446	-0.5932220143095615	0.1159867619905145	-2.556907004703975	1.114059856929289
0.7263128561131141	-0.1388467250686948	1.093918787067185	0.9419198069524196	0.06560909265725298	0.5666661195812045	0.1960459131775277	-0.4394264622412801	0.4730737741300642	0.4012130127515374	0.08410537515692594	-0.2236706562251151	-0.09434279857519218	0.5379554826422637	-0.3226574501369985	0.09916159932731514	0.07309935457905715	0.09199458728931054	1.741992140786195	5.342552942519945	-1.298324726183423	-0.1721799444584133	-1.741006168366416	-0.8903722175774591	0.8264397051857739	-0.5835856243479416	0.07562157047098884	-2.685635377175673	1.164060213507901
0.7432558844730551	-0.1366227726921471	1.094862451037147	0.9434700798793051	0.09830031504545966	0.6633379273669736	0.1762433052149272	-0.442110171471399	0.4425321717970325	0.3843912068470886	0.09713379627218878	-0.2334254782825757	-0.09421494236598471	0.4907084115220114	-0.3012920328126428	0.1643847157842806	0.03691078507524435	0.08973950972165354	2.099607872258778	6.019084650332727	-1.071569206274551	-0.1360864792724226	-1.849242721925837	-1.070036259324731	0.6949606656011611	-0.5513101887614743	-0.06489440699742997	-2.875558428126694	1.378723002660335
0.757631259413831	-0.1339485977699825	1.095182083993119	0.9447029028961466	0.129677990850852	0.7510814351484859	0.1598264734684471	-0.4432791852460959	0.4157340080951669	0.3685540437526774	0.1061349239843715	-0.240285275541903	-0.09582696997469213	0.4488936173926596	-0.2797473249066975	0.2009924778159466	0.009713016103540389	0.08040605576267384	2.22216657157622	6.057827185617668	-1.329550427145506	0.0002069872340995094	-1.867251244947917	-1.120469887092177	0.5636852566486092	-0.3660011971001686	-0.1431862830979847	-2.91625502136551	1.622264284070306
0.7616000000000002	-0.1331468740641733	1.095211214269586	0.9450140385734105	0.1384665145418406	0.7748517325273196	0.1541422074509254	-0.4431431722775362	0.4083370060700534	0.3641024173282179	0.1083199448162081	-0.2415538899101649	-0.09639869536737038	0.4373533963151721	-0.2731733331211632	0.2090969346515213	0.003228356858519243	0.07772985192004703	2.245345092944028	6.030551534981978	-1.33471247909504	0.1070979073387469	-1.858471957339942	-1.106807691289699	0.5677660898645547	-0.3048357229088741	-0.1602893263875824	-2.973843998783009	1.680664082449886
0.7711128561131142	-0.1311255745389387	1.095173667348473	0.9457256393191795	0.1597578336827349	0.830525131454473	0.1422539293316782	-0.4401296136049047	0.3908907394681722	0.3538989821669051	0.1139890211843789	-0.2437033250388291	-0.09803170157471161	0.4087356862201721	-0.2565172479492074	0.2189819120880125	-0.01235573185738204	0.07281373769448717	2.238716997702506	5.677393056112447	-1.179661670969684	0.513776375153235	-1.808900729658398	-1.034491098864381	0.617108219629245	-0.1363936812975263	-0.1901916593220372	-3.05162135777786	1.843454090128656
0.7880558844730552	-0.1270724371216104	1.094652178772641	0.9469590271993181	0.1980990403231972	0.9212900968361517	0.1235409977931199	-0.4273764895980846	0.3610046020245229	0.3376469471589482	0.1245061877307045	-0.2428714111610515	-0.1021723412892467	0.3554534994558541	-0.2214492727566617	0.2606659758758711	-0.04970407929795514	0.07432959202670726	2.292410775717835	5.016047222084571	-1.045275074627292	0.8885763704718168	-1.720289870898658	-0.88679013199946	0.6029331598122276	0.2340284916811627	-0.3030299913752431	-3.230495377409143	2.304008346939213
0.802431259413831	-0.1231524271490767	1.093741036943706	0.9480623135939665	0.2312728423118553	0.9883655506204952	0.1092953058785473	-0.4161068019694206	0.3367346390033238	0.3255155092716403	0.1324836315904916	-0.2377237098188005	-0.1071006015705065	0.3086096808873374	-0.1861305470985229	0.2781797999417744	-0.0745148528928806	0.07907673287096112	2.310261391077249	4.2751133583633	-0.9214109669648234	0.5516597512913729	-1.659956252288769	-0.8160104328030795	0.4921793176040301	0.4524153667434703	-0.3702764777811818	-3.251157002349454	2.561945941320891
0.8064000000000002	-0.1220545517794931	1.093437857873387	0.9483780792355023	0.2404200098334438	1.004836369413053	0.1057470152356216	-0.4143723553902927	0.3301715723325748	0.322281276647833	0.1343478295028023	-0.2358784330883297	-0.1085765792092968	0.2957769708500452	-0.1759365382416928	0.2809241285875941	-0.08032710300497722	0.08058699594529964	2.324592120093406	4.093480969728015	-0.98471798501789	0.5519232334868596	-1.644740518873146	-0.796154341160035	0.4953992916868915	0.5094917084359816	-0.3888966627114337	-3.282170920815572	2.600413019664291
0.8159128561131141	-0.1193698102709871	1.092612247750862	0.9491651483271469	0.2625245667434226	1.041252289796612	0.0973990256991812	-0.4096344757904152	0.3147724020993853	0.3150521647476724	0.139177062803695	-0.2303751497030598	-0.11244270680507	0.2645510659845504	-0.1508466151972376	0.2879495169245942	-0.09355775707895483	0.08558009968682792	2.322709817837156	3.570086991098022	-0.7779761852816229	0.4312315390878046	-1.599889780784412	-0.7283933158982047	0.5172947575604878	0.6533080946241254	-0.4299803379397552	-3.271857875044405	2.687329606075361
0.8328558844730553	-0.1141071889789766	1.090820054897997	0.9507352047338954	0.3017997835215086	1.09424420606883	0.08637100655734037	-0.4047259120601398	0.2877925135496812	0.3032483617369256	0.147902913252802	-0.21696557107105	-0.1207037445548149	0.2102581528521393	-0.103306856140226	0.3351710284428616	-0.1172333411572996	0.1001495500354143	2.309651545974893	2.683533663195401	-0.5640697149819407	0.1604181944495794	-1.595899456009031	-0.6814142246847074	0.496096059060759	0.9175655302706509	-0.5459701913389561	-3.109708351194132	2.921898436551351
0.8472312594138312	-0.1091084169714875	1.089035481227421	0.9522510662836499	0.3347631424978184	1.127029586420902	0.07819757517964371	-0.403009858841008	0.264712585675192	0.2932467164091467	0.1543174628434671	-0.2029133881897194	-0.1290367038146155	0.1672265955498515	-0.06051907730223377	0.351317465764449	-0.1290172998669415	0.1094985859339046	2.270477938588096	1.855085083003378	-0.6158401677390122	0.1325525660806993	-1.613306032749853	-0.7232834139305455	0.3772565079764163	1.002936173380659	-0.5982492673424264	-2.863829464731967	2.992531628486689
0.8512000000000002	-0.1077269853511432	1.088521548992493	0.9526877011860481	0.3437397038621482	1.133885089616634	0.07563623688817372	-0.4023749435469827	0.2583078157034026	0.2903270107715831	0.1557095425741382	-0.1989640233410337	-0.1314037943401553	0.1560187918998401	-0.04869374502005114	0.3502902114381538	-0.1320527379079427	0.1107443637157959	2.267915332216245	1.645712257103502	-0.6373210789764528	0.1362953310667656	-1.611788804053958	-0.7291309333654464	0.3805993304207569	1.024859372365119	-0.6098825991550541	-2.829287631168765	2.993209880039392
0.8607128561131143	-0.1044038589367746	1.08723742303296	0.9537550902692602	0.3651532766786544	1.146952798908073	0.07007498951791734	-0.4010318718148597	0.2430087075484869	0.2833670809503035	0.1593626713339365	-0.1889604377956669	-0.1373009125860401	0.1298345343031031	-0.02021103413138732	0.3513054358796227	-0.137787982783017	0.1138182595097075	2.229373262218289	1.101103874038065	-0.5298536670978597	0.1324315560157935	-1.611382823534025	-0.7404271711021806	0.3818957886614087	1.075984736215926	-0.6326673494467416	-2.653725955659458	2.992840331187607
0.8776558844730553	-0.09828152339156797	1.084833708498621	0.9557274420368602	0.4019898555060942	1.157382438610084	0.06255480956473508	-0.3996090552016988	0.215278691766872	0.2701574197915754	0.165334626298351	-0.1703842757915864	-0.1484806519421206	0.08911099319289338	0.03019399313367475	0.3704361580581468	-0.145227549049649	0.1181587546866437	2.112576784392175	0.1317721032317075	-0.379036698862977	0.03670473299597299	-1.666062426307548	-0.8291046998497809	0.3077999821196999	1.094653889957304	-0.6840669908647734	-2.128146564700285	2.944152083217979
0.8920312594138311	-0.09300406862068583	1.082725325804097	0.9574105554247643	0.4315811990249954	1.15346192840612	0.05705008323962668	-0.3990379854691259	0.1911038515831489	0.2575347238494596	0.1689019325536461	-0.1553654803366368	-0.1583883589679127	0.06185137520553956	0.07176997814889538	0.3543620406895708	-0.1473330568627184	0.1142665262779932	2.007221872066343	-0.672973888262942	-0.4256205317244341	0.08148740567558227	-1.685780949700738	-0.926126826246729	0.1795250971668588	0.96634907524994	-0.6823425228983817	-1.684219368935613	2.825786763064546
0.8960000000000002	-0.09162845158296609	1.082141050150506	0.9578580655476052	0.43949820418341	1.150359686121838	0.05525023205329935	-0.3985991433482253	0.1844309833081398	0.2538112049970442	0.1695274826195945	-0.1516612209730141	-0.1610680160593764	0.0553562155597946	0.08288985679591818	0.3465532872223833	-0.1482116239221141	0.1116127957550471	1.977801789302793	-0.8828865567973607	-0.4330512319709408	0.1039244566384733	-1.681813215890391	-0.9380564692613611	0.1842461425773894	0.9389750667588215	-0.6811229206347758	-1.599727912383436	2.798574173700938
0.9055128561131143	-0.08841859109742373	1.080721997676185	0.9588873957990232	0.4579083729548418	1.139550218822186	0.05175548326633563	-0.3976095402510372	0.1684932813790272	0.2447668328249709	0.1711461964574403	-0.1429239505336694	-0.1675227004174454	0.04130615699394075	0.1092749253289733	0.3272859836347972	-0.1500841132184559	0.1044574944899237	1.89171760805388	-1.388771986030592	-0.3048044105168288	0.09234221990464714	-1.667825344138063	-0.9632213532397904	0.1552190996474665	0.8919033577660413	-0.6749930459671382	-1.343776484389819	2.734463622752016
0.9224558844730553	-0.08327693503849934	1.078159123802806	0.9605135941821823	0.4885838527683227	1.108540597133567	0.04794125852480655	-0.3968153509805447	0.1405973641140673	0.2281422156456684	0.1733038271392288	-0.1289777536578592	-0.1787541118305063	0.0228797552614724	0.1535933580389998	0.2754632047334419	-0.1520287987681034	0.08626453248873109	1.728074962225547	-2.264161730557579	-0.1762297828632295	0.007224432003967995	-1.618549058163512	-0.9945055116399153	0.100573853890449	0.7460775505784507	-0.6462903577298824	-0.8399622747292155	2.47932254320905
0.9368312594138312	-0.07976617596919329	1.075977190837071	0.9616050243792783	0.512421484249494	1.070929927193	0.04503084120186667	-0.3964872179827096	0.1178570141506947	0.2138422217779452	0.1744988113594196	-0.1192323824306969	-0.1877200027974373	0.01307431440397039	0.187537658076817	0.2091213801076742	-0.1510142171499451	0.06454888313513235	1.589343000013367	-2.959212163847603	-0.2686793037116655	0.07944447473755062	-1.538033658876135	-0.9882530476947704	0.0697247549836788	0.6131563279845411	-0.596537720862106	-0.5659443363997748	2.253851296875229
0.9408000000000003	-0.07898042168101066	1.075379518326807	0.9618472354522993	0.5186558030217028	1.058824440704849	0.04382875047551527	-0.3960374580710767	0.1118121235149115	0.2099380544262567	0.1747678322541348	-0.1168613189591821	-0.190050817518543	0.01088265220824591	0.1963892937735097	0.1933273907387143	-0.1509097881056993	0.05787911080551368	1.544200380216287	-3.142922635722964	-0.2862919905746278	0.1102700253084849	-1.51353102685895	-0.9733559095276882	0.09552405997577984	0.5822915583433204	-0.5872903469093236	-0.5190008434826694	2.21208363395232
0.9503128561131143	-0.07732287930786866	1.073944787768605	0.9623205272514956	0.5327870162299849	1.026845202443425	0.04139096298705921	-0.3948630450051715	0.09769379524590127	0.2007998091321263	0.1755780089214701	-0.1116603764384369	-0.1955237751710039	0.006573311500815082	0.2170713559962109	0.1518725458988892	-0.1504185094493294	0.04118019729430843	1.428252276429879	-3.579398478032094	-0.2348403757908227	0.1304763208601357	-1.450162265338665	-0.9452240228581976	0.07797567719774434	0.5039152111232268	-0.5599470924729363	-0.4031120521760462	2.120952201008717
0.9672558844730554	-0.07560008469123038	1.07143274541529	0.9627325586298491	0.5552838714936023	0.9597425673040361	0.03726927804133186	-0.3926230630980238	0.0744102478315897	0.1854522738429404	0.1769250209528547	-0.1047059838673156	-0.2043446666419835	0.0001180380164867711	0.2506547505614344	0.04865529273916916	-0.145256260521719	0.006832691168493964	1.224532400876158	-4.336364614847751	-0.2840527979591434	0.1396912601061598	-1.29301450625687	-0.8595500288220436	0.08934352762370679	0.317956198938641	-0.4768058902957717	-0.393272232590495	1.835013916412934
0.9816312594138312	-0.07551011389977196	1.069398736270797	0.9626139959336287	0.5714641982174241	0.8929636451022407	0.0318914855124627	-0.3900561975663831	0.05680908451511424	0.1737950297724772	0.1784937451822894	-0.1009222896323076	-0.2106476632065443	-0.006237294406996663	0.2755845633837811	-0.03171569342155757	-0.1372309191302751	-0.02310273023890676	1.018173639385261	-4.949025839587955	-0.4917430979073578	0.2431385724621198	-1.159839287697699	-0.7586481266036943	0.1334180492915904	0.2295562508384386	-0.4022640264708962	-0.5014343824355206	1.661417657567064
0.9856000000000004	-0.0756687635257248	1.068859420508715	0.9625066218104653	0.5753730270390797	0.8729976639070531	0.02977062763819212	-0.3889757068386605	0.05226782376924197	0.1708459665964979	0.179055565185291	-0.1000102525241765	-0.2122097046712873	-0.00830123223274265	0.2821516603402544	-0.0483085161798734	-0.134959744649526	-0.03095980782496562	0.9525570254153367	-5.110340113067992	-0.5251693186242722	0.274395117143541	-1.126604010573562	-0.7236425503744974	0.1704051274499773	0.2020017850079471	-0.3865552170564586	-0.5202936584311284	1.632358390995352
0.9951128561131144	-0.07630757476505393	1.067604062498621	0.9621196427774072	0.5836799182389802	0.8228600379980858	0.0249923854228543	-0.3861715145253871	0.04189300057079076	0.1642547468451889	0.180621586926111	-0.09854410021242002	-0.2156803538380057	-0.01329980343288653	0.2975794489499322	-0.08711581582471578	-0.1281412673489137	-0.05052918015837805	0.794959636935789	-5.42014005087987	-0.4913180443155368	0.3063220260541474	-1.051888192128935	-0.6567224068500971	0.1677127054449876	0.1009786516724006	-0.3402260358950619	-0.5639255573630082	1.601661458947338
1.012055884473055	-0.07838096989504773	1.065607205599735	0.9609644076873539	0.5949012300368247	0.7277910558335994	0.01605917366779749	-0.3810196968178032	0.02532346161007651	0.1545913767937098	0.1841870534210222	-0.09843427453582343	-0.2205458816842362	-0.02582499459834159	0.323690467542473	-0.1537009807864237	-0.1057478210751503	-0.08556889092143011	0.5348987754790657	-5.7387494122102	-0.5964900196136375	0.3006379477576419	-0.9063231558657801	-0.4728869572031242	0.2726862497075033	-0.0711078472739195	-0.2314842561541425	-0.9457185550568394	1.479176509132628
1.026431259413831	-0.08078404423193571	1.064265203941379	0.9595374237913282	0.6011807992659635	0.6455630780900375	0.005948268125098854	-0.3764076169731794	0.01297037532870773	0.1491518514317399	0.1891912057415835	-0.09957312968811716	-0.2232225118370438	-0.04164570202943796	0.3445535528520902	-0.171422970465888	-0.08032883420803033	-0.1121890873806139	0.3441666134835437	-5.630352039058419	-0.8303979234522223	0.3630806589635929	-0.8233146220817997	-0.2810348282229043	0.430224249093774	-0.046523390972949	-0.1445970861593388	-1.214267158143727	1.447081142914175
1.0304	-0.08145355579714723	1.063961275324593	0.9590793339691754	0.6024534048531154	0.6234256703472403	0.002486750136936736	-0.374880139214756	0.009723114020740442	0.1481450772242845	0.1909949847714391	-0.09965314652450277	-0.2237582473363779	-0.04650594912324224	0.3503351565937871	-0.1717748586843127	-0.07317111353681843	-0.1188865055229753	0.3014786366696489	-5.538555802785008	-0.8527740160751891	0.3905035766456599	-0.8039316130432417	-0.2228669503901885	0.4916653454889746	-0.04335025393143654	-0.1214337654916556	-1.233153402473759	1.453134678915042
1.039912856113114	-0.0831019013690229	1.063344229473332	0.957871701584688	0.6049607474044516	0.5722922745022316	-0.005358029156748934	-0.3711723061178897	0.002303596661417995	0.1465978840429882	0.195873361478397	-0.1003375544714198	-0.224618921331724	-0.05824174583473085	0.364396876518753	-0.1755330131015539	-0.05560103817225714	-0.1349170634504374	0.2322002058596396	-5.182950692166481	-0.7938761789318576	0.3782324904401951	-0.7556061614451206	-0.09856966600191025	0.5486238786638409	-0.08686240933596556	-0.0559617339429653	-1.271531313823668	1.501174226417689
1.056855884473055	-0.08617241558839182	1.06273838998521	0.9553597509625645	0.6084061976925379	0.4923144358645573	-0.01799051862066542	-0.3656687605467105	-0.009797767888584052	0.1470080972273216	0.2069638695831592	-0.1013882240554129	-0.2243137825340821	-0.08276626797700834	0.3904930413393034	-0.1866599091445423	-0.01466431959799419	-0.1607972368571174	0.1884197680935394	-4.195516767401791	-0.7140559088776341	0.2636145755362312	-0.6765379532894675	0.1458819046206989	0.7680841213272169	-0.01469302519596405	0.09671899424358951	-1.643987109860093	1.583367105815046
1.071231259413831	-0.08888068157475423	1.062789202621847	0.9529202570706398	0.6111554114149016	0.4394190284043858	-0.02858445815216769	-0.3624485423413053	-0.01921005643701873	0.1503864540757153	0.2190407709923445	-0.1007949453852991	-0.221943817285312	-0.1079544375609273	0.4140140124781683	-0.1876800983606287	0.02111188368060762	-0.1775860178995154	0.1982824698896456	-3.143714130941267	-0.7933566488066346	0.2013428549218336	-0.639687793180139	0.3119899962835276	0.8844088011069098	0.09557856287502697	0.2308469760616139	-1.791800295955046	1.700994070453313
1.075200000000001	-0.08962039375355671	1.062890756892399	0.9522084224849646	0.6119535695953815	0.4275472571139025	-0.03185052567962347	-0.3616413795975729	-0.02174338097260459	0.151687375048207	0.2225469478297657	-0.1003657297651266	-0.2209606482589703	-0.1149790420139972	0.4208562351744966	-0.1864171417448574	0.03074088533688288	-0.1812755995886841	0.199821214367229	-2.857849417668358	-0.8052063311334117	0.1879866649159487	-0.630275685039422	0.3611604320026768	0.9334433753322686	0.1189396225410461	0.2645308209808808	-1.782471636278613	1.732529708524884
1.084712856113115	-0.09144377702861813	1.063285636184797	0.9504429076595643	0.6138639427625119	0.4034128212470033	-0.03869192915600067	-0.3599710369570113	-0.02754562884105227	0.1556098673733747	0.2314174875143301	-0.0992293261833011	-0.2180012072615468	-0.1316965318741197	0.4378942003334824	-0.2012080332799499	0.05347539580830175	-0.1902239873565492	0.2056850235222759	-2.204680973020186	-0.6288135685902787	0.1508617257418315	-0.5866299038803406	0.4654082968297202	0.9452802445064483	0.1354487952879132	0.3657453045071399	-1.769619930138056	1.843946100827632
1.101655884473056	-0.09531412445995559	1.064630413405397	0.9470737993825922	0.6175212966766834	0.3762869027484781	-0.04658979218793177	-0.3589552665872371	-0.03677039129858117	0.1650489505894732	0.2484637979605339	-0.09553267142609437	-0.2097688009047387	-0.1640189026220264	0.4702585648593313	-0.2552259612499921	0.1073427996340456	-0.2069585648515359	0.2157120833856562	-1.018905749075977	-0.3149848843049107	-0.05188666975269771	-0.5108601281715548	0.6391685082291104	1.071937712805819	0.3213365712103469	0.6096259992881935	-2.076131082777517	1.958412681537266
1.116031259413831	-0.09911345913754424	1.066538592619696	0.9440316169018909	0.6200861390783118	0.3674769894912253	-0.04987065791628467	-0.3612945415620059	-0.04413785526030256	0.1748119363035997	0.2642740499912472	-0.0895770345208311	-0.1997088628549608	-0.1954247157906403	0.4985908217237979	-0.2611307516425276	0.1581678997167498	-0.2146291267920952	0.1144413624271066	-0.2718883675015961	-0.171274588806387	-0.2731462861857399	-0.5356586937586877	0.6988458002966729	1.098381812760684	0.4975404346889105	0.773797502376586	-2.239904575671326	1.97022404662823
1.12	-0.1001243677101098	1.067193626838669	0.943179368758965	0.6204250343457092	0.3666602010972301	-0.05053847901362168	-0.3624926383919911	-0.04632546386623637	0.1775732421120015	0.2685772074585873	-0.08753478952774255	-0.1965871015455707	-0.2042694194561455	0.5063909608926744	-0.2507571430157524	0.1719333636785104	-0.2157656387064143	0.0764621563478376	-0.09596237276218647	-0.1006074142727013	-0.2604044851452449	-0.5616370684759369	0.7062775079485456	1.116125651170053	0.5510693727416967	0.8018155461894678	-2.230849015531903	1.974703026191518
