DataType=double
version=3
OpenSimVersion=4.5
endheader
time	ground_force_2_vx	ground_force_2_vy	ground_force_2_vz	ground_force_2_px	ground_force_2_py	ground_force_2_pz	ground_moment_2_mx	ground_moment_2_my	ground_moment_2_mz	ground_force_1_vx	ground_force_1_vy	ground_force_1_vz	ground_force_1_px	ground_force_1_py	ground_force_1_pz	ground_moment_1_mx	ground_moment_1_my	ground_moment_1_mz
0	0.07650977985041002	-0.08646126626799616	-0.02483235099798583	1.307771392802761	0.019297	0.5990496329290366	0	0.003015202082681993	0	69.03809555560784	780.4772396631589	100.4556821147356	0.9198705630521696	0.019297	0.3474600610887505	0	1.936574802242775	0
0.009512856113114032	0.05137476821878779	-0.06082554475801995	-0.02414990635694924	1.305782357277746	0.019297	0.5971094367081308	0	0.004395991455185842	0	69.30570135680563	811.0302025976292	104.4357346780319	0.9157056333161873	0.019297	0.3465754681893091	0	1.28659626579197	0
0.02645588447305514	-2.045893191651808	7.225531620601182	6.406109197017792	1.185997302212524	0.019297	0.5493458447341328	0	2.958314665391093e-05	0	77.41886802925089	804.6091675052089	98.72343605910146	0.91107151962508	0.019297	0.3446534962241149	0	0.2951570135534851	0
0.04083125941383081	19.43523847887278	34.18209441001485	21.39295387202561	1.178529189425483	0.019297	0.5546081239933648	0	-0.0258191959469527	0	67.06103048053973	751.2405246151147	84.88563562410246	0.9128406656399825	0.019297	0.342227440930881	0	-1.541531031950889	0
0.04479999999999995	28.61845489927661	48.65443582720735	20.77499398073146	1.177403558773528	0.019297	0.5565468007898791	0	-0.09979349302650498	0	67.62187372574853	731.5555503500329	82.49866821466584	0.9144159013062036	0.019297	0.3413697097575634	0	-1.635224365144129	0
0.05431285611311398	8.462232086976689	114.9477637276144	12.36907647983117	1.186854107906067	0.019297	0.5624010926951268	0	-1.26537210663251	0	54.72177199789472	689.9106860954857	82.36809440623466	0.9172384573174948	0.019297	0.3396603152284206	0	-1.10626021253297	0
0.07125588447305514	-5.873379848936622	320.7120012269688	11.5801370480325	1.20467062561886	0.019297	0.5712799378466229	0	2.572874439707812	0	55.72039587429062	629.8397079389359	76.44112346467783	0.9128400860489484	0.019297	0.3395448972040443	0	-0.3860089106671545	0
0.08563125941383082	-16.79258735496954	443.1228581498879	-22.71087905375821	1.202546545703954	0.019297	0.575312106139424	0	3.508224819714397	0	52.89696843899632	566.2768332049451	69.62256642582415	0.9066793444814912	0.019297	0.340845427161921	0	-0.2247507078702302	0
0.08960000000000001	-28.28339568997477	460.0619663576278	-34.82940324877888	1.200807848471763	0.019297	0.5758741538531235	0	3.007636758542465	0	86.92824708032241	543.997591408636	59.69378083369718	0.9050292721479597	0.019297	0.3413789897955109	0	-0.1974296219095799	0
0.0991128561131141	-31.07648791458101	475.7014994601171	-20.36517703926993	1.194093513140432	0.019297	0.5764681458812647	0	5.000931737132726	0	45.68744286157123	498.2117177486629	61.95871430976278	0.9012813734377791	0.019297	0.3428206514267572	0	0.189830315004202	0
0.1160558844730551	-49.74797191243078	486.1125057982929	-51.87613362696721	1.182177511625338	0.019297	0.5767990244898435	0	2.006210461246638	0	60.37121342782365	407.1858234933139	46.22910939623159	0.8935033021505124	0.019297	0.345376637187695	0	0.2751951069112937	0
0.1304312594138309	-58.22373208038954	534.700915638289	-66.70143209424974	1.178253514232531	0.019297	0.5780101775051023	0	-0.9073887458114367	0	13.22738871302145	331.4077630244193	44.57910161629454	0.886459989785802	0.019297	0.3464163692180117	0	0.2134439412248463	0
0.1344	-60.77655945267504	555.4590860618266	-73.66220106006061	1.178106208318436	0.019297	0.5785874605391539	0	-1.626496486876019	0	136.6456707106952	298.3008698373935	3.217984569373928	0.8847586544590017	0.019297	0.3466571902899617	0	0.007009178301289054	0
0.1439128561131141	-64.06397293378181	591.1356080988326	-74.72053321443494	1.175020665378674	0.019297	0.5796807862834088	0	-0.6077712219912716	0	-10.29723175376699	244.3734772017258	42.88226298787698	0.8802738982315902	0.019297	0.3471968940130976	0	0.1722417582002804	0
0.1608558844730551	-63.11548226954465	631.866870591562	-89.6220623462264	1.165535278039153	0.019297	0.5810235346333344	0	-1.08548420651343	0	56.00792623951045	135.3825091666848	-7.78780707599207	0.8699263707847583	0.019297	0.3498297311223582	0	-0.1914985240424347	0
0.1752312594138309	-54.73831123516965	660.4876800905438	-83.87065632910367	1.156356477427457	0.019297	0.5819225962147121	0	-0.454032455788048	0	-17.81721901287698	21.26131470984046	8.738180373950289	0.8667537249939342	0.019297	0.3535495453746128	0	-0.0004632790039632018	0
0.1792	-55.58144787239338	669.9404322349473	-89.71449953833849	1.154016988654667	0.019297	0.5822108838053706	0	-0.8949718064494157	0	-5.648278797271733	6.78812361806125	2.883264396058614	0.872955078718761	0.019297	0.3459847006505133	0	0.00416465092427093	0
0.1887128561131141	-53.23467527727907	687.1673847839231	-99.85614589422099	1.147800074306415	0.019297	0.5828670794785005	0	-1.276291236279172	0	0.1018474549972793	-0.1093085982364194	0.004261464925291648	0.8216691953065314	0.019297	0.3654135149151304	0	0.0004391788767463723	0
0.2056558844730552	-48.50195998636521	717.2222325865171	-116.8182642875947	1.13711956812352	0.019297	0.5840928579015825	0	-2.376141058987427	0	0.1557715559626613	-0.1673830076836604	0.01151217237171298	0.8302398402943174	0.019297	0.366914845043481	0	0.0004910550766815223	0
0.2200312594138309	-46.58075551325155	744.454077559705	-134.7811602520885	1.129063891142333	0.019297	0.5853365075634622	0	-3.798013792418115	0	0.185547571506438	-0.1990595569000453	0.008659391026220993	0.8413106542845964	0.019297	0.3680049496693155	0	0.0006062308219433477	0
0.224	-44.23927950990233	750.5987631654086	-139.8192362595671	1.126910311160705	0.019297	0.5856946545937918	0	-4.259335384668669	0	0.1940184439543621	-0.2081396472648685	0.008965801718312915	0.8449457725509815	0.019297	0.3682656214477739	0	0.000646513679540458	0
0.2335128561131141	-46.07325513500577	757.0552738001804	-148.6073661666554	1.12118208400186	0.019297	0.586426009393526	0	-4.844721495553239	0	0.210381800058292	-0.2255569702165665	0.005858524469917224	0.8546408976236505	0.019297	0.3687772582134718	0	0.0005532878167324846	0
0.2504558844730551	-43.92339011341104	769.8133094405721	-167.7266477896971	1.111290360242867	0.019297	0.5877132237268629	0	-7.125882671690642	0	0.2274221307390264	-0.2437987489192402	0.003044492825960313	0.8753091770943959	0.019297	0.3694357439171225	0	0.0005406844599285773	0
0.2648312594138309	-41.94098138739788	780.8968259174403	-170.5084112552296	1.103276417976534	0.019297	0.5888851244196863	0	-7.864567830759838	0	0.2347137696529203	-0.2515690490470986	0.001336624827722303	0.8960451380235072	0.019297	0.3696849675557335	0	0.00021939437078683	0
0.2688	-40.37771637891944	781.8784175916114	-172.7631658148375	1.101026704710282	0.019297	0.5891808431212117	0	-8.252324686841362	0	0.2341082513485482	-0.2509079472154312	0.001256865975460843	0.9022388017801166	0.019297	0.3696760645799682	0	0.0001832449108732088	0
0.2783128561131141	-40.75155197221609	780.9195740399729	-172.3983224380592	1.095355276476776	0.019297	0.5898341376636608	0	-8.478985027308514	0	0.2294953077826891	-0.2459496576505848	-0.0009445528099347099	0.917857068518557	0.019297	0.3694742277473463	0	-2.500372104407883e-05	0
0.2952558844730552	-34.25467323435535	780.866683088532	-164.2053340545798	1.085393271642604	0.019297	0.5909365269860954	0	-8.485935385489459	0	0.2084717896383096	-0.2234854549624408	-0.005501285468461688	0.9482391537703546	0.019297	0.3682734506600457	0	-0.0004169665439571013	0
0.3096312594138309	-30.21599060634349	781.0323635796804	-146.7295664171546	1.076933134943048	0.019297	0.5918582628894982	0	-6.974201513985423	0	0.1812956329847961	-0.1945010968078139	-0.008877073089309144	0.9763733470782512	0.019297	0.3661735572309541	0	-0.0008326846146383038	0
0.3136000000000001	-29.62990831847481	779.2887047559254	-144.4525507129822	1.074503169032796	0.019297	0.5920782099782441	0	-6.781346514774874	0	0.1722239161894474	-0.1848046155078119	-0.009161616155695404	0.9844833290719869	0.019297	0.3653925330671352	0	-0.0008852784175277118	0
0.3231128561131141	-26.18160762644983	775.1456043800364	-134.0294976361449	1.068603488577049	0.019297	0.5925930105409631	0	-5.87695933324489	0	0.1488875768820515	-0.1599013430583233	-0.01009798988826345	1.004481654542694	0.019297	0.3632061133215402	0	-0.0009818641098669493	0
0.3400558844730551	-16.45959358162129	771.5631126072452	-101.6849021103589	1.058345463143704	0.019297	0.5935094579644621	0	-2.343398557987996	0	0.1062000874550089	-0.1143515683348166	-0.01053190435964297	1.041831075839563	0.019297	0.3580466516907342	0	-0.001115841956978759	0
0.3544312594138309	-11.92517634198905	769.6699193138679	-81.06548095781542	1.049523629488162	0.019297	0.5942849885442787	0	0.4415923571892379	0	0.07428148278445587	-0.08017254711891433	-0.008980514616838695	1.075067680076863	0.019297	0.3524661771734504	0	-0.001194241318071527	0
0.3584000000000001	-11.17594960239398	767.5452615719053	-77.97554746355823	1.046944216865425	0.019297	0.5944735079429395	0	0.9821597921761962	0	0.06635490703361055	-0.07163832886520891	-0.00817707752628658	1.084481732749836	0.019297	0.3507699381500073	0	-0.001188847194424286	0
0.3679128561131141	-6.496937678531946	762.8448557365191	-67.30116369409744	1.040688938958079	0.019297	0.5949094297236802	0	2.263388140079202	0	0.04981127991876666	-0.05382328566667964	-0.006465290552792485	1.107332670544498	0.019297	0.3465247852436931	0	-0.001169717428485293	0
0.3848558844730551	-0.4988870735790565	755.2927330313155	-49.01896771536257	1.029356637909595	0.019297	0.5956333322584979	0	4.721831611952302	0	0.0308641770145015	-0.03335439769728714	-0.004019457802780996	1.148581550019458	0.019297	0.3384950849676024	0	-0.001168377505156164	0
0.3992312594138309	0.5886475501533581	749.3893726607	-52.30497130316608	1.019453489162115	0.019297	0.5962275837481472	0	4.49105806657639	0	-2.100668087383287	2.280945643495565	0.344844292786325	1.18343329645498	0.019297	0.3316454870727902	0	-0.1067148091449659	0
0.4032	0.9490909090629307	747.6656420136012	-53.00986405693845	1.016658261715425	0.019297	0.5963917018578707	0	4.399013635095486	0	-4.942031834779073	5.36499254591018	0.8043146589897965	1.093429659046707	0.019297	0.3958155260214578	0	-0.0002557695257531661	0
0.4127128561131141	2.442309245958634	740.8676441019595	-54.40340319845335	1.009676319748928	0.019297	0.5967395217136473	0	4.235418231307126	0	-11.74678899203536	12.73598226694221	1.815192106378015	1.11718821490363	0.019297	0.3859264358464735	0	-0.0003047434019052275	0
0.4296558844730551	3.431079360398622	724.9200787970623	-65.46051916350024	0.9969597961520398	0.019297	0.5972391183818598	0	2.392332035636827	0	-16.73085126853246	18.07328285741754	2.141644619579143	1.155593237153496	0.019297	0.37323000141639	0	-0.0004927002323760477	0
0.4440312594138309	6.939292621828775	711.4039664274251	-70.50910833436761	0.9865154587510613	0.019297	0.597676570598985	0	1.185890758890429	0	-8.883626413477536	9.558503213575307	0.8141428519253777	1.184823361807202	0.019297	0.3710028181147028	0	-0.0007975473935395577	0
0.448	8.430860888475744	707.9542679595686	-70.58886594390982	0.9837171178219767	0.019297	0.5978136378263453	0	1.145738528772451	0	-6.185183530173503	6.648764856298475	0.4995791125268723	1.192049005159386	0.019297	0.3721071362319585	0	-0.0008896480600042306	0
0.457512856113114	12.12716331372852	698.7766202937349	-67.48767568874749	0.9769940110456208	0.019297	0.598103952326249	0	1.103732058434876	0	-1.612525754003768	1.729882723066303	0.08394448384672959	1.298559576266515	0.019297	0.3156116220434529	0	-0.09190855378541568	0
0.4744558844730551	16.17749496028593	690.6010479956311	-70.29827379694586	0.9660638126936131	0.019297	0.5987954954404524	0	0.1133597427618208	0	0.06326325156980465	-0.06795841523384617	0.004551633840383072	1.318865848324269	0.019297	0.3152047516744343	0	-0.003221183310517586	0
0.4888312594138309	22.71925982119325	689.8108679327928	-66.33680585696655	0.9580947631723864	0.019297	0.5996455849017519	0	0.6501796115280136	0	0.09749688720615551	-0.10493199558703	0.009102543353505705	1.331230356336739	0.019297	0.3160839160371776	0	-0.002588553214779829	0
0.4928	23.0807882100274	689.3644268507469	-66.36133566700423	0.9560622111638527	0.019297	0.5999101499170952	0	0.8671133741579899	0	0.1017120045330574	-0.1096676370274356	0.01127676847548945	1.333983891672377	0.019297	0.3165081042943067	0	-0.002728482984635672	0
0.502312856113114	26.81298947876993	689.0805705152887	-65.28436123950551	0.9513698965399943	0.019297	0.6005724797583609	0	0.8962157093852741	0	0.1070577937882126	-0.1161532997475404	0.01679988626265878	1.33935867565911	0.019297	0.3178436314496359	0	-0.003056091810351131	0
0.519255884473055	31.10979462576312	693.7944218086815	-64.36068091879625	0.9438160194106306	0.019297	0.6019988545433957	0	1.382150030466554	0	0.1061181826457332	-0.1173548784616947	0.02653168815286437	1.344548647740212	0.019297	0.321288457345886	0	-0.00382051854440171	0
0.5336312594138308	35.6092386575007	702.4756501527459	-63.02618810090466	0.9379559386853791	0.019297	0.6034510526035293	0	2.261962511794843	0	-0.006572150324357394	0.02224004336547376	-0.03195186093554922	1.345094949027615	0.019297	0.3251149794143093	0	-0.01556597041968469	0
0.5376	36.43667810847701	704.1914139362327	-64.3699612211642	0.9363861879185618	0.019297	0.6038752399502894	0	2.42113260255925	0	-0.2918235338121652	0.4072476339827031	-0.2478047672996056	1.344775612337786	0.019297	0.3262680686296737	0	-0.04715187427377063	0
0.547112856113114	39.19253325087502	707.0938422431399	-63.4981676821756	0.9325889636210404	0.019297	0.6048831912279526	0	2.758076593944836	0	-5.247427445506018	8.377242166357576	-5.796475183815966	1.247693442787549	0.019297	0.3704343052236613	0	0.0003618503617177637	0
0.5640558844730551	45.44063213284349	705.848666991589	-63.15018785879403	0.9255936200001117	0.019297	0.606521031665801	0	3.03624557013992	0	-9.177744293640465	47.17609227202608	-42.91533364269936	1.241572904432529	0.019297	0.3803755314363242	0	0.02915822975932691	0
0.5784312594138308	49.76532469470185	693.6995704421415	-61.21276668462873	0.9197557079708863	0.019297	0.6076325255636316	0	3.259420924715999	0	2.629190975939948	97.61808356831457	-61.48452384937737	1.233767276835134	0.019297	0.3818222616419528	0	0.4055165758785151	0
0.5823999999999999	47.47319807636456	688.0900290369519	-63.56369566729254	0.9181846177043544	0.019297	0.6079023552796005	0	2.980955213631874	0	-13.66747884572434	122.8536372508536	-33.74826499347584	1.232793761506789	0.019297	0.380746940241488	0	0.7071463246932534	0
0.5919128561131139	52.72998682058114	673.0406236789055	-64.99113625980647	0.9142908962613616	0.019297	0.6084601240353004	0	2.097497550871604	0	6.856144220481247	183.738493771122	-35.26825925845972	1.228628422132117	0.019297	0.3793167276109147	0	0.838596932203882	0
0.6088558844730551	54.84931632697042	631.2937163968821	-66.48045982939111	0.9066746980129372	0.019297	0.6087321706820342	0	0.2507458547155648	0	7.406428841443444	285.7769959297985	-11.13082808441916	1.223084581708474	0.019297	0.3763984879290579	0	-0.1389375382522449	0
0.6232312594138308	61.15443860910607	586.046217542055	-63.15284410710622	0.8993069806462475	0.019297	0.6082240921326183	0	-0.4096348820651912	0	-31.55115363644659	353.7882498842285	-18.92351389153437	1.224274389663218	0.019297	0.3743166162219661	0	-2.455275191293401	0
0.6272	61.50059474468107	571.9304978187942	-62.71140195625643	0.8972422227323299	0.019297	0.6080730496204926	0	-0.5530571919118894	0	-54.77055178638449	392.0665008771127	-39.27869738406245	1.232093027722117	0.019297	0.3724756677725491	0	-4.595676849961306	0
0.636712856113114	61.09606614980194	534.3304372744444	-58.20329153682977	0.8922362626340693	0.019297	0.6075984223197233	0	-1.079433825514487	0	-96.1084219062376	475.3738825865166	-81.66757772643311	1.243464223448386	0.019297	0.3683424701871863	0	-12.89853045658635	0
0.6536558844730551	58.41568493310562	458.0273891616129	-48.94900518318236	0.8833060008001951	0.019297	0.6062444667052846	0	-1.777306036882158	0	-46.88397323650226	472.5003824226363	-18.55832609379609	1.230469693317123	0.019297	0.368915771666324	0	-7.177204618035574	0
0.6680312594138309	57.96450378251431	389.4046398399868	-36.48365787423319	0.8758784556792468	0.019297	0.6046893738235044	0	-1.343914183431465	0	-66.25450733466513	469.8098970847335	56.14089620052464	1.222882388426157	0.019297	0.3686788973017863	0	-0.1120819549882972	0
0.672	53.40179541865972	373.8679216440003	-35.72738759274329	0.8734861185952898	0.019297	0.60440922858869	0	-1.266324144804827	0	-64.98045032874042	487.9758489610966	50.93244869590082	1.222998489110974	0.019297	0.3676942705325866	0	-1.375282884749213	0
0.6815128561131141	53.86117594094512	333.2316410167483	-28.3167705781276	0.8679691163487115	0.019297	0.6039515269587157	0	-1.163358599769627	0	-59.1278069664649	513.0035107525825	76.51549172125954	1.216736926102854	0.019297	0.3670984392728361	0	0.9103770618606535	0
0.6984558844730551	44.40677339884817	258.0606960802555	-16.9064114672443	0.8595426359556226	0.019297	0.6034435538711351	0	-0.7773109227543804	0	-53.44655557891814	588.7115460934739	111.5316426308404	1.205907933083527	0.019297	0.3652470085336145	0	3.238364169229239	0
0.712831259413831	32.24937083881562	203.3919259011841	-10.20800130572636	0.8522277778831887	0.019297	0.6037548610954487	0	-0.4295153479915451	0	-51.2332029717481	654.7058830583878	124.0518264286507	1.195265364196623	0.019297	0.3639651060860067	0	3.515457026313721	0
0.7168000000000001	29.90926151768225	189.9677040697708	-8.965802207048506	0.8497653852886689	0.019297	0.6037681496551235	0	-0.3276316870225245	0	-50.37215401526	668.2264346839723	126.1880295041953	1.191731150116744	0.019297	0.3638421206695407	0	3.497756891267803	0
0.7263128561131141	12.76014014403385	151.486327620787	-4.316425900868032	0.8436592597033447	0.019297	0.6041992275752815	0	-0.1264336924913427	0	-44.61804516577835	696.1681385148056	123.7791999627149	1.183025281321392	0.019297	0.3636691027049943	0	3.166522512347523	0
0.7432558844730551	-0.207333170722844	67.26869562017468	6.846369824866965	0.8340340638594287	0.019297	0.6028905554393323	0	0.1784991836113694	0	-38.87442329752709	734.1962932284321	129.9588368552293	1.168638465653124	0.019297	0.3633359826259298	0	3.893524387576082	0
0.757631259413831	-12.69471136839975	23.638382563181	8.814453315813919	0.827967964211191	0.019297	0.6058977669825309	0	0.02268714665278376	0	-34.31921715333478	761.6845335503132	130.2255872242711	1.157757552524156	0.019297	0.3627625016388862	0	3.869601106867584	0
0.7616000000000002	-9.692725917213506	15.08757466632736	7.591799752008808	0.8280333885816783	0.019297	0.6086949986301476	0	0.004606830576353721	0	-34.96214653974959	768.4133506505617	130.596245384005	1.154802707043996	0.019297	0.362588717015548	0	3.807817636543724	0
0.7711128561131142	-0.9375117395633785	1.15222778191298	0.5358299219678822	0.7962861254872964	0.019297	0.5891775997095031	0	-0.03293291278881055	0	-30.23344043416225	778.8631105337746	126.3062413667967	1.147652673179534	0.019297	0.3621807361705482	0	3.425833200544811	0
0.7880558844730552	0.1605560416717619	-0.1731046218218408	-0.01629780728975927	0.801761479525479	0.019297	0.5876184210834691	0	0.0009940402734054464	0	-26.67125824139123	786.8788686141606	114.8175922802851	1.135320234966224	0.019297	0.3613700514545993	0	2.563765946344565	0
0.802431259413831	0.2080402655078481	-0.2233506071868088	-0.01253541672849919	0.8097840160933261	0.019297	0.5864524331828697	0	0.001481701057590856	0	-23.62100946094858	793.1379062513064	93.65707683424523	1.125992558949533	0.019297	0.3603786896343092	0	1.174126936703886	0
0.8064000000000002	0.2223964151233648	-0.2388655137226278	-0.01471215109289232	0.8125092819501804	0.019297	0.5861485332274722	0	0.001502666193491888	0	-24.34421653824105	795.7169435358713	91.88669665078314	1.123691764519303	0.019297	0.360032821483343	0	1.002968253827508	0
0.8159128561131141	0.2568555133438117	-0.2755622550091337	-0.01238788118856695	0.8199482099979465	0.019297	0.5854188155853378	0	0.001923615830812035	0	-22.55611834960572	796.0842771766361	78.27738047202931	1.117864523474944	0.019297	0.3592679272530776	0	0.007068286501793253	0
0.8328558844730553	0.3137606759390451	-0.3364433351442774	-0.01188854436988511	0.8364240872068402	0.019297	0.5842148085571681	0	0.002319218056163402	0	-21.03037804832922	789.3421954767321	57.95792151583765	1.107426010194812	0.019297	0.3579338797464476	0	-1.532876922029029	0
0.8472312594138312	0.3571290004857285	-0.3828870974464428	-0.0120121305131465	0.8535021465332313	0.019297	0.5832756755828524	0	0.002677414809976067	0	-18.65321195885341	783.4304332399573	45.44723474519252	1.099143103853778	0.019297	0.3565539486632209	0	-2.603770988214325	0
0.8512000000000002	0.3664626245870499	-0.3928722657461472	-0.01171280511734301	0.8586793414267573	0.019297	0.5830270363916954	0	0.002761303628212438	0	-17.98363651545282	782.3485822119012	45.72508434200262	1.097009243655513	0.019297	0.3561101002997248	0	-2.696904967457856	0
0.8607128561131143	0.3864344279567856	-0.4142030123238755	-0.00972096612849733	0.8719220320690028	0.019297	0.5825254012632343	0	0.003033485582322063	0	-16.98805391338248	776.0886652775712	42.45283586221856	1.091632459683425	0.019297	0.3550714002642414	0	-3.01835037443472	0
0.8776558844730553	0.4060671948602274	-0.4351605071760764	-0.006000155414961123	0.8983576350514737	0.019297	0.5819685071625753	0	0.003296308224153351	0	-13.77234276136448	760.6790983729409	39.99608970631807	1.081909354869724	0.019297	0.3532509127309922	0	-3.124218119443301	0
0.8920312594138311	0.4049963657470799	-0.4339633031730258	-0.001013266513608042	0.9235042251259826	0.019297	0.5819335341342665	0	0.003599829285836925	0	-10.92295620821587	748.1219513285912	42.58527728586178	1.073999406631617	0.019297	0.3515716596100764	0	-2.765945358780708	0
0.8960000000000002	0.4015739933550169	-0.4302933990733678	0.0003416317478214631	0.9308493282211261	0.019297	0.5820098488736926	0	0.003657342636238956	0	-11.3361741437856	745.126436094878	44.74771303447422	1.071909321047615	0.019297	0.3510716897635754	0	-2.646035463858052	0
0.9055128561131143	0.3889322443464279	-0.4167701532626529	0.004134350217993152	0.9491541100633651	0.019297	0.5823731628924816	0	0.003752901108851837	0	-8.409885579174956	736.5204499086108	48.5580676309515	1.06678712059578	0.019297	0.3498572252303598	0	-2.089536864415037	0
0.9224558844730553	0.352330534117226	-0.3777197444747801	0.01125353172873335	0.9841467746866674	0.019297	0.583787619795293	0	0.00389555837130103	0	-6.267687459730977	719.6822209084995	51.80993207778393	1.057735544062941	0.019297	0.3477049784563119	0	-1.488669226958196	0
0.9368312594138312	0.3074871471321617	-0.3298838578515901	0.01536070855750235	1.016029884512175	0.019297	0.5857928439561926	0	0.003926572917406225	0	-2.838819873765108	704.582203575308	57.21423674227505	1.049964127534886	0.019297	0.3460128198264691	0	-0.6777468400293988	0
0.9408000000000003	0.2767936583980353	-0.2970168832989264	0.01495371027865407	1.025144196196787	0.019297	0.5864629568255844	0	0.003637661550724859	0	-4.567998904191001	701.6063445936311	59.95307199607583	1.047906846068586	0.019297	0.3455472012537213	0	-0.533116357834389	0
0.9503128561131143	-0.3246793982280649	0.3485334244196206	-0.01975613090632046	1.047491237195318	0.019297	0.588276938672792	0	-0.004806366083483593	0	-2.088003821753362	696.2915302513536	60.99756266862475	1.04306545510757	0.019297	0.3443595081501023	0	-0.1367571362025439	0
0.9672558844730554	-2.605170132612968	2.798215626968106	-0.1820071482640274	1.08879746085683	0.019297	0.5921167887963019	0	-0.03615331902724329	0	-1.005226014691538	687.4360492742173	66.80962686680149	1.034336635868205	0.019297	0.3424451895699264	0	0.7042290969542918	0
0.9816312594138312	-0.7252088094843249	0.7780388529130403	-0.03796764116413684	1.124989112450047	0.019297	0.595651523598318	0	-0.00945408507857929	0	2.520129770388918	681.803441446214	72.09424504429394	1.026647848638703	0.019297	0.34103460408407	0	1.432530222109122	0
0.9856000000000004	-0.2892233025266813	0.309948021791752	-0.01005962172262687	1.135119483718219	0.019297	0.5966051800860778	0	-0.003105455071484547	0	0.9464396178903431	681.7998550978643	74.32837250293892	1.024537462648471	0.019297	0.3406534613539895	0	1.339995617785704	0
0.9951128561131144	0.1173664603657401	-0.1262322295574225	0.01025078701904778	1.159518290064963	0.019297	0.5988226976011594	0	0.002681958473368585	0	3.629531600062629	687.2575139059765	72.86305910536328	1.019710873882468	0.019297	0.3396416799003882	0	1.431699612104873	0
1.012055884473055	0.1036593008928175	-0.1113563731352814	0.007226290526700652	1.202479542861604	0.019297	0.6022612236140719	0	0.002403535157382322	0	5.762287311424306	698.8843246488394	80.43987025553197	1.010765766806998	0.019297	0.3380450957458777	0	2.21406589269147	0
1.026431259413831	0.0879618019786316	-0.09437817051951429	0.004100074553239237	1.237115914894794	0.019297	0.604233639484149	0	0.002204121028744657	0	10.10549369967333	709.2329535870075	85.34619428499167	1.002300639411779	0.019297	0.3370265302578174	0	2.697102523048019	0
1.0304	0.08533966998040628	-0.09153478050493949	0.003234529140579453	1.246169084225248	0.019297	0.6045537517681437	0	0.002172919374211674	0	10.07388693528363	713.6283923136614	88.27117085942942	0.9998530312768404	0.019297	0.3367679012382094	0	2.608444264489205	0
1.039912856113114	0.08158711500095701	-0.08745770711750245	0.001087533416975703	1.266679499009125	0.019297	0.6049206310320863	0	0.002119328988953473	0	13.04476413051143	728.0325264920523	88.28766917113992	0.9940720311353028	0.019297	0.3361007912403061	0	2.589913974233249	0
1.056855884473055	0.08327030583059158	-0.08931050406327089	-0.003239923256767736	1.298116378300932	0.019297	0.6040946220754788	0	0.002166239740537775	0	17.7281509019834	751.5252804302244	100.4836537696486	0.9828318546962953	0.019297	0.3351594613259831	0	3.406085369198041	0
1.071231259413831	0.09124389138595906	-0.09826667938733047	-0.009157013548614458	1.319108748522076	0.019297	0.6019744602321762	0	0.002383801980403411	0	24.71550129456669	770.1616538267419	108.6063612835241	0.972722168168724	0.019297	0.3345244194949439	0	3.813440816555877	0
1.075200000000001	0.0936291873479205	-0.1010186999143597	-0.0109924110031565	1.323986095965047	0.019297	0.6011499593943612	0	0.002456014553015265	0	27.31008043235916	776.9592090460103	114.526741517436	0.9700388798124249	0.019297	0.3343012748490549	0	3.762216528069017	0
1.084712856113115	0.09821822482973012	-0.1066077006251817	-0.01586327991600883	1.334040703150024	0.019297	0.5989105910180088	0	0.002593764043414925	0	28.7488959712292	788.2140652018229	115.856574375355	0.9635714312155681	0.019297	0.3337887370480122	0	4.219644871502956	0
1.101655884473056	0.1028668913828461	-0.1146404633456769	-0.02927129794055821	1.346162122438827	0.019297	0.5939202238124023	0	0.002739992747557248	0	39.28169041335791	799.0417564192489	131.0567419788402	0.951972769054332	0.019297	0.3329724499506597	0	5.313249285460318	0
1.116031259413831	0.0996606149994959	-0.1164121280036642	-0.04301664483064273	1.351027884885143	0.019297	0.5887936289309523	0	0.002894199398103082	0	40.72468215334757	798.4465146035609	136.1308876000043	0.942692978623757	0.019297	0.3320784069125357	0	6.350836779508812	0
1.12	0.09655634317416842	-0.1152972233125369	-0.04729720620629431	1.351620078389457	0.019297	0.5872719836884388	0	0.002948775807214613	0	68.25485420275635	783.6413662200323	372.9098426002225	0.9395471748019795	0.019297	0.3320667228350137	0	-3.300979467427696	0
