DataType=double
version=3
OpenSimVersion=4.5
endheader
time	ground_force_2_vx	ground_force_2_vy	ground_force_2_vz	ground_force_2_px	ground_force_2_py	ground_force_2_pz	ground_moment_2_mx	ground_moment_2_my	ground_moment_2_mz	ground_force_1_vx	ground_force_1_vy	ground_force_1_vz	ground_force_1_px	ground_force_1_py	ground_force_1_pz	ground_moment_1_mx	ground_moment_1_my	ground_moment_1_mz
0	0.07650977985041002	-0.08646126626799616	-0.02483235099798583	1.307771392802761	0.019297	0.5990496329290366	0.002742270977937445	0.003015202082681993	-0.003224477843614574	69.03809555560784	780.4772396631589	100.4556821147356	0.903379933408038	0.019297	0.3499745053993447	1.962466554819227	0.1064049062560026	12.87056110495934
0.009512856113114032	0.05137476821878779	-0.06082554475801995	-0.02414990635694924	1.305782357277746	0.019297	0.5971094367081308	0.003072797242937468	0.004395991455185842	-0.004590645300325456	69.30570135680563	811.0302025976292	104.4357346780319	0.8960854218950878	0.019297	0.3498593482796716	2.66332593499303	-0.9900465413430917	15.91258404386266
0.02645588447305514	-2.045893191651808	7.225531620601182	6.406109197017792	1.298584441378051	0.019297	0.5931870778880082	0.3167762164394753	0.8109695712439894	-0.813501934113538	77.41886802925089	804.6091675052089	98.72343605910146	0.8834416354264589	0.019297	0.3497833861744515	4.127556482333654	-2.829710365519153	22.23125812331789
0.04083125941383081	19.43523847887278	34.18209441001485	21.39295387202561	1.289682238559722	0.019297	0.5900412374595589	1.211178029742218	1.66342184665238	-3.799444019467584	67.06103048053973	751.2405246151147	84.88563562410246	0.8731473259855358	0.019297	0.3499755366382167	5.820683483947018	-5.430520680957767	29.81924530573248
0.04479999999999995	28.61845489927661	48.65443582720735	20.77499398073146	1.28699079688634	0.019297	0.5893608472939079	1.59654891986127	1.237793409193839	-5.331905244240716	67.62187372574853	731.5555503500329	82.49866821466584	0.8704412332933187	0.019297	0.3500789390826434	6.371285052033528	-5.852010317058351	32.16991245962601
0.05431285611311398	8.462232086976689	114.9477637276144	12.36907647983117	1.280615087443866	0.019297	0.5881159375565423	2.955863911422248	-0.3232403652034928	-10.77761492278055	54.72177199789472	689.9106860954857	82.36809440623466	0.8640398760496182	0.019297	0.3504125519460726	7.418083010936344	-6.076507422813918	36.70226970182718
0.07125588447305514	-5.873379848936622	320.7120012269688	11.5801370480325	1.268189047302697	0.019297	0.5868574898323098	4.99590787154677	3.399919347809852	-20.3711201330016	55.72039587429062	629.8397079389359	76.44112346467783	0.8532519050094106	0.019297	0.3513797000795955	7.454028786652062	-5.600436315865944	37.53100254255494
0.08563125941383082	-16.79258735496954	443.1228581498879	-22.71087905375821	1.256655907333886	0.019297	0.5863508129179524	4.891503297980097	2.464722099925276	-23.97709497812144	52.89696843899632	566.2768332049451	69.62256642582415	0.8447996205020651	0.019297	0.3525454627020637	6.625459074057324	-5.151872311741551	35.04105413466552
0.08960000000000001	-28.28339568997477	460.0619663576278	-34.82940324877888	1.253530930223079	0.019297	0.5862699832235639	4.782725702083214	1.465352639317167	-24.25588466294454	86.92824708032241	543.997591408636	59.69378083369718	0.8426207858627797	0.019297	0.3529141080400321	6.27507654163335	-4.925555733240386	33.95006622259684
0.0991128561131141	-31.07648791458101	475.7014994601171	-20.36517703926993	1.245922129639996	0.019297	0.5861127435212129	4.587949559012844	4.245153008417528	-24.6549505837859	45.68744286157123	498.2117177486629	61.95871430976278	0.8376929543689188	0.019297	0.3538478518630674	5.493880471332897	-4.253830965349803	31.68049549321876
0.1160558844730551	-49.74797191243078	486.1125057982929	-51.87613362696721	1.232539203157545	0.019297	0.585910029414127	4.428973434083969	-0.153105361290951	-24.48144806696171	60.37121342782365	407.1858234933139	46.22910939623159	0.8301565157804685	0.019297	0.3557390131264464	4.219412579967813	-3.27885961950689	25.7939133737414
0.1304312594138309	-58.22373208038954	534.700915638289	-66.70143209424974	1.221733607774388	0.019297	0.5857149169715643	4.119731247471674	-3.358974566200744	-23.24884582886932	13.22738871302145	331.4077630244193	44.57910161629454	0.8250757462663343	0.019297	0.3576215597700282	3.713487135106159	-2.671225899303872	20.34321482973301
0.1344	-60.77655945267504	555.4590860618266	-73.66220106006061	1.218834103684179	0.019297	0.585674726515974	3.93668628216157	-4.195863262063336	-22.62267953707712	136.6456707106952	298.3008698373935	3.217984569373928	0.8239783714365785	0.019297	0.3581697348560193	3.434202058096737	-1.76172020840276	18.13081129455182
0.1439128561131141	-64.06397293378181	591.1356080988326	-74.72053321443494	1.211779228605222	0.019297	0.585667855057201	3.539169540325182	-2.970835254598523	-21.7292956257646	-10.29723175376699	244.3734772017258	42.88226298787698	0.8214789544527735	0.019297	0.3596146032013785	3.034558773220025	-2.221150453917768	14.3679248531094
0.1608558844730551	-63.11548226954465	631.866870591562	-89.6220623462264	1.198859026431931	0.019297	0.585891330426761	3.07579889467121	-3.764793983489102	-21.05617261332478	56.00792623951045	135.3825091666848	-7.78780707599207	0.8180579044959685	0.019297	0.3627083239468823	1.743536211120131	-0.5088601922423743	7.022083112803976
0.1752312594138309	-54.73831123516965	660.4876800905438	-83.87065632910367	1.187724496855976	0.019297	0.5861988160779094	2.82439053700025	-2.850815779220331	-20.71819038137778	-17.81721901287698	21.26131470984046	8.738180373950289	0.8177501365737585	0.019297	0.3646693617310688	0.2364219150702436	-0.2305412701843314	1.041880715312849
0.1792	-55.58144787239338	669.9404322349473	-89.71449953833849	1.184669582068036	0.019297	0.5862926141241064	2.734516174000361	-3.418085403142064	-20.53541168047494	-5.648278797271733	6.78812361806125	2.883264396058614	0.8190180043497323	0.019297	0.3646511902671202	0.1267104390327841	-0.04591665771054158	0.3661315284135297
0.1887128561131141	-53.23467527727907	687.1673847839231	-99.85614589422099	1.177310178873581	0.019297	0.58659746654294	2.563400323302638	-4.024470599257835	-20.27838138011962	0.1018474549972793	-0.1093085982364194	0.004261464925291648	0.8216691953065314	0.019297	0.3654135149151304	-0.0001153072531823626	0.0004391788767463723	0.0100639467172939
0.2056558844730552	-48.50195998636521	717.2222325865171	-116.8182642875947	1.164176881312433	0.019297	0.5873318302374326	2.323062970004373	-5.379832915371678	-19.40610657314439	0.1557715559626613	-0.1673830076836604	0.01151217237171298	0.8302398402943174	0.019297	0.366914845043481	-0.0005254164539546356	0.0004910550766815223	0.01451077993959476
0.2200312594138309	-46.58075551325155	744.454077559705	-134.7811602520885	1.153138397589505	0.019297	0.5880863190007533	2.047108337011609	-6.914715409596424	-17.92236448983506	0.185547571506438	-0.1990595569000453	0.008659391026220993	0.8413106542845964	0.019297	0.3680049496693155	-0.0003024969627009255	0.0006062308219433477	0.01785726177351828
0.224	-44.23927950990233	750.5987631654086	-139.8192362595671	1.150099824066654	0.019297	0.5883040567150569	1.958614004822823	-7.38623729861335	-17.40601970561304	0.1940184439543621	-0.2081396472648685	0.008965801718312915	0.8449457725509815	0.019297	0.3682656214477739	-0.0002913214663987239	0.000646513679540458	0.01874732302100975
0.2335128561131141	-46.07325513500577	757.0552738001804	-148.6073661666554	1.142796260756197	0.019297	0.5888617616405328	1.843999084267189	-7.944524340153695	-16.36312650071957	0.210381800058292	-0.2255569702165665	0.005858524469917224	0.8546408976236505	0.019297	0.3687772582134718	-0.0001660426425094115	0.0005532878167324846	0.02053896307614805
0.2504558844730551	-43.92339011341104	769.8133094405721	-167.7266477896971	1.12974806430218	0.019297	0.5899310392249763	1.707303888331285	-10.1243175241303	-14.20898624657443	0.2274221307390264	-0.2437987489192402	0.003044492825960313	0.8753091770943959	0.019297	0.3694357439171225	-3.190388853918321e-05	0.0005406844599285773	0.02226550241052252
0.2648312594138309	-41.94098138739788	780.8968259174403	-170.5084112552296	1.118698031800917	0.019297	0.5908183075321324	1.509616556426293	-10.41300310600962	-12.04268928598556	0.2347137696529203	-0.2515690490470986	0.001336624827722303	0.8960451380235072	0.019297	0.3696849675557335	-0.0001734927932569379	0.00021939437078683	0.02253377705224786
0.2688	-40.37771637891944	781.8784175916114	-172.7631658148375	1.115647131996624	0.019297	0.5910451477532747	1.457659555626169	-10.70291962671816	-11.43139655115863	0.2341082513485482	-0.2509079472154312	0.001256865975460843	0.9022388017801166	0.019297	0.3696760645799682	-0.0001792463328439821	0.0001832449108732088	0.02239651286653485
0.2783128561131141	-40.75155197221609	780.9195740399729	-172.3983224380592	1.108301992913454	0.019297	0.5916021679003125	1.380689419295843	-10.63892724599559	-10.11034428494641	0.2294953077826891	-0.2459496576505848	-0.0009445528099347099	0.917857068518557	0.019297	0.3694742277473463	-0.0001601303549873853	-2.500372104407883e-05	0.02171558488062213
0.2952558844730552	-34.25467323435535	780.866683088532	-164.2053340545798	1.0951549736344	0.019297	0.5925614202214532	1.268824991066804	-10.03319873517567	-7.622587855632325	0.2084717896383096	-0.2234854549624408	-0.005501285468461688	0.9482391537703546	0.019297	0.3682734506600457	-0.0001240272356698758	-0.0004169665439571013	0.01916298515416366
0.3096312594138309	-30.21599060634349	781.0323635796804	-146.7295664171546	1.084003797515547	0.019297	0.5932847832406991	1.114158561593017	-7.968573041998493	-5.522416301072969	0.1812956329847961	-0.1945010968078139	-0.008877073089309144	0.9763733470782512	0.019297	0.3661735572309541	-0.0002115034109646443	-0.0008326846146383038	0.01598493634283366
0.3136000000000001	-29.62990831847481	779.2887047559254	-144.4525507129822	1.080916472776899	0.019297	0.5934690516327181	1.083867191435625	-7.666554088400153	-4.997815167948723	0.1722239161894474	-0.1848046155078119	-0.009161616155695404	0.9844833290719869	0.019297	0.3653925330671352	-0.0002250662917857133	-0.0008852784175277118	0.01502107665950691
0.3231128561131141	-26.18160762644983	775.1456043800364	-134.0294976361449	1.073488566145998	0.019297	0.5939204030824564	1.028922493825332	-6.49695055503717	-3.7866464046269	0.1488875768820515	-0.1599013430583233	-0.01009798988826345	1.004481654542694	0.019297	0.3632061133215402	-0.000236643577399769	-0.0009818641098669493	0.01263141562392582
0.3400558844730551	-16.45959358162129	771.5631126072452	-101.6849021103589	1.060232507464932	0.019297	0.5946694557763488	0.8950115223568824	-2.516189382530771	-1.455973790114744	0.1062000874550089	-0.1143515683348166	-0.01053190435964297	1.041831075839563	0.019297	0.3580466516907342	-0.0003891215007910062	-0.001115841956978759	0.008284203976456714
0.3544312594138309	-11.92517634198905	769.6699193138679	-81.06548095781542	1.048994669691438	0.019297	0.5952417891500753	0.7364206450629616	0.4958827534662427	0.4071244440646069	0.07428148278445587	-0.08017254711891433	-0.008980514616838695	1.075067680076863	0.019297	0.3524661771734504	-0.0006716401446467172	-0.001194241318071527	0.004965804408447528
0.3584000000000001	-11.17594960239398	767.5452615719053	-77.97554746355823	1.045873632980351	0.019297	0.5954097920403925	0.7186404224851297	1.076103020607142	0.8217215881036388	0.06635490703361055	-0.07163832886520891	-0.00817707752628658	1.084481732749836	0.019297	0.3507699381500073	-0.0007422832036429034	-0.001188847194424286	0.004181745545894722
0.3679128561131141	-6.496937678531946	762.8448557365191	-67.30116369409744	1.038371571395293	0.019297	0.5958217929850681	0.6959916205127037	2.425277241011111	1.767791924122363	0.04981127991876666	-0.05382328566667964	-0.006465290552792485	1.107332670544498	0.019297	0.3465247852436931	-0.0009065446398267284	-0.001169717428485293	0.002486898887055685
0.3848558844730551	-0.4988870735790565	755.2927330313155	-49.01896771536257	1.024974958927231	0.019297	0.5965534138128878	0.6949309118268703	4.937076009322014	3.309450293855644	0.0308641770145015	-0.03335439769728714	-0.004019457802780996	1.148581550019458	0.019297	0.3384950849676024	-0.001208295554885238	-0.001168377505156164	0.000166173145628405
0.3992312594138309	0.5886475501533581	749.3893726607	-52.30497130316608	1.013597561793409	0.019297	0.5971845593652092	0.7171473573216578	4.796788858197418	4.388369737180863	-2.100668087383287	2.280945643495565	0.344844292786325	1.18343329645498	0.019297	0.3316454870727902	-0.1537794332946143	-0.1067148091449659	-0.2323730885726695
0.4032	0.9490909090629307	747.6656420136012	-53.00986405693845	1.01044349293188	0.019297	0.5973822305836479	0.7405842956911042	4.727517581647686	4.646569092514856	-4.942031834779073	5.36499254591018	0.8043146589897965	1.192932493114564	0.019297	0.3298284947146082	-0.3540199310879898	-0.2463341908749603	-0.533831963070991
0.4127128561131141	2.442309245958634	740.8676441019595	-54.40340319845335	1.002874212226677	0.019297	0.5978549718694336	0.8264009290305618	4.602751755210476	5.039461374938018	-11.74678899203536	12.73598226694221	1.815192106378015	1.215121064008383	0.019297	0.3257899642644019	-0.7658970356657367	-0.5289482511519735	-1.247271029549259
0.4296558844730551	3.431079360398622	724.9200787970623	-65.46051916350024	0.9893591722597614	0.019297	0.5987591043528387	1.101868349852439	2.884657629098749	5.509844870897265	-16.73085126853246	18.07328285741754	2.141644619579143	1.251385658976104	0.019297	0.3201762378079872	-0.9588556763452285	-0.6829740036076001	-1.731283535197044
0.4440312594138309	6.939292621828775	711.4039664274251	-70.50910833436761	0.9779181117681603	0.019297	0.5995391364995734	1.325036769411009	1.779157138884317	6.11618674438861	-8.883626413477536	9.558503213575307	0.8141428519253777	1.277774611042855	0.019297	0.3171810906569518	-0.5144551548650872	-0.4032540719134639	-0.8884748145248329
0.448	8.430860888475744	707.9542679595686	-70.58886594390982	0.9747674014999517	0.019297	0.5997519592306838	1.372242910878809	1.761147136346764	6.33598986720499	-6.185183530173503	6.648764856298475	0.4995791125268723	1.284287952277928	0.019297	0.316600675552216	-0.3690494050649846	-0.2981266431326761	-0.6132750699837315
0.457512856113114	12.12716331372852	698.7766202937349	-67.48767568874749	0.9672191597329363	0.019297	0.6002319573750294	1.487000175954783	1.737607388972058	6.830437564151495	-1.612525754003768	1.729882723066303	0.08394448384672959	1.298559576266515	0.019297	0.3156116220434529	-0.1060737294203085	-0.09190855378541568	-0.163228124950923
0.4744558844730551	16.17749496028593	690.6010479956311	-70.29827379694586	0.9538616152934638	0.019297	0.6009929500866283	1.517564481571985	0.9356038450579274	8.426850312392672	0.06326325156980465	-0.06795841523384617	0.004551633840383072	1.318865848324269	0.019297	0.3152047516744343	-0.00302351402199493	-0.003221183310517586	-0.006910984145441933
0.4888312594138309	22.71925982119325	689.8108679327928	-66.33680585696655	0.9426458028968029	0.019297	0.6015225585765666	1.294756839710911	1.632370837425732	10.65686069635947	0.09749688720615551	-0.10493199558703	0.009102543353505705	1.331230356336739	0.019297	0.3160839160371776	-0.002212748740636811	-0.002588553214779829	-0.006640054371366963
0.4928	23.0807882100274	689.3644268507469	-66.36133566700423	0.9395640657629234	0.019297	0.6016589670189593	1.20557229909326	1.921588261845904	11.37323454841193	0.1017120045330574	-0.1096676370274356	0.01127676847548945	1.333983891672377	0.019297	0.3165081042943067	-0.002243917747159822	-0.002728482984635672	-0.006902410507764324
0.502312856113114	26.81298947876993	689.0805705152887	-65.28436123950551	0.9321956944860508	0.019297	0.6019557509774273	0.9531853208115826	2.110901606111078	13.21257009050681	0.1070577937882126	-0.1161532997475404	0.01679988626265878	1.33935867565911	0.019297	0.3178436314496359	-0.002280660146399582	-0.003056091810351131	-0.007348972203912119
0.519255884473055	31.10979462576312	693.7944218086815	-64.36068091879625	0.9191321326700379	0.019297	0.6023869177606571	0.2692360954450681	2.958749221822734	17.12554292918049	0.1061181826457332	-0.1173548784616947	0.02653168815286437	1.344548647740212	0.019297	0.321288457345886	-0.002425631266952341	-0.00382051854440171	-0.008075813606726396
0.5336312594138308	35.6092386575007	702.4756501527459	-63.02618810090466	0.9081156382716227	0.019297	0.6026433626676535	-0.5673825128261418	4.171444122347618	20.96208443390677	-0.006572150324357394	0.02224004336547376	-0.03195186093554922	1.345094949027615	0.019297	0.3251149794143093	-0.007670866744965168	-0.01556597041968469	-0.02114826154628243
0.5376	36.43667810847701	704.1914139362327	-64.3699612211642	0.9050825258298161	0.019297	0.6027023836325005	-0.825915348767738	4.478883105411003	22.04377006765588	-0.2918235338121652	0.4072476339827031	-0.2478047672996056	1.344775612337786	0.019297	0.3262680686296737	-0.02197586016820487	-0.04715187427377063	-0.05672970005953924
0.547112856113114	39.19253325087502	707.0938422431399	-63.4981676821756	0.8978276832393599	0.019297	0.60282290972303	-1.456812365418235	5.046101855855747	24.5794873063735	-5.247427445506018	8.377242166357576	-5.796475183815966	1.343308510672595	0.019297	0.3292046034953955	-0.3453911958243738	-0.7702183862517542	-0.800990578425742
0.5640558844730551	45.44063213284349	705.848666991589	-63.15018785879403	0.8849582208235193	0.019297	0.6028988996829729	-2.556677031746776	5.76697062882711	28.68244234146889	-9.177744293640465	47.17609227202608	-42.91533364269936	1.338813775671723	0.019297	0.3346784932053734	-2.155807692141641	-4.563361935037846	-4.587444314192442
0.5784312594138308	49.76532469470185	693.6995704421415	-61.21276668462873	0.8741392316339041	0.019297	0.6027714799530776	-3.372105251940985	6.293643160871559	31.64413004004874	2.629190975939948	97.61808356831457	-61.48452384937737	1.333333582812742	0.019297	0.3387864078309543	-4.201077573755813	-5.603120860114337	-9.719471977510452
0.5823999999999999	47.47319807636456	688.0900290369519	-63.56369566729254	0.8711871518496433	0.019297	0.6027125064657796	-3.57108322099941	6.214666551079607	32.33848764463129	-13.66747884572434	122.8536372508536	-33.74826499347584	1.331581347405407	0.019297	0.339668343188436	-5.04665506112963	-3.18820415851368	-12.13641424287633
0.5919128561131139	52.72998682058114	673.0406236789055	-64.99113625980647	0.8641687474326123	0.019297	0.6025548104933188	-3.97451590931475	5.666380060275237	33.73424230782836	6.856144220481247	183.738493771122	-35.26825925845972	1.327210037058093	0.019297	0.3415136440009147	-6.945881642405191	-2.379021627914025	-18.11323744002364
0.6088558844730551	54.84931632697042	631.2937163968821	-66.48045982939111	0.851996791625674	0.019297	0.6021441977868666	-4.1589458925123	4.247104023129783	34.51781872801623	7.406428841443444	285.7769959297985	-11.13082808441916	1.318633107239459	0.019297	0.3439149299320061	-9.283053621508861	-0.9618845888353126	-27.30557059176664
0.6232312594138308	61.15443860910607	586.046217542055	-63.15284410710622	0.8421204018381294	0.019297	0.6016818195068333	-3.834074126470215	3.601949224080236	33.51397820466822	-31.55115363644659	353.7882498842285	-18.92351389153437	1.311343354592388	0.019297	0.3451888402766848	-10.30506487470099	-5.021940892589628	-30.8039767215223
0.6272	61.50059474468107	571.9304978187942	-62.71140195625643	0.8394729874034904	0.019297	0.6015459546848075	-3.733044655876886	3.471152766000159	33.03998752023424	-54.77055178638449	392.0665008771127	-39.27869738406245	1.309154777979938	0.019297	0.3454544359727659	-10.59411980113037	-9.102529793846363	-30.21333077504962
0.636712856113114	61.09606614980194	534.3304372744444	-58.20329153682977	0.8333183083617721	0.019297	0.6011802703919449	-3.429413926063662	2.741908878488658	31.48165626963229	-96.1084219062376	475.3738825865166	-81.66757772643311	1.302949295917013	0.019297	0.3460244634398354	-10.60939751908027	-19.90148064456113	-28.27764985535165
0.6536558844730551	58.41568493310562	458.0273891616129	-48.94900518318236	0.82315516084953	0.019297	0.6003674861875199	-2.691818042705433	1.510325581919464	27.55073217848114	-46.88397323650226	472.5003824226363	-18.55832609379609	1.289754570150076	0.019297	0.3467234393731152	-10.48588549539137	-9.317897408022418	-28.01212697544924
0.6680312594138309	57.96450378251431	389.4046398399868	-36.48365787423319	0.8154852361434688	0.019297	0.5994777548485046	-2.029428609943031	1.161540283824715	23.51739990210689	-66.25450733466513	469.8098970847335	56.14089620052464	1.278750618407529	0.019297	0.3470028648052875	-10.18361459638544	1.588275691277226	-26.24744737785461
0.672	53.40179541865972	373.8679216440003	-35.72738759274329	0.8135411347201235	0.019297	0.5991951556054304	-1.949374629551413	1.153794387093977	22.41150653439157	-64.98045032874042	487.9758489610966	50.93244869590082	1.276002480626759	0.019297	0.3470565535234161	-10.07070747816884	-0.01670795120651603	-25.86466775824217
0.6815128561131141	53.86117594094512	333.2316410167483	-28.3167705781276	0.8092066285131791	0.019297	0.5984674862480334	-1.827455885423305	0.7959821684545229	19.58152025166117	-59.1278069664649	513.0035107525825	76.51549172125954	1.268591061288279	0.019297	0.3471449181317826	-10.23622639723635	3.698213767024617	-26.60135339716199
0.6984558844730551	44.40677339884817	258.0606960802555	-16.9064114672443	0.8028183493920096	0.019297	0.5969256728991081	-1.682008900609542	0.4711312694414062	14.63830887526188	-53.44655557891814	588.7115460934739	111.5316426308404	1.255146453710279	0.019297	0.3472282842939204	-10.6078310057823	7.766978508905301	-28.98728560553005
0.712831259413831	32.24937083881562	203.3919259011841	-10.20800130572636	0.7989763191230912	0.019297	0.5953923696020732	-1.700863250169919	0.3837607018696723	10.83091675426371	-51.2332029717481	654.7058830583878	124.0518264286507	1.243547225865731	0.019297	0.347350740621529	-10.87752281287571	8.653702991653569	-31.61041887977583
0.7168000000000001	29.90926151768225	189.9677040697708	-8.965802207048506	0.7981691166066334	0.019297	0.5949367773037446	-1.6776755293767	0.3991100778197562	9.801624700093296	-50.37215401526	668.2264346839723	126.1880295041953	1.240302584493576	0.019297	0.3474088071839267	-10.98117448053591	8.799109087594218	-32.45671642111724
0.7263128561131141	12.76014014403385	151.486327620787	-4.316425900868032	0.7965645461324824	0.019297	0.5938597226874842	-1.566293624869594	0.2087806803481054	7.134205209202765	-44.61804516577835	696.1681385148056	123.7791999627149	1.232490021948843	0.019297	0.3475663155731248	-11.21024734249375	8.570753650031953	-34.43577640473038
0.7432558844730551	-0.207333170722844	67.26869562017468	6.846369824866965	0.7947888097212135	0.019297	0.5920193440151442	-0.7312922123162762	-0.09244230282391805	2.639977055160001	-38.87442329752709	734.1962932284321	129.9588368552293	1.218681884171216	0.019297	0.3478852778829857	-11.34385015003651	9.796471614024448	-36.74169237646223
0.757631259413831	-12.69471136839975	23.638382563181	8.814453315813919	0.7946996905951001	0.019297	0.5905313943715137	-0.3632361943876111	-0.4656261631101203	0.7864081789537358	-34.31921715333478	761.6845335503132	130.2255872242711	1.207179167188843	0.019297	0.348062349302004	-11.19687867583668	9.801062177911517	-37.64367951317535
0.7616000000000002	-9.692725917213506	15.08757466632736	7.591799752008808	0.7949824485467425	0.019297	0.5901108539815701	-0.2803896699952413	-0.4264403082690417	0.4986585255694021	-34.96214653974959	768.4133506505617	130.596245384005	1.204005015341811	0.019297	0.3480733936370205	-11.15376827307071	9.725967501432683	-37.80771057886574
0.7711128561131142	-0.9375117395633785	1.15222778191298	0.5358299219678822	0.7962861254872964	0.019297	0.5891775997095031	-0.02174957466164722	-0.03293291278881055	0.04291726247307827	-30.23344043416225	778.8631105337746	126.3062413667967	1.196427361587901	0.019297	0.3480375391924821	-11.01561439122847	9.158783263857254	-37.98880552905597
0.7880558844730552	0.1605560416717619	-0.1731046218218408	-0.01629780728975927	0.801761479525479	0.019297	0.5876184210834691	0.002349146115480234	0.0009940402734054464	0.01571057878878616	-26.67125824139123	786.8788686141606	114.8175922802851	1.182975512390252	0.019297	0.3477053373267322	-10.75247479287201	7.670975040321329	-37.49893078291288
0.802431259413831	0.2080402655078481	-0.2233506071868088	-0.01253541672849919	0.8097840160933261	0.019297	0.5864524331828697	0.002711282719193825	0.001481701057590856	0.02063821984306275	-23.62100946094858	793.1379062513064	93.65707683424523	1.17169005147286	0.019297	0.3471674283779868	-10.47835209177853	5.141957177966785	-36.24441354088612
0.8064000000000002	0.2223964151233648	-0.2388655137226278	-0.01471215109289232	0.8125092819501804	0.019297	0.5861485332274722	0.002904598941791459	0.001502666193491888	0.02208490999891429	-24.34421653824105	795.7169435358713	91.88669665078314	1.168591159873587	0.019297	0.3469896590530885	-10.37866534304403	4.811099804004618	-35.72720963791949
0.8159128561131141	0.2568555133438117	-0.2755622550091337	-0.01238788118856695	0.8199482099979465	0.019297	0.5854188155853378	0.00319922502303537	0.001923615830812035	0.02571885048387108	-22.55611834960572	796.0842771766361	78.27738047202931	1.161187387873023	0.019297	0.3465188962533604	-10.14930312811241	3.110699974055923	-34.48865118956591
0.8328558844730553	0.3137606759390451	-0.3364433351442774	-0.01188854436988511	0.8364240872068402	0.019297	0.5842148085571681	0.003690567096120543	0.002319218056163402	0.03171992731770317	-21.03037804832922	789.3421954767321	57.95792151583765	1.147968527526037	0.019297	0.3455299144147957	-9.790973227503379	0.556023035285617	-32.00191964038304
0.8472312594138312	0.3571290004857285	-0.3828870974464428	-0.0120121305131465	0.8535021465332313	0.019297	0.5832756755828524	0.004114304076745385	0.002677414809976067	0.03623112127140701	-18.65321195885341	783.4304332399573	45.44723474519252	1.136761940702665	0.019297	0.3445478753921798	-9.405923184242324	-1.118050708620102	-29.47174165050699
0.8512000000000002	0.3664626245870499	-0.3928722657461472	-0.01171280511734301	0.8586793414267573	0.019297	0.5830270363916954	0.004184314640659963	0.002761303628212438	0.03723036794705371	-17.98363651545282	782.3485822119012	45.72508434200262	1.133669683572211	0.019297	0.3442677194410674	-9.264869874784026	-1.233572333091558	-28.68124319209345
0.8607128561131143	0.3864344279567856	-0.4142030123238755	-0.00972096612849733	0.8719220320690028	0.019297	0.5825254012632343	0.004298395576688655	0.003033485582322063	0.03942472458560198	-16.98805391338248	776.0886652775712	42.45283586221856	1.126246743910779	0.019297	0.3435809153282762	-8.917635117345338	-1.744076825225785	-26.86375364554539
0.8776558844730553	0.4060671948602274	-0.4351605071760764	-0.006000155414961123	0.8983576350514737	0.019297	0.5819685071625753	0.004261898751389564	0.003296308224153351	0.04173786346438168	-13.77234276136448	760.6790983729409	39.99608970631807	1.112967700256747	0.019297	0.3423548610412722	-8.288398775161211	-2.032069909830478	-23.62543416595623
0.8920312594138311	0.4049963657470799	-0.4339633031730258	-0.001013266513608042	0.9235042251259826	0.019297	0.5819335341342665	0.00405855701808543	0.003599829285836925	0.04182859661520785	-10.92295620821587	748.1219513285912	42.58527728586178	1.101712644045862	0.019297	0.3413386723518645	-7.655522395534084	-1.697543930706824	-20.7328812519779
0.8960000000000002	0.4015739933550169	-0.4302933990733678	0.0003416317478214631	0.9308493282211261	0.019297	0.5820098488736926	0.003968258564621244	0.003657342636238956	0.04153735928743241	-11.3361741437856	745.126436094878	44.74771303447422	1.098614492200535	0.019297	0.3410773362721489	-7.447056998139026	-1.564337860204029	-19.89872900647909
0.9055128561131143	0.3889322443464279	-0.4167701532626529	0.004134350217993152	0.9491541100633651	0.019297	0.5823731628924816	0.00367341270409532	0.003752901108851837	0.04045736875274385	-8.409885579174956	736.5204499086108	48.5580676309515	1.091176507302638	0.019297	0.340470550072243	-6.913478210602175	-0.9841762392746065	-17.96328207033075
0.9224558844730553	0.352330534117226	-0.3777197444747801	0.01125353172873335	0.9841467746866674	0.019297	0.583787619795293	0.003080945954968814	0.00389555837130103	0.03694146591593798	-6.267687459730977	719.6822209084995	51.80993207778393	1.077927996260747	0.019297	0.3394975403003245	-5.906747320070155	-0.4939413073127983	-14.5321488433053
0.9368312594138312	0.3074871471321617	-0.3298838578515901	0.01536070855750235	1.016029884512175	0.019297	0.5857928439561926	0.002603590443768902	0.003926572917406225	0.03274860081478075	-2.838819873765108	704.582203575308	57.21423674227505	1.06671848662993	0.019297	0.3387734975184348	-5.100697664186746	0.2602898956589033	-11.80482325067811
0.9408000000000003	0.2767936583980353	-0.2970168832989264	0.01495371027865407	1.025144196196787	0.019297	0.5864629568255844	0.002168877015775475	0.003637661550724859	0.03218265942097216	-4.567998904191001	701.6063445936311	59.95307199607583	1.063622763433362	0.019297	0.3385949363229132	-4.877753184750763	0.3773432288348453	-11.02638733423624
0.9503128561131143	-0.3246793982280649	0.3485334244196206	-0.01975613090632046	1.047491237195318	0.019297	0.588276938672792	-0.00875732479253369	-0.004806366083483593	0.05653701891330019	-2.088003821753362	696.2915302513536	60.99756266862475	1.05623875923634	0.019297	0.338194200503412	-4.292851495784333	0.6539091220163857	-9.172460090287739
0.9672558844730554	-2.605170132612968	2.798215626968106	-0.1820071482640274	1.08879746085683	0.019297	0.5921167887963019	-0.05277508632348694	-0.03615331902724329	0.1943205161088533	-1.005226014691538	687.4360492742173	66.80962686680149	1.04310445319994	0.019297	0.3375986098338578	-3.331713626255455	1.285131793290805	-6.027313707285863
0.9816312594138312	-0.7252088094843249	0.7780388529130403	-0.03796764116413684	1.124989112450047	0.019297	0.595651523598318	-0.01537734072576466	-0.00945408507857929	0.08093264376327268	2.520129770388918	681.803441446214	72.09424504429394	1.031974263791483	0.019297	0.3371998816479559	-2.614526953933644	1.826198099513688	-3.63156818173638
0.9856000000000004	-0.2892233025266813	0.309948021791752	-0.01005962172262687	1.135119483718219	0.019297	0.5966051800860778	-0.006435900683910529	-0.003105455071484547	0.04867394402733304	0.9464396178903431	681.7998550978643	74.32837250293892	1.028891667990193	0.019297	0.3371041861096022	-2.419895347325658	1.666995789085592	-2.968696571052416
0.9951128561131144	0.1173664603657401	-0.1262322295574225	0.01025078701904778	1.159518290064963	0.019297	0.5988226976011594	0.001711932791488898	0.002681958473368585	0.01383512646590702	3.629531600062629	687.2575139059765	72.86305910536328	1.021543842704387	0.019297	0.3369103581140603	-1.877121420548927	1.575168746448108	-1.25972159561962
1.012055884473055	0.1036593008928175	-0.1113563731352814	0.007226290526700652	1.202479542861604	0.019297	0.6022612236140719	0.001912086510484071	0.002403535157382322	0.008013761151768285	5.762287311424306	698.8843246488394	80.43987025553197	1.008474702492024	0.019297	0.3366957095379372	-0.943064868626954	2.037548527472104	1.601188936497767
1.026431259413831	0.0879618019786316	-0.09437817051951429	0.004100074553239237	1.237115914894794	0.019297	0.604233639484149	0.0019847628414483	0.002204121028744657	0.005148861448456915	10.10549369967333	709.2329535870075	85.34619428499167	0.9973421228666818	0.019297	0.3366114819793201	-0.2943659164398973	2.278106274388236	3.516743334689163
1.0304	0.08533966998040628	-0.09153478050493949	0.003234529140579453	1.246169084225248	0.019297	0.6045537517681437	0.002010644570199956	0.002172919374211674	0.004520804885494326	10.07388693528363	713.6283923136614	88.27117085942942	0.9942474846956901	0.019297	0.3365917778638845	-0.1256866404683485	2.115410351423606	4.000277194745632
1.039912856113114	0.08158711500095701	-0.08745770711750245	0.001087533416975703	1.266679499009125	0.019297	0.6049206310320863	0.002074195340112631	0.002119328988953473	0.003234555412361425	13.04476413051143	728.0325264920523	88.28766917113992	0.9868524863714347	0.019297	0.3365634699584952	0.3368451561573593	1.946481659807641	5.256063414561361
1.056855884473055	0.08327030583059158	-0.08931050406327089	-0.003239923256767736	1.298116378300932	0.019297	0.6040946220754788	0.002254487906847288	0.002166239740537775	0.001468353121339624	17.7281509019834	751.5252804302244	100.4836537696486	0.9736176226285839	0.019297	0.3365396992760461	1.03728371248153	2.455736597693571	6.924728338636026
1.071231259413831	0.09124389138595906	-0.09826667938733047	-0.009157013548614458	1.319108748522076	0.019297	0.6019744602321762	0.00251022760110848	0.002383801980403411	0.0002024063765261532	24.71550129456669	770.1616538267419	108.6063612835241	0.9623031481347494	0.019297	0.336484552075227	1.509618949750577	2.633423303200239	8.024329700619855
1.075200000000001	0.0936291873479205	-0.1010186999143597	-0.0109924110031565	1.323986095965047	0.019297	0.6011499593943612	0.002575148579310977	0.002456014553015265	-8.966898540557332e-05	27.31008043235916	776.9592090460103	114.526741517436	0.9591800275135571	0.019297	0.3364601635907417	1.677368489159252	2.459628132480597	8.436885293275754
1.084712856113115	0.09821822482973012	-0.1066077006251817	-0.01586327991600883	1.334040703150024	0.019297	0.5989105910180088	0.002687887802466916	0.002593764043414925	-0.0006618992088685519	28.7488959712292	788.2140652018229	115.856574375355	0.9517104085343134	0.019297	0.3363977212739581	2.05643806278024	2.770461998962105	9.349024905042803
1.101655884473056	0.1028668913828461	-0.1146404633456769	-0.02927129794055821	1.346162122438827	0.019297	0.5939202238124023	0.002820578654904776	0.002739992747557248	-0.001506252530965655	39.28169041335791	799.0417564192489	131.0567419788402	0.9383852444337101	0.019297	0.3362272861981727	2.600750072069832	3.404657107303346	10.85699953825159
1.116031259413831	0.0996606149994959	-0.1164121280036642	-0.04301664483064273	1.351027884885143	0.019297	0.5887936289309523	0.002830462241768972	0.002894199398103082	-0.001984000613099491	40.72468215334757	798.4465146035609	136.1308876000043	0.92707695283445	0.019297	0.335934208534309	3.078651365907671	4.067987032532812	12.46856136343145
1.12	0.09655634317416842	-0.1152972233125369	-0.04729720620629431	1.351620078389457	0.019297	0.5872719836884388	0.002807163613936845	0.002948775807214613	-0.002033910688028317	68.25485420275635	783.6413662200323	372.9098426002225	0.9239681890629332	0.019297	0.3358241151775171	2.944448068704089	-9.366996853766674	12.20833766886863
