DataType=double
version=3
OpenSimVersion=4.5
endheader
time	pelvis_tilt_moment	pelvis_list_moment	pelvis_rotation_moment	pelvis_tx_force	pelvis_ty_force	pelvis_tz_force	hip_flexion_r_moment	hip_adduction_r_moment	hip_rotation_r_moment	hip_flexion_l_moment	hip_adduction_l_moment	hip_rotation_l_moment	lumbar_extension_moment	lumbar_bending_moment	lumbar_rotation_moment	knee_angle_r_moment	knee_adduction_r_moment	knee_angle_r_beta_force	knee_angle_l_moment	knee_adduction_l_moment	knee_angle_l_beta_force	arm_flex_r_moment	arm_add_r_moment	arm_rot_r_moment	arm_flex_l_moment	arm_add_l_moment	arm_rot_l_moment	ankle_angle_r_moment	ankle_angle_l_moment	elbow_flex_r_moment	elbow_flex_l_moment	pro_sup_r_moment	pro_sup_l_moment	subtalar_angle_r_moment	subtalar_angle_l_moment	wrist_flex_r_moment	wrist_dev_r_moment	wrist_flex_l_moment	wrist_dev_l_moment	mtp_angle_r_moment	mtp_angle_l_moment
0	-0.01654417644702733	-0.003570742996410909	-0.001904000333596765	-0.8011670672956583	0.1880322704934656	0.1454968779816159	-40.14185359318103	6.036078748280963	-1.0200387539987	17.01723913215342	-54.79586314312782	-3.336404149292131	43.21326027790295	-9.421790321576539	12.32448616228364	30.30417022098917	10.17690659175309	-0.02833876070290503	12.44944973117924	-34.65819551546918	-0.03623355411885415	25.72899675553806	-4.33017256745017	0.4272657367737871	5.142984974336898	-1.259754391323571	-0.8379973111187415	-0.9088934727544891	-88.66038434480816	10.93717380425954	3.656266456671712	-0.1797494746010164	-0.1069929653055464	-0.04916163379923066	11.49645198439813	0.5055999495262469	-1.391074862422186	0.01416093967377741	-0.3866257347730206	0.08150097224137327	13.47874253802
0.009512856113114032	-0.05538709568556754	-0.02012412711039639	-0.01434298229162106	-0.957103680559996	0.5879030196709891	0.5780718006174634	-30.96401642704393	3.336240370227565	-0.5042521266219255	18.21450449401025	-55.98655016204274	-3.463843909851192	35.55014452666153	-1.215197849284758	13.33700494676356	24.3608591920833	8.146603713306783	-0.03136482960505438	12.0964580548144	-34.32700145380117	-0.04127366437170604	33.66733478859756	-0.2392863708706328	1.240505238557199	-2.233360910877759	1.149555284089352	0.9549828653957945	1.171239416726909	-95.27180500102615	13.8126413139341	-0.0269413040386548	-0.1357398898403646	0.001161048608925817	-0.9366603381659457	12.75685003449091	0.8866748320572577	-1.711037689665011	0.09807740944611887	0.199012863413079	-0.05125573251646618	15.13927768455875
0.02645588447305514	-0.05474407099868017	-0.02491315179849175	-0.0251208665050092	-0.9617216445430046	0.5222579072100189	0.6494438898056885	-23.80298314398249	-1.794569453320662	1.147656123821821	17.81781851755459	-52.73935772955768	-3.859321201649953	14.51565126140113	4.568223900863784	8.815827851478478	18.37395456313872	4.902037712341119	-0.01824105973852089	13.62801274224121	-30.17127645068066	-0.04029050564168263	-28.84522585993206	3.423714171400616	-0.1193305553654742	-8.364236511555889	-4.926138170489663	-1.583506308799281	1.08408347762822	-104.7435034133004	-10.5380149215342	0.08464874405894252	0.2444366799836801	-0.05343613649527984	-0.6905364581506022	15.02025088712876	-0.3204586721101503	1.351642307795108	-0.1535915687269359	0.1097904402494615	0.04888314911436691	16.45186526948951
0.04083125941383081	-0.03388746139910381	-0.01451307245869593	-0.01817340581243219	-0.9313266273659231	0.2666098808511492	0.4840097273184227	-18.55695802927922	-1.888919865379009	1.068334709120251	20.18562243213508	-47.3290142947678	-3.436268774741079	7.225124622077153	3.831268728127501	7.637154414413589	12.98463890779779	6.147525622329314	-0.0234020957079587	11.9505964223808	-26.05307728984499	-0.04312877195632353	-24.0507740788743	0.9196638606216756	-0.414862258243482	-5.466122999268677	-4.63597356732904	-1.489763005835009	0.2931283733015756	-104.3432767935097	-8.695477810009409	0.691472343164492	0.1582673577472048	-0.05417035680440364	0.4836867571307104	15.28538093184944	-0.3374116923023211	1.115884598373391	-0.1173881629169732	0.01603439813246624	0.03560119555402368	16.37913024019821
0.04479999999999995	-0.01027760810639933	-0.004338956521644798	-0.005425174957439105	-0.7782426493441505	0.07460281772512189	0.1802693811801888	-18.83626336131689	-5.734062999036541	2.78499186881111	19.71794839912055	-48.00537098974097	-4.055768573447986	16.62505735765235	4.518465538157781	9.662650573968303	6.026905892268545	3.089984077067447	-0.01690798193342077	12.45629038069427	-25.12148077988347	-0.04393129024724807	-5.76191064698219	-2.555405076565154	-0.2792783614981602	4.490798646907485	-3.925057592197652	-2.050653190093867	1.508621705563004	-106.2573489211703	-1.090454531960715	3.661993667899137	0.00747906644876041	-0.1284341621706503	0.325039589720392	15.8943300085292	-0.0868703484292763	0.1104022917341099	-0.1171240277540736	-0.4166632837721425	-0.1963191989843473	16.60018037681685
0.05431285611311398	-0.04254477693245917	-0.01950196881957296	-0.02910729497042652	-0.9525045702142156	0.3210526071973163	0.5739563993351808	-19.41848124903506	-6.309324466904338	2.227938560418302	21.79650413548476	-43.1068102300648	-3.059412071001881	9.33997232230154	2.647533631668373	8.925794909457277	3.106420604550431	-4.425099929941116	-0.03959888879311026	10.42986383933939	-23.67551755640337	-0.04949720232548301	1.137980919699715	1.261614855202779	0.119760119182815	-8.901752128812902	-1.295701181145285	0.7287670226791785	-0.7812608685075659	-104.8015521303353	0.412826340819264	-1.13233616541901	-0.007909769605259395	0.03058750973589236	-0.5745738330504292	15.74784962767142	0.139697921630135	0.04615645923566639	0.0753643570579873	0.3403544432937244	-0.1480712505148463	16.54487709804028
0.07125588447305514	-0.04480635596075544	-0.02100595129340947	-0.03825232102383956	-0.9589769790360787	0.2968281252977363	0.5947532212612945	-27.52052321861822	-10.17072705941258	2.358355900353406	24.45155572142369	-38.25424438978389	-2.396257785955648	13.79313461188244	-6.929328886358991	7.978958358534962	-0.6367086495777285	-14.9728595690114	-0.07235631702674333	5.866738203672018	-20.15994213302737	-0.05794115813725324	25.467809216488	-1.073028517035704	0.1417561797151308	-12.81062075341067	2.002074271911279	3.111129219744469	-11.46571923232278	-97.62207064704909	9.798673601097301	-3.844779131106953	-0.2365797697566078	0.1332446486950985	1.347541507563002	15.48613152009967	0.4430183309085555	-1.139117530706962	0.2544052004616826	0.7952525476956933	0.6828779085661828	15.47029524543384
0.08563125941383082	-0.02777993182971983	-0.01236796114144292	-0.0271705242678545	-0.9283467942035859	0.1334813854823551	0.4275644876718101	-42.5465347907025	-14.55818131307107	2.429548726717196	26.57834334859513	-33.24589015435699	-1.514240435647418	26.72848695965933	-11.04178113823607	13.26022398833046	-3.787012381068013	-16.31855645618477	-0.05688231348960043	0.8951692119862669	-16.92887379003831	-0.0547505673733015	17.46034218626526	-3.483841584722819	-0.1354446691448707	-4.259949526953134	-1.476344995189501	0.258844408771262	-14.60323172225231	-86.30619872603734	7.333319391609141	-0.3759435015655819	-0.1894554411200569	-0.002391736573002845	3.182464480493632	14.00474633344482	0.2235117107664119	-0.902586138135725	0.01967769914122206	0.2291884863836587	0.9658666440784025	13.85824854876357
0.08960000000000001	-0.008216272190161078	-0.003916374410063624	-0.00866975831973249	-0.7703589175424739	0.03563574683101933	0.1597278789047198	-44.86150339504908	-15.9889053624192	2.909205809138502	26.58890347133295	-33.21195890635916	-1.682534849867857	28.31574973569785	-13.41198883003577	12.16490769038725	-5.713315122838185	-17.46043387712467	-0.04813609656875165	-0.6983292258150549	-15.83099446976102	-0.05168831970704614	3.32640924475302	-5.23114908086974	-0.4299664171417323	0.4318126441872826	-3.068988873574896	-1.201080869237372	-14.37056272387183	-83.79987150902616	2.669240845416382	1.760945929244553	-0.09738657338054263	-0.07836807201894744	3.229304567785594	13.90855878165434	-0.04714037314518318	-0.3953591988280645	-0.09021630084986448	-0.1175569991642226	0.9591670378343934	13.46834091713756
0.0991128561131141	-0.03712814363291272	-0.01832175640803933	-0.04120594381305438	-0.9510829313976288	0.1201772589684538	0.5475633228475072	-52.58136511742595	-19.85143125551854	3.615174139234959	28.49703513356114	-27.35851280507122	-0.6088113010122091	37.22141304248986	-10.16778779183606	20.61104222328447	-11.27910881174171	-19.49862298648817	-0.03433305557593518	-2.838132749627377	-13.94581236984215	-0.05402436896361763	24.28533912443028	-4.6548620998682	-0.140763969610858	-2.353992169545428	-2.530875703974921	-0.660825342975333	-14.20539579756931	-75.87233796108086	9.699886598814212	0.3740024318818589	-0.2429930357208695	-0.04031572022457247	3.211562905732933	12.56469916456371	0.2700796636396616	-1.189269172253725	-0.07173125982965836	0.1019310711269478	0.9575546590865245	12.24591283013706
0.1160558844730551	-0.04045745099983122	-0.02215187392306346	-0.05016114158150257	-0.9581135165474137	0.01286428795089023	0.6015319450434156	-53.21696452530029	-27.90626897107148	6.690383879810542	29.79596383280981	-20.66178524349588	-0.2787215706897728	34.88948809187191	-5.7797255829457	21.72378306501068	-20.79302003775839	-25.97819265970027	-0.0196640907185943	-8.851738988830551	-9.6873615404596	-0.04928319178282323	10.58574809037598	-6.053066725142857	-0.417758845753418	-0.3199202684319959	-4.71557111927386	-2.037583752827085	-15.82501506865901	-61.98938989394774	4.919019449300122	0.6357250040029995	-0.1544995278371737	-0.07037399256743984	4.103904810655718	11.12042151047875	0.009773930797040808	-0.6496830148328979	-0.216064741436654	0.03929297258698808	1.089143153780971	10.17273421881677
0.1304312594138309	-0.0247740574625297	-0.01363557185969312	-0.03624053501116018	-0.9270272696564952	-0.05393592381403778	0.4429107244115666	-50.04680254094844	-33.52760819743857	8.898652231159328	31.19991570443786	-14.74701127009442	-0.04124705376587201	24.98334400365865	-4.225682126590315	18.59430180345374	-23.01212591303215	-31.61640531555969	-0.03532113750873581	-11.77275754655848	-5.859278599889056	-0.05208811296871557	3.828832670585935	-4.162849867790947	-0.1802713994548206	-2.798182113013055	-4.639849717438841	-1.669810419809312	-21.69783317460132	-47.80073867889347	2.585691053410867	-0.1181247538033643	-0.06460766245518962	-0.04052524612832045	6.38225160714639	9.465477847461349	0.009692162967145437	-0.3745981753193059	-0.1808335497520309	0.1540902343679632	1.6635962893762	8.214804211914597
0.1344	-0.007258327334323411	-0.003893480803360865	-0.01205438636306939	-0.7670171349635311	-0.02827293559960253	0.1489050903453908	-49.14108703674381	-35.75740353341208	9.882060413045915	22.90425943093788	-12.66159786129761	-2.775350072694846	39.06463607135705	-2.04753940247765	7.99708568761044	-21.9128459625705	-33.99791244709427	-0.03979065651560811	-22.41988546474946	-2.97792516889745	-0.02012743402749591	8.858244915141688	-3.852443219686219	-0.1015326764086968	9.367627692919374	-2.726286427680189	-1.626528707295963	-23.58740905071438	-40.85552585510641	4.622643157149406	4.302131261714601	-0.1037114060585815	-0.1311240229776536	7.003756812732511	8.767007919867369	0.1108876880541988	-0.6345885118727799	-0.0755339989234266	-0.5004535469816863	1.871023848019226	7.199702391731289
0.1439128561131141	-0.03370795236267554	-0.0200032733182181	-0.05004518255231232	-0.9501186765343448	-0.1460200852083062	0.5559358328321213	-48.83526133506859	-37.45242430840359	9.40350824741393	32.17184519811534	-8.299976495815693	0.2188606898757679	17.60987690845807	-3.139023042916235	16.68877266239026	-24.22320846131137	-36.73461953536697	-0.05028768454003911	-12.0613976785399	-2.770853987534035	-0.0562093455536848	-3.850779878428438	-3.816643251845601	-0.1580886828507688	-5.027140521144315	-4.965414398217955	-1.648863634627691	-26.35941662700401	-34.80053810243032	-0.05363213480854932	-1.686016003097968	0.00521338298854666	-0.006691140961421538	7.693610847935585	7.655515519102786	-0.08275535221435808	-0.07530193748422087	-0.220299588659442	0.3862891983861636	2.218518980084005	6.138767257159026
0.1608558844730551	-0.0373220215238188	-0.02288782639312702	-0.05755419135746144	-0.9572521198206871	-0.2573245490970066	0.5911639997910925	-48.67603905153802	-45.33474577993896	10.43159966789261	31.58920125164776	-6.11734158105685	-0.8085854791330809	16.13428325649149	-8.568381419493681	13.82903550365295	-26.95397225766191	-42.27659005183146	-0.04875160557848345	-13.35568771553661	1.40176115828312	-0.04394072927136158	-1.004567985108223	-6.270470079318907	-0.3146622804547877	-6.683795958034366	-3.368583706881144	-0.5085117203765617	-28.79424493793534	-14.29671437477442	1.679892305061297	-3.281697717332026	-0.04866938851676045	0.0526981505715432	8.977159768216977	4.738201515858822	-0.1170452751578904	-0.373983938868131	-0.1336297104247013	0.635711478658312	2.379591230543851	2.824597835968285
0.1752312594138309	-0.02282534504150213	-0.01378354955183792	-0.04257948516973652	-0.9255456447947665	-0.1635211534936047	0.4250606351363828	-47.19526031747534	-54.03017509111077	12.33442696180883	32.95334227744257	-7.359433042468816	-2.164725856132185	15.35954512894221	-10.34308810332466	10.29149408863822	-27.55006929182482	-46.95609721700031	-0.04548634492956947	-17.36097213680085	2.687649947316712	-0.02368332870353055	1.872104632457341	-4.920122314676113	-0.2372981205456695	-4.771114244801725	-2.128042391562193	0.03805023593008627	-30.7944184314033	2.120553969875379	2.359336412923909	-1.625783098027209	-0.06006298600336046	0.03436383505503887	10.59134251663812	0.5798489790385539	-0.04029922721306053	-0.4128586415728658	-0.01781357806520008	0.3957510626942181	2.455740791210767	-0.1743442520192544
0.1792	-0.006843674659894106	-0.004103903349456999	-0.01466740889263973	-0.7634132848295128	-0.04901973068615462	0.1501112219360863	-47.43784164039367	-57.38341498944238	13.26809703393689	30.20498547849274	-8.473120079651958	-2.910979249225054	22.94565585528756	-5.903432888920243	8.262879288835988	-26.56742291846301	-48.97700213718786	-0.04763362527280259	-21.42480791693133	3.404862375873473	-0.01281456685854813	5.292062983461139	-2.721442984010883	-0.04005432594178948	0.5207990212216081	-1.921739770027213	-0.2486444443971375	-31.31745287921798	-0.3124616115378693	3.138679985639377	1.751649414788807	-0.06071608566758674	-0.0385395654749168	10.79521707359833	1.462921905226215	0.08548154035823798	-0.4421972465004062	0.0457087803248309	-0.09527069901186426	2.513398205099058	0.01113167020936002
0.1887128561131141	-0.03203054143048512	-0.02041974648357193	-0.05631497501913692	-0.9491528038061503	-0.2361621055281375	0.5495770999968208	-44.80110821229165	-59.67028534482215	13.062637194659	33.64031349676696	-7.295895900321993	-1.896428721204851	15.29893356897802	-6.822938756859354	9.565315468933521	-27.3399848301048	-50.95961176334159	-0.04689307443809516	-19.77427250978	2.939426756434353	-0.02138783434444657	4.233705393118347	-6.624322724184449	-0.3190530756028843	-1.725614087001466	-1.417287192625758	0.2284112476218553	-32.33537716549669	-0.5094283680806465	3.678926550975831	-1.089316896105144	-0.08892384137392362	0.0275830601337162	11.1007761093408	1.300958037228277	-0.03576208125496178	-0.6159272500103626	0.008705232351683943	0.337115408559141	2.609147686083236	0.1050751396207743
0.2056558844730552	-0.03660221855417589	-0.02446759048999406	-0.06278263492424233	-0.9565261755315539	-0.2699461507249907	0.6007787953475843	-41.39701060267124	-66.42620598130786	14.13538693851946	36.7619591112755	-6.994042396417179	-1.002555755633797	7.165454528113974	-6.42328809406493	11.02505544987581	-26.43391055283271	-55.35238251828499	-0.04397954762907712	-16.18247890451377	1.392675723145043	-0.03162712692880414	1.823291565422302	-6.351974883041081	-0.4143473425246258	-4.730941309878562	-1.336448880230266	0.4215990857455877	-34.97864146575017	1.794361085115101	2.663744476004032	-1.971098379661565	-0.07143941819116117	0.05373730579685898	12.1149892982458	-0.1611907531807804	-0.05627329083183177	-0.4671620435317146	0.01728457659218714	0.4719112486125373	2.857631240962574	-0.1084886301587497
0.2200312594138309	-0.02285498192057744	-0.01480912848722839	-0.04769678182628904	-0.924429950557716	-0.1634101244790145	0.431943464944812	-38.57739457532089	-71.56069199003096	14.86685834186588	36.38826483152263	-7.421554634132465	-1.003173221601026	4.482307686824483	-2.567150181462481	11.06724378818701	-24.52633005879126	-58.16327001985277	-0.04413819464747212	-14.01231855941172	1.136917903721477	-0.03351145208118514	-1.417351785786015	-2.540363539219943	-0.1233091902121725	-7.039548229009451	-1.830461847389877	0.2777459632948225	-38.19519968029452	2.070716927179518	0.8039289767206708	-0.8553694005236728	-0.006040194721722292	0.03477989676338422	13.15324486932917	-0.3472651225963639	0.03419938392295079	-0.1356584366664345	0.05883896850918922	0.3074447355309663	3.266547847714962	-0.1524075458746994
0.224	-0.006885180566147397	-0.004443732199173777	-0.01714974467269312	-0.7602299859224857	-0.04737370710188316	0.1510101582150636	-40.23517779555355	-75.03164743717397	15.44278850539471	31.62890302842942	-8.867343238841519	-1.348878881671066	14.34980913001088	3.442681726182387	10.86347603701763	-23.03156788050092	-59.40859085858746	-0.04447831725575077	-15.46292718635228	1.101387681957744	-0.0243041074750658	3.481538165609573	0.8268434537635667	0.3741254477021022	-3.589206918413051	-2.035816258789453	0.03541538380745846	-38.93311073230404	1.574893781636549	2.311336597801697	1.766334768893501	0.002157142878743301	-0.01850081712439092	13.31281551314185	-0.1364298373726197	0.2405012902738032	-0.2592649342728555	0.117877624952506	-0.06887507401007582	3.377919421725278	-0.09535077335695268
0.2335128561131141	-0.03220960761741409	-0.02224174593659841	-0.06070616248016403	-0.9483880306543959	-0.2430990258960151	0.5532814097479308	-35.58782989714969	-74.7234441592209	14.72839591795866	35.27981815559561	-7.212793413839924	-0.9977069324985472	3.341229191726295	-2.170283292112441	9.417896350216083	-23.01555712447408	-60.00246347967039	-0.04131157438572619	-12.64098610661201	0.9244141592371504	-0.03248438143150933	-1.710268859800319	-3.449266930687971	-0.2739674249767189	-5.163196900232695	-1.164065092882337	0.4412923678413644	-40.63398773902742	2.627076904324742	0.7698824108822916	-0.3761966691903181	-0.01550703721659	0.02885067291265203	13.66183020138365	-0.7365682615901221	-0.00177989030640421	-0.1318434701270452	0.08644751878327436	0.2454941151127585	3.655559622684811	-0.2153047811646596
0.2504558844730551	-0.03637178976490674	-0.02725892797797755	-0.06644823917590606	-0.9557359513448347	-0.2989660015023219	0.607292514939475	-31.76719930019021	-75.81893102782085	13.95931087876791	32.25306593578915	-8.594564615909624	-0.9001403041647018	3.941579878853336	-4.398436516725346	6.348357978015744	-21.41317222543957	-60.15874151956191	-0.03829517743497082	-11.318518967871	0.8686310940485897	-0.03074199110192379	-3.891016360539743	-4.395302568203204	-0.6292234053509311	-3.404612210485059	-0.9455560662231791	0.3049774798406762	-44.1684451987037	1.554781843585039	-0.1430062322597214	0.5877210200389524	-0.03077944853560895	0.006656841862510723	14.65880112761441	-0.2357372977250531	-0.09777323978384687	-0.004745108173409321	0.1002747868265555	0.1043971759044814	4.249299739576019	-0.1551173761412289
0.2648312594138309	-0.02216687632792258	-0.01725864237216171	-0.05139838913668189	-0.9228091868187427	-0.1961109662223635	0.4456371752042525	-29.62446968420209	-75.98515062862771	12.80959595337159	29.32283102646421	-10.1605956389224	-0.2015083043927168	5.97757341540534	-3.747088806236452	6.10337967348217	-19.51857597614012	-58.95660675480114	-0.03952267681127124	-9.92720783422457	0.1126000040258756	-0.02795388721820157	-3.177153059768714	-1.988926807976986	-0.2548708085060551	-5.382747305436096	-1.121923147201631	0.3864731685765232	-47.59603367163908	1.112627308494257	0.06296676333981292	1.079317784965064	-0.008062636562527571	0.004230317726725566	15.78759466207638	0.05411159486475194	0.01342069986730348	0.01093291251697886	0.1478952037808958	0.02563729478612304	4.895910194260638	-0.09467441106072114
0.2688	-0.006593401690484058	-0.005240168386652316	-0.01918785223844244	-0.7553832777125606	-0.05697495688554	0.158386075802273	-30.7372323234707	-77.97689217704085	12.69511622496393	26.20898458167314	-11.51379518717896	0.02887359142401591	12.09972980659783	-0.005554363237721849	6.944105611167799	-18.54059674279102	-59.05768725412407	-0.03998102681312859	-9.880447857679636	-0.400122562859031	-0.02342785893485633	0.8649248246819374	0.5232350059252011	0.3262030084793214	-4.613695711171484	-0.9353601729869006	0.5534926535709861	-48.24057286207241	0.9296558586570156	1.629769655324666	2.207663973273432	0.001724539387018553	-0.008485857334911945	15.98106176181787	0.06277094724380786	0.1944946593713022	-0.1569541989616156	0.2151059148599888	-0.1310807668429832	5.044165631194789	-0.05105386647765483
0.2783128561131141	-0.03056335300332691	-0.02626032204892659	-0.06375667083374549	-0.9470502871978415	-0.3019948097787619	0.5722446086234427	-27.82272058435503	-75.98800525997164	11.4438040617011	25.98589850724125	-11.42170438291315	0.475109851100322	10.07611586813993	-5.285506304567266	4.530565263920853	-18.07618525936741	-57.93561851490197	-0.03751153137297265	-9.174281030777303	-0.9989291838949159	-0.02212415519252607	-0.3540238994334014	-2.924027875690883	-0.4578402571963863	-1.29711954881343	-0.9709550882199316	0.1308427856688161	-49.81997220539915	1.911885847111095	1.249571189808124	2.265964139894816	-0.04825033835034137	-0.0269768115405596	16.3858858845617	-0.4839954569480365	-0.000441003442245038	-0.1467830153557875	0.1448245372338236	-0.1411078673630047	5.382572124977586	-0.1667021102387129
0.2952558844730552	-0.03358304726561201	-0.03232613743917865	-0.06878542698837804	-0.9543704351018301	-0.3811724441709998	0.6280741141968917	-25.81989700391787	-74.15535349744364	9.447627847840481	21.93658239660658	-13.52521319893938	1.704366466642796	14.46785943553371	-8.532465620155559	3.272155792221387	-16.41308725253513	-55.57387519531993	-0.036664497362929	-7.615077677093328	-2.378738806035585	-0.0190105486641905	0.026738414199312	-3.396579756283581	-0.6993395577124421	0.3749890506134974	-1.931145863813686	-0.5080551084480736	-52.76111223533087	1.190076863426191	1.608670315922363	2.927509346523025	-0.07479545774156721	-0.05938241348452455	17.31432998082323	-0.2832738629087563	-0.03466528867690154	-0.200428164204486	0.08588764976320468	-0.2572360205794905	5.996619958128222	-0.07970641702876277
0.3096312594138309	-0.01957390976710371	-0.02102541321164645	-0.05373232655721492	-0.9201580778775753	-0.2589083494123088	0.4717218098591545	-24.58286229845899	-72.01805064865984	7.498489023644336	19.61348716533447	-14.27020437906907	2.80060352795696	16.86886101943409	-10.15413835610446	3.649283644287908	-14.69806773682124	-53.29454765148419	-0.03831792598157152	-5.813333502083286	-3.436254785546571	-0.01837113244494986	1.851251135395954	-2.155147942056761	-0.3625889037242913	-1.170923042748868	-1.439281100672162	-0.1241951574839313	-55.04466436589271	0.8707250024085074	2.534272329925912	2.899548854167215	-0.06755359870799588	-0.04484068781881534	18.01055173226501	-0.1191691134971845	0.06354083709176356	-0.3019493794455089	0.1494145774912083	-0.2630234376446742	6.524561892917195	-0.02617145990929568
0.3136000000000001	-0.00576191200280185	-0.006449151112219373	-0.020523566982481	-0.7479873955392087	-0.07548657130035963	0.1723818994922617	-24.56196411652331	-72.25817309220383	7.026370953888074	17.0536867846016	-14.57266768745299	2.952910898124022	20.60462490856438	-8.646843622579123	3.505018246720843	-13.99845696850429	-52.90256000401374	-0.03909400231825898	-5.543968043759859	-3.721674766245012	-0.0150227011650112	4.426875988670488	-1.113152511771603	0.008409139725032544	0.3005467916598395	-0.1570277097294859	0.406323347073767	-55.39632463665163	0.983974131729271	3.54175757841598	3.833924061223089	-0.06219595838023428	-0.04286443982880306	18.07215665498975	-0.2041398972244174	0.1619758203468645	-0.4110866366607784	0.2538137076166619	-0.3795041166975413	6.633574353752286	-0.02866954891885587
0.3231128561131141	-0.0264949990008958	-0.03157014037832902	-0.06544708604188275	-0.9450106319047196	-0.3808982548428048	0.6005763650299158	-23.07516927112604	-70.84574476832867	5.747066725066077	17.69989410195209	-13.3129179127572	3.146103629777611	20.13550346409621	-10.09945949625582	4.019958435641333	-13.71719512130324	-51.95425496266549	-0.03783108235959696	-5.034075028863191	-4.096467187327593	-0.01461393077815762	5.367326764626223	-2.096203794808581	-0.3808687578055812	1.486017448132229	-2.589303580868152	-0.7500460179043105	-56.37044698302136	2.037843077374045	4.135013199557655	3.460763427616457	-0.1046655381452578	-0.07711037919742089	18.27621907330079	-0.7753965610803824	0.1059184426854232	-0.5091552722790804	0.07444469222861022	-0.3588850416105018	6.872606805560381	-0.1224245441862691
0.3400558844730551	-0.02821923346977329	-0.03826774897431814	-0.06995269934214302	-0.9523837646308229	-0.4456863070799955	0.6586225964999883	-20.92717659683748	-68.42507078676205	3.548867689655375	16.49374110849879	-11.46471898115555	3.369033113565687	19.98768174163056	-10.34466818745878	4.9737861746692	-12.02786777930085	-49.94089366957289	-0.03893018953422182	-3.506930151972198	-4.300673502047063	-0.01564688578200699	2.791965762909682	-0.9970519771929773	-0.1526758782174351	-1.468271055345414	-4.506032309579724	-1.236632969446112	-58.56627491141342	1.621968390811229	3.662033519318072	2.424538587709488	-0.08205378232952598	-0.07755172532342039	18.87858107995333	-0.7525783594281503	0.1464715172316872	-0.4448588590002561	-0.02234978307815509	-0.2664027984633611	7.364730962539804	-0.0628273774151633
0.3544312594138309	-0.01570042889174061	-0.02525856396514594	-0.05469802502622292	-0.9165767157215177	-0.2912814974025082	0.5055412617120751	-18.59601013506724	-65.76152903523565	1.6975387759776	15.35399337075725	-10.54664313068711	3.718919055985067	19.37216429386672	-12.89435555776373	4.519420056370839	-10.23452063031926	-48.36778632337933	-0.04132803938071059	-1.868909713943882	-4.228330370221815	-0.018150792982877	4.146898762347529	-1.024787479788423	-0.04882766626152746	-3.036224968462867	-2.440469085738744	-0.3456347021427472	-60.31078784960403	1.255832211497645	4.227966694758164	1.959826851092444	-0.0820724292014352	-0.03489823375476483	19.25917339210345	-0.4063454535222479	0.1766858131518554	-0.4954682137516009	0.1043801692842924	-0.1963606260010149	7.826716067744028	-0.02920076431235871
0.3584000000000001	-0.004568257060505232	-0.007746929772792091	-0.02112770878074112	-0.7379795849376585	-0.08392481457991607	0.1890896791924206	-18.7446566807707	-65.41933178199415	1.179175564861088	12.35712340170062	-10.4697144805495	3.655138512705818	23.98608078514817	-12.37620685667181	3.683715291538363	-9.419805225667019	-47.98977351651137	-0.04184770812953892	-1.399443317152229	-4.239720580403047	-0.01596861529777099	7.58844961054154	-1.208286514920954	0.03838323292912538	0.8164692602682422	-0.4798428798228095	0.1314346133333942	-60.52975585774855	0.9591882907238063	5.447446656843082	3.302110795471962	-0.09862426008615033	-0.03958628522443446	19.25578406532268	-0.3951326797584724	0.2197139750105604	-0.6383646291139691	0.2135172709995284	-0.34566290671171	7.919375557932105	0.005916897365263754
0.3679128561131141	-0.02083628169853924	-0.03691142510412315	-0.06610223239767432	-0.9423013987013071	-0.3845201615850442	0.6360284754456274	-15.56549178659454	-64.36665033816539	0.1629431258254548	13.89516662541554	-9.024107128476635	3.544222924365243	18.53558670399801	-12.18598198205914	5.073150189201161	-9.046903702393944	-47.20741593445157	-0.04187183769636985	-0.9220392897698945	-4.013466045739771	-0.01712081745193563	4.530816325454433	-0.4613728641435015	0.08642702262900781	-6.103253326124759	-3.69519271833655	-0.5389181837185242	-61.09285104458759	1.604608310420578	4.787534728571756	0.6865432395664804	-0.09094703189356768	-0.01827274057707027	19.31081553394902	-0.5699935961112073	0.216513480389671	-0.5653023687563038	0.0411655477330975	-0.06360364600051496	8.069372089052457	-0.06930245612942862
0.3848558844730551	-0.02191653110509861	-0.04368507472872927	-0.07029287209494799	-0.9499522387165005	-0.3924218574227325	0.694227200471623	-10.86334745855067	-63.04541824275921	-1.468743642625561	11.25425377910851	-8.09011015402209	3.699660027618146	15.95581399733348	-10.83607825556761	4.925822822904076	-6.988895201487197	-45.62834534455971	-0.04293685023205357	1.085657499284957	-3.917887534558938	-0.01780242390701581	0.7838603663803346	0.7957186046804241	0.4540504071498075	-8.696068952431862	-4.116812439193606	-0.4778971115224969	-61.92641209944689	0.9422944463693743	3.463648656618418	-0.1426072553945473	-0.05035239322038981	-0.0004467916265074451	19.39883815304879	-0.4080835445336866	0.2337100187924935	-0.3666507134339473	0.03747817027713044	-0.00219463546563227	8.208483400483685	-0.006819410910119689
0.3992312594138309	-0.01181914958916863	-0.02935115249102833	-0.05500219689378014	-0.9123482015393662	-0.2147846083568652	0.5519091298597303	-6.012843826249129	-61.67605805290433	-2.460693973075104	3.89006595079293	-6.547940756626297	3.494333284651842	19.25748155529907	-9.96102207036745	2.378966013398473	-5.10064207116819	-45.04818547041521	-0.0431197653660803	5.839898579872902	-3.007061693932962	-0.02043350253735235	2.087017927276332	0.2998370723408693	0.4363425713576871	-3.134906183874178	-1.776230162497689	-0.08919537571099789	-62.21119852981114	0.689323198604512	3.772249217445002	1.49449208363901	-0.05324622314868793	-0.01331967125273425	19.04801730701561	-0.3416184118856509	0.2305239157702893	-0.3907130529354007	0.1439922268233296	-0.193951226511861	8.245064460604731	0.02966097160579641
0.4032	-0.003543297367453846	-0.008939428192226302	-0.02110502893907436	-0.7274346747783973	-0.06743205349829395	0.2080706805125345	-5.620908091320654	-61.98785748481697	-2.783300014148911	-2.081501839810499	-4.408212024472387	2.561026574368756	26.43746957068901	-7.461828650031011	1.556235212155919	-4.196715488771146	-45.13464315079813	-0.04229212208221783	8.977932379456339	-1.595367486861079	-0.01996105831144945	7.322941771856462	-0.5313605511008559	0.3046593061625216	1.562570793077569	-0.7959692635215146	-0.001967207295929085	-62.21544738075684	1.081008504602019	5.758184248079581	2.675198164780544	-0.09685913798024059	-0.03078816619740568	18.92371682961399	-0.4930927401644168	0.2610609083777469	-0.6544805994832636	0.1725091698099921	-0.3055832488714793	8.241154630857817	-0.001452668677914128
0.4127128561131141	-0.01643264255036314	-0.04149965741829399	-0.06610534123518871	-0.9395649213712396	-0.2616206426160375	0.6764349467447204	-0.7295382899825302	-61.39481307988071	-3.08732960225879	-5.134066538533841	-4.286379023669433	2.715117140405821	23.14518272168053	-4.375711434136293	1.02273130360149	-3.541426670773568	-44.62049009178959	-0.043269160450077	10.99262689328986	-1.600463096398997	-0.0216215176986462	0.4928105416924469	1.722850553367163	0.9245389532997978	1.289277340071738	-3.057565508616161	-0.438114766234195	-62.09739644537684	1.247942709861067	3.25541355870722	3.103022561592883	-0.03168449873914009	-0.06897165396419361	18.55252935659956	-0.6006843762593455	0.276994976045868	-0.3060547209539989	0.09549886048886633	-0.4666907209624757	8.164655524059873	-0.05043981495782088
0.4296558844730551	-0.01882560892756402	-0.04697688714089696	-0.06997184534658051	-0.9478512616153232	-0.280663014675838	0.7170881393024331	5.597208679925931	-63.61024258614717	-3.680586613297619	-16.6477962397207	-0.7997532057792185	1.142939804175057	27.68698068409741	5.380901640073899	0.02214064956224648	-1.833396917671068	-45.10755283457808	-0.04185165214050469	17.41170739216236	1.246984703975422	-0.0202553096955096	-0.6161198526365896	2.48306084303274	1.142753137728015	3.986080024995638	-3.823319248027098	-0.5150103448675487	-61.74558206866956	1.92591070127487	2.434363522114576	3.999992088210405	-0.01936220354007046	-0.09653171924389455	17.83780249122043	-0.8307120335799767	0.2589030454632207	-0.185730196841742	0.05973199834811248	-0.6377088068581589	7.940084274634903	-0.114142133570672
0.4440312594138309	-0.01009344851890148	-0.03226951875254637	-0.05441499319697992	-0.9088649305508998	-0.1864055636163471	0.5900212574937314	10.51069182982102	-63.86093396961204	-4.028142901160932	-26.07036413325015	1.063139759743291	0.1048220053542446	31.73632772012997	7.921413303400691	-2.620170526165107	-0.4969710827459011	-45.97199000951262	-0.03886011015391226	22.46994898383232	3.536234876769726	-0.02079513151150061	1.651575993785641	0.01735770481332327	0.1873288842061549	4.951647954182537	-2.506972451082863	-0.2917999609663822	-61.48270302358271	1.434370649407549	3.407646357498799	3.661241070734583	-0.06819631712857627	-0.07996851032936778	16.88633817312579	-0.6895661397979956	0.1559832835443554	-0.3480781729297914	0.06828619126428363	-0.5504400665125149	7.789441016264353	-0.07366866160701378
0.448	-0.003151229175841763	-0.01004720037470041	-0.02085582985112272	-0.7184451287232356	-0.0625325272774262	0.2395130825163072	10.43740224233797	-66.24551406263458	-4.440534202161565	-26.81728616015119	0.4765118406362872	0.3433347350094813	32.76136734898277	9.425537123462394	-1.998187153658068	0.2437076873832522	-46.48514959734519	-0.03783629134019714	23.19447109928457	3.447443329380994	-0.02187900155485358	3.843313781594542	0.1597603210215939	0.5566177756555732	5.463736723963905	-3.071155704694145	-0.3807655225902279	-61.52912185360831	1.487453288461093	4.390430750620756	3.102190989411751	-0.06923984719497125	-0.08149036659626842	16.67131024255646	-0.7279061006381883	0.2396433439225016	-0.4700158449512375	-0.0009969088852982422	-0.4323318150298986	7.784188037452804	-0.07946096026248528
0.457512856113114	-0.01442537890029882	-0.04352991987816164	-0.06522268965616794	-0.9370423300079649	-0.3018027745126233	0.6974889916593803	14.46168720754118	-64.32064888771818	-4.377559961238807	-32.88157159383902	2.561403269952631	-1.008962703465388	33.14844298741217	12.95115685355128	-3.519282026742712	0.9799038882759836	-46.15544813666441	-0.03838328063225028	25.89817827585605	5.116477820633875	-0.01996453307954053	-0.1170062320136879	-0.05397267798998027	-0.008735102209401956	2.949654591262573	-3.093152392683467	-0.2737964200672408	-61.57190429215984	1.570585585352331	2.706808861016433	3.117729303759083	-0.06523701195030544	-0.06849733914175278	16.15788610268678	-0.7250272416123293	0.1034746368335171	-0.2594970093789536	0.04186410420887434	-0.5262410938923345	7.707910707540822	-0.1252980566441862
0.4744558844730551	-0.01667718205196067	-0.04830211892121844	-0.06880953651320175	-0.9455717451197181	-0.4104913537453854	0.7371577055971272	18.69930357490852	-65.9573939408496	-4.865577031506737	-38.04822456149521	3.108711353089411	-1.811188002027152	33.42223736467832	17.1468562187829	-4.801306154007593	3.087114338384427	-46.61545940425827	-0.03906916114115929	28.23667851697338	5.71173232840283	-0.02046896243544591	-2.295009203877079	-0.09152420161408342	-0.08907816411606906	5.974496039434492	-2.846279554652966	-0.2406278157769106	-62.74648913061226	0.4007824081362047	1.196043020349376	4.204134086326598	-0.03962234225386028	-0.09434210146863756	15.74274379278021	-0.6072418180427125	0.03963468588892228	-0.04344407315102927	0.04770721980308068	-0.6822263523086035	7.795794517046649	-0.02751789404385051
0.4888312594138309	-0.009604067831574525	-0.0316374363110774	-0.05249469193666251	-0.9050864983242821	-0.3119090375903397	0.592253204059876	20.24612301985704	-65.74389569849859	-5.349880829996497	-38.08451124607394	0.6597983557201914	-1.122580424222347	33.396575655709	13.7422895335023	-6.846136874973961	5.212628084670697	-46.96058587840298	-0.03975024118412011	27.52599351897996	4.803445100103552	-0.02127005587321021	0.09740038191463232	-1.287209001344436	-0.4511363065505231	9.520167154492038	-2.213363301044216	-0.2390365059616635	-64.74412329624204	-0.4930349489985759	2.257628164079668	4.875009264756828	-0.06497828268476433	-0.117831161423111	15.49298312183775	-0.2240345706898577	0.030554992133647	-0.1948446649716211	0.04027738214468456	-0.7176900165738112	8.17453158939264	0.04510150382081938
0.4928	-0.002906877923912532	-0.009892678639291799	-0.01973096375236635	-0.7081800260971871	-0.1037620299121045	0.2469650002261332	19.24970841999059	-68.34722994218312	-5.996957381752916	-36.81686486717609	-2.029052048999211	0.02258609673776402	33.25375022129557	14.5046758288154	-5.488701451394853	5.665870659868819	-46.89012255409407	-0.03948970620531549	26.91925632052839	3.37675386118942	-0.02021649220890494	3.613800987478589	-1.324980991305392	-0.2585560637900763	5.562281611744414	-4.021430951394411	-0.3946299745214019	-65.43292330193911	-0.2822305585750589	4.002419380971523	2.794156231907398	-0.09185698074529511	-0.0940683047813724	15.44189359962474	-0.1788830728105444	0.1067820916198064	-0.4361685787246165	-0.08678415131238271	-0.4225832732821247	8.342686604035805	0.01724304242967702
0.502312856113114	-0.01396398529851695	-0.04212882755099465	-0.06311025657818028	-0.9343681126109189	-0.4832712968803321	0.6951885013078076	21.44781886627741	-65.77916169140674	-5.781440719061314	-36.50928516960087	-0.3990910636796734	-1.374824998064906	32.82358896683477	12.02451558052406	-8.234552866309805	6.714397357219194	-46.65543060278788	-0.04014688980479295	25.45851216547559	3.961406391556443	-0.02133618460221913	1.62452641847509	-1.723871822000111	-0.7865718515658499	12.21031065145133	-1.843896845312371	-0.1971864398297673	-67.06301991107487	0.8076604564998756	2.444101662619618	6.004586959863335	-0.08138352004204652	-0.1369071559199398	15.51464807009765	-0.707801005773382	-0.01799540461273257	-0.2216785438328735	0.07234615794212998	-0.8768169106081498	8.669704489119795	-0.07731684768206259
0.519255884473055	-0.01594153860588321	-0.0457205149872042	-0.06636579744883721	-0.9430398224604275	-0.5963479749543126	0.7273241062996636	21.93336277489616	-66.05540675633165	-6.378693708679191	-30.78089802553219	-3.334955635521856	-0.5604677668789213	27.61335480454782	7.734663764531474	-8.893859085387602	7.74727512124342	-45.95067334673418	-0.03971126887844522	21.56859509172978	2.111176364929846	-0.02236097048510157	-0.04027790981346885	-2.281088429740577	-1.142969569291366	9.675926354124732	-0.811454329031768	-0.0847422604584379	-70.60304646135003	0.01934220178553822	1.295091097594126	4.864502461444423	-0.06637411538182444	-0.101687170665538	15.89687996123643	-0.5869744410564309	-0.09545803297007394	-0.05891844936337955	0.09509799495257569	-0.6937393798296951	9.489228957697229	0.02086437217590199
0.5336312594138308	-0.008962805289250753	-0.02869882538206633	-0.04915823532011211	-0.9004200448510957	-0.4712678335502005	0.5731016032472205	20.75910722626784	-66.01249175473988	-6.908035233739107	-26.01880050716542	-7.730959074720026	1.548160503527245	24.791928325459	2.42324638998263	-8.89997122125861	8.468998807175373	-45.20295364556745	-0.04035448305526745	18.64829523633271	0.1571544648412685	-0.02355542117706223	3.691425319168248	-3.334500270860893	-1.645583430595718	5.799210294057201	-1.070912470521191	-0.1066446976905933	-74.12493385119838	-0.8504189383744419	3.133687414515293	3.028631579559197	-0.1125099984367972	-0.06733209370001123	16.30184874973328	0.1196389931317899	-0.1006694320755136	-0.3321520167154792	0.04757613045222153	-0.4212262591728216	10.38209983491404	0.0823720503781637
0.5376	-0.002716673578866846	-0.008663131792356213	-0.01767933369455719	-0.6961436617343963	-0.1748645533924105	0.228810502918158	18.70121348269672	-67.94817101715751	-7.668338444510276	-23.71305093645136	-8.530542313857762	2.003595426731795	25.51520941945773	4.474892529857497	-6.354503197405141	8.193801169714053	-45.02860534659646	-0.03849573740433904	17.27613125871007	-0.7242822694577207	-0.02268188198034376	8.771898753017133	-3.019327299949501	-1.317455135878288	3.256361768515668	-3.278197173192105	-0.3184922700426602	-75.05891879840111	-0.5117925757813736	5.317269950141805	1.859398241510864	-0.1479549041033335	-0.06507794595763564	16.31919210540057	-0.03662019289302485	-0.00436189654193847	-0.6398767673827794	-0.0685887664347771	-0.2831495197899336	10.66801837584764	0.06114157830552835
0.547112856113114	-0.01263202183835688	-0.03774612311199761	-0.05948798105861497	-0.9307771571445613	-0.6211612019087056	0.6706004620859503	20.2739115202189	-65.35843198645057	-7.06125107591726	-22.44808064110055	-11.26274145871591	3.317996677934113	22.81627615228997	-3.120577250182175	-8.913731527619916	8.564597166637032	-43.86585035240658	-0.03971547034756714	16.28885320338496	-2.038567558363983	-0.02559193494950904	5.503401769604845	-3.896243021474259	-2.037385170575279	1.326231408872255	-0.7870669488623179	-0.0007267583207925948	-77.36024093460991	-0.7167859640355683	3.79178833414364	1.256203202472399	-0.1348313633132394	-0.01628130367060522	16.68236582873095	0.1608182827792611	-0.1318078558904531	-0.4278394552792145	0.04719418490525679	-0.1682058836077134	11.22346420279844	0.07716939059075245
0.5640558844730551	-0.01392097813623394	-0.03988237769104352	-0.06215635813917871	-0.9396518257077524	-0.6880728879418143	0.6938275164172687	19.23948748496133	-64.41570085475098	-7.403913434090104	-16.18791102030277	-15.07912686489891	5.307327074700661	15.77933794055042	-7.385362845455817	-7.821144307958726	8.517491384404295	-41.84997152274684	-0.03947890609209447	12.32728949315952	-4.547813835564055	-0.02780509375274585	2.057683409553535	-3.555135920327874	-1.830810733289608	-6.875628173413879	-0.6305794053943035	0.1129232239983064	-81.40182020213076	-0.09071984874497949	2.571706940415381	-2.151113670897501	-0.1002317641064454	0.06348380487079551	17.1960809047399	1.442566937765594e-05	-0.1310790511444442	-0.2446522053658645	0.01740951947989552	0.3227308668980159	12.11446514128797	0.06787169513530902
0.5784312594138308	-0.007658797866010758	-0.02319379106226011	-0.04347446299095322	-0.8943768928997216	-0.5411319710330531	0.5151462796371788	18.92863031968709	-62.39683926222024	-7.231006265066314	-13.23485440652845	-15.0650307656196	4.494691327321846	16.46841122517868	-5.502660715032981	-8.820771916679456	8.207514304876668	-39.9577119635305	-0.04178402242152009	5.280019042150993	-4.844705267051719	-0.02319544367328021	6.472963116883095	-3.548154176491382	-1.949796011003971	0.5931717332902552	-1.823668471492764	-0.1786423708669929	-84.36687767769507	2.022105333032298	4.116214405025565	0.6563232446602816	-0.1365097095845631	-0.02706844507741599	17.32913362103376	-0.5989085205487592	-0.1138735461184839	-0.4828964993160531	-0.02127510098016235	-0.07078274039291553	12.76120916755414	-0.068871313434542
0.5823999999999999	-0.002266764028448165	-0.006812939746128015	-0.01467926624999726	-0.6798299738901648	-0.215081702106886	0.1910174732381869	17.0565884848918	-62.25742462824827	-7.692203687149066	-15.87599833920779	-11.70480715710161	2.286884712708502	21.69926065879665	-0.7207986723458211	-6.57393609063543	8.013477775265367	-39.61748999756353	-0.03950486848054334	8.036808391157422	-3.694164189593702	-0.02743801772669066	11.04625040008812	-3.075432928140046	-1.579742571407687	2.411850303618451	-3.559630041786684	-0.4099366212990065	-85.07135864687373	2.417841090094473	5.550519933835343	1.561984411492206	-0.1581247215389665	-0.06575483858468709	17.33576353365656	-0.6516675676891749	-0.03836163529955175	-0.6905638640595044	-0.08462621060089606	-0.2398329574279267	12.92368462750092	-0.06912033019029198
0.5919128561131139	-0.01066247915805718	-0.03036579339625453	-0.05286730320713387	-0.926353588658273	-0.6558063303048129	0.608198226208561	19.51310759357683	-58.14512501937575	-6.449511348502716	-13.79314206863481	-10.93937300748176	1.404136015512394	13.47047837033334	-3.482886250139777	-8.385528464215424	8.04897335412462	-37.27649238521465	-0.04401947866030624	9.927188373744615	-2.986692166568359	-0.04492409007163457	-0.7671128950999725	-1.975358419024163	-1.220482167952417	8.995714367431017	0.4163656126543258	-0.1552571645614656	-86.65152808153434	3.665622864385724	1.475786607189263	3.841675329625474	-0.06829915074678855	-0.1004796794685187	17.50448014500587	-0.4349234926214673	-0.1014703553701981	-0.08789832127892354	0.07172731734654494	-0.4661815789947423	13.17327525250324	-0.1906124485192989
0.6088558844730551	-0.01173348836847055	-0.03193325593676699	-0.05451870490158841	-0.9355806103973165	-0.6914083236040938	0.6334784017103772	20.75443931976828	-52.54781041312879	-5.191848267842737	-17.16645171102199	-11.5929068338604	1.064851067433882	2.927256975670704	9.405783046265388	-0.6678207345651588	7.613766902849127	-33.13126224831655	-0.05814345677406154	8.277224728728232	-8.120290004510581	-0.07598606319931309	-16.89389161070632	1.465909021142812	1.54769788843458	-0.8173726730166475	0.6596511673560932	-0.04445272711340473	-86.62864635692809	-16.13403532624212	-4.700956423543299	0.6776208321761106	0.1222555439188111	-0.02914462980695112	17.36543008161494	2.679277205595068	0.07397281035256735	0.9076783343555109	0.06485844125399004	-0.06439391232287774	13.01607444574012	1.742372184424759
0.6232312594138308	-0.00646901851597903	-0.01767971637703817	-0.03469646819477564	-0.8871001851719704	-0.5278184907075456	0.4435948280776891	20.77813975432073	-46.94582356512368	-4.000087716307752	-26.74629383287762	-16.51030370102698	1.28047655133354	15.95710125050715	9.933285067120188	-6.440787017449273	6.376749766916157	-28.83077240379586	-0.05721054217542042	-1.216757549629409	-9.573341261786945	-0.05211184640165677	-5.970961907950262	-0.91807603117243	-0.1136441827345711	1.170061032537348	-1.946967608178784	-0.3132419516164728	-82.63295360799584	-15.10555625811635	-0.9352211046200158	1.456162493293999	0.003396806211500042	-0.06294977932368043	16.24949516559214	2.753751448172498	-0.0408226347039324	0.3027105184556417	-0.03199207795820028	-0.2201336688709273	12.35343632677643	1.410195677042868
0.6272	-0.001955784652675874	-0.004946349602325201	-0.01058685290827345	-0.6619449681147049	-0.2029084581699294	0.1445911462985094	18.85366068183437	-45.74494014788365	-4.33190004802243	-27.18162906516875	-15.81646815318513	0.9413315160800075	19.92287088777766	10.98029694510833	-4.634296102726474	5.480105624469347	-27.78605437117775	-0.05156015985948686	-3.856147005835938	-8.807240290317633	-0.04373300373012868	3.312346620117435	-2.027438126058766	-0.8548549408645294	-7.814932547500234	-4.784956124086431	-0.3755558965878696	-81.0338943262864	-13.18736704709011	2.256696464253279	-1.927830141617183	-0.07865021944915762	0.01134717457904079	15.81382907185217	2.398147148143624	-0.0513561756159867	-0.2015354411500147	-0.1482422608886165	0.187354310438133	12.08816159210228	1.202659536430088
0.636712856113114	-0.008940430955327372	-0.02290129636129546	-0.04286084678654836	-0.920750862066523	-0.6302290972082574	0.5275823615281787	22.42215351810631	-40.10631505456193	-2.346757567333479	-29.87248037958284	-18.93245420732394	1.682317332618849	20.29401599352277	6.48198539556995	-13.05904385085385	3.820020054400308	-24.60310633857136	-0.05452671083049936	-7.505655628836738	-9.411116679484804	-0.03635523490048229	-6.775283095998335	-0.9432639717077081	-0.2912128004304837	17.04250961332173	-0.6234806647877771	-0.5091403115782211	-77.07992411330795	-11.88101655001521	-1.358128538657247	7.172456609077041	0.006203378778613322	-0.2074118219778444	14.96252636347233	2.295155353505494	-0.08051527886512072	0.3548955652099432	0.01813054069430797	-0.9642742756978565	11.43082251282799	0.9645873642567451
0.6536558844730551	-0.009967558745973548	-0.02327759973640563	-0.04267583538845623	-0.9302338904150815	-0.6565187793183327	0.528366447345876	23.60654566301982	-32.92726674970904	-0.7410615828970268	-41.45555828212783	-26.39218133416719	5.328564842785571	27.7931089770544	-0.1286116015231578	-18.19247162534679	0.737663088968775	-19.46297765340211	-0.05072002490143342	-6.142308774814289	-11.95434027180071	-0.02196395013938692	-7.83735018941676	-1.935872056217377	-0.6658482896109759	17.61429162885342	-0.1804902473307628	-0.4417505387139053	-69.2118562014072	-14.33695074864359	-1.752407859988174	7.41042594745666	0.0121944841111829	-0.2045711457354128	13.67518356675984	4.230162123062896	-0.1221800728897211	0.4211333030270992	0.04113166061437598	-1.002771160825231	10.31603948425179	1.104322370928515
0.6680312594138309	-0.005437324300515911	-0.01198183451274377	-0.02373844084860818	-0.8771773409643586	-0.4715081829432393	0.3158648616109039	24.66516393215495	-26.19133910437712	0.3248117700512383	-47.97527612023246	-35.28443257435053	9.207460278071578	34.23029344375226	-4.844195224109182	-20.4452079521588	-1.615432360597737	-14.94507347609361	-0.05093434987348078	-14.17186194358112	-19.36845571035238	-0.01292190160463214	2.210877816781086	-3.959627065888259	-2.139874723509038	13.03966990770532	-2.07619178195596	-0.4693536336183157	-61.62970909348197	-18.202897717248	2.232208421944032	5.721823931856396	-0.1007066186642498	-0.1634809868635052	12.57322886480773	4.889203796830346	-0.199647498313506	-0.2118978018971488	-0.02260062357751	-0.8104764255750813	9.361368482590015	1.60455852856234
0.672	-0.001298964120415746	-0.003177227519554438	-0.006528256444721103	-0.634126272964302	-0.1659630390641951	0.08645282221234663	21.43189270870684	-27.13554959202953	-0.4365194414850531	-45.47674975890027	-36.99991541663114	10.29789478837132	35.20514970361715	-3.24209215386472	-15.60132337115272	-2.97811185305815	-14.18192181666552	-0.04573390903487797	-14.22620804713312	-21.56715318415771	-0.01802096014683665	7.822933004856528	-3.647423630985117	-1.989059098511783	6.825867854793536	-4.110413239189885	-0.5297999925410947	-59.45109709660971	-19.95894475225947	4.176097627684647	3.25481477361944	-0.1382046151281122	-0.1139338654901718	12.28334920919555	5.029894733611759	-0.1402676797475584	-0.5164582371091632	-0.1109361773415649	-0.4996245277470136	9.040563906773071	1.816565313608117
0.6815128561131141	-0.007491030662492904	-0.01567152505823245	-0.02906439158496531	-0.913101139355188	-0.562147907799158	0.3822740636310726	25.40718764693986	-20.50828151616431	0.9557609077827895	-47.04030864166023	-42.85187329642135	12.83088000802851	25.99061632204974	-8.666397951724457	-18.68535884179282	-3.571859521125517	-10.8510208047466	-0.05316649631330533	-15.13762706856126	-26.81513728792464	-0.02977416220249325	-3.414745787939694	-3.071612215918254	-1.20585189181213	6.021129685918058	-1.570964496517192	-0.226299710206517	-53.8889647804526	-23.84491307336443	0.3728807956426525	3.443132757808161	-0.03588125491116859	-0.0870611543859701	11.55080016725988	6.075831115597629	-0.1199877171319833	0.1110693324549694	0.02797441043537623	-0.5172733986649751	8.309082484488968	2.254637936222556
0.6984558844730551	-0.008015215342279447	-0.01617783366227336	-0.02734934429986411	-0.9226355615459951	-0.56799578654676	0.3769182972553708	24.37773428016589	-15.53165476773911	0.8529410654890213	-46.99047671873307	-51.10079297557588	14.95893434464658	22.9526388541782	-8.185251429513974	-14.37723785769488	-7.597148050829011	-6.429251023193446	-0.05100179904270773	-18.77652665203638	-33.59623425665961	-0.04715517652657176	-2.329731172257206	-2.836836038478419	-0.9137009975156736	-1.812204030952005	-2.279828307303465	-0.1104821901477963	-43.68386281224561	-28.77433084152181	-0.2174413247762702	0.8797095267996268	-0.01765865733460496	-0.0171679489953807	10.54715858174614	7.674068170213047	-0.1069031133491206	0.2096373128981326	0.02640345328486562	-0.2033715842289753	7.072086652888173	2.775610247372242
0.712831259413831	-0.004479728132643856	-0.008555441896904071	-0.01345747307155904	-0.8634649362868245	-0.3506784346994323	0.2097455900157268	24.57066028124706	-12.27043575188828	0.95632903041311	-47.90693431994364	-57.65512624101288	15.37128669102625	22.32001234585701	-6.773462969751676	-14.34444952435979	-8.917028229990539	-3.480203801786132	-0.05378327170788684	-22.40163108620426	-36.53831707793444	-0.05037839343086065	-2.526689219073153	-3.063311405427822	-1.173345649802167	-3.410720207941211	-2.224212239370774	-0.05329718132675232	-33.93211992068542	-30.67922138264855	0.7063905081557138	0.1788076217308859	-0.04220953029324705	0.004693639504835957	9.197839231130196	9.105347722037106	-0.1106234256331931	0.07709368776195161	0.0275074063292326	-0.09210942433651016	5.767643295339603	2.887885434988688
0.7168000000000001	-0.0008390021861117702	-0.002183703663203394	-0.002640028699093811	-0.6014687704052903	-0.1190617083511256	0.04245528611335025	19.81789754885592	-16.56630060864542	0.08983619001633336	-48.11129972412306	-59.05067371414122	15.31474220533713	29.2451566186584	-2.328599578131042	-10.18814089418919	-10.32051298877167	-3.727877632705952	-0.04598908916149629	-22.8106985461767	-36.40734361005985	-0.04901669922133259	2.463263576195375	-2.799263911155786	-1.052473327861948	-6.106755401443703	-3.828268803715258	-0.1839599778204317	-32.38319996522819	-30.16541695528934	3.060611079694934	-1.162344591629648	-0.09019385710527877	0.02040400402750622	9.054720716182068	9.376985856652066	-0.04258996239275856	-0.2852628743751635	-0.05941373233668115	0.09119148083916541	5.464281818876755	2.811316954096454
0.7263128561131141	-0.007023470188944003	-0.01203562019034203	-0.01677815631612761	-0.9030527376358037	-0.419859400623011	0.2842262181282251	25.57286020616124	-9.695353727337901	0.9512946330021004	-47.6939076811695	-62.48365608060006	15.14376254318962	18.91044967754071	-4.095173347982849	-16.44697980455038	-7.075882404646201	-0.7424819144602527	-0.05905889358328009	-24.67543042236156	-37.77186223124186	-0.0495226540067417	-7.212678650746628	-2.222141939307538	-0.515041852892968	2.454619530418791	-1.953082945614441	-0.202197582362185	-21.47237339700031	-30.36381636860848	-1.244597306007324	2.425114944677816	0.01215956713807748	-0.05604909676843218	6.755632573597913	9.881925740262155	-0.07603855284584111	0.397313543612567	0.03217528542938816	-0.4002624406581062	3.897515159937575	2.734365669248222
0.7432558844730551	-0.009253108713776825	-0.01327338937850542	-0.01544629917168032	-0.9140627229492786	-0.4385832981181466	0.3049878483800015	21.90201125184413	-6.710524179272678	-0.3901057604210818	-46.02502581063121	-67.67261059990717	14.68611553644787	24.6119735200236	-5.031985018608788	-14.0970604003005	-6.434013675712776	2.421440229279133	-0.04495362072645788	-26.55922747586475	-39.17702507943095	-0.04370158390490748	3.725798706317311	-3.487221265568738	-1.741927613410988	5.126070714274258	-3.639239174998784	-0.5547406663567738	-8.399370762774913	-29.68210719451285	1.349853593180676	2.993976370125948	-0.07406725829826252	-0.09650817283440977	3.904604700142194	10.3036976990902	-0.1899102869425711	-0.07258236996672993	-0.06730449815040654	-0.4763673507780775	1.714882484619901	2.451737269536396
0.757631259413831	-0.005606222201095079	-0.008247859862094236	-0.005942146156479591	-0.8491072350425739	-0.2380152369483426	0.2015053469437262	21.71971209301974	-5.952122184940482	-0.9274880862164556	-43.92069269212437	-71.35215047869642	14.32058625619404	22.82773365287485	-4.506563319387771	-12.66758073621536	-7.132079164183979	3.383264080381329	-0.03351842261247109	-26.32087416008795	-41.14476955531413	-0.04210505048789418	-1.145701114318894	-2.610195659121835	-0.9879007785446	4.104452158726054	-2.667234511335278	-0.4489368648038513	-0.8029578358596186	-30.53536081847332	0.7107157773742853	2.502327805325865	-0.039077475154427	-0.07690222721433108	2.163634209361493	10.43823141089003	-0.09349733996409665	0.06424197457403943	-0.03283740990817221	-0.368566566028233	0.3436040975882109	2.47534853982612
0.7616000000000002	-0.001536109660250418	-0.002256185166437785	-0.001507198322772478	-0.571915485959078	-0.06445630844581274	0.0535916546841797	19.13173633767217	-7.649402821309248	-1.555944044349133	-42.17309067650004	-71.40607771022738	14.06467490093381	26.22659994023755	-5.003622994577665	-9.155970634889592	-10.90828941374526	2.487787168203147	-0.01929680281691544	-26.33657735544894	-41.04149957863935	-0.04235589410878625	2.168288695616632	-2.738955508770084	-0.9693497001981797	1.622718511378755	-0.4863388385162447	-0.05014494696286662	1.582718224074122	-30.42654692129448	3.166043601777775	1.946858375726443	-0.08656132832784447	-0.03343353382210647	1.299496246279323	10.3377179308626	-0.01910618949229015	-0.300563708780431	0.07747657836264804	-0.2703938200501299	-0.08246113758516731	2.466095307832228
0.7711128561131142	-0.009111988628054846	-0.01095577521310009	-0.005837961392310419	-0.8924139378006331	-0.297830455776193	0.2320110281667613	26.16171428944492	-7.22448547972599	-0.8191979021723066	-41.20262703719506	-73.78591226871036	13.80088596044867	16.06607033183438	-2.477338498770122	-13.3773392564543	-9.17587715085109	1.364998155928955	-0.03341723710630748	-25.63791646208627	-42.89850691725663	-0.04390703439488948	-7.006025805158465	-1.096256521255318	0.3056693649596217	7.431389835980312	-4.761921134854632	-0.9576718420254527	1.576332531880122	-31.43393396776604	-2.450662217627402	3.331708685762689	0.05522970540303801	-0.1312429311922057	0.1820682814704342	10.38146513761088	-0.01002250641250736	0.5912367596498976	-0.1466625580736917	-0.4804291610721012	-0.145216192928167	2.552471774648077
0.7880558844730552	-0.0123708328683847	-0.01145974318966288	-0.003135321496731841	-0.9043604492950195	-0.3138384970139327	0.1974911215729556	27.30904131307089	-8.375948864987146	-1.050805900555378	-38.69248286414799	-74.91847974626539	12.82184073952961	14.40743029678708	-0.9797562463485667	-12.5418122771823	-9.679290096062939	0.1964843789068756	-0.03302524707864837	-25.48140182833293	-43.93005693487473	-0.04185548802938075	-4.411729643889508	-2.108934923291355	-0.7882089119473964	3.604363038916472	-6.031063313537613	-1.078213888982285	1.988807144889988	-32.5554118638538	-2.015696048103087	1.666184624665016	0.01943372109390545	-0.1003003304980717	-0.6376447987490326	10.07706701208619	-0.1425864047186219	0.4896230527742835	-0.1985084882553515	-0.23755130487305	-0.1495804774665941	2.660254638292281
0.802431259413831	-0.007993981744984779	-0.006150718523256598	-0.0004943896972514622	-0.8329693363969355	-0.1794549173320092	0.08936832116901883	27.48103073353382	-9.281341536958685	-1.183935763790204	-36.76612979910834	-75.83285785946782	12.13642612653715	12.9254256031793	-1.423126596120393	-11.8931661131074	-9.662812012285791	0.3637450263415599	-0.03221522876257296	-24.21065832071181	-44.54080858364068	-0.04210511695632507	-5.366091759304757	-2.446407668040747	-1.127320312719892	-1.435910882776587	-3.619457320609549	-0.4430788094654875	1.292478805102777	-34.62929226511079	0.04449660034604724	0.3591731893354076	-0.0243288306989248	-0.02712807378441977	-0.1394557984142957	10.08750025897137	-0.1044080281711842	0.1923159188110904	-0.04974923977109943	-0.03186623464100182	-0.1016727493762565	2.990413339911944
0.8064000000000002	-0.002367227292470631	-0.001758564658548097	-0.0001778659693936148	-0.5406405379803125	-0.05147396525740078	0.0260950628034422	23.47084070092779	-10.72416139431682	-1.599163143252407	-35.1587186305075	-75.02355754235192	11.78892644063058	17.37540985426026	-2.4332533939393	-8.806303405726528	-10.8027505800707	-0.1094663798629048	-0.02314833498131076	-23.80996826497583	-43.97172732808022	-0.04354798148590817	-0.937471071643354	-2.689002506635763	-1.176219741787728	-3.169215592147687	-1.06970125049078	0.1015187474362259	1.817561889548156	-34.64191637889389	3.6524929973343	0.3933909535835546	-0.09614948807528223	0.009152001501628364	-0.5235943712068561	9.866438014756582	-0.003314715638408634	-0.3426399726821399	0.09391385314220897	-0.02804102462723315	-0.1221626983837779	3.053813429086422
0.8159128561131141	-0.01317372112815818	-0.007951610717194602	0.0008598348408530786	-0.880695127701248	-0.2510215448843383	0.06622280790126212	27.75668729083791	-9.724390051682507	-1.344312682830734	-34.49216027832522	-75.98454795220962	11.34357176384205	11.45840155396803	-0.2496641986234389	-10.34554250683626	-9.694557872714665	0.1524611475376841	-0.02935821453324331	-22.65227314015876	-44.86525755972889	-0.04244721617922318	-4.723433225036956	-2.020188358170398	-0.9004139063287581	-0.6178479249925952	-4.880370565116384	-0.7470073094858418	1.972307256560107	-36.31307987468315	-0.6574925223613897	0.3634132617237458	-0.006682261698172959	-0.04663021728621029	-0.5708675247389026	9.973546950042866	-0.1027355460450379	0.2940697045723321	-0.1211194557658502	-0.03040727851049143	-0.164529370031714	3.349508503430831
0.8328558844730553	-0.01751563518626043	-0.007969528588299695	0.002462514338168534	-0.8936485780187695	-0.2867708327288483	0.0004951970254847282	26.00002217882249	-10.89533708436917	-1.525425633717714	-32.45778317489219	-74.19354380340833	10.06658796073656	13.26773785937093	2.197561289334421	-7.591612259900107	-9.766529000563009	0.1832414612149584	-0.02484833078045658	-21.2769532872696	-44.23415947059792	-0.04013446602180665	-3.39866834155022	-2.028174059467156	-1.12152791080034	-1.855524906355019	-4.997074018371397	-0.7517959327784266	1.53569110982549	-37.83775135349816	-0.5244046934733719	0.02029861616762174	-0.01486745634197635	-0.04062524717293824	-0.347799904523389	9.545656787953288	-0.1276254855994275	0.2570522731440813	-0.1202405942098832	0.01779581788835211	-0.1301373366304059	3.767553020160715
0.8472312594138312	-0.0112249897049459	-0.003747659127260647	0.001542410498621001	-0.8149692694786772	-0.1741385362403207	-0.03858860807103781	24.37529361877566	-12.4782120757233	-1.01093847345857	-30.40002156014473	-72.61395145561328	8.977060075591588	14.06986936877456	3.546080604613933	-6.108303546677941	-8.956213606729643	-0.3816622022468465	-0.02231792150984239	-19.00831683492594	-43.68268145972105	-0.04079034269589843	-3.213062070422787	-1.72464660179421	-0.8800635977260202	-3.453801737846342	-2.873566967093047	-0.2323417338557157	1.232179159013065	-40.22872519755568	1.764140375524753	0.05568843478893752	-0.05046260375100164	-0.008388480397193263	-0.2319853443042229	9.360545114053435	-0.01175110112811604	-0.07364495341175775	0.008404402393497016	0.02135223347983266	-0.08249532099510058	4.435121380739194
0.8512000000000002	-0.003357811785058118	-0.0009396181006543157	0.0001562117639477448	-0.507480555372771	-0.04977135180217829	-0.01383267688933287	21.38733837123577	-15.14057412430915	-0.4902660228029649	-29.02247354129684	-71.48772018067693	8.597418483334129	16.49758617133476	5.819424437914115	-3.718702501117237	-8.434871982642402	-1.164075421673352	-0.01855374637482807	-18.28134755046132	-42.87173439013338	-0.04209598070930389	-1.338139229081389	-0.8029628295454077	-0.02021613859993759	-3.576940348449582	-2.611312590634123	-0.1563459145480482	1.362152474830383	-40.02308594380109	4.107640292587329	0.1337168552251984	-0.07363087882585584	-0.002916627574038811	-0.3340991970376461	9.078309397352276	0.1711215201194216	-0.3962024115025813	0.02689813668563069	0.01015237671616074	-0.08286003811925735	4.560446590118312
0.8607128561131143	-0.01802036373961613	-0.004407052785171383	0.002537468402336369	-0.8669917006774917	-0.2564992764487783	-0.1155748817367268	22.2467992620058	-14.18650064043461	-0.334736040473985	-28.32367348333628	-70.8755941648697	7.835989540720104	15.62062520193816	6.38210623990946	-3.216899071079278	-8.44348469415586	-1.212265116400204	-0.01761268690885171	-16.74495657532445	-42.78239586460254	-0.04003165707671456	-0.3227069395271257	-1.092065272357344	-0.4417008935301877	-2.981802752103858	-3.397628433534807	-0.374363661875367	1.675245935478597	-41.76932235317722	1.693649232670658	0.2833884148005421	-0.04206645947374649	-0.02061478482068346	-0.5113484270118028	9.181019981295101	0.02424518582585862	-0.06162712758942295	-0.01322760027759984	-0.0211851101062717	-0.1203335920615156	5.068079863452955
0.8776558844730553	-0.02317535149587258	-0.003597056439223738	0.002747496654608528	-0.8808597353152896	-0.3032171563278894	-0.2045043240855904	19.63774194525548	-15.86445378011901	0.8060907880417325	-25.77311162113996	-67.77924315713416	6.314403567462402	16.97194770075445	9.304223057071301	-2.257032709550417	-7.239497930555889	-2.28061762626492	-0.01333313193849375	-14.17368167929919	-41.11252790333518	-0.03934209550453907	-5.542620624914443	-0.2489393784521228	-0.005146874235052668	1.528692676784247	-2.434750871322716	-0.545175812245222	1.360758447027147	-43.18785204332075	0.01986897222149259	2.535435666068367	0.009228727325962877	-0.08180395447942235	-0.4486899859447688	8.797716126276187	0.0536346237484315	0.1877048052349941	0.02275785478152756	-0.3463459729988783	-0.07457929578640302	5.669224179192842
0.8920312594138311	-0.01465700411427662	-0.001162580524291411	0.0006820758160299758	-0.7931378956014934	-0.1880800980811159	-0.1540949821163728	17.93679651275642	-16.05605607430747	1.897243865114875	-23.07382574657444	-65.55837095214783	5.013580214325615	17.16616465265086	9.465101611200176	-1.09444107559843	-5.702467464541541	-3.165236831618059	-0.01237443713758229	-11.19994739898585	-39.91730335769559	-0.03909920680171075	-0.3848614558973146	-0.7625629372688623	-0.2388620386317535	-2.807995381449042	-1.540920237959156	0.01506230610454629	1.29065966783065	-45.37099287536027	3.663906608524927	0.9922008720788956	-0.06976377641777398	-0.01168136525438626	-0.477536997018589	8.67562959217072	0.1397486786326542	-0.3494654343447562	0.1002549959360126	-0.1094960326335368	-0.0581878291706894	6.305792417516567
0.8960000000000002	-0.004360598573331487	-0.0002255729919730117	-0.0002594781267037752	-0.4688863127971459	-0.05552164916201718	-0.04714402532334816	16.06525077037942	-16.54573666144014	2.235153008884896	-21.83023694571671	-64.88864326995844	4.726264688950502	18.19408432736565	9.890651911356045	0.04215036989877508	-4.727119373400196	-3.467000348970755	-0.01073114680892644	-10.35998705490277	-39.52529513839826	-0.04006553405303231	0.6046862819458678	0.5871062297658086	0.8196285865863351	-1.213571246043564	-2.271407097023289	-0.2262435353856881	1.524668936648489	-45.31736158976371	5.130775276446996	1.133453217970029	-0.06451083447502348	-0.02522552890755103	-0.5978751426727099	8.485397237710668	0.3288940178014371	-0.538983501483976	0.04412416051664233	-0.1179879975471343	-0.08367920123938025	6.424342292235723
0.9055128561131143	-0.02279270437708547	-0.0006442713778399554	0.0002246627598161517	-0.8499872383371532	-0.2692395498952465	-0.2611473912712476	16.27485425966881	-15.97065268488894	2.622389432687865	-20.29717379598549	-63.80842858568411	4.005063683602542	17.75071034521109	9.612235899095589	0.1347810088967559	-4.975817421005784	-3.987553037488051	-0.008309112021230913	-8.433152973256277	-38.88421696492147	-0.03947970858905208	1.627355799781282	-1.018018219967352	-0.4079870006590176	-0.2516711143195721	-0.4807311611184118	0.04728757016612038	2.142561356066398	-46.92917214965687	3.55328113366132	2.46466680090012	-0.07573527398814706	-0.04266526160255424	-0.9865443894626527	8.641877011817527	0.1047064458259912	-0.3342657251194069	0.1534014968050391	-0.3224536054762169	-0.1280027339666939	6.88029525757806
0.9224558844730553	-0.02713744563524401	0.001024658490399926	-0.0032038356811643	-0.8623477969457518	-0.3166994114485533	-0.3424882833388025	14.62426470227847	-14.50389279232796	3.138560327475181	-17.23507613101344	-61.82348292131542	2.765086566191465	17.84233516219562	7.347052322918499	-0.466697892989046	-3.880142426114563	-4.32311099766639	-0.006466159950089839	-5.029113054698006	-37.53687419627784	-0.03940602495157092	1.113654927606524	-3.011972613388072	-1.526870125795375	0.166561870286163	1.398322457504761	0.4430738885491081	1.965018047930245	-49.40995792024129	3.812171199798153	3.259414987427832	-0.1177960442634107	-0.04159514048915114	-0.9931064937365434	8.694240968137997	-0.02163833209103307	-0.4146328157415687	0.2581897678572902	-0.4228604819964316	-0.1066675291007974	7.496967993853223
0.9368312594138312	-0.01670428456087336	0.001946253263455939	-0.003035694107470699	-0.7613083232412645	-0.2066025448870619	-0.258574154335534	13.41963915333685	-12.42432722120681	3.25951817672601	-15.00283348951075	-60.51571930976996	1.68993787769457	16.79974556334113	5.538079423461061	-0.9334612072071962	-2.561823986425126	-3.92534016939745	-0.006507667077115965	-2.290300000591122	-36.72338392246375	-0.03847261862391313	-0.8840197134635152	-2.114148717734592	-0.8155406304703094	-0.335735223149753	0.8842474371387649	0.437964713102307	1.560278574324938	-51.59115287652576	3.896022211973857	2.591961082982886	-0.09294653971545488	-0.02556306176854684	-0.7179204983536644	8.790822830399028	0.1001930387855501	-0.4345812353079543	0.2261681087929093	-0.3024123132198508	-0.08095623299549462	7.988101468012273
0.9408000000000003	-0.005239372734617831	0.000455239283881691	-0.0007605982837677844	-0.4223878924510487	-0.06590334535985676	-0.07654478749343951	11.7340645280606	-12.37783177295603	3.404216943989434	-14.36547343131125	-59.96053343829254	1.302072462508745	18.23574184933308	6.085933066731079	0.4012942929665139	-1.835518389938379	-3.963233952102075	-0.005082093781018787	-1.67195074904287	-36.49238526214307	-0.03790553449923643	1.61127534216649	0.05146786944656923	0.4315071208548714	1.113330055718413	-0.4469801425685646	0.05264306207147906	1.812026232836685	-51.86359466591107	5.005266703349251	2.449323849454625	-0.06677219187163436	-0.03642439241312317	-0.8243809391409622	8.672496199709027	0.3114582631303883	-0.5504125458188646	0.1408480321859386	-0.2699607537972875	-0.1073579516927445	8.085016069484276
0.9503128561131143	-0.02546892696873115	0.003239936054698649	-0.004154650935256597	-0.8227602208752103	-0.2885749903698525	-0.3694031481876721	12.3859854750311	-9.937307701913412	2.817395125722371	-13.04125785747667	-59.15016404524287	0.8604244043893696	17.10153701441666	2.745262087637294	-1.652208240291107	-1.950679319585616	-3.351759681861414	-0.004562194506245891	0.1407893543175138	-35.82277457994365	-0.03755020351558643	-1.376039745598769	-4.009939362462105	-1.655341848182658	0.3263342867171023	2.053310261217711	0.6699672991743493	1.956755848976	-53.35621698067725	3.41724305441124	3.412843778356535	-0.123315092646489	-0.03745932369105359	-0.9306965586037685	8.870635817310806	-0.03755433354741591	-0.4106451973242733	0.2900863360686936	-0.415007268146991	-0.1194144441454626	8.36022812737788
0.9672558844730554	-0.02998643455130434	0.005340273300603796	-0.007454712626493592	-0.8345399890593388	-0.2855694861998472	-0.4416063010311646	10.82239178236726	-6.092008701658536	1.8001922881727	-10.94484704136533	-57.40335076587611	-0.1531834090457928	15.59452018732567	-0.9707118596279558	-2.786357548004116	-0.4568158530497501	-1.403787368567349	-0.00572617626385713	3.635297124022718	-34.72229875657084	-0.03777491224250795	-6.962360943654978	-4.289527564691216	-1.577424484883739	-2.796598622925736	2.68612642196088	1.143145586835878	0.9487551074310718	-55.77162558458582	1.722793772425584	2.362141018328949	-0.09151841298314375	-0.0007515447972271661	-0.2904169733321859	8.986081903463754	-0.05357318961417221	-0.2369266600946313	0.3294082836046565	-0.2473800212034449	-0.03683706035561703	8.694572824805961
0.9816312594138312	-0.01838916416181391	0.003567729544701559	-0.005951099506321173	-0.7109151290297007	-0.1255770719684506	-0.2925845777444138	9.295391079702279	-3.769109180343364	1.253469957495034	-9.448395370497956	-56.0648517789471	-0.9386201522226998	15.97028760535252	-0.8903427495127966	-1.44206358627981	1.099216331243321	-0.03128741161110575	-0.006552214332878148	6.597037823354341	-34.38820080113533	-0.03809420038684673	-4.793504827708833	-1.447048466404974	-0.2920568502048255	-1.442517280770197	1.555676971507652	0.8475503609126152	1.317527383321905	-58.74229991627388	2.09390367784077	2.194016616419047	-0.03819528283939686	-0.006388014067145564	-0.326700761940186	9.196688580786335	0.1741704386925624	-0.2520128345656198	0.2571783838514777	-0.2038700745853107	-0.06955301711104164	9.171159353197393
0.9856000000000004	-0.005402947824443061	0.0006625366993906192	-0.001853314899976038	-0.3495323667023946	-0.0287057514776734	-0.07541702192841626	6.308742378095814	-3.218010736595852	1.199131688859311	-9.466804773357158	-55.23499142541668	-1.385558080000318	20.13006958641325	0.9762344646937957	0.4776443798748673	3.087433985742954	0.3874835511159865	-0.006866038003462518	6.755273502358087	-34.44704186592766	-0.03665125655775785	0.4918110400048312	0.7383860170156358	0.5605974282630144	1.881425981286264	0.2634895977802594	0.2385872174903664	1.583340454413488	-58.97570881492251	3.443246454730593	3.078644232427152	-0.02192856796112796	-0.04314291424968186	-0.5656838286921462	9.088212219147671	0.352419066473481	-0.3659168001950345	0.1830300238218136	-0.3312410141588181	-0.08534940537798505	9.285038242965786
0.9951128561131144	-0.02644130170235215	0.006128345537765617	-0.01082070838667146	-0.7768597760058	-0.1129109629663958	-0.4067534400145263	5.440429339878007	-1.810890868652874	0.7868597832753963	-7.540332831964626	-55.08632023376086	-1.407232696838414	18.96910590383947	-2.187616195945481	-0.3728202190693781	3.895198668722399	1.080889727888501	-0.006643128401293023	9.18962538629798	-33.84123032158921	-0.03981520285222939	-3.656109935754795	-2.593708204896421	-0.5816937779457604	-0.03656825071180544	1.748050025315697	0.7243736311771957	1.993959225191414	-62.18851928893374	2.443202072330674	2.900153713597287	-0.0661113907684257	-0.03367464144003032	-0.7743672764746793	9.644975825416479	0.1381399179719015	-0.3504329406509959	0.2443258693857211	-0.2994037926076514	-0.1304978511972516	9.759852538661107
1.012055884473055	-0.03075088750104982	0.008611098850402354	-0.01600260273767706	-0.7855849621958573	-0.0007216932000915222	-0.4643803835699529	-7.401005466962443	2.697187625847583	-0.301504558794474	-4.967001273348828	-55.06880293344496	-1.929990146139513	28.37880231545794	-7.022468504453395	2.310756113065277	12.89658712460747	4.992409804177745	-0.01152644875454864	12.44635425300891	-33.96185913780135	-0.04177969873057756	-0.983766455242705	-2.440612606340618	-0.194667947479446	-0.9759724766735327	1.509173982112434	0.721516816148702	1.490617201399823	-66.39074931045386	3.453052231722785	2.196075416646691	-0.05116603867073102	-0.02593560278111787	-0.6456401081323979	10.39757356349622	0.2422188299127784	-0.5255069075345987	0.2042116637655584	-0.1863715541385299	-0.09036816306294673	10.38682376642873
1.026431259413831	-0.01865098481648886	0.005542560213689863	-0.01073657603457608	-0.6282096949646387	0.06072212598490978	-0.3109329904552354	-19.59470940132488	6.512320072060029	-1.189839864390804	-3.545884553950815	-55.13490097510318	-2.44550034038518	39.29171415038856	-10.14341310300779	5.075552762701394	21.11132694056642	9.015943069806463	-0.02027709945134168	14.57884868700235	-33.87460041492734	-0.04162432758182506	6.201833007973924	-2.630005728023286	0.08873287071557889	0.7375545934509647	0.6856951034795156	0.385938751604529	0.8840414760334232	-70.14110939962029	5.265749822522547	2.713295771771475	-0.06867089433273998	-0.04522261179634765	-0.3831124177104814	11.02421423251149	0.316350646000166	-0.7242687304928697	0.1670521044474076	-0.2593222615590208	-0.04220786724752136	10.97859133448781
1.0304	-0.005580337171217309	0.001531541914515111	-0.003067282182341652	-0.2673980808347594	0.02116628532024833	-0.09489876625490723	-25.81681650138242	7.510271719854298	-1.405014030377827	-3.17127945182434	-54.15660621394724	-2.794630008586831	47.26345675490639	-8.998379836014948	7.359404721184939	24.58855181983718	10.28780300078041	-0.02285384765918768	13.82351827783133	-34.94348795526606	-0.03902280319727864	13.63608296358935	-2.245803874158899	0.2823008897997703	5.049034434703241	-0.1821445304826242	-0.2654856070310472	0.9242367006019838	-70.47167563473815	7.214787404386797	4.567722826151661	-0.1075824012379943	-0.09911422505754192	-0.4537918896674379	10.8979965735006	0.4031474179942199	-0.9041192859296511	0.1357143368242336	-0.534411945258175	-0.04654405992548684	11.10388290446359
1.039912856113114	-0.02646136015867029	0.00941422978145586	-0.01783998786061182	-0.6980054382690746	0.1515909922339347	-0.4352244429238965	-29.48609090726468	9.463858240178837	-2.009847063283586	-1.617403000246849	-55.25388482803827	-2.621541253539805	47.01145922664048	-15.0981382063214	6.202439173836641	26.89686493884425	11.5584788018172	-0.02575104212115764	15.71264773198163	-33.68702321202019	-0.04361844796563826	8.443153264335457	-4.914592570790907	-0.07455915032776272	1.56728037022157	0.5046714526304017	0.1202421120129836	0.9299271739972313	-73.29350611651806	6.390190297372373	2.910638767714091	-0.1017363441273075	-0.06557075994177533	-0.5910340038260564	11.60957550557976	0.274698640099672	-0.9385306081231233	0.1227287080155502	-0.2865461032242169	-0.06208339016391412	11.53386095933512
1.056855884473055	-0.02982355275164394	0.01174558446926607	-0.02254334865296624	-0.6929048759119487	0.2193940708449418	-0.4874308673352132	-39.16156710440365	11.70291413808194	-2.43007177312014	-0.384189575198519	-56.06085101694316	-3.131424788051681	54.94292899347388	-19.63064897736008	6.23159133812702	31.92529366722844	13.33348917353424	-0.02806827341780253	15.53259476443653	-34.37095071083328	-0.04165729987125532	11.19779897745435	-6.65443263068265	0.05813816496958979	1.119778457708446	0.1118886981828577	0.03060220477014014	-0.1656487315486569	-76.10061062013273	7.562190360220272	2.217134623207706	-0.107455926604358	-0.0578673413101153	-0.3744927902200018	12.03988911401659	0.2593225498349442	-1.134596429050431	0.07990330308790927	-0.1778395330879175	0.02854510852889462	11.95792431458857
1.071231259413831	-0.01723700710597598	0.007118445134965299	-0.01375399582639595	-0.4780044800192513	0.119806234571513	-0.3348695090892804	-41.38438686094774	8.93977599501846	-0.768042874964479	0.7122609303953353	-56.39333332045172	-3.424876934194756	57.11710179772329	-17.47785103242869	6.7694102524331	31.66253473657144	11.49437852044104	-0.02566155604145561	14.96205360702374	-32.9473248961632	-0.04007446730497295	13.22568907579938	-7.180722857695633	-0.001907390274122678	3.01825258344895	-0.4889030244731943	-0.2783952059603427	-0.8880036682685802	-78.14338589880542	7.540639075061284	3.255230681089673	-0.1326866708669687	-0.08358459781210632	-0.09921289736779748	12.16447344654848	0.2072598655532408	-1.08316281930443	0.07662464488159601	-0.3282063297151677	0.08164098206433984	12.31290262583004
1.075200000000001	-0.004899750077164811	0.001997048367888117	-0.003673908414712035	-0.1604902788903146	0.03315993814999274	-0.1074996200153073	-40.46875420477163	1.611703196204334	2.91331954152745	1.45098610145327	-55.64253990311053	-3.688523060514501	57.99214147729371	-8.423641929143953	9.534223692169563	28.99122516939402	6.300490643455811	-0.02128699401589518	13.7789307047053	-35.89006389354277	-0.03772250175719571	14.39242304765262	-5.933112796799732	-0.00100555627269161	8.936067279097232	-2.160284523638572	-1.559645880627238	-0.2334061413582472	-78.30257767198626	7.154263436187847	6.054026515759804	-0.1396690592810723	-0.1705479287788196	-0.3635410086975214	11.90123768418051	0.2217582196254494	-0.9676233577845341	0.004196102153515013	-0.7519897275226758	0.0150996055933139	12.38783488793705
1.084712856113115	-0.02366413479444418	0.01081854793284978	-0.02093380024530898	-0.5270979037088246	0.1168176694453109	-0.4572244126446421	-43.15588155058894	6.423933342510345	0.1485311298575613	2.254057297458996	-56.19721505993762	-3.494038199802572	58.58147756426111	-15.45373009619654	8.050285098979117	30.510349895585	9.6739019764562	-0.01991200736665459	14.31151587798189	-32.68016200793635	-0.03837251498627939	13.5846782491701	-7.294232509082692	0.1411584208783638	3.513075949094776	-1.270290224908269	-0.7456869506498462	-0.004488967147113526	-80.1626604106	7.821264617062985	3.197741396731086	-0.1188673553105928	-0.0978653430418161	-0.5005489850981183	12.23143681515628	0.2278099270211887	-1.137881381646702	0.01147846377202355	-0.3222771224141133	-0.01155661535951387	12.64356495007318
1.101655884473056	-0.02551935824175899	0.01262574674960971	-0.02498599316302623	-0.4599353421008576	-0.02529202844164047	-0.5152895106654043	-41.65299401951833	-0.1675950526649079	2.991617568902546	3.022856548848164	-55.14858178303525	-3.944360484418459	57.38920233391228	-6.099733853139809	8.817821189934227	26.66040659694015	5.213846189619614	-0.01008748152712751	12.66590186550333	-32.91540226582553	-0.03131099623004484	4.717477823333803	-5.420213046085758	0.1565334374329579	5.510377881670752	-3.696131022126243	-2.000424642689143	-0.4944366404193426	-81.5781470806684	4.211639216612294	3.902429305243019	-0.03498549666772721	-0.1403342678794907	-0.3522608048208787	11.92994875749883	0.1026450464286177	-0.6742272513053287	-0.1116522268525889	-0.437848486606111	0.03544830460395127	12.73860310402383
1.116031259413831	-0.01429697151720433	0.007662630663424016	-0.01494992221078153	-0.2045772442450868	-0.1358538403875968	-0.3716989501453156	-39.04251926969719	-8.695686235045274	7.153051394433417	3.591147398389484	-52.18110211762772	-4.219941524920938	55.50009173948632	4.148710009793328	10.45228424116918	22.93124333765337	-0.2468487278293342	-0.004434731667631277	11.70509217635961	-28.23866019142676	-0.0292635688005305	-0.07579110981606518	-4.598329275448588	-0.04147289741786339	12.63670139463285	-5.372098750831261	-3.582134240082773	-0.2002886931622828	-81.95635886300126	1.827731251559776	7.362955828598341	-0.01538300249399741	-0.2439798416739256	-0.1942369918973984	11.42721912370942	-0.01132780822460625	-0.3340565985671397	-0.1922544219321267	-0.9622393386519803	-0.008086589005167028	12.71605367327522
1.12	-40.28058383121613	25.74464476309539	-8.225021907632627	-47.68478013448554	-1.368201822738513	-30.13023259403998	-37.68673818034519	-15.08332489327992	8.925456133987268	-35.09305032712054	-81.94631277254497	0.8331862713379732	56.75153543012792	5.565327173908408	10.70358046992892	21.81442607489423	-3.250759120359756	-0.003246498257084193	31.53388209647753	-45.53604270287502	-0.02903268190558075	-1.282444827479126	-4.521187613141292	-0.1394196799085936	15.29981871683299	-5.878178595360436	-4.119478620175553	0.03533246199410828	-84.99518554752028	1.196692429656887	8.720316804891874	-0.0174925645662472	-0.2828591780059125	-0.2280566408554874	10.15119443192883	-0.0523526461138393	-0.2423229810887094	-0.2129804461860553	-1.167332856117931	-0.03269349598703387	13.03658150312317
