DataType=double
version=3
OpenSimVersion=4.5
endheader
time	right_leg_1	right_leg_2	right_leg_3	right_leg_4	right_leg_5	left_leg_1	left_leg_2	left_leg_3	left_leg_4	left_leg_5
0	0.002240666475736397	0.08045594139546708	0.001535325549676614	1.506763679125528	0.9970740498664812	0.01237602839898422	1.228093234078989	2.286400520413761	0.007170367542671308	0.3030514062149177
0.009512856113114032	0.0004665068258926653	0.03496098610322562	0.0002763601539665927	1.435209849164835	1.103895338555896	0.00546892442554192	1.408498052838279	2.337575730650668	0.001563563433697901	0.2825941874089724
0.02645588447305514	0.001660363141670729	0.007664434719225177	0.0007910476810586431	1.390278270537255	1.03375116537195	0.003484515042267766	1.4617489468071	2.297119582927311	0.001766723916894364	0.2508559887191426
0.04083125941383081	0.2499311917602363	0.04415779778567153	0.001736455882322296	1.2070906880838	0.8917978957398738	0.008891908047167439	1.619836460009421	2.097437006617653	0.02027499246738174	0.2546675453884086
0.04479999999999995	0.4793747052649008	0.02000252805093616	0.002385758364982671	1.014193031407352	0.8854263238958984	0.03150890064916822	1.584556271193037	2.125612778699806	0.06230126997794816	0.3036340870574534
0.05431285611311398	0.6448003342180649	0.0005272397364812775	0.001059696357033069	0.9281618706163748	1.131038318010876	0.00616995598098402	1.729653938034734	1.871880408135626	0.00797847170783772	0.2709308323895119
0.07125588447305514	0.7788613411060281	0.01619135054892062	0.001251668181006416	1.001379224128585	0.8170186716145418	0.009931709597637449	1.831189809610629	1.604440215738745	0.001596722676858953	0.3546274772388038
0.08563125941383082	1.074599709979301	0.0364580281273259	0.002577054615401586	1.163716104575828	0.5630317299756173	0.01717628274460292	1.883094254197645	1.338472829987422	0.002538718540810336	0.4785840987573016
0.08960000000000001	1.160175872454016	0.030602574324611	0.007129019308774076	1.144120731443039	0.4978226392745464	0.07271167157593615	1.883578317162046	1.332610299285316	0.01240752429807301	0.5268664521365256
0.0991128561131141	1.511203924066381	0.002449843747652558	0.001608396485936581	1.139418259093052	0.4562225379495359	0.0300175050623519	1.92488279935906	1.048192932745442	0.001683994515710552	0.6134543335407017
0.1160558844730551	2.152696419540925	0.02601931422480686	0.001616278082008371	0.8135443955521673	0.5486829569551874	0.09661601926200623	1.920470923502546	0.7070155056276767	0.001358450422094037	0.8516587287519108
0.1304312594138309	2.55096686606888	0.1493004799810436	0.006838951984517117	0.5650058675329026	0.6128838474037348	0.08322000884156909	1.74692526112216	0.4211328845612083	0.002299267669788385	1.098974643898358
0.1344	2.56829922808228	0.1801924671738124	0.0482514526252249	0.5689416941037004	0.6277403552289282	0.3976838829178337	1.57697232271623	0.2357083067340584	0.008737703113526507	1.20777192792792
0.1439128561131141	2.71601175809405	0.1996685402923557	0.04062261417462576	0.4279148107506945	0.5961754865814628	0.0459867904723854	1.508046828879528	0.121949388703646	0.001451105315732448	1.28246983531439
0.1608558844730551	2.919074443168735	0.2201890789582102	0.1628221508346437	0.2791459057971526	0.5625400681486852	0.03277428008922367	0.9182869939853529	0.01854216626599303	0.001292118104398554	1.571271493339332
0.1752312594138309	3.014009365563254	0.2768987045944922	0.3677470267235048	0.1977301360290493	0.5410553697722955	0.08139291912061618	0.294224746954173	0.03669742745835335	0.002189468638324144	2.058036695921189
0.1792	2.985007087696307	0.2788043594710379	0.4735109229127668	0.2284050417744874	0.527527964804146	0.2208178634393567	0.3537021050258948	0.06179521209315996	0.007801427654285931	2.100792144603306
0.1887128561131141	2.962190339786271	0.2851529849829735	0.5657208340363367	0.1452264469757205	0.503738376011456	0.1720681656703826	0.4545680341544118	0.02878112186918535	0.001322862961513849	2.167775647443025
0.2056558844730552	2.872959107973639	0.3294186166256079	0.8606783009789183	0.0969525264438893	0.4126217454860495	0.08232150600434628	0.5009196873440311	0.02006212495490356	0.000940936557303651	2.226858375884837
0.2200312594138309	2.737627807440185	0.3854593186768582	1.14409954958908	0.09936403163926499	0.3401964702491886	0.03909328793186439	0.3970587253479909	0.03005617943171668	0.00149694727460048	2.23822803150646
0.224	2.698028347711068	0.3743860813701456	1.292402522540216	0.1708395784154302	0.3075939358222337	0.1448367824669869	0.3645775540146534	0.09557739715330803	0.005519193767323571	2.175198695077657
0.2335128561131141	2.577672984085486	0.3910167998924416	1.366039791731204	0.07204945322184741	0.2695271079591723	0.022913343403685	0.280644302957648	0.02996162104551025	0.0009183067568692138	2.226844406628508
0.2504558844730551	2.426424516568014	0.4218149301404397	1.615943321068772	0.04030089466300435	0.1866246698044947	0.02820519107279739	0.1966720698558575	0.09194795109803609	0.0007262891137580496	2.130677738547306
0.2648312594138309	2.316644428978829	0.457402202624114	1.776666544306107	0.03394842478740312	0.1358616483390147	0.04314583266982729	0.1825454526297712	0.1730316977303276	0.0012498902575242	2.019997940150757
0.2688	2.310521859837212	0.4480730229640564	1.882015760350011	0.08784832088884986	0.1442514093559746	0.08754803071899885	0.16230543427017	0.2237839764952669	0.004628342475395009	1.951294523514085
0.2783128561131141	2.227626491080051	0.4626274144031104	1.875915034395273	0.02177809574534972	0.1169643732197736	0.07067208085434194	0.1181434922755544	0.2505571598705316	0.0008133926738915775	1.908681117538181
0.2952558844730552	2.17112373491698	0.4964804016642956	1.949537900194484	0.01841460889857061	0.1192939152781882	0.102848727686168	0.07013129034194687	0.3539204988146042	0.0006842020659068027	1.759714836642187
0.3096312594138309	2.127548693235683	0.5347495856719311	1.933968397727178	0.02560568202742708	0.1493918934346929	0.1082705828123709	0.07304319308443397	0.4133890539103459	0.001236371606398556	1.645001931904695
0.3136000000000001	2.118884459011869	0.5335668255500527	1.958090494019171	0.04901021534130479	0.1824423654632898	0.1422497512600236	0.07173062712683187	0.4226761278051709	0.004683767685359719	1.585703483596686
0.3231128561131141	2.110117676919897	0.5518070596167748	1.910378056151104	0.02125449455736739	0.2194699603607848	0.1103012354366193	0.03873391121693537	0.4151024282796846	0.0008412918165632277	1.532578045982511
0.3400558844730551	2.091039133598674	0.626925995068242	1.83988212937102	0.02307381717233703	0.326604056498927	0.0828620546224199	0.02668928431507744	0.3946183965524117	0.0007452470663089628	1.391292194939077
0.3544312594138309	2.041081128376923	0.693909137113434	1.735826805816747	0.03588276761930587	0.4495528508147313	0.04257716435537606	0.05335581063057759	0.3884618581649217	0.001469529135508019	1.280845200163345
0.3584000000000001	2.015959343974215	0.6945282620292508	1.729103572046171	0.05491163737155702	0.4697907290182366	0.1062151073469142	0.06197509764153164	0.3720420417598617	0.006231359694855776	1.226095128053375
0.3679128561131141	1.989335962835099	0.7332174456664378	1.667354966488221	0.03685209751419016	0.5962581316582858	0.01075013288646254	0.04118050546071306	0.3493711447256906	0.001424847783956018	1.177323238453143
0.3848558844730551	1.864743454275711	0.8157584772431203	1.585979848198681	0.04248268138579814	0.7834395020298874	0.005710833295552219	0.05918550445098436	0.3439776416110014	0.009052022089099054	1.047238590822718
0.3992312594138309	1.704833121576856	0.8695330804972894	1.52079571014438	0.0563645732731608	0.9436241060714359	0.008083460966315846	0.09459033096456704	0.3522517442340973	0.1128222309793578	0.9396781630256408
0.4032	1.656948630966278	0.8800918819045744	1.537742036527488	0.07713165346675765	0.9693552916037564	0.02504239105639172	0.09964224898075624	0.3061437097543837	0.2036014235486796	0.8890993452545457
0.4127128561131141	1.529705080556776	0.901655784420953	1.500637219494408	0.05546942626235207	1.078690672632205	0.006120695433153855	0.08738428295548228	0.3386634253545626	0.2560957847990766	0.8625801320837363
0.4296558844730551	1.309704855071822	0.9382818194026505	1.556475570184816	0.03015577491118382	1.226819169101159	0.004073654221071087	0.08519319333854458	0.3160461735740369	0.4534580383571027	0.7866397532925005
0.4440312594138309	1.121665005117081	0.9497865768319365	1.57764975638709	0.0183144895367553	1.304949355565954	0.007977349631426376	0.08473351774096383	0.3248216259433389	0.6289744424336172	0.7076496767730847
0.448	1.092931545179386	0.9273880281607489	1.681468338151814	0.03865955184992487	1.327047948344413	0.02243135287219022	0.08749231900683885	0.3617924544107262	0.6618858009444599	0.753274332377746
0.457512856113114	0.9390118924501911	0.930459912844352	1.650879360293466	0.01293426772291895	1.338564314367976	0.006874294254624934	0.04924160064537464	0.2956081673894841	0.7899956984548568	0.6905357052343852
0.4744558844730551	0.6931820400881571	0.9455689884612113	1.784424979897772	0.01783893542017356	1.348122013376611	0.007058420264423048	0.02802182330631453	0.2620775492241458	0.9709125046078331	0.6860038611482882
0.4888312594138309	0.5119426973527174	0.9807138231130166	1.889069979051717	0.07058300830943232	1.31325473455943	0.01084208661659502	0.03807767220331293	0.3027799398343793	1.07349357605824	0.689065214652576
0.4928	0.5021509460860917	0.9642539409421467	2.012627583270064	0.1038733256553535	1.302138710364806	0.0264143773129577	0.02594494287682192	0.3780406040309491	1.100232781655052	0.7508591944484246
0.502312856113114	0.3541744417941164	1.00888598447462	1.980125103103064	0.08259465604623895	1.250170431508995	0.009329160919193667	0.01392804600928343	0.2721172542685916	1.176009533327822	0.7360063098346696
0.519255884473055	0.22064278048531	1.070133904406367	2.109653408651528	0.06279407546836069	1.133187494849731	0.01370687080782051	0.002199417643524271	0.26566996091627	1.233914789462282	0.8198769015002476
0.5336312594138308	0.1646215675029517	1.148085898544413	2.210090338651538	0.07597252926218712	1.00497789064858	0.02722688998546552	0.002670953042722246	0.323188148151134	1.239385029438012	0.8604778104961905
0.5376	0.2056076847973474	1.149398009718468	2.300439298116157	0.09620302684719828	0.9610000192673844	0.06025274824206316	0.003216666871659335	0.3227408434631371	1.205900090132585	0.912247238861462
0.547112856113114	0.130491883543403	1.233887162579644	2.245241830203633	0.05352004125912213	0.8834187104349152	0.02561790881200298	0.002934673894615436	0.3897946968852359	1.254998567292171	0.882225110614911
0.5640558844730551	0.1160861293318227	1.34367835556468	2.303433846918199	0.0477210870121878	0.7501982302399508	0.04824229812690727	0.03248918069781404	0.4836318731248763	1.165608115264315	0.9205166201000132
0.5784312594138308	0.1152557416582561	1.442901754045742	2.297776454995156	0.05998984228501669	0.6592899298707824	0.2330410366011666	0.05203377564956924	0.3941442921554489	1.045254939205265	0.9882900187202992
0.5823999999999999	0.1553127646452541	1.457586630007416	2.310706859951328	0.09735281514002292	0.6184341076999376	0.2423649097466507	0.003930644337851952	0.3854064476629854	1.134604810216126	0.9093937770901288
0.5919128561131139	0.09384422811726537	1.543880984800346	2.153626410098916	0.06016717422746254	0.5849352253869515	0.1035650278297888	0.002918343880883079	0.2660256996953487	1.139507095700935	0.9217263401322358
0.6088558844730551	0.0277268463521434	1.662890686181792	1.948138028230511	0.09426691220463557	0.5427273036404454	0.2799867763915599	0.001955082911225148	0.1651580024878818	1.108553424731888	0.7576347218189792
0.6232312594138308	0.006069655134805176	1.717984141095805	1.744285025754546	0.1503283404340907	0.5379814521800794	0.5757305527816622	0.03617469695223718	0.1691224730061886	1.131131571365098	0.6695732711969757
0.6272	0.0394431424049957	1.721802200510976	1.715705153436625	0.2176195401727075	0.5473246334806774	0.667426405393197	0.0604179150655284	0.1647640269663499	1.070478259241416	0.6530267388225051
0.636712856113114	0.002740688124582392	1.75590048172179	1.440968388041919	0.1132589439518652	0.5575494747211893	0.7814252332420589	0.03317117415423976	0.1529430963474487	1.131419100797482	0.7613076729147155
0.6536558844730551	0.001762049529653531	1.781595853601602	1.105374409302605	0.08266982077994633	0.5847350258727468	0.9357369209591305	0.004499684659534431	0.3732217540656126	1.224263498625348	0.3189872309590651
0.6680312594138309	0.002443700943786987	1.748181950502585	0.7905536364644492	0.06062964732763465	0.6717742618689737	1.37508368678727	0.04209671936703874	0.5063031239037253	1.14216566718939	0.2259358414162618
0.672	0.01835556834290842	1.821937244323392	0.8760228037849291	0.1384401567137088	0.6602824288018798	1.410148258793962	0.0297659903205707	0.553795190808171	1.098818639853445	0.2786935193931361
0.6815128561131141	0.001488029290984905	1.702426769895143	0.528440794953883	0.05451390394577604	0.7751313507693798	1.590108218904292	0.02290620412254096	0.6985319337617292	1.045926328955002	0.2173400572233657
0.6984558844730551	0.003016053662626917	1.664999606018323	0.2864965450826631	0.04639606446102906	0.8954791265543873	1.86537375215693	0.05566197154992025	0.856979967516425	0.90964476368916	0.1948971284335954
0.712831259413831	0.002573104885235545	1.486930218566836	0.135913253682701	0.05898750248355356	1.031441624741292	2.05173928385661	0.09115815661759097	0.9921530789787559	0.810725122428738	0.1802047997564724
0.7168000000000001	0.08337600047201389	1.636190313671515	0.3683699315245983	0.1254928979974199	0.9598449534744873	2.099518812656878	0.08788009937829777	1.022819919166231	0.7997396675967021	0.1831044223178084
0.7263128561131141	0.0005877657006125859	1.154764316295944	0.08625469448363976	0.06655857487406625	1.210702337357985	2.156029722764169	0.09226161346913475	1.120040751726125	0.7243716176079698	0.1789684987405264
0.7432558844730551	0.0006967492066456417	0.7244710099822802	0.03544334925708181	0.1075014572833828	1.338043451723536	2.223644472208239	0.09274721898773119	1.308350305628152	0.6314819052237102	0.1756142412649995
0.757631259413831	0.003568762654062142	0.3023571651737527	0.004870938932712399	0.1141760294851473	1.529394916319174	2.211127510277614	0.0879142557838799	1.493968500332272	0.5920904966806901	0.1687928671238463
0.7616000000000002	0.1548214262072199	0.3682695782023186	0.02479318309060741	0.07465515042981519	1.531850792043519	2.190728479430805	0.09079518169702183	1.520952618476189	0.5590088965392335	0.1867753174829954
0.7711128561131142	0.004283022697129547	0.4605195741378214	0.003717064726011188	0.02108433563314183	1.696656489517002	2.144138710785792	0.07189208535008618	1.68262771454466	0.5570964388184567	0.1600224447599858
0.7880558844730552	0.004295621933155581	0.4714075666228972	0.00304096789001651	0.02395163533946398	1.810922099716954	2.089225676533674	0.06364040812111327	1.90983152855301	0.5070241933378448	0.1290776376668559
0.802431259413831	0.0139462011718976	0.4700292503260535	0.006145087049031162	0.03577789085391458	1.904366707804448	2.030198841207532	0.07587715843039877	2.095096028176853	0.4717876620875305	0.09949486242627081
0.8064000000000002	0.1383967925960654	0.4917034708053603	0.02672998649524327	0.06233531631360556	1.890014342564069	1.997853460287391	0.09213779047474624	2.10147340079899	0.457556022796199	0.1305840900771713
0.8159128561131141	0.03808389746494268	0.4605883484287716	0.005276786743626083	0.03759141053690929	2.00707415156896	1.935362105479113	0.08258175820498614	2.229693320852135	0.4354953227848259	0.07261827407950872
0.8328558844730553	0.1260028191746123	0.4244820801059497	0.009334960456779839	0.04077710495946363	2.100039857156319	1.863534045536572	0.0899262361904638	2.35969547358418	0.3886682377905046	0.03903103048650269
0.8472312594138312	0.1834280345780988	0.4358495131534221	0.05585159184513699	0.04929573851914881	2.138253209228762	1.787396466469229	0.1202587274830362	2.431277501837677	0.3582197280771515	0.03660363111804532
0.8512000000000002	0.24597307824238	0.4255525827468327	0.1391089901722378	0.06679757681150633	2.141211607871765	1.752990031135674	0.1400921326800662	2.413129065929089	0.3615698099758529	0.07848016090483245
0.8607128561131143	0.2499159191414107	0.3803624426040004	0.112370279880599	0.0465663415076758	2.158076986660873	1.685692515660008	0.1401537172606133	2.458504163319299	0.3232819776526679	0.02866758793011037
0.8776558844730553	0.3193135454002203	0.3124635376730209	0.1768087357736512	0.04501248877921427	2.141281643157002	1.582742979931923	0.1740372262444563	2.461097448070794	0.2748097749643632	0.0247034673776545
0.8920312594138311	0.3426044266031046	0.3022267421220057	0.2155238554867251	0.04763549768253483	2.08971341104792	1.46198256702692	0.2253687472669466	2.442924118585424	0.2417480176468381	0.03822416841155274
0.8960000000000002	0.3597334869900495	0.2894025792571426	0.2476532926766231	0.06190632200527091	2.080351656863755	1.427128901854085	0.2436881518253022	2.427930639313342	0.2508688472783618	0.0782078693907593
0.9055128561131143	0.3529821607742561	0.2257531454964177	0.2537126432467121	0.04189983891091398	2.034053143404683	1.32295209534806	0.247065125344812	2.422083670372758	0.2049888797747714	0.03191904448506921
0.9224558844730553	0.3336206486808387	0.1579253311851812	0.2640774676605817	0.03648943244458724	1.938558905456313	1.134470009967257	0.3042611915120226	2.390766608848152	0.1681736682889081	0.02522175504000757
0.9368312594138312	0.3093341413894244	0.1542514268213573	0.2383760572736424	0.03638981803434049	1.840132327686308	0.9829299896623124	0.3579144769970863	2.344017274118869	0.1482231971160815	0.03179828098237891
0.9408000000000003	0.3211657527388141	0.1438981660348606	0.2526281396366539	0.04793946910422431	1.812467281961832	0.9540606493279745	0.3669598243546925	2.319531019656213	0.1725524730113772	0.06717733644672563
0.9503128561131143	0.2882171740332869	0.122501841841375	0.1828872355017213	0.02847317029434571	1.740342385135738	0.8372496455115294	0.3968651146928117	2.300562962405842	0.1337069356184557	0.02060235476674599
0.9672558844730554	0.2819562595015759	0.1297621191753509	0.07159418466673806	0.02197985019876914	1.602048024323214	0.6500934304611884	0.4669394536886831	2.22089895747383	0.1313853938881957	0.01758408133192901
0.9816312594138312	0.2801566603337183	0.1513105580726766	0.01083539195168814	0.03217566774657588	1.481322263631929	0.5175758773551528	0.527223336053166	2.148163611785767	0.1554288888727227	0.02699959235224814
0.9856000000000004	0.2806262742021275	0.1404475527263109	0.02133761852935656	0.115906904939072	1.455017837917909	0.5225681736492821	0.5598217986293985	2.099516594538543	0.175723731731833	0.06002336889884141
0.9951128561131144	0.2497964758767167	0.1197233425985447	0.003228697773806743	0.1347168929606566	1.3830019377289	0.3992590275065204	0.5952560830010425	2.096873334154964	0.1683614584223836	0.02157714028435187
1.012055884473055	0.1918632148977154	0.1049304445839567	0.002693369628671505	0.3259929756307987	1.250468319374265	0.2406624377419195	0.6688732341605572	2.041786995379304	0.1970974653842079	0.02350424183158317
1.026431259413831	0.1358634682363116	0.11238990511825	0.00583214113705921	0.5218621607644991	1.144266239756553	0.1581517048897423	0.7125514126353742	2.024470073812618	0.2395556487930461	0.03251740002882464
1.0304	0.1399493065438229	0.1028621538805519	0.01949997067903109	0.6204399627908899	1.107142090452575	0.1808804329183733	0.7467686774749174	1.960703304552274	0.2410181802455043	0.06988023846355773
1.039912856113114	0.08055667139462665	0.09216877697790959	0.004197914649232359	0.7009316322536447	1.059660534841833	0.09427931857536274	0.7566196558978397	2.018941135387908	0.2477164879577805	0.02605576712628199
1.056855884473055	0.0301896846895442	0.08848639227289201	0.004718047224904431	0.9087655058067581	0.9576117307943441	0.08646940540185354	0.7954838644797446	2.017818782953577	0.2481338670016653	0.01980165179828663
1.071231259413831	0.04067716147290757	0.1063750463432047	0.07367323876852616	1.001663196020246	0.8839777295133375	0.1000740735549401	0.8200207213543038	2.048522257391203	0.242480619357984	0.02057666179026008
1.075200000000001	0.1060616123152025	0.06279971631892334	0.2792141596902367	0.9507719993283237	0.8273126744284713	0.1311260320023608	0.8800353713614593	2.015478890548261	0.227877108308884	0.05775939265623187
1.084712856113115	0.0432957685329436	0.08141638990740763	0.1024165424613823	1.11712177224732	0.8382237908494936	0.1105119663271932	0.8743348981711447	2.076061660434231	0.2053543579736301	0.01023978982535478
1.101655884473056	0.05632490983784778	0.03880376559276222	0.173928497591195	1.230546656608946	0.7949049366459287	0.1710678467890787	0.9582637763412167	2.159549401104433	0.1551802629170993	0.004909474552969861
1.116031259413831	0.06690621721199987	0.01596108657461137	0.3105805472067384	1.29617613073389	0.8097323861816079	0.2276331187932863	1.093070655915118	2.215459125773569	0.1253234653303892	0.008491996889982367
1.12	0.06975171146870275	0.01191706682122984	0.3589548062347738	1.30914735525393	0.8230277171721658	0.2440623798872217	1.139440969260778	2.228435555152044	0.1192106523404588	0.01080510333482199
