DataType=double
version=3
OpenSimVersion=4.5
endheader
time	pelvis_tilt	pelvis_list	pelvis_rotation	pelvis_tx	pelvis_ty	pelvis_tz	hip_flexion_r	hip_adduction_r	hip_rotation_r	knee_angle_r	knee_adduction_r	knee_angle_r_beta	ankle_angle_r	subtalar_angle_r	mtp_angle_r	hip_flexion_l	hip_adduction_l	hip_rotation_l	knee_angle_l	knee_adduction_l	knee_angle_l_beta	ankle_angle_l	subtalar_angle_l	mtp_angle_l	lumbar_extension	lumbar_bending	lumbar_rotation	arm_flex_r	arm_add_r	arm_rot_r	elbow_flex_r	pro_sup_r	wrist_flex_r	wrist_dev_r	arm_flex_l	arm_add_l	arm_rot_l	elbow_flex_l	pro_sup_l	wrist_flex_l	wrist_dev_l
0	-1.933393360962127	-5.961747515969048	-0.9729144751699175	0.7850609589390236	-0.8943448818367639	2.473896289590244	10.70916108268763	9.681112080707841	-67.68545561149445	96.59275005678003	2.512657127188725e-13	74.7257901311319	-10.95497886615058	26.70536100590444	4.425182845448883	12.08879360320816	-5.161251483379001	-4.056810050270082	-24.32918936228001	-1.140600133795222e-13	31.4073209881029	-251.4326437170204	-112.0657221888992	68.8758742935926	6.639782490053117	0.4934457951884355	-3.079084515975405	44.69817598685377	-0.2201395849351697	14.87349377436163	35.78766051190721	9.097922977115988e-12	0	0	6.723008841912542	3.118088837473048	2.604018577634149	-11.82902786667384	9.097922977115988e-12	0	0
0.009512856113114032	-6.610401828032113	-14.55742767416002	1.503101186965267	0.4136376883033498	-0.2859836271194014	2.09191338428394	9.560607194576441	17.72853981865833	-44.56383047299918	75.92717064050093	1.541713083588347e-13	73.8546280888566	60.99805603295316	-14.99081611943724	-1.87435375459265	25.99848680278273	-15.72752817985691	15.52264894119257	37.66716802681905	-1.166247080301655e-13	32.17969159083218	32.18705586978281	-33.98191053493434	20.55690159896782	10.50400254315801	13.48853409442664	-7.819739250608292	56.02568346623043	2.484344831722666	42.6340881799346	52.28230202691543	6.178028807346909e-12	0	0	-11.86916224096494	11.73241094128822	-2.690750125847723	-40.00998716309829	6.178028807346909e-12	0	0
0.02645588447305514	8.663869396765241	-10.49881318563536	12.4474527287469	4.22005677781029	1.237467013248638	-0.05622300714188676	-24.16731274338416	-0.09268971422456795	7.494486127369258	31.02212780461942	-2.340277279284687e-13	63.42599325792921	-34.71542716092899	-28.95666243645767	4.627678748274196	-3.669811488306539	-11.69015654283716	19.17138784174384	15.51178848375644	-5.001801976351185e-14	39.94623260663251	-15.12649358535251	-22.14542534331743	-35.17303578526736	-2.322266028557359	14.85533323062705	-0.6347949205203416	-43.88390041763628	3.141209976811441	17.6554972212644	-41.12349611764888	-2.134401930755797e-12	0	0	-41.73549619537783	6.01384896537573	-5.678693210754303	-2.554581007875725	-2.134401930755797e-12	0	0
0.04083125941383081	7.954249504835163	-4.021469068627725	7.578445836293934	2.508778727664082	1.193044537534127	-0.02899794443719416	-18.88803252746483	-7.564660935225599	61.47068476384631	-25.74215436765697	2.829944226410011e-13	50.4015670086437	-67.0462137290431	14.27390604211924	7.631635859402754	4.348203492189719	-4.171560993264691	17.03100602482154	32.90241893160235	2.416628187771853e-13	45.27898507234818	30.288715841917	-16.37386328556823	1.99493817579727	-6.504186255784735	7.040938854754749	0.6018083919018373	-28.09067957119144	1.201722891891592	-1.635923683768031	-42.06553409985013	9.149636257153693e-12	0	0	-31.56045563121688	1.72728487767275	-1.406389051341917	1.924162429803643	9.149636257153693e-12	0	0
0.04479999999999995	0.5032656081522875	-1.644288335171973	4.921104430027355	1.271092088815419	0.9844495154223637	0.5250620442452122	-23.45625836775602	-4.967313385863237	95.31821379628049	-93.97026313542703	-2.244387040727489e-13	45.99865966599285	114.2415219112358	44.98022884242517	11.08904834545823	15.09399999307846	-4.779711338968657	-5.186815789157288	20.26077204596386	1.828217991167295e-13	46.88267116023037	-62.55168628255713	-17.9038382666421	16.18881189156181	0.001488939657868116	1.964076637163559	-0.1580383278699233	-4.116726014390832	-0.8948947964251137	1.179087131943272	-2.241161713906195	-1.738488141361145e-11	0	0	-5.136761602369162	0.6465327537548629	2.251128901994256	6.850828743543596	-1.738488141361145e-11	0	0
0.05431285611311398	7.277026278651049	-3.420425036100076	-0.9210646092158046	0.3123062015005083	2.891260388670092	1.056575092888767	-11.50286806617626	5.216491607117548	35.74955032420326	-7.357468205143805	-3.788378514821488e-13	34.84408492191351	160.4305484616531	51.01480221560463	-13.73121682449537	11.79068056650223	-3.614462983465483	6.279791909627752	33.57883267223922	-1.106710825387856e-12	49.88574893864686	-22.25373943968543	-28.15818711144881	-22.9338736752578	-10.05989455960484	4.818359886231976	-2.183366742163891	32.93630370269982	2.530789950759444	-7.019871652718763	-42.53379521408845	-2.443632216186871e-11	0	0	-40.1546859150363	3.544079241121786	-3.209622271809446	-11.45681726910215	-2.443632216186871e-11	0	0
0.07125588447305514	3.604590400915571	-1.650269024083184	-12.01269127837243	-3.032206663077454	4.556621772181639	2.582185203374401	20.20504716389993	17.06282498777612	21.57041830888943	31.51851550311119	4.903400326252798e-13	12.99818594767666	12.75551701725546	-24.73845113374644	7.149425505640182	26.5748561676231	-4.109508563175501	-19.86854955330237	48.6443338605763	1.16922439315982e-12	53.16492693390302	-31.34180439410854	-14.652489515188	-31.29959975519838	-11.96395174179186	-0.7531772038633289	-2.689772955599719	89.4676708365152	1.375029305495596	-24.54790191422584	-27.31638345000326	2.10112211017545e-11	0	0	-45.66814156196793	4.473813155288175	-1.168215725628143	-35.83071348030037	2.10112211017545e-11	0	0
0.08563125941383082	1.103954436814488	-2.405240703588079	-6.563787394781512	-1.797166682518601	3.45485032825969	1.82344061411388	3.313574663818318	7.534713181742449	0.3501959486973192	-6.321978967765896	-5.393773103087394e-13	-5.390508099525595	-41.2913425560147	-7.686267794133421	8.737447853427714	27.30684873533671	-5.478503491319691	-14.0998070788684	47.48437494287465	-4.983791341953141e-13	52.76202292256221	-25.48571357437471	-9.926018012563219	1.79870155522255	-4.415571211284644	-0.8161902968577097	1.612702527837155	58.55284098869512	-0.2320781344471592	-14.06486417229263	-11.73637868264537	-3.30897250724838e-12	0	0	-26.48553170408965	1.269996901024534	-0.247932601509507	-18.99135562444933	-3.30897250724838e-12	0	0
0.08960000000000001	-0.2686028609009435	-0.8540690903416541	-0.2191872640836521	-0.7501990516253334	2.71504138172591	1.321532924679977	-3.487311913501324	2.151254292513173	-4.603820094974214	-9.266965154203287	-4.912392548189072e-13	-10.10413958021312	6.986122487668746	8.85626122117452	5.942184467229158	24.85473492015387	-6.356111581574783	-19.28566052789199	36.24596988099702	-1.333065247451099e-12	52.01552822087918	-51.53125543508239	-2.837014872818909	16.05585066057351	-0.4288998152054633	-3.137939043941779	1.639618213739449	19.96565185357608	-1.313206445321617	-2.390754598072911	3.191801563433946	-1.073454104395527e-11	0	0	-15.42962380614947	0.06423574064923265	1.220623875485827	-6.010935727675477	-1.073454104395527e-11	0	0
0.0991128561131141	0.6607763841741054	-3.728448848576067	-5.832407613129179	-0.6453973570087782	2.719101925967672	1.359827035504022	-24.27676556139613	7.706933665402723	-1.143092384706126	-49.6422127456909	3.46461886794922e-13	-20.23669676441391	-20.76787214653305	8.863706985269101	2.579694143452368	26.64301711448825	-6.000736197587235	-6.010861886990041	45.04278798079333	4.389729098222044e-13	48.90980206611009	-36.14211926183256	-18.44655935966247	-19.01485349688257	0.6174073055874116	1.093951447270858	4.105179167494102	64.96884502540682	-1.138696902847309	-16.92168316442319	-12.26404752947478	-3.240627536630766e-12	0	0	-24.27737306149687	1.801623682849369	-2.151461916514551	-17.59764496733855	-3.240627536630766e-12	0	0
0.1160558844730551	1.183794293055171	-6.113476978551686	-2.200593842666533	0.4773181089395874	1.701984149883412	0.1300255231120976	-41.78237689832228	7.631667627331336	-3.433668916623368	-78.50769567599781	-8.293362116601324e-14	-32.6529334059982	-37.33053446428929	7.276648638976038	-4.835367841126493	19.63761810276638	-7.770719301314349	-3.067474333531033	31.92457589590666	-4.004079746548089e-13	38.55577839399867	-35.85153618491906	-20.94158825012622	28.86285968861925	2.783070107721381	6.953281790032641	8.671054853007844	26.39314255968287	-3.58346684257133	-14.70233466142925	-1.449905347176172	4.322129976732427e-12	0	0	-16.25701851313512	1.04362377406061	0.3273729761038562	-24.24619937827816	4.322129976732427e-12	0	0
0.1304312594138309	1.197600312121874	-5.269618498389489	-0.7700020021589447	-0.7668912303931542	1.195147134837814	-0.4508861310962875	-22.79065501562404	6.261994278002927	0.333316021949793	-45.638027567186	-2.777609651312616e-13	-36.3839484013078	-20.96370143853339	3.224882288159069	-7.128334707408753	23.4078540711568	-5.455705920887333	6.81268521841524	37.36571283240443	-3.121486401088965e-13	25.14985143560341	-8.275755321853623	-19.81689314843648	38.9954012408046	-1.264327658454037	7.693599060467221	7.742000293981132	11.27083972133551	-2.66330396565111	1.465267337738775	10.62064503546624	-1.315114007299679e-11	0	0	-18.06518158824374	-0.2837192257841164	1.742315229763899	-25.17057470678542	-1.315114007299679e-11	0	0
0.1344	-1.201862527867253	-0.006084731282112177	-1.309623984128539	0.2202966750914266	0.6377444406013606	-0.3284065705204504	-11.57422635901069	1.950375043531976	5.410234217592686	-24.44143846521261	6.492406627009934e-14	-36.31855189737697	18.55952510207915	7.625020107733107	-0.142454186396928	-15.78033895665199	-2.677968053010247	-33.69330782057914	-47.49067266777815	2.836981181366146e-13	20.82518086385643	71.95917478853258	22.99620763156171	-5.029500382790687	5.084853858053926	0.106526317868938	0.9678552779216958	18.41929891668834	-1.361314333091578	4.023335719466548	17.05516045409281	5.635065234096975e-12	0	0	7.672419962079234	0.4203630709098569	2.803164432094893	-3.527038929558839	5.635065234096975e-12	0	0
0.1439128561131141	1.289782161669866	-9.839828423411999	1.357820168753764	-1.775179645776786	0.9169350462309285	-1.052829118666195	-5.860276991743089	12.41624243072609	8.208437302029786	-14.64060118930406	3.172124533823711e-13	-34.46223708466773	17.62562302529654	-4.374897089351553	-22.4547222253704	28.99312029473153	-7.534447421046451	21.65040275004788	46.23340614271147	1.035093814892806e-12	9.646244390746064	-72.41219717869126	-45.88307282994299	84.63613126488323	-3.786110678950019	14.62131532157998	8.733539447415666	-6.108589141289954	-4.531596684987795	10.37224394049046	19.87904158507958	1.369183953909615e-11	0	0	-15.67838749513735	1.287638061345541	3.859754234180535	-42.61436319835644	1.369183953909615e-11	0	0
0.1608558844730551	4.654462740383784	-6.331026336851764	0.5437666142068043	-1.866126523358861	0.3658882351367277	-1.209332314551521	-4.757627545952406	7.888448775404068	6.373452035594116	-11.30124321645464	-1.504792806681425e-13	-26.70207174524888	-26.56545031032525	-13.52232757541608	-12.91246419177343	10.30433119567078	-8.177807245607394	6.091013445571726	16.95695773242889	-1.297337784526734e-12	-11.70364187784575	122.9706806664939	36.83966447861327	31.7838641703587	-7.76109240623958	10.06871062738617	8.05174588188304	-11.53287794217768	-8.550818768917033	11.00043970912954	51.70918728836719	-1.731690064947275e-11	0	0	-10.10208940371896	3.258715046563044	10.09898763694382	-62.88927781099235	-1.731690064947275e-11	0	0
0.1752312594138309	3.348239147858488	1.118331599586955	1.003612967731564	-1.800581260817416	-0.3152878009661642	-1.383206654358926	-0.2654109832498488	-3.793783227174575	-1.05524980944006	-2.948109813835243	-1.997982596018153e-13	-18.01726122090442	-24.64259748373165	2.546304889981839	1.679035753461754	-8.135705262408296	-1.975209610521731	-10.39562056621673	-26.02257214517825	6.521775604189309e-13	-29.23124917750585	70.14470083718574	23.56391306093681	25.02336779382103	-6.827177591860673	0.7343477927927848	3.568324936438481	-0.514488345018151	-5.918546788573572	8.054534292418211	38.33130273270648	1.379126399509803e-11	0	0	-6.849676334090075	2.227939451652566	9.008087258261066	-44.91542304249977	1.379126399509803e-11	0	0
0.1792	-0.4954743551789637	1.444049472564116	-0.5278642079929667	-1.311782493910672	-0.234407084180362	-1.028058403340136	5.348948611928703	-2.615777962218101	2.614715942389973	3.954723437504868	-2.872766684233615e-13	-15.60715560690729	7.658117470134441	7.998213810201522	2.821868083216939	-16.44652079605805	-4.878731159561848	-21.54024131085874	-75.99236487539886	-2.049920278287115e-14	-33.70310354363505	-86.39737537069216	61.27605506610775	44.6830834420395	-0.8215191210493211	-0.2497467819785388	1.437159480082412	12.85923111282027	-2.193930861025445	7.23288411042004	18.11821709950288	-7.672437594031983e-12	0	0	-3.680215941373997	0.3949175774111324	4.513066002188689	-14.79484556841224	-7.672437594031983e-12	0	0
0.1887128561131141	4.166592911024128	5.020708606611803	3.36140567149664	-2.07515291149948	0.5280637288657981	-1.924094520486635	0.1276100647321794	-8.630012725811103	0.3162006590128161	1.911673686421286	4.613934080339862e-13	-10.17301469578312	-7.790051111528133	5.718253583196251	-1.828426759883381	-11.99371032846319	6.278115503907845	1.989990194210952	-85.25417484284978	6.165922916921594e-13	-43.46875882022394	-94.84631222173503	91.75004237213328	84.2675491178569	-8.813763888644669	-2.521079225010491	1.928834782448553	-1.780648237913702	-8.734568272892592	11.37804450171637	55.79798313849662	1.540925843428335e-11	0	0	7.226617180381429	4.616761544010188	12.54746449932073	-55.35185862498376	1.540925843428335e-11	0	0
0.2056558844730552	4.345142303743772	12.64245200835335	6.300404720659028	-2.840555200233134	0.5400260554183296	-2.642415735772607	1.477133754836894	-19.00756922660031	-4.371302430320547	4.566485245939221	-5.651013489616996e-13	-2.669032167074058	-17.96796160016241	5.456259988805363	16.51139110445227	-0.2073896871142935	23.58788736314859	12.39701471851696	-61.35667685639867	-4.480522105324008e-13	-56.69903233444172	18.60297047294939	5.543515097723635	10.1678971149881	-12.01915177973079	-10.00821706663594	1.165355811587865	-3.274541920368147	-8.827830061238945	4.964881505899664	49.01563931765546	-2.055213530076218e-11	0	0	8.207263184570257	4.199349909053751	12.89126294628669	-63.03844028797056	-2.055213530076218e-11	0	0
0.2200312594138309	1.695123171870843	10.23309358837471	4.916630922975146	-2.690851488262037	0.3038643770743143	-2.377702668210679	5.420132001465113	-14.72557147706675	-1.242558276849863	7.578598028133535	2.980368499957875e-13	0.9060252219074001	-5.902274733413442	3.14652313319424	15.88317374001298	5.749412863449118	19.96478143060306	6.331160493460188	-49.69430613290226	5.46184552774482e-14	-63.2712543696707	35.82891339129517	2.562691793592744	-20.80282909809392	-9.274821477571662	-6.982215267210993	1.421307437555103	1.144202335140459	-4.317125221524984	2.866719613290513	18.04391110851652	1.491600092204611e-11	0	0	-3.485362566278423	1.068938910337242	6.845861906304927	-38.93221266769432	1.491600092204611e-11	0	0
0.224	-0.6428635956250452	3.642065355246959	1.095088388417037	-1.926265424893567	0.1751179701047522	-1.925145549746275	5.818415798861921	-6.028802448832551	1.732526531426361	5.419259259374897	2.425419260578575e-13	1.439634851242128	8.15464829265686	6.393994247710076	7.035891456080511	-0.9712634374439908	7.776900253242661	-8.091823350204013	-65.27955176844348	-6.698530827943424e-15	-64.35500540453573	19.90693714976857	10.34078439115918	13.20562779288052	-3.638099020939254	0.8574286658433294	1.858391763539434	13.52282280559963	-0.7553379471080039	9.115642855520722	6.44187687773647	-7.472757353395628e-12	0	0	-6.107435046599187	-0.8064855773296352	2.906592113591815	-12.95935961734056	-7.472757353395628e-12	0	0
0.2335128561131141	3.126160931747225	13.75640845692449	7.930210959492568	-2.829745887561903	0.294688443527378	-2.768321571436775	3.06412835262723	-19.01348261760874	-2.030203743569825	7.597914785251597	3.080894787086279e-13	1.997900265600094	1.486211633825985	3.939447091417194	15.58230372049786	4.601120243396452	26.64610675919474	6.162253059438902	-47.05433595315213	1.134698344014576e-13	-65.80544690659019	59.43348320598912	-29.92374530208259	-48.08630980053859	-11.4287726338784	-10.66326519350065	-0.9125919783879857	0.6647499608335359	-5.985661882391621	0.3873841291774394	17.06612524829218	1.133917582165197e-12	0	0	7.92161862972357	2.621391580572076	9.226565204325242	-44.9793767563892	1.133917582165197e-12	0	0
0.2504558844730551	2.402186997984736	15.74858519810986	8.583934962170542	-2.458390622449996	0.1950495171458104	-2.447165699334624	1.289788865080423	-19.78254719330826	-0.9965635016698116	3.503613105681883	-2.136322862682252e-13	0.9406986170477298	-2.693347694271486	-2.166076778859934	20.39322811512704	2.607650886692826	26.42240902705066	-0.400219148205224	-48.14836414393971	-3.545528874670064e-13	-65.21308199111697	-0.3474720966643616	-2.349789262527477	-76.7653320765926	-9.898069110996325	-14.147711658326	-2.491134470943483	-0.7654814237218162	-5.35206926545627	-12.32698062571415	5.069016922576774	-3.338074605549387e-12	0	0	14.48282258236978	1.739521428873597	6.89082278011877	-42.42219851768947	-3.338074605549387e-12	0	0
0.2648312594138309	0.09472273548401652	9.247287079316365	4.273250135542732	-1.873248085371538	-0.009457497453032482	-1.66483191629173	2.657231661233285	-10.59119260801095	2.063409021918954	2.043274843779022	2.751656361433789e-14	-1.337611005778304	3.617257906630095	-2.392707783289529	12.0117067663856	1.346975807822901	14.37225011366506	-6.7987306614215	-46.86977628482574	7.57938748774407e-13	-62.86949697809679	-5.364057306285993	44.92794725874454	-33.19786666758439	-6.086504963455281	-7.5043347080803	-0.9540759096858054	1.827836322816481	-2.177219032859627	-6.801063831326291	-1.512275799218587	4.646318583644907e-12	0	0	2.897274083304694	-0.4139965580951431	2.869189743510361	-24.58166221355548	4.646318583644907e-12	0	0
0.2688	-1.052575593983515	3.401828612623341	0.7127847792688105	-1.392535600558317	-0.1268660658377796	-1.350047379305259	2.118553082178686	-3.860671392435813	3.185074347740409	-0.1948081934965078	4.364615171506857e-13	-2.100157466584419	12.35654733566948	3.969927463908176	6.134812409729893	-1.936649238136854	4.411100655936295	-13.87894796324596	-51.75629310443566	1.440919931521463e-12	-62.11797890681031	-9.883776146305578	43.14013552213662	5.495404681234731	-2.926677864482396	-0.3829723059411339	0.4311491133752448	8.310261531557835	-0.545416784923301	4.938879695475411	1.176603620599254	2.435564970159574e-11	0	0	-2.602728409557154	-0.9677860582157467	2.376081737250932	-8.937268704025474	2.435564970159574e-11	0	0
0.2783128561131141	0.7585816532417469	9.876847438714428	4.99094553968932	-1.695119551385863	-0.1073311994291903	-1.623219427170446	-0.408184843702641	-11.8360601632436	-0.7711296379277979	-0.8100426852387681	-1.023602932053192e-13	-4.055731191897802	4.57535430095071	2.344163476146323	10.45094504257387	-5.31146965704613	15.14996663262275	-10.33014071071441	-52.7147674269236	-9.363542029717943e-13	-60.35797563822945	31.97372295315684	11.80952607021541	-49.67157523816428	-6.083175220965868	-8.674330663427686	-2.526489138620266	5.583693201698605	-2.543293110717826	-9.928204657608214	1.178986678090041	-1.186151088299428e-11	0	0	14.56139040741434	-0.3455152466278076	2.53229307111217	-26.99460240428893	-1.186151088299428e-11	0	0
0.2952558844730552	-1.453868053463375	8.065984654881255	2.813552143573928	-1.098941742165167	-0.326893655698782	-0.97691973955642	-0.8383637344958155	-8.996697718167649	-0.8338027475220624	-5.093658169954523	1.160311171916618e-13	-7.630451827160346	0.9035936075792641	2.411610540024451	6.333379927341355	-8.06599401520476	10.01137767815264	-12.69473032360851	-54.51116938690137	1.018062875129354e-12	-57.98432196366767	-14.52868575645994	20.20945416709251	-22.54448248860162	-2.052216665650348	-8.327100687101968	-1.871245379658697	3.09963370627187	-0.5547944126294133	-16.40191752739327	3.411245152171064	1.349810484360525e-11	0	0	15.23422777603573	-2.778373571132562	-2.761680986377534	-21.80883625852442	1.349810484360525e-11	0	0
0.3096312594138309	-2.708824724729136	3.485015689811265	-0.2052181686156795	-0.6838483262182887	-0.4780462920940123	-0.4571959605821644	0.09955351792891953	-3.086433357603979	1.025173515711396	-5.102428629258332	-4.429633900508645e-13	-10.33735255709827	7.623492746459364	4.847957113983425	2.396720267714755	-8.580174461107163	2.869276232068627	-10.37243550201759	-50.1812528666374	-1.086542724058052e-12	-57.0453453070407	-28.60330794719293	49.66512719582666	9.382463716897554	0.3249778578862726	-4.190249445861091	-0.1847222953843114	4.391366726300557	0.5135854751180244	-6.998184345291786	7.280943729046731	-1.115292881221618e-11	0	0	6.360619083422335	-2.991734580561365	-2.691755203335749	-9.153975625772267	-1.115292881221618e-11	0	0
0.3136000000000001	-1.930680982727621	0.9085875651390616	-1.092030848920838	-0.4894877964559718	-0.4452670255875446	-0.502139705846175	-1.083875108466356	-0.6217596540375798	0.7781933585820067	-5.392150263759685	-5.495405988065337e-13	-10.97824959260326	11.1711813373586	9.045806348954541	3.85039145882884	-12.53448230331842	-0.6337307742329816	-11.91428214598746	-53.69762040430457	-1.48136303370846e-12	-56.93012417420319	-20.32355915344203	45.86305847853114	18.90101702682956	0.4660761030766044	-0.7356954349428158	0.001251928851277673	9.71126093393894	-0.07201743561296836	3.256222936294197	7.530195808537358	-2.613399225561452e-11	0	0	5.812037356034099	-1.37900756779598	0.979421735127679	0.1625867246953709	-2.613399225561452e-11	0	0
0.3231128561131141	-3.838381301229383	3.168620586010957	-1.901945875536252	-0.6017881805548598	-0.6634955041352899	-0.3718330201622067	0.2005920592936903	-3.220104367018763	0.08249388788187595	-7.312301397560999	4.365845423404524e-13	-12.25579662922216	0.4868477491959116	6.138641149489544	-1.683093849598992	-12.56175433479989	4.283305127085518	-10.36763851883983	-53.61433486576527	5.607552630471315e-13	-56.76810913575684	24.90651051700229	14.4665754863065	-3.631830091171473	1.843411262078329	-3.896349732749554	0.2361011085313799	9.038776395274517	1.574068135703641	-8.349684646763109	14.0775097021255	-2.49183161828252e-12	0	0	10.64342442297334	-4.850956525355262	-6.077132046708896	-8.829717167028722	-2.49183161828252e-12	0	0
0.3400558844730551	-6.305596937090161	1.474561792100931	-4.3627789866457	0.02535548857550557	-0.8097696339566252	-0.05597857828891642	2.06603583671199	-1.495325251977621	0.7405880722675366	-7.925746054913219	9.727580438277361e-14	-13.3693131742015	-1.980423153814254	6.695265529293821	-6.764586863317628	-12.41084742481595	3.278204151561979	-6.190243901938555	-51.97847210099293	-1.394332592074889e-13	-56.05718417990808	-21.1840203591768	-7.579618926690344	8.620326352520394	5.560509245402656	-3.131529484704275	2.956027245049913	-1.126695607110122	4.279941652924882	-9.528017925130822	21.06619817149769	9.068724023028927e-12	0	0	-0.4984087984019976	-8.021336385774724	-11.14586014910738	0.4067403331942758	9.068724023028927e-12	0	0
0.3544312594138309	-4.887346711148185	-0.145840115364789	-4.299990670763253	0.1112172503749731	-0.6517544318942154	0.007736137438061605	1.986287282542036	0.8353478284274218	3.125999367524972	-5.310653962939703	-3.81846958598561e-13	-12.84692685003577	3.779516877587254	4.289060426209851	-4.469703467742844	-13.27114286311995	1.621884808552965	2.366300271428941	-45.6418996424509	1.504468096980846e-14	-53.65008546312976	-37.66706692817834	35.99401455909349	13.7085970101294	3.935730449088737	-1.918438833362582	2.769073188877357	3.973022460276308	3.170449606391181	-1.6811773288234	15.97582847731925	-7.733412702616286e-12	0	0	-5.239116328316832	-5.655054772785626	-6.538945064434844	6.83025940189008	-7.733412702616286e-12	0	0
0.3584000000000001	-2.679276805053961	-0.9981951790497372	-2.957992375991858	0.05511486892114559	-0.4486480853128858	-0.3294421734785001	-0.6954646140102523	0.9807036503641307	0.6622439856752678	-5.378283438699002	-1.631664077800994e-13	-12.43433695720882	7.759849915394327	10.02551134962309	1.44201650210393	-17.57067130446771	1.549691864383147	3.686948447612483	-49.18950211482463	4.172921668397506e-13	-52.48615083582515	-63.23814038036384	14.02380195791627	21.24355205666089	2.275612577795772	0.1345084335068196	1.250248189706367	13.44500688456924	0.906914799721787	6.119251212665889	12.49339629465564	4.765700178201309e-12	0	0	2.988525414048945	-2.438293423195186	-0.7900387749826752	5.683978718776558	4.765700178201309e-12	0	0
0.3679128561131141	-5.611424071540569	-1.02302816124895	-7.396601304853051	0.5088554359750901	-0.7552018223273254	0.2490971766737002	2.921411183679908	1.844887786322359	5.709530314788468	-5.369161842261944	5.547872765457599e-14	-10.95408058658447	-4.087206664549276	1.894999429275515	-13.79121817437595	-15.49159987759809	-0.06318409699153715	4.100348594231424	-44.44945507458876	-3.519920653657562e-13	-48.55779775033454	-26.67020120474125	23.80379310824248	-4.641270180892981	5.056001878644998	-1.283728210272237	4.417801160495395	3.191979439047909	5.203323352653584	-2.278446107025828	21.6502432376917	-3.268378925900211e-12	0	0	-15.16164935386882	-8.203017965170085	-10.32600780406472	13.55042786252343	-3.268378925900211e-12	0	0
0.3848558844730551	-5.193866145993787	-3.208475174525477	-7.300534937777652	0.9733067598295149	-0.8541314321703239	0.3033237774233692	3.3505773546654	3.04143930770599	1.664349733511092	-2.653376915105463	4.827615416211246e-14	-6.631269918166836	-4.431196846216341	7.560597990594156	-17.86760202280941	-14.55303206222107	-2.595140168940357	14.70290732075931	-37.46952173925738	2.957218771561081e-13	-36.82025192616998	-83.20063584238331	8.119672953951172	-9.549107409801074	5.410035885263466	0.5232927555617053	5.65192899139366	-3.580655562846967	7.606410354821785	-2.401332104032106	14.43405256436097	7.417358925939301e-12	0	0	-25.9378521313423	-10.00215194416312	-11.09265795889136	30.58178396477232	7.417358925939301e-12	0	0
0.3992312594138309	-2.489642487646488	-3.006579558333765	-4.124983759922517	0.8205763195455814	-0.9050830862418657	-0.1739550782229069	2.387142436002682	2.761165938040321	1.21603536192635	0.9612676167197893	-2.949379513733965e-13	-1.488745530675544	0.1888166364551509	4.636018787792491	-8.960380125010436	-13.41130079184235	-1.107821884676721	26.32255869415851	-20.85308175462146	5.758027216111365e-14	-21.67919010815563	-97.10572435456331	3.321986951302076	1.023739202498909	3.021306462622686	1.396370798571631	3.351417062661973	2.771383998255139	4.829663148593194	3.368699648926704	6.141801243709569	-7.723059617315422e-12	0	0	-13.59335222748704	-6.19324279053283	-4.490154371119757	28.33165065755507	-7.723059617315422e-12	0	0
0.4032	-1.115221589294633	-1.534461497219295	-4.156918250114812	0.7265129805905399	-0.9305699047025908	-0.697601396024818	1.037850886450066	-0.3512570960363103	-2.541533215149524	3.121114739875417	5.571533400877731e-14	0.1152042244514262	5.106707358660744	15.03509372816415	-1.48210382474157	-15.57455094782906	0.7540883143042239	22.51634929374433	-13.26195884486144	3.308904384067429e-14	-16.70153871637823	-63.19181992093772	-1.725626767731242	14.96529977876225	2.504812532080432	1.974026038281721	1.706212670549813	15.68972652959349	1.697581151845517	10.15612114033204	8.333186749363128	-1.351458853975542e-11	0	0	0.03893829279600092	-3.058894891452698	-0.3003394921373889	11.91544713104676	-1.351458853975542e-11	0	0
0.4127128561131141	-1.589747529239238	-5.698516759401432	-3.887144013394686	1.114441495907427	-1.217928745064124	-0.3385201991723724	3.144467692509222	5.853456644988849	2.469906473724798	3.431226579601985	3.759518915849774e-13	4.179033210526293	-2.328524389850184	0.2875848396121576	-15.98969916870016	-10.41822826114482	-5.196405987378148	28.68440886475518	-0.5117966361100071	-4.631744772649245e-13	-3.583738351949265	-47.06588558689228	-6.928491099119764	-26.21097762681062	3.923870795116744	5.553950581151177	3.991110069191076	0.3245177291426344	7.129170706633204	3.181426686878829	2.959695649765597	1.420586252544867e-11	0	0	-14.08453472832582	-8.509317063141221	-5.881526557327994	50.50700355730363	1.420586252544867e-11	0	0
0.4296558844730551	-0.1589168573073929	-6.851097352196478	-3.941329229229193	1.519182838053038	-1.533808631597557	-1.014763973792793	2.054129183579068	5.39517656078347	-1.810895802945133	6.42254358514189	-1.815418126725956e-13	11.69860585104949	0.6596961675045936	9.908244134815835	-12.42621888550641	-6.368469935492824	-7.863799970123852	19.85374573676432	28.19691977630839	5.867778890132534e-13	22.5473291731743	32.18372288124988	-10.68032638181491	-15.45840400908177	4.881267741718295	9.962413880696607	4.395916679129854	1.410172258784542	8.206785717162946	2.972182348064872	-8.12808861063689	-1.268464216267285e-11	0	0	-17.1371335121149	-8.849530465215572	-2.28716050705648	68.60987916239129	-1.268464216267285e-11	0	0
0.4440312594138309	0.6515790630708025	-1.407223203068298	-3.181932624633315	1.569623644848464	-1.63657194941732	-1.568160600417786	1.095789684428646	0.04416228405511657	1.914247195887258	7.979623311002818	-1.673772583925655e-13	17.64339407237552	6.257267066230686	2.501974112867384	-0.8332617437799694	-2.943530002980191	-2.42766515440035	4.49427852703727	52.21345406640474	-4.996501302974683e-13	44.94798042663255	40.3995331721046	-15.83737448994695	8.176264696820958	4.338821383886567	5.808749960727104	2.055986070524028	5.139016715924672	4.149611110084886	3.214823147763334	-3.385569594626071	-1.489152758608423e-12	0	0	-8.118777410943624	-4.683086556392663	2.117753769756076	46.1799730818179	-1.489152758608423e-12	0	0
0.448	1.440915325132188	0.4370650480689382	-3.50352176847809	1.378706060553956	-1.598134629903389	-1.807198082968104	0.227218369465394	-4.055609177823674	-2.913879772415083	9.986510830488012	-2.332485889798428e-13	19.11225682195894	8.341233993321904	18.71043588770491	2.391274948944792	-1.87385244447833	0.2059936966432137	5.560945669701614	59.24527891340538	-8.495034510784508e-13	50.74750982459968	53.63642462228152	-19.63169216788937	15.15610111581331	3.085929951503797	4.955751990336383	1.633704642914987	10.86454117454764	1.766337071963147	13.09983687250302	0.4202621096124979	-1.423452786759046e-11	0	0	3.202695999200396	-3.178379609862026	1.910338589281346	17.03634788114772	-1.423452786759046e-11	0	0
0.457512856113114	0.5200745084968609	-1.298221980101419	-3.962534776629779	1.956097102356651	-1.810723617489583	-1.808659682521692	2.003519393975931	-0.02871086305558812	5.659142757842558	10.03423368554284	8.759349181973641e-14	22.2014863379386	7.347947429560821	-2.154259554798438	-3.579207469351342	1.207759469518652	-2.63993349308153	-19.20052797218719	72.63996292153031	3.577250665629704e-13	63.36552461490115	96.0692799063735	-5.25781225666778	-4.118351563274793	5.823497531733575	6.897457559740181	2.293429931780207	1.4306308282755	5.307964831909621	1.15569412524445	-7.016973304416425	9.560259043759468e-12	0	0	-18.03873651675139	-5.380100962004091	4.142451557789259	61.49075921027804	9.560259043759468e-12	0	0
0.4744558844730551	0.846152370897034	2.445915587086841	-2.847495283239382	1.721048470416093	-1.542867025232421	-2.302616693794745	3.857389024128228	-5.760352350498984	-0.1759513379347428	15.56217008477667	4.399980749272738e-13	25.7945922673561	5.035400648911671	3.157502937050109	16.81068494661681	2.665374070875286	4.647125897954675	-42.35547366848837	81.71530164139041	-1.246780204431856e-13	79.19487614205696	49.73453379070753	-40.3500683199183	11.4015616404625	4.873926962694178	4.01708617246427	2.274114305986287	-1.390575776611179	5.205891236812215	1.401498821779045	-21.66191354322861	-2.758091470239113e-12	0	0	-12.06617895958678	-4.381680749468238	8.357843022377375	65.83479454390334	-2.758091470239113e-12	0	0
0.4888312594138309	-0.2619439865568444	5.411966405478621	-2.061119518935169	1.238116707660521	-1.351486191724207	-2.180656132482306	7.629897816230832	-7.716792162591368	-1.287454604525223	20.87761479648994	-7.853020743939973e-13	26.60802792470103	16.46738797834886	-3.513503957445849	18.3973397451456	2.979748922409105	8.494872619663123	-42.07090417775133	76.95429428048715	6.911011823338149e-14	83.80274750668966	10.82952881440339	-14.02971241825709	22.3374503185645	4.42602801494821	-0.03366883527607456	1.089582169776558	0.9594768016897852	2.553445453151894	4.968170503041794	-14.27730428784492	-2.746947670863479e-12	0	0	5.104471042339604	-2.469082053627077	7.161418815937749	40.4653836245495	-2.746947670863479e-12	0	0
0.4928	1.095797840073379	2.788985840343305	-3.963447135080985	1.288680102664399	-1.315664022011783	-2.153025158518088	5.358674976684915	-7.08099191204252	-0.6397696643595729	18.58709464087477	-5.51505098739557e-13	26.46249150918699	4.236541475134397	8.983727870913913	7.91138561262259	2.214792114312065	4.852113920713769	-27.38205176593235	76.84703032033362	5.741680867029205e-13	83.49427815198621	35.41577075480224	8.348683076798443	24.40039412547244	3.184649080663768	3.961959838779135	1.456184359489163	9.34486441900637	1.221221513179225	13.16867914198988	-3.243043831372246	-1.103142386932381e-11	0	0	6.203287154932745	-2.530266743865222	3.814204906332048	14.68418186933082	-1.103142386932381e-11	0	0
0.502312856113114	-3.218489965066411	6.52957424963828	-3.483506824977557	1.090324382882667	-1.472054485035128	-2.102726397378726	12.74676362406374	-9.688493315807492	2.418018111762361	24.30126173678887	2.263567461955259e-13	25.50750068273065	18.19270068126556	-4.914452745638044	21.18080082341423	3.445509682974992	9.838289837587382	-47.98029789176915	73.01969734295739	-1.222845507607546e-12	80.02901493312164	89.46103048575044	-23.44303495688835	8.350611520182422	6.983105826950846	-1.961160861065339	1.429968056895019	5.02465676375072	3.350464506939773	4.570161762422768	-18.63839040618123	3.991993561695925e-12	0	0	7.164061370744897	-2.561921203079218	9.856417765506768	49.74182633971112	3.991993561695925e-12	0	0
0.519255884473055	-5.659290013803997	8.595961631538195	-3.809758821477299	1.279015861817013	-1.243951892669092	-1.88920307971249	13.89434267316975	-12.79787053188015	-1.10052464553705	21.96760812552198	5.263275630628034e-15	22.06242098318669	9.513602102073126	-2.195403216634551	23.13038941690436	-0.2254323178506805	10.31381389668469	-35.03312300378345	49.00893769582392	1.409128016171657e-12	65.53216332788496	12.35770543727704	-51.69424401217809	24.19965629257822	9.066211841205622	-6.342830114914994	1.625982591055661	-2.947949322620943	2.976123899218329	1.379544309005152	-25.92232402535289	-4.057186768846022e-12	0	0	8.785010219235957	-1.242052002022395	10.28193545782045	33.83878768954963	-4.057186768846022e-12	0	0
0.5336312594138308	-3.277546491500205	6.516690607487531	-3.920983018844728	1.353954567487588	-0.8616046379031972	-1.46771117495389	9.81495785875124	-9.245515445133517	-4.119974442557726	19.50262964793963	-1.920748324844893e-13	18.15942217713623	15.31612354221692	0.4105746499616599	9.543635713052183	-5.211596100741591	4.037947680663124	-6.036609530212475	31.91907207965003	-8.044837813065501e-13	47.80822172558268	-38.08794504740565	19.64633484683048	19.21409440167942	5.682815360282606	-4.83386557490019	1.133013257460071	1.926917210212547	1.291940945007396	2.370945315107661	-10.15575693352561	1.4043838299914e-12	0	0	9.860298729159712	-0.5186959879984726	6.174426227171699	12.37587846621664	1.4043838299914e-12	0	0
0.5376	-1.123564507922508	2.850328446812006	-4.859719303437804	1.324137805026204	-0.8416049532929371	-1.631916066806528	4.457339330101274	-7.122493130453922	-7.445355698445326	12.3377068628608	2.315016429815899e-13	17.05963024779748	0.9073048979819838	11.12598429584405	5.724548038792062	-6.796286778756325	0.3283785950690241	4.795925949134108	29.16160822876187	1.82204448331503e-14	42.57422037302426	-24.1818546890044	7.504217543544598	23.04554434572722	3.45720456564884	1.399113412441249	1.482977740432316	16.65231274131557	0.7447192705929551	11.33162264005896	1.456311012216516	6.0394871655908e-12	0	0	7.199935138823169	-1.738210067224894	3.556808518662444	6.360292491724662	6.0394871655908e-12	0	0
0.547112856113114	-5.957712217841141	7.258607215928255	-7.362649000634369	1.67123332457695	-0.9333750760471231	-0.9268636888001603	11.69527902514572	-10.65757573038036	3.99721859400845	17.06766650035024	2.670157419111919e-13	14.59311717171874	8.335849191134468	-2.033203427695016	-1.329495309700641	-5.416478659445966	2.508884928419992	20.60461426161834	21.52218868147687	2.82660137680997e-13	30.20252361771155	-50.70292652983539	28.85832790132239	7.191518904580587	8.505677869391508	-7.907057484016265	2.537542310150411	4.106743896137498	2.154401969695477	1.954409951524622	-7.761727537314801	1.141536248124436e-11	0	0	4.629850211654873	0.0229449880779129	7.065100532335906	0.7531282448203327	1.141536248124436e-11	0	0
0.5640558844730551	-3.6522613051435	7.334106251111991	-8.17887783012994	2.31867151583899	-0.4700122943047449	-0.5684446755672667	5.698959954462225	-11.01454436980324	-4.080939359135968	11.33494351371024	-3.706287587825024e-13	11.59555393932885	-4.654495285909498	5.598926326128701	-21.5284724009395	-10.08117162183253	2.169353064170258	66.97981213453676	7.808559980157998	-7.137663625647011e-13	11.40424375909078	-69.14836549432695	19.26507998382066	-8.334042131923432	6.401969499073764	-9.768927507172616	4.024480527804469	-10.29363560879494	2.215699687192851	-1.050780759655558	-8.042690654257381	-1.859082477006417e-11	0	0	-0.2783152410022967	1.897306201025862	3.760425438302754	-28.2775304176699	-1.859082477006417e-11	0	0
0.5784312594138308	-1.315242211193506	3.851028255035819	-4.451127138025631	1.78730868313071	-0.02950393625835279	-1.090646750110843	4.383915013291956	-7.282489304357906	-3.944812443704617	11.39102438707376	1.703689524910724e-13	11.36436405217701	-0.9132479518686658	4.855768058784285	-16.35958051322424	-22.09252282826786	2.463295602499413	77.82256723626033	-36.16406008602776	8.832570827088774e-13	0.8547604230036993	-1.912973156383149	-14.24515449792764	-8.868629805444726	2.99646446012092	-3.086199936270439	2.502739403919851	1.90278639676481	0.9224707411923005	-0.3971562778114279	1.983973237876612	1.13493466754027e-11	0	0	12.13246402131301	1.398658796334088	1.419931543680065	-16.69321849448121	1.13493466754027e-11	0	0
0.5823999999999999	-0.5635293131436759	1.230124330146442	-3.373345004644614	1.583367308492796	-0.1971093875564958	-1.593285376370241	1.257189044603644	-5.571857352789691	-16.99583597340047	7.255463725303214	5.098973429028217e-13	11.76177844153374	-3.05138006720097	14.41434178843516	-2.015822454590736	-13.96817197199508	-0.6293553558884595	6.24882187727951	-6.442934708516528	1.072960961974912e-12	-1.12017386311065	39.48644747253302	11.13333569410415	19.15362496288856	2.991379962953655	2.908800130276948	1.846576564098614	18.56329356289401	0.4566791076114236	8.652737899364563	4.584984436829352	4.211405126108677e-12	0	0	9.996890568022661	-0.8736831501968412	1.953413897525587	0.4293060902586383	4.211405126108677e-12	0	0
0.5919128561131139	-1.403423995277422	2.826708134555074	2.32623381907059	0.7202421164165494	0.3586713408933229	-1.55972260965328	7.957192997566938	-5.548175362988649	-5.881071816868459	14.04998773489136	4.408214525601693e-13	13.56439087853018	-12.67781437632096	-4.987653970745574	-36.45537212957412	7.041401480056197	1.6036364676026	-25.17074390376172	34.11611987410813	4.82292310932975e-13	-4.444380783608896	159.6978436601226	-78.22048457501388	-21.37691905284402	1.70323374458893	-1.631970188080592	2.68592961364255	-21.01909668688069	1.108495963893577	-10.87410705261375	-3.737136072876226	2.015974934452887e-11	0	0	33.57793281512111	4.311859030134854	1.60172790367534	-16.62114833091911	2.015974934452887e-11	0	0
0.6088558844730551	0.3913183580878384	2.487374632092779	8.478955933297305	-1.715374922285917	3.626295476156765	-2.095617007105406	16.62887284931928	-5.819063988193747	-22.0008868574007	29.80630563408207	-2.734051076966054e-13	19.56908224114431	-21.27171607158409	-5.897881511500183	-24.33247932226403	30.82775125113237	12.45588390657215	4.250049757900707	62.35921954870694	-4.916082868906338e-13	-7.199513072814866	107.6180342949274	-31.82116970480676	-18.46737734954431	-4.928406572075273	0.1248988755076845	2.737925612038828	-69.26029677896003	1.312981295784504	-8.270912517920346	-29.10947933253144	-2.280949300971937e-11	0	0	32.01702887480312	5.81642929907912	-1.742572171296712	-26.34113321314	-2.280949300971937e-11	0	0
0.6232312594138308	1.427400738713848	1.833030019294231	4.403142400093253	-0.8120747081713703	3.372190643851447	-1.890333001469903	16.67567678082121	-6.877675718299462	-17.45007170787693	33.93358870489601	-3.95127316756328e-13	26.73119194823266	-18.6021500579111	-1.334211677204845	-0.815620190101539	-2.540258398928921	5.434011209890484	-6.391870313690164	-12.2222902926466	-6.993946273361862e-13	-8.952238535927453	-53.35536323392149	11.58062105080171	-2.503460628201552	-3.301169365663942	2.471619582604775	-0.04906161171073842	-40.05047280106957	0.2072155924044745	-4.089759212184946	-13.02181104178477	-7.209255493008588e-12	0	0	24.19058186273369	2.278501118012973	-1.054979220813834	-8.357993708884369	-7.209255493008588e-12	0	0
0.6272	-0.2620372790670483	1.023391427154257	-1.351550366474513	-0.1581739542006983	2.429514909008175	-1.666357884349603	15.17987419416706	-8.027062226052101	-25.6197692380396	29.99023386181445	1.724209489615795e-13	28.87919062178556	-16.46674918547059	10.62337768015546	2.74254804675421	-7.178684057438582	0.8775615255240066	-10.94402112197197	-13.43210898253997	4.779407635173666e-13	-9.626200818968787	18.334520228445	10.67788902656987	15.45926634557594	-0.07305571087599461	4.613381211747884	0.632422625700737	-9.820535279631621	0.08910179532501461	5.197026580964065	-1.367716578508789	2.674300589537215e-11	0	0	2.52891430331263	-0.9450420767295991	1.210071678825179	-6.433378126221019	2.674300589537215e-11	0	0
0.636712856113114	2.182132156741058	1.142582963125985	6.830357987199285	-0.5063432283459883	2.746481453512243	-1.744365316779781	16.66216093598747	-5.673767220381636	-9.480216624171149	34.13641705507554	3.292769931716844e-13	34.04017292192123	-27.50802091125213	-11.63771655847375	-13.59763486728824	-21.65665414763533	1.778458315114202	-10.61292565777677	-43.37791306599637	4.665011565009099e-13	-11.72375360471991	-57.06458505531695	20.41783461454915	-9.284495854864623	-2.741367420079824	2.428920524199966	-1.735355870316131	-44.89407972704545	0.4533954543315601	-8.886057582326785	-13.72114986030992	1.867065807511306e-11	0	0	47.31194271185828	2.977460610768891	-1.23538381436676	4.287281188267068	1.867065807511306e-11	0	0
0.6536558844730551	6.891433897993931	1.257876435730554	6.551248699183342	0.8413403780520319	2.191773782567663	-0.8753369102331787	9.107959727551659	-4.937494533499866	-7.330362684501377	32.36168335456823	-7.975746285345905e-14	42.0519415520384	-22.53830324429389	-13.08947635264703	13.60103451733054	-40.87564942460089	-6.416265803258954	-20.76235382559782	-64.54863650478087	-1.704548063547392e-13	-16.81286620332509	-31.70543081096454	47.74290806994297	5.96766393234445	-3.930209638211188	-0.5127332384909025	-5.349598623546517	-51.19115362222476	-0.2312148780156384	-8.817601463267881	-19.17564354718995	-1.068865120553605e-11	0	0	39.85874915694313	2.582554161302661	-3.582180735542836	12.11184960844328	-1.068865120553605e-11	0	0
0.6680312594138309	4.275570504794062	1.286435602447239	1.390772629694877	0.6791314103043704	1.653455301043912	-0.1427921287622567	17.13396756765732	-5.626854857443359	7.079723686643838	38.77147311486907	-1.345370885240096e-13	46.08033719566792	-23.83117802893822	-20.00642424012552	26.35996490158415	-51.29245920570058	-4.967001423122635	-7.754184158097683	-75.22905434365707	-1.664178735167629e-14	-21.05622818716725	53.96346174392146	46.54339901273077	12.52002063347687	-1.761958125225812	-1.351312644708166	-5.71094720169561	-19.30883258241677	-0.9155487325959571	-7.488366570268274	-0.196453861271749	2.020350044084309e-12	0	0	26.19830740818461	0.02728550056170675	-1.511867900046383	19.16218223363723	2.020350044084309e-12	0	0
0.672	0.7036342763551918	-0.5325379929507643	-2.618888759323971	0.4109281524845614	0.9500491782660097	-0.1350746208247776	17.63615617126435	-8.027493271330775	-9.147361801795199	31.87492009586903	2.230883933442997e-13	46.55802140302452	-24.08214120334192	0.6323765235213068	14.37656699555232	-38.51973365890408	-4.913404139839351	-2.573373698774031	-63.49794437160168	5.568097599977007e-13	-21.95740503960202	19.39249095529881	27.49686290779753	17.39450852212633	1.906982756872481	1.898098832060228	-2.183318894340867	0.8141206172775881	-0.5282993232488522	-0.662815465046898	8.72169281005978	1.693351019414117e-11	0	0	16.69679638518016	-1.465854476060249	1.063487893126225	12.20076452134732	1.693351019414117e-11	0	0
0.6815128561131141	5.692990223298052	1.953044235703646	2.000522371740483	-0.2706460505921647	1.869008803538083	0.4602958727638798	20.33845334612188	-5.639249856184822	13.40110299311704	45.00991922320517	-1.494670523069529e-13	46.41955892599262	-23.74242281937069	-24.11455534454283	35.95106021021192	-33.60947783926927	1.504855782710379	2.74914032924577	-50.51375858355541	-3.050781003940323e-13	-23.3438734636055	-1.296864251936743	6.641805758902789	-7.994711231888608	-6.266825210380192	-4.522596347170334	-6.992557306315267	-33.39468073470319	-0.09191247046533491	-3.817289640484567	-10.86014585324586	-4.710360132164623e-12	0	0	14.24293568204915	-0.6427889017049782	-1.628370235187884	23.59131830551355	-4.710360132164623e-12	0	0
0.6984558844730551	6.025494304693177	1.051502403262239	0.9218106643872077	-1.247510718659929	2.099046009732798	0.7570147637400388	16.55601089950296	-5.097393584831369	14.3878744053516	28.39150838477168	2.796167755560253e-13	41.43447095403339	-38.8757146760659	-21.4796645354703	50.88670871437938	-12.72625415879534	5.711209598376639	15.93952712045656	-15.90214310394972	4.529596919485724e-13	-22.43760501498052	-2.049046267331239	-20.33377312241438	-1.376325215771324	-8.843602513234629	-3.374225981136499	-7.194031582028164	-21.96519625093443	0.3142439102731998	2.700220529308485	-27.10111273799487	1.888468729117518e-12	0	0	-0.07483930949150863	-1.856307938209151	-3.025247206881547	29.55855106014678	1.888468729117518e-12	0	0
0.712831259413831	3.445560021811149	-0.8793451878635135	-0.6439752349763674	-1.710234539471448	1.871606223825551	1.207099687560881	20.96282952873288	-1.511548473886064	22.30481732208909	29.68684717646202	-7.167124160124061e-14	32.69787906928442	-34.62546902750135	-18.42094963257679	24.08939916380068	-4.016044027636408	0.9177782783737944	9.02015332269796	-11.5818849128342	2.970047565935079e-13	-18.35645615326222	-39.14589273624269	-23.73573074946177	8.179124697655023	-6.93625595926674	-1.68698116708445	-5.235807772474706	-23.99147328806007	-0.1855387079429107	-1.231360570030699	-16.29758229870949	3.516507786879782e-12	0	0	0.7580166184605479	-1.65346829506987	-0.5247365465973928	20.53290495078142	3.516507786879782e-12	0	0
0.7168000000000001	0.9523588954688765	-1.376661532897467	-3.237253572639448	-1.000205096245306	1.427641523524299	0.7150652708368782	13.31818991253368	-7.634471143542187	1.869642434585939	5.932895999693039	-2.330054300373479e-13	29.66101075809093	-70.8007277394461	-6.437844209353501	15.89692304596929	-1.241280942279244	-0.4746232109690487	8.898639027013765	-2.674374496765849	1.018805902657906e-13	-16.8253938950343	15.22916158574074	-4.570630425431204	16.34837387335779	-1.413967581016359	1.410687869338488	-1.675932015853148	-10.94148729383659	-0.1556009284827744	2.551734139555471	-0.04300526913983482	1.454512273031979e-11	0	0	-1.213449417968083	-1.669408233450583	1.522979489609736	5.317074511432454	1.454512273031979e-11	0	0
0.7263128561131141	4.698310750780078	-2.016581859386205	0.5106182851707612	-2.392223637247024	1.439390596790838	1.67531041564131	24.23698153554313	2.384972839432017	26.37773802850269	50.54299553634436	1.427387271125694e-13	21.49522479280233	43.32279310207122	4.590715701476224	21.29904527949315	-1.752966625244452	-4.122581286493352	2.046789141825495	-3.936395863757406	-1.060427462258914e-12	-12.73495269037299	-19.32774769219816	-0.3409926075245551	-7.280283031051461	-9.825167895592861	-0.9216570528401338	-5.628290317466124	-33.17272583484029	1.175730918803888	1.347893285322318	-32.07349317265835	-7.242341661713606e-12	0	0	9.009307215642311	-3.660403079025984	-1.2245914412617	32.16230880175125	-7.242341661713606e-12	0	0
0.7432558844730551	4.244684168692118	-2.339346339410688	-1.023987464291793	-2.664930534876235	0.3257248028523212	2.140081172113958	12.91881611806711	4.985092041829875	23.82687885846788	9.913722000329678	-4.467464148590395e-13	4.839151766581811	-34.59108868809583	-6.784999335861462	76.15971446389682	-0.9737909129900784	-9.376559627656452	-9.698415126889177	-2.443810741853667	5.293734824343142e-13	-5.259332245303584	-11.51750878413776	20.22946174300531	0.5105220313566186	-9.448493411206044	-0.1133191887318965	-5.53506499448906	12.32550555136949	1.654018389670789	1.167470455912192	-32.29385128695636	7.071440306715815e-12	0	0	14.4685202737307	-6.7272905286661	-4.080601092616309	26.40405156526227	7.071440306715815e-12	0	0
0.757631259413831	2.766188771659138	-4.11023890271185	-0.2253433021174542	-1.953596983820086	0.1245325000567739	2.23831272084067	2.982060187367772	9.877185781734447	22.05064906183138	-25.60714140626522	6.273092020949109e-13	-9.990665121579763	25.9033601927886	58.71647055919669	11.44141700139799	1.127171016598941	-11.28682269461988	-11.95239476367978	-0.539107314234768	4.60594071174631e-13	-0.2477072665354831	-13.99450021325121	20.94393219835265	8.015217209699919	-5.836284916224614	0.7940071313753503	-3.528829422937992	-8.969030190245881	0.8375835185497693	0.7327142172871923	-26.5826163538157	-4.50494743038418e-12	0	0	17.15808742254425	-4.892225180694282	-2.014922334618756	9.72525025180807	-4.50494743038418e-12	0	0
0.7616000000000002	-0.0801082855959917	-1.397208897896403	-1.428119639381154	-1.239963069379762	-0.2110083968815792	1.865019545436594	-7.176612520962729	5.354390024426896	10.52873195432556	-51.6534905509028	3.863855226788782e-13	-14.00128393822829	79.02810485029693	61.29639619396762	-7.234728665155094	3.846801721309968	-7.137948610114893	-8.236349245176068	4.70358457864421	2.049118602005577e-13	0.7666748772095733	14.30714481644965	25.82638041776235	17.81211942418543	-1.242245437489388	-1.540695680613802	-1.256358119281576	-4.560492929755512	-0.137090043754315	1.077829885309025	-3.423668052877161	-6.952204503713253e-12	0	0	11.05226896556521	-1.296993671269828	1.567647601800521	9.113326903896917	-6.952204503713253e-12	0	0
0.7711128561131142	4.100080881901476	-7.772110755678002	-0.3141536844124349	-2.210410505674629	0.6774208871128047	2.809978234974472	1.391759034392374	21.59906963062214	25.69020056603063	-47.93117770991874	-1.169333675758696e-13	-23.22852817119551	18.34274624486226	62.99796230620215	-26.35492989539739	3.071814244095565	-16.09606508401787	-12.56998301642529	6.509538904439514	2.942286625610748e-14	2.451060142263077	-0.985195968563751	29.14325390903741	-6.096196983858661	-8.124241088591166	3.864072471134334	-2.083689534523943	-20.74364906659561	2.70855037356128	9.489272983351864	-56.88131894627965	1.159947865218116e-11	0	0	27.45332262459519	-8.0328098449679	-4.393177201124995	1.62374722082622	1.159947865218116e-11	0	0
0.7880558844730552	3.773440165783355	-8.03144198050078	-2.4835771780605	-2.050594039951163	0.7343611935268142	2.750680749822287	1.824739494649269	22.53573986276842	14.31833728894702	-51.36501827429461	-2.496828786552584e-13	-37.58100801941963	13.80717130328311	-32.43267427695255	-34.23221212003534	0.886598721870083	-15.85363485015786	-11.76645348782393	2.633622977955423	-8.899389284258935e-13	2.869304506762493	-2.044359068690447	24.02726787578046	6.34367623780231	-7.706073822448591	4.861276916188958	-1.575656566260152	-2.824506015916853	2.006960699234766	4.698530032340247	-66.77725932011855	-2.628304680916751e-11	0	0	23.6960997022229	-7.554699479773918	-6.076483334929709	-14.19577785424973	-2.628304680916751e-11	0	0
0.802431259413831	1.642219284774042	-4.992625501047339	-2.796726571909203	-1.548892050008957	0.609906485250953	2.205863001366471	3.606514375015557	14.46087649076758	7.694402175885013	-48.83626501934007	3.186594981041345e-13	-47.03862858369238	-9.618205348695334	16.84009322902457	-31.93948095442572	0.9896246469988563	-10.62399526108195	-11.73078612639947	-1.316576621221144	1.447529653648916e-12	1.156643333749305	-14.92016948898085	11.63144195897072	12.04873371977697	-5.426955638341237	2.051256711606148	-1.280466955856847	-8.744918066485333	0.3454511161705582	0.2428324841501341	-40.52933116763794	3.544829330386569e-11	0	0	11.83446317941547	-3.684705289445594	-2.245395140063079	-13.10655402094844	3.544829330386569e-11	0	0
0.8064000000000002	-0.6024782652245037	-0.9172549189958858	-2.829557544161749	-1.114175145365274	0.2241442438173712	1.615471208348401	-1.555231212397995	5.463660361995884	-4.555164294740564	-58.6938086731766	6.349268552105703e-13	-49.17135697405568	24.75443117460176	-14.06687829442544	-4.86588095263324	3.941474306100306	-3.744222729937569	-3.722967081111442	6.457515393327665	1.850257334037585e-12	0.4670413641936967	24.21272973200618	16.54565660005343	19.49197473682072	-2.393295864332464	-1.314279236202458	-0.5937330137176362	-1.879971262580142	-0.4440545918183257	0.01116113421936049	-5.719052544089445	3.264920452323097e-11	0	0	3.31845642025424	-0.7240857808754041	1.671426965333713	-0.9616179624452466	3.264920452323097e-11	0	0
0.8159128561131141	3.407957154908491	-5.452791129722934	-4.65827587065478	-1.599775747007018	0.7228421122149069	2.379177048392881	1.062370583106487	15.37847191822226	3.369227782338902	-49.53097565702343	-2.090101902228097e-13	-53.45144968863151	25.6047035016615	-17.44545621604269	-46.45686934993622	-0.3714781166738712	-11.63197371142032	-12.43973766891749	1.36379599133655	-1.159807034790656e-12	-1.384865678946014	-2.847126101162765	16.36789604335765	1.865876441951066	-7.685757298122557	2.883795660979485	0.2878518864561141	3.612222660649358	1.215231331077055	4.813637993523272	-58.0032985413021	-1.946043207952733e-11	0	0	14.77527854959733	-4.965918875043905	-4.266002530954381	-19.46331867378651	-1.946043207952733e-11	0	0
0.8328558844730553	3.098703509641228	-5.556604284556057	-5.495006056842753	-1.019572180930958	0.5743464069362767	1.913266020843068	-2.520258420167057	11.55038389859386	-4.327846996353653	-53.88510809274558	1.151339040126311e-13	-58.39270467639967	3.908869098182129	-7.632436591660289	-45.06628036835347	-4.37337714937612	-9.770466164774625	-8.498758571460879	-4.547780223623187	6.175667661497102e-13	-4.703486757235548	1.013315956246668	11.56603028200884	6.547147679602439	-5.586695127470878	4.219718546284071	1.352440513993323	17.34505881510184	0.3959286543040095	4.481672676143996	-68.36195568069539	8.45139206343682e-12	0	0	8.897604749984769	-4.117660495158309	-5.715654351882553	-18.85929308466532	8.45139206343682e-12	0	0
0.8472312594138312	0.5719890659925024	-2.6756950830034	-4.474854259578624	-0.7181919359499095	0.1497413290714095	1.184984227205615	-1.807685056544884	3.505744268726384	-8.541097413745888	-52.38366186872062	-7.551136304954807e-14	-60.37001082427628	-7.464338075432195	5.013075481322375	-15.55901420111287	-2.605307708041368	-3.150513472185317	-5.070373876670724	-8.051981377219732	-2.343266892972955e-13	-6.821544724605752	-19.41344536286325	-6.866940194231869	9.777780626498728	-2.856912528669957	2.350785113281776	1.080221217012718	14.64698962359267	-0.4742225154279598	3.61165915314474	-39.05846060035783	-3.477884561312707e-12	0	0	-0.2343767071926066	-1.676144638432874	-2.023773821282917	-6.2945097348549	-3.477884561312707e-12	0	0
0.8512000000000002	-0.633218046499111	-1.05954232135938	-3.987625809507542	-0.5567033302823974	-0.2037239364599144	0.685148807236141	-3.348318665271477	-2.693191614451398	-14.03983243254167	-52.91248588696781	-1.205591900797705e-13	-60.63755428960568	7.250783532300173	7.651503987825371	-1.581973410078543	0.8064144139021243	0.624356265116357	5.202150971109306	2.688109184791841	-3.783711203958164e-13	-7.225411406159283	30.95126571585151	0.8856037749470786	18.22469738121147	-1.258705490948893	2.140427553832159	1.390666849547123	13.8848575171925	-0.1959760065229399	8.67580663958003	-11.2451438751596	-6.991160075245254e-12	0	0	-2.139569604670831	-1.289473602925455	1.098822546135582	-3.0662103514966	-6.991160075245254e-12	0	0
0.8607128561131143	1.781289624531375	-3.164411216186063	-7.404872994768979	-0.5778211677326299	0.03454402684065572	1.19745487845639	-5.577608622377631	3.728735157903861	-8.873901442601326	-54.45153335993372	3.06648421015579e-13	-60.90042047087023	18.42224798469064	-7.248773714375732	-19.28206896181717	-4.381399001832801	-3.781965981092409	-5.915556880188744	-6.697775253399535	1.735042827351323e-13	-7.828772302164705	-6.623924634195777	-1.909938037747541	1.373102080078571	-3.497903044305818	3.817682742662721	2.822519055138782	32.06020091842781	0.005370754511542897	9.299876449342253	-55.01980182590384	1.132015190822184e-12	0	0	-3.628586014941228	-2.391790697259315	-5.000631003871927	-0.3439793320572342	1.132015190822184e-12	0	0
0.8776558844730553	-0.1913883186947996	-3.578924457271846	-0.5826116603835796	-0.1145268947196189	-0.371757425446732	0.2378711259000117	-9.862856544019959	-0.9537880186747801	-16.41979932789649	-56.1275434561334	-3.801527606669524e-13	-60.44567014161713	0.4887241581086688	-0.5222689407288612	2.915913968346321	-3.073032759556055	-0.3238742381621904	5.050924991531327	-7.223339294216553	-2.906333971000425e-13	-7.601532875950978	-3.811547992040577	-7.396886759318594	-3.315159578938378	0.04312917933321536	4.981798540439556	1.893610427123375	19.07298760671465	-0.9996793606346288	3.23550900834299	-61.66711775265932	2.072639921582171e-12	0	0	-2.029654910620577	-1.028145307782684	-6.725579254193444	20.17516168505323	2.072639921582171e-12	0	0
0.8920312594138311	-1.774066167410866	-0.9191983369850276	-4.26356925586583	-0.1587122162265707	-0.9183773223035183	0.2272724591203366	-6.586756495527391	-2.560747866125455	-8.044902759348076	-50.78226713481477	1.069715796569612e-13	-59.56184862074476	-4.477174048897842	7.384736859541695	12.12733451014073	-0.83716124561459	2.746637036980121	1.385673839622474	-8.318173601606729	3.815810279340048e-13	-6.237287339001938	-20.6330072748942	-17.38190637599279	3.849620335571977	0.7834951009778053	3.133129356269238	1.75993210717831	29.13605058768454	-1.170437215412006	3.234149559895192	-28.90062667201417	-2.177435941779907e-12	0	0	-11.17030967068725	0.0962746109933863	-2.958750567368778	14.50622287206436	-2.177435941779907e-12	0	0
0.8960000000000002	-1.276143887418383	-0.2942127016077256	-3.56532432091838	-0.216691903815126	-1.072279352745244	0.2497636405177235	-8.337946312888688	-3.452694269803797	-8.816988694323918	-48.86879620087463	4.342974016373531e-13	-59.27765745497258	13.68571592166949	9.083715085374637	6.060127713094081	0.9280524712662839	3.787313294632005	7.273578007843352	0.2520796869411688	1.135516971486495e-12	-5.707943868240167	16.32160000937824	-9.79276500675179	14.84561757995225	-0.08010322210514487	2.615030613290181	1.764043602622495	25.3263657009715	-0.2785822804115142	9.873388795014289	-6.827074311989264	1.011004708456399e-11	0	0	-3.978150036792138	-0.9811276459832525	0.4183959699702812	3.960564539439185	1.011004708456399e-11	0	0
0.9055128561131143	-2.423046659752389	-1.58643827037845	-3.526765892568196	-0.3518782022701658	-1.216910030894525	0.2031807116077019	-9.258737551740083	-0.1869484028687405	-7.756630807242857	-51.50403755652656	4.595896637854691e-14	-58.54509965542859	41.0212365187507	-15.74381005416181	8.317368445735358	2.726445767828458	2.270859964990504	3.358033060861493	-1.253534172883607	-7.29803600236623e-13	-4.236246346027327	-3.432470645196315	-12.27072830671034	-0.2592059718145805	1.075591845373181	3.6850267937673	1.91706261045568	36.52012868210122	-1.466997686113907	-0.2169239100909861	-38.6553965223558	-9.257529074269637e-12	0	0	-12.44752376835917	0.7657152893751231	-6.614975598740819	32.50314026017281	-9.257529074269637e-12	0	0
0.9224558844730553	-6.00944475615466	-0.6522386838295176	0.4158187598384493	-0.3334683277087778	-1.780753745925495	-0.2170665892128879	-8.524193308579131	-1.338908585122541	-6.467713361406226	-51.53366742250143	-2.041348758342239e-13	-56.99546212468611	20.59643362296556	-18.64490847776099	12.94199675652004	8.84854245659997	4.360717826003726	8.742080039298244	2.32719918396499	3.545324990818775e-13	-1.186491535486732	-6.23637834594544	-16.00985405487947	-12.12241512730894	4.757608349141168	2.663079543177275	0.009807271915725058	28.05324456005556	-3.113725937085626	-16.13914591198727	-25.14874487897493	9.573433832560566e-12	0	0	-15.61137804759895	3.518055922240873	-7.299988248113446	44.3660561061943	9.573433832560566e-12	0	0
0.9368312594138312	-5.555908885588495	0.1768407040502686	1.156869298392162	-0.1110180607123831	-1.91648096398209	0.02431969659285911	-10.43694402931372	0.1792000073257558	-0.08197278934363439	-49.80260221064817	1.592778468366461e-13	-55.1134557109274	-3.199136298488568	8.20397840546141	8.34987626669103	8.334816571919786	4.124583043296919	7.621933228778818	4.023039911103921	1.138770495337041e-13	1.464796384557463	4.29686327925489	-11.06415365377227	-3.272371845466296	4.201119614128165	1.241297745643084	-0.6341969313740732	14.76190935893104	-2.488342241712337	-13.72510775397751	-3.118879039713596	-1.680151112779602e-11	0	0	-10.39509782712493	2.813159302491324	-2.612444122572606	25.95751164546577	-1.680151112779602e-11	0	0
0.9408000000000003	-2.706033375585352	0.385360071676053	-0.9857256627496898	-0.1222325269290516	-1.748601256892022	0.4936488270003609	-14.37478828822911	2.327323566140885	3.05731785156985	-49.60236772848103	8.998034767247183e-14	-54.42641715149498	14.69841859177414	9.194408117355056	4.320839960573237	4.561937016179553	3.176403060008053	6.262365688775057	3.3220351729338	3.684357615419124e-13	2.161843431899843	6.336848483154569	-8.897610939502925	14.81138036723518	0.9998050672850071	0.5281440175063965	0.3515443759792813	19.14268090970172	-0.9389330832274396	-0.05485190464763789	4.099484636462897	1.86869848291585e-11	0	0	-1.906338742501747	0.3545127668777328	0.6549611367344114	9.980203539575466	1.86869848291585e-11	0	0
0.9503128561131143	-7.976314041132156	0.187956416644393	3.667258048115951	-0.01971845821498244	-2.30434181286619	-0.06927662053219064	-11.21215261026897	0.8904110555973559	0.5069033758864574	-50.53446115041606	3.211505123411045e-13	-52.34342262088639	11.95945226385677	-6.058933896935324	-0.7302324046660571	11.95031423262506	3.879957516424305	9.897377860878812	4.896354450843235	2.409574428085186e-13	3.72545489023174	-3.990296677377568	-12.57600365234121	-15.7449825504024	7.07114431059983	0.8331317694305787	-1.93601984631325	9.000680183374328	-3.350667102673252	-27.79031627646839	1.177749021338068	1.359648236217636e-11	0	0	-13.13713639645816	4.699011954703367	-5.608477803365407	37.58817389348015	1.359648236217636e-11	0	0
0.9672558844730554	-9.530003619331902	1.280341286312404	5.984660426825583	0.5559430013814697	-2.558472294092462	-0.1273620351324165	-11.28583281491705	-0.9851411634939653	4.174263643648477	-47.83625054355387	-1.248335060867051e-13	-46.48872320693837	-49.50118907570461	29.48723226700161	1.673237761823931	14.88645733457996	4.200744835285207	12.53100540099749	9.771260708842055	3.961953010480022e-15	6.036710783564807	5.957174975838001	-10.61493277434796	-9.79448785427158	9.896661512944602	-0.5179444053240889	-3.287750693020282	-13.49228022954332	-4.252833981287336	-36.64362134681777	22.80151992085176	1.624266257271259e-12	0	0	-17.08005411379861	7.135033761936699	-4.234169950241928	28.47113910104372	1.624266257271259e-12	0	0
0.9816312594138312	-5.837370297115409	1.688415079321554	3.440480686647073	0.4924905072969363	-2.232340557310073	0.5363225180756084	-15.2927847482803	1.628403283432066	11.8532506858039	-43.47468030665689	-3.69747387413506e-13	-38.55953785893638	-26.2769628045542	42.98038249631662	-1.926680222941727	11.39712139123854	3.147548437922506	9.134702093889116	8.258066623264545	-6.736937404417915e-13	7.511530049105834	-6.53058790922838	-16.93220344768306	11.16615961274928	5.50474892811304	-1.799697270105324	-2.12017583335818	-9.746097848333221	-2.816868115710126	-21.05453257956241	26.91487069377251	-2.244565227033267e-11	0	0	-7.526933395858354	4.789571808802958	0.821864404131384	10.76594160919229	-2.244565227033267e-11	0	0
0.9856000000000004	-2.574937609221246	-0.9789115082077839	1.092406465113004	0.3975958323128926	-1.990592678951026	1.066269217111655	-18.90339663924268	7.260156005630044	14.03123329892161	-39.93534002918578	2.780335194039296e-13	-35.80181171923637	-16.97457720577714	17.42489859841785	1.123525153963445	7.161603082375601	-0.4433713741816812	5.692657057279748	13.11066366945388	-1.464775670948553e-13	7.852358145106378	33.86860445902409	-2.38873509070801	16.6863659155571	2.238703519076405	0.5036731429824615	-0.7103609088054466	6.318827516135297	-1.475896724435007	-6.517735506417983	14.25475758728999	1.566558005049623e-12	0	0	0.3799041966931049	1.572878908421344	2.13849910478046	8.157445539712283	1.566558005049623e-12	0	0
0.9951128561131144	-6.670128930252609	3.488290910304737	5.2469516626398	0.6025424693393535	-2.320108283647151	0.4864887928983233	-14.73717245172602	-1.052525881499687	13.09144646495941	-35.31340638332446	1.420021659332645e-13	-28.13845931608096	1.502142582261197	6.510238484857388	-20.50680544730648	14.76782762950585	5.008649156421195	16.10559659683846	13.78251252937223	-1.39089032607952e-14	8.579492095078209	-1.972505202253885	-20.77572707137497	-3.283108186425316	7.072167495830091	-3.922078399054638	-2.673560121456112	-16.95804458743822	-3.081556530001847	-31.19139353019528	46.20780187081185	6.880554626064455e-12	0	0	-4.501058466336185	6.821696017342985	-1.469718007102013	12.07559756495367	6.880554626064455e-12	0	0
1.012055884473055	-3.672162961470266	4.24371027946852	4.832725488929549	1.387129184442881	-2.093805223160756	1.017265783161665	-12.89760642041477	-1.998664754018874	10.00111129514992	-4.031839495725787	5.683886536597782e-15	-10.9534443988456	-15.20920756024618	-3.424741223763868	-18.08915428645204	12.80288819539995	4.09288717926918	9.552703417078442	21.28014868106905	5.53362309813217e-13	9.681114535209975	19.06254193329891	-9.499641920425244	2.74610825807822	7.238851960685753	-6.42014833700081	-2.034834380486278	-25.29813291799545	-2.861968593235066	-16.9074413321433	73.09782839794453	3.295027560733159e-12	0	0	-1.961746155075327	8.022457232785714	0.7625514377866315	-4.161641247980351	3.295027560733159e-12	0	0
1.026431259413831	0.6536822947718622	2.782714762726155	1.948656230041577	1.747668231363895	-1.623349179380371	1.823559196971752	-8.734426225167077	0.9948951525783976	-0.3282319828851659	32.98831606533591	-1.170986683254018e-13	6.366354786696422	-15.55432499752416	10.43166001805085	-4.256522424857292	6.806879871717093	0.2315977914273564	3.825420188156157	16.49645438357098	-4.212665034736004e-13	10.5616452579805	-4.346443992805469	-8.061239414501827	14.60859236990449	5.049940628617771	-6.979720504086192	-1.071825309640653	-7.332875372001695	-2.045829472639789	-0.4274039015503535	58.72383673612629	-3.16366204828193e-12	0	0	1.393894069734397	4.897681194224785	3.460604327546916	-6.426901304651572	-3.16366204828193e-12	0	0
1.0304	1.431215464944278	0.1733321236621177	0.7706763301836399	1.698707007457418	-1.583521488437623	2.036375674820798	-7.281172590183916	4.584239914840047	-7.075063651688794	46.40504604104666	-2.285925941939872e-13	11.3937289013535	1.290258828777768	8.04519850628817	1.07117792417511	4.179654847140834	-0.1800279133487566	-8.002238727188505	18.11483253935167	-2.16795624390223e-13	10.81260920749907	30.74401030582452	-4.962345852089651	17.0638242658942	5.313182873954204	-4.661678540063589	-0.7623328539134693	16.02896322555545	-1.576614490783656	-0.5464917247146692	33.54503348945482	-3.931247016036584e-13	0	0	6.225254416815269	1.837216094111201	3.383781602102724	5.882113452886726	-3.931247016036584e-13	0	0
1.039912856113114	1.927587161317265	5.125899380756316	1.51563821341583	2.152197476948021	-1.412691048250038	2.185735507700316	-2.264566212955785	-0.3934505915891181	-21.60464987373236	66.5217153554853	1.619605411586592e-13	23.52928799417548	21.72578580748064	-4.34147525895893	-15.83421590711512	5.665778193894509	2.102218051977136	5.292010883619215	20.74520404469767	-3.213392249990732e-13	11.43288067100439	11.69871619486788	-1.261157714921548	-0.7163912269719788	5.758689567453195	-11.42479971824041	-0.9268573422950495	-13.20968503838037	-1.69949276556812	4.663323092418126	82.36451167427785	1.589461182092742e-12	0	0	4.496020273756782	6.150515480507616	1.996201943940824	-11.63066780638741	1.589461182092742e-12	0	0
1.056855884473055	4.226477173787925	3.695459514676272	-0.2510910705110767	2.745734510958671	-0.9312630049180413	2.641720521227074	1.510847606135175	4.227024524260106	-51.29828761195007	95.83057663016591	-3.429267783296131e-14	43.83169250844924	-4.11754917395915	-10.91136461924754	-5.114427873991904	-1.579918673416598	0.5081090944449356	-11.89045190320087	14.22606348638055	2.964059487374988e-13	12.66645563863462	13.75982316441044	9.389125171184658	1.324983966356381	5.987903445311577	-11.41749098679771	-1.243435975661593	-12.59428057093053	-1.284000849035699	30.19201599885443	94.7720670794879	-1.851099585379789e-12	0	0	4.069519977848431	6.124473205104711	3.029057604652954	-24.68015993517224	-1.851099585379789e-12	0	0
1.071231259413831	3.818694202546246	0.1719122984072543	-0.2950676371589442	2.725142447081503	-0.7031699498796125	2.759566612872844	0.6699336691556503	9.87443879789852	-47.94108962230576	93.94428978218019	-9.805706011061079e-14	57.78126625510957	-25.42330330984421	-0.3177820992208842	3.533878701601292	-2.599669691258086	-5.978843542097296	0.378044973780681	9.439014664094385	8.019514225349748e-14	13.82621554401295	-0.6731263337917071	14.37787861546968	5.656049709662653	6.763647553571655	-7.547830342343774	-1.892113136525153	3.748232682764865	-1.526454405367491	25.10376378618686	63.85816974601021	2.614342362174125e-12	0	0	2.892376662987397	3.546517954841903	4.178228476880522	-14.05378943641068	2.614342362174125e-12	0	0
1.075200000000001	2.411114946499096	-0.05141435601808109	1.984334517874273	2.470298808562593	-0.8265096832174741	1.839131831758486	-3.951625584113202	9.914334933020111	-4.113648259922609	71.09724262301104	-2.840603521274664e-13	60.84054025751689	11.22225169098875	-4.844465254656279	3.779087052032323	-2.219515532780936	2.010229422036911	-34.60241566086371	8.915921594500245	-3.079337111927986e-13	14.18844767670661	30.04023828490482	0.02677495765275495	15.44405753165879	7.45764698894813	-4.623950571222854	-1.476958786859598	14.44553157581613	-1.542124720021228	8.607700982247312	37.1269039963766	-1.165027006934696e-11	0	0	10.86822737882835	1.52949642684752	3.79134097543317	7.663162774875388	-1.165027006934696e-11	0	0
1.084712856113115	1.41722386320583	-2.415664460766971	2.732381787148241	3.08489049868797	-0.8496282403175162	2.420201160131704	-3.221034157070148	10.59273923402442	-46.2435584875827	84.30892655536648	3.114256189082929e-13	66.68855925234526	42.74251872141373	-8.563723549893258	-7.43748691338501	-0.9380092304111818	-8.246687153643578	1.849906566156979	9.486063202232856	4.472257503619806e-13	15.05924343837878	-1.245165460056473	14.93691249984282	-16.11221605492646	10.649006520072	-3.679823714423929	-3.824347522217845	0.08228939233589472	-1.358838479840997	37.05061030920066	72.88012087164479	9.989628357743812e-12	0	0	2.335803598526062	3.962060781463947	2.586510424837443	-18.07249168651732	9.989628357743812e-12	0	0
1.101655884473056	-3.871733755918677	-11.84852189505803	12.10919328376566	3.947457152309452	-1.318222357210581	0.9580569339608623	-13.99365353851776	11.8160920201574	-21.39777984530421	44.9851138885808	-3.037459438726635e-13	71.09970146545999	-3.339396789984312	-32.92615342844759	9.676189086794992	0.9210803855066079	-15.53480200082059	-11.00699586615851	5.613587662544476	-6.028853059565532e-13	17.10454241809313	23.99645819802791	21.49213148624892	-12.39195733561594	18.54067436215884	11.36490260148174	-6.537907387451481	-17.17088713593698	-2.143227783115019	42.85838386751162	59.61535282360204	-1.354243595278903e-11	0	0	0.3671476241541182	2.903604324538576	3.128969459679249	-13.85119225358032	-1.354243595278903e-11	0	0
1.116031259413831	-4.717867134961694	-12.43828450095695	15.18217939180687	3.941848659150433	-1.715005368267174	0.3389575027462138	-19.83691048542905	10.26398209687273	33.1262197752899	15.05452359266365	-8.913082522318603e-14	70.33057243206277	21.23397305950179	6.662299468908917	19.7552041309875	1.844621547390629	-20.0859381287399	23.62555877785205	3.989134054881456	-2.461791670450626e-13	18.71115601786182	-5.853703568046448	16.94820992850969	0.1357899983426414	18.42852712375739	13.70406055292792	-5.239596912218738	-19.87756501643597	-2.255464464056822	25.09399871339497	35.08203870036428	2.683886612460363e-13	0	0	12.74345784453204	0.8109470780560672	3.606926480306811	11.61111645711488	2.683886612460363e-13	0	0
1.12	-4.624727060678833	-12.38299809320234	15.15016278423167	3.935803045813391	-1.824422000552143	0.2768813156792277	-20.8907146003936	9.451973555120817	52.77064208624678	7.346504205000788	-7.209290671705186e-14	70.28526163967288	38.76688306970082	26.1759011627256	21.79267429978459	1.987356446983437	-21.07075011839369	39.21591687378287	3.831923844617601	-2.186308677190238e-13	18.75665629985756	-21.77035063334974	14.05034661240916	4.80832349179288	18.30763924514743	13.44818089350602	-4.264438551744024	-19.58090195200532	-2.243402887028112	17.23489082332053	26.43879716304808	1.14901271497912e-12	0	0	17.85509597602391	0.06665049993164052	3.741680256851473	21.30296268332589	1.14901271497912e-12	0	0
