DataType=double
version=3
OpenSimVersion=4.5
endheader
time	pelvis_tilt	pelvis_list	pelvis_rotation	pelvis_tx	pelvis_ty	pelvis_tz	hip_flexion_r	hip_adduction_r	hip_rotation_r	knee_angle_r	knee_adduction_r	knee_angle_r_beta	ankle_angle_r	subtalar_angle_r	mtp_angle_r	hip_flexion_l	hip_adduction_l	hip_rotation_l	knee_angle_l	knee_adduction_l	knee_angle_l_beta	ankle_angle_l	subtalar_angle_l	mtp_angle_l	lumbar_extension	lumbar_bending	lumbar_rotation	arm_flex_r	arm_add_r	arm_rot_r	elbow_flex_r	pro_sup_r	wrist_flex_r	wrist_dev_r	arm_flex_l	arm_add_l	arm_rot_l	elbow_flex_l	pro_sup_l	wrist_flex_l	wrist_dev_l
0	-0.3346005454411984	-0.1720856053078731	0.1297731732938763	0.1688208797679452	-0.2173736248431813	0.1984977781056256	-0.01492954749119801	0.4852118460642018	-1.266504672549668	0.05351678790567942	-4.066623667251007e-16	-1.742563521828008	-0.1241059570369631	-0.4274892254545922	-0.4301887289383959	-0.5436040365464004	-0.5245838398834339	-0.003393108991363081	0.6081588838161476	3.810308149280355e-15	0.3222893037747587	1.219875772949596	0.6617565285400502	-0.2657679701311344	0.8010638807045934	-0.2793654250265576	-0.5157070537176243	-2.222207824265682	-0.016222052739714	0.3529202166400519	0.8596067289256717	-4.973519903545247e-14	0	0	2.027197689012552	0.1261678250012603	-0.2731374255300366	3.237032104926826	-4.973519903545247e-14	0	0
0.009512856113114032	-0.3891242645324908	-0.2786639131934956	0.1266945388035393	0.1714954403523756	-0.2234298569225959	0.2212475223833611	0.1027533434518918	0.6326411024961274	-1.804081292921573	0.8749040455602423	1.752680930012193e-15	-1.033779642161637	0.2319366986760043	-0.3919990090437162	-0.4271686537399937	-0.3301360507512165	-0.6344507978479038	0.06556215525404518	0.742716607056327	2.719172260944688e-15	0.6228994918354087	0.4623530175908614	0.02873852501706164	0.1590483893629711	0.8934029967669054	-0.2037053977785442	-0.5760304887891261	-1.667225683279959	-0.003836178757640196	0.6632542949655738	1.351955756738366	2.986789989841251e-14	0	0	2.007143416248621	0.2072230261010354	-0.2755550572633503	2.942875478682162	2.986789989841251e-14	0	0
0.02645588447305514	-0.3847733699296704	-0.5129330020937874	0.2494901900198855	0.2101470615302281	-0.214754191387577	0.2385111705343021	-0.01580931205998526	0.8085149920088883	-2.136899138893755	1.803923283561517	-7.816198643110825e-16	0.1419461760653826	0.642360844619275	-0.8689984381087583	-0.4197841223712433	-0.112209228946356	-0.8930950359857983	0.3952212896494195	1.298677588213438	9.328199163394646e-16	1.228876852872951	1.098068894446393	-0.3146060945724544	-0.06243866761040806	0.9773442175498861	0.06556477979265812	-0.6596138665702301	-1.522602802093668	0.0500104597714702	1.247798751402365	1.50863098611753	-5.985126716386151e-15	0	0	1.521578865148674	0.3784244736361838	-0.3583747482323748	2.515248350085478	-5.985126716386151e-15	0	0
0.04083125941383081	-0.2260026131665335	-0.6099651643856281	0.4224617254672519	0.2700732499388081	-0.1946579648094468	0.2337039140203796	-0.4052656649510992	0.7191042242171484	-1.651257739254823	1.869244080775295	2.074003161698089e-15	0.9645412816101985	-0.320726235617425	-1.031543207348588	-0.3157029849168442	-0.2009439400816748	-0.9993451331355482	0.6442120077587089	1.496803243154415	2.279202188640683e-15	1.842487625955602	0.6967145292773076	-0.6670554177471187	-0.4288767122696862	0.8893131506668867	0.2244333389873421	-0.6411465361903621	-2.294272279961204	0.08287908183741649	1.31103338376646	0.6935294753959051	1.745048119133162e-13	0	0	0.9347307900210484	0.4193276468813804	-0.4170053117456886	2.615698653766005	1.745048119133162e-13	0	0
0.04479999999999995	-0.2081642485529389	-0.625546245779029	0.4405176173683656	0.2752826186125251	-0.1907867421609228	0.2349790451842177	-0.4509418041416837	0.6971738937681697	-1.375083289863086	1.727812888052787	2.213083382791467e-15	1.155928025329121	-0.5220769254339294	-0.9361703783069195	-0.289555914402871	-0.1476158501283162	-1.01524242261061	0.7155521436156953	1.689692480698441	3.240908369353836e-15	2.025377118995442	1.026138241010814	-0.6995090996668234	-0.3620598276345699	0.8697759788140634	0.2486237416431167	-0.6446265286851203	-2.312301210301992	0.08625954419915105	1.313551404989377	0.5993963927798229	1.58521344024568e-13	0	0	0.8336247362708508	0.4293901372663251	-0.4181359402945977	2.589052170515925	1.58521344024568e-13	0	0
0.05431285611311398	-0.1633394731851577	-0.6524368333627932	0.4623966313694547	0.2843060808856157	-0.1719296861369716	0.2418704614658967	-0.629746407212629	0.6981272610636511	-0.798282386476826	1.290421888118625	-1.938396717067538e-15	1.541091239998905	0.9091636922629278	-0.4234009458746655	-0.3367601351855596	-0.03187242329045598	-1.054069417721065	0.7483141832797642	1.947657932567628	-1.34785711603414e-15	2.486568306150561	0.6647029081798053	-0.9353132311706442	-0.4173904667070121	0.8156349897293221	0.2868969804636003	-0.6564818191124413	-2.183943679309033	0.09749186593413323	1.291498183569662	0.3442417386039849	-1.030956187129701e-13	0	0	0.5943698941750283	0.4507202830388817	-0.4286007304210283	2.569462642105986	-1.030956187129701e-13	0	0
0.07125588447305514	-0.05571922202834329	-0.6985958043035259	0.3417380779453579	0.2596908606142879	-0.1050890857996409	0.2737386967270245	-0.5318366466867929	0.9087608988130151	-0.3984188806639433	1.668032595384997	9.784772224709764e-16	1.948671996261044	2.55248743925871	-0.1777645890439919	-0.4455897453035351	0.2815953337196835	-1.116149511832257	0.6581532370468925	2.664027699490743	-3.91253676330335e-15	3.363794173169425	0.2817327732291657	-1.32479304242794	-0.9707528566792007	0.6055854414600492	0.3284183966565957	-0.7046553318509272	-1.074865648062104	0.1384205002585994	1.006923505490293	-0.3376289121805365	-8.552090385235269e-14	0	0	-0.2091352796054815	0.5260917705531476	-0.4769514191676336	2.130779178321815	-8.552090385235269e-14	0	0
0.08563125941383082	-0.03322501508045472	-0.7205762237047658	0.1817687983996348	0.2167844692626986	-0.04423499965032335	0.3093752123079199	-0.2793663808706383	1.115710111661683	-0.1647793526231799	1.897734072114412	5.876691599291441e-16	2.001607842733069	2.0726180413251	-0.6095818055145011	-0.2606929583540516	0.7030381649136923	-1.185082706298009	0.334687627635913	3.373715425311226	6.843599670378239e-15	4.12931604876136	-0.2032482578938924	-1.468937519642617	-1.21310075338398	0.4822758239884537	0.3020219806053864	-0.7186524331684799	0.1208941785509591	0.1429944855090094	0.6831152841409343	-0.5662172472535507	9.256696751172064e-14	0	0	-0.7323865318322548	0.5716003434201343	-0.4780283884427426	1.676463439511532	9.256696751172064e-14	0	0
0.08960000000000001	-0.02595720328057563	-0.7329965238479689	0.1669852491822509	0.2129592425342312	-0.03206852238493828	0.3149314671814838	-0.3019676308126337	1.131274841496484	-0.2029304715335303	1.842004563593502	-1.558768621203744e-15	1.970784332042585	1.975307920228057	-0.5648072522139178	-0.2501646083891733	0.8002171757479195	-1.207453012755488	0.3087494214969989	3.55607972883295	2.963100571731507e-15	4.337333203573983	-0.2736359489990251	-1.517331414986319	-1.181166354431646	0.4698983178122115	0.303948492792915	-0.7080847196038081	0.2956445633291065	0.1426590666911826	0.6476057564435835	-0.6244741639969082	6.290495335975417e-14	0	0	-0.8281336515237236	0.5737603771680166	-0.4818829346627487	1.628743665610791	6.290495335975417e-14	0	0
0.0991128561131141	-0.0236096437047271	-0.7556477067295154	0.1312406534454253	0.2054902846241986	-0.005658962523628387	0.3283997723322662	-0.4378629521885011	1.182830837306447	-0.2251538248373295	1.550421388900858	-2.358378158621332e-15	1.824990924267385	1.898795718162555	-0.4801971942275493	-0.2082545921769527	1.051803026704742	-1.26440314724603	0.1998257033567822	3.959641146979426	-3.343622295078738e-15	4.81889366726488	-0.6727261370467388	-1.630421365838844	-1.25449301631611	0.4696501636691369	0.2943323499631643	-0.6816590157611654	0.7608119718531341	0.1328546848555108	0.5443923900937336	-0.6859303727639279	-2.419406363265869e-14	0	0	-1.030112100119758	0.5844077510666267	-0.4905861388230446	1.510393053024484	-2.419406363265869e-14	0	0
0.1160558844730551	-0.006496604896759364	-0.8440647799086859	0.05070648909444091	0.2048613690978774	0.03254844270550193	0.3419677433272133	-1.044078873691726	1.323896671192462	-0.2598995612170095	0.3757489236697583	2.964722778833367e-15	1.365513558189463	1.349229206594613	-0.3396991596968843	-0.2290912741352598	1.4464781535106	-1.381663591044108	0.1380099199159874	4.627658049549126	4.283528801824618e-15	5.56858224892437	-1.276853575570931	-1.992277470237734	-1.258540904306723	0.5028186804279589	0.3675580111727884	-0.5697925416196818	1.640966349013178	0.0932644504914571	0.2367259240057059	-0.8432031986587858	7.501817977666766e-14	0	0	-1.390731147288617	0.6129522221325023	-0.514078939321515	1.138017004064789	7.501817977666766e-14	0	0
0.1304312594138309	0.01063325475703311	-0.9291149708181554	0.04114020276170395	0.2072346751650764	0.05208031148121389	0.3380049286136108	-1.554682380785905	1.419536236408694	-0.29769413552833	-0.5888340313292907	-1.972552936060206e-15	0.8616771764597502	0.8984610979157276	-0.2605288829522678	-0.32300945218807	1.732227183801929	-1.484977639824923	0.1384992737725408	5.077909740587637	-4.930826378832765e-15	6.031074541913939	-1.659546208528222	-2.27438863627888	-0.6454217068208612	0.524228661197579	0.4791427828414163	-0.4433030859185639	1.803371510915072	0.04132656003872434	0.1349320344856778	-0.7573233778878257	-8.733439551258132e-14	0	0	-1.606836012782118	0.6170965308795642	-0.4924597741259751	0.7837034533516229	-8.733439551258132e-14	0	0
0.1344	0.01544120923067514	-0.948682635072446	0.03457142041501755	0.2020772571422406	0.05699545552689672	0.336473050348493	-1.621119645940464	1.445409367671247	-0.2890845654836036	-0.7313692694273374	-2.403351908345471e-15	0.7172594011429451	0.8326419077275441	-0.2510276857881463	-0.3500185377328322	1.835033028254488	-1.502679836561539	0.1801364423436044	5.245401606779129	-5.024615292181263e-15	6.122383278138614	-1.655611009854315	-2.356956150752477	-0.5292389897224359	0.5137063479251873	0.5081910193691042	-0.4157509948661815	1.879007769708269	0.03358156257323963	0.1504003139219126	-0.7165322356085653	-1.031648070536821e-13	0	0	-1.690147744821345	0.6158296833856844	-0.4872593073701471	0.682390890416096	-1.031648070536821e-13	0	0
0.1439128561131141	0.0156807030607036	-1.005062110981246	0.03772342972432182	0.1930081295501663	0.06486786744357687	0.3293405889248198	-1.698995075018187	1.523772174112952	-0.2219602737885464	-0.9094054434076078	1.105232482637307e-16	0.3788130007048182	1.032276615118378	-0.237525560376822	-0.4805580444864066	1.945692631823981	-1.554036189628729	0.1782448909761528	5.332528118764008	2.881461906010447e-15	6.268107380149067	-1.916610415171634	-2.580637974909495	-0.03995379072469585	0.5148166342388696	0.5922203235118819	-0.3631541676412555	1.92145273822734	0.005778038946769148	0.2235177568745879	-0.5608345011076634	3.660486097191635e-14	0	0	-1.751598367536361	0.6232868347411654	-0.4587848940809947	0.4446928782411268	3.660486097191635e-14	0	0
0.1608558844730551	0.07042326327809653	-1.166874323094617	0.05855154798837912	0.1585431931847563	0.0769655423160553	0.3090619951398824	-1.782583084433648	1.725445902304491	-0.08687290845947845	-1.119264963752354	1.449391196129152e-15	-0.1455568789549272	0.9683171176434719	-0.420411442749257	-0.8351917959896542	2.380256240497511	-1.700596429870315	0.5313518153829362	6.080774625073791	-2.195088373526653e-15	6.251673282597604	-1.77284971452316	-2.79890700602654	1.131183098034943	0.4016133739541952	0.8364881920979386	-0.2031746538853762	1.720897416029924	-0.1114884513613168	0.4181425723556321	0.0505334405257496	-9.352570536702537e-14	0	0	-2.016552737196176	0.6635135996704035	-0.3398791315570749	-0.5269094816071712	-9.352570536702537e-14	0	0
0.1752312594138309	0.1345240154309752	-1.198442819968071	0.06402786879982546	0.1341990301977851	0.07701871974234256	0.2912396162636194	-1.830833635016187	1.753471626531933	-0.04282486315694154	-1.240557813602364	-6.755151453416473e-16	-0.4677510222529171	0.5035219198185135	-0.5330173010007278	-0.895128310582886	2.336108021745379	-1.780154228201748	0.4316571231842408	5.919272442219576	-3.828947416131336e-15	5.955511711823344	0.2930750393161847	-2.084631500181095	1.334113478649592	0.29694158102626	0.9038632487428173	-0.1222947450202161	1.631950424690872	-0.2249996216345582	0.5542191602597932	0.7858702195849876	-2.232143989955005e-15	0	0	-2.105020265127346	0.7079578913483099	-0.1885281287910834	-1.331112507133109	-2.232143989955005e-15	0	0
0.1792	0.1450930083303815	-1.19272011603644	0.07027725934609656	0.1263039951210203	0.07553881557239414	0.2853498891989771	-1.82522400995412	1.733507760361913	-0.05258861934550191	-1.241152235362734	-1.70783008278294e-15	-0.5344569257685367	0.4388839780876171	-0.5041482029394656	-0.8892036324387758	2.316830607094309	-1.782906689532719	0.4080085230303472	5.831430962709944	-2.56768631745327e-15	5.830558176661789	0.3104719174631438	-2.095111591956837	1.50346078094282	0.2697623880113078	0.9062523712206942	-0.1091047717811525	1.634938185417772	-0.2441542403838057	0.5853335551466203	0.9019497476088238	8.268838345397386e-15	0	0	-2.142980873888273	0.7146537126503235	-0.1579452633370031	-1.492617373569628	8.268838345397386e-15	0	0
0.1887128561131141	0.1660627331036917	-1.164087702781699	0.08505303201235932	0.1100383413578578	0.07755368258785414	0.2710260546596963	-1.803921398819944	1.682070578995329	-0.03715342639507065	-1.216205586686662	-1.036365299469831e-15	-0.6565816742206276	0.4332642917291845	-0.441122485563442	-0.9002702873521393	2.178981919678673	-1.778096054496699	0.3279384351302206	5.043213940561165	-1.20503983937179e-15	5.462332339190416	-0.6279742747812052	-1.286507290756207	2.19309104382614	0.2194517274908332	0.8963486326620197	-0.09213808364410968	1.676546371007762	-0.3010222281241373	0.6811840119509409	1.285477703742406	4.571206551110974e-15	0	0	-2.119192168218075	0.7419117857530577	-0.07102528595946053	-1.852719060960322	4.571206551110974e-15	0	0
0.2056558844730552	0.2486134690999047	-1.008681135412713	0.1740137411397678	0.06715981780800229	0.08815944287524133	0.2307594930804388	-1.803321688403129	1.437221571783646	-0.07654088888334695	-1.168296791143933	-8.990371328455645e-16	-0.7607609023756499	0.1810948521344184	-0.3486459849734819	-0.7899841810439105	2.074925241105183	-1.507973333559274	0.4935084841791821	3.767154513732514	2.788732350583458e-15	4.60566116203066	-1.341223044791945	-0.3757695086932716	3.114128906136776	0.02747143473876951	0.7862515665414544	-0.06498360231096112	1.604338214607671	-0.4651360492360427	0.8309423671770826	2.268179272555773	-1.937776164790238e-14	0	0	-1.959846167481979	0.8268306752216099	0.1636373120725959	-2.945270982067911	-1.937776164790238e-14	0	0
0.2200312594138309	0.2916268858249668	-0.827911829745281	0.2588190461047107	0.02639151216787754	0.09377734367749491	0.1937198107418741	-1.751690272216999	1.172078862002357	-0.1297119909880386	-1.078222437904699	-3.057305887502657e-15	-0.770281615335686	-0.01538009867856932	-0.2806797634794014	-0.5114387793095274	2.124350914029316	-1.164566673701005	0.6336192730737534	3.010393765181574	-6.204833051481167e-16	3.738255063665774	-0.7278258262034296	-0.5319684045257833	2.887480997138963	-0.1279432716077618	0.6454737467769357	-0.04904272951913361	1.595122922672305	-0.5601049136518451	0.872378352562605	2.746068011677637	3.371918084391109e-14	0	0	-1.916033435768283	0.8643739727729116	0.3074725719737174	-3.689656588702876	3.371918084391109e-14	0	0
0.224	0.29739776429961	-0.7937755632459907	0.2764511125536422	0.01608234458001623	0.09505483865559164	0.1846868283408762	-1.729144984882286	1.123042214830236	-0.128903074599947	-1.047648156472719	-1.951909078924837e-15	-0.765564793939325	-0.02521515273893871	-0.2715431303299713	-0.4642150273479775	2.147264841899586	-1.096671686464501	0.6551411678422729	2.804794402298821	-5.081031867719174e-16	3.484897850036002	-0.6513408011159123	-0.4501377198370972	2.841389088524888	-0.163014796465011	0.6253971000658538	-0.04236007752880787	1.599064293121519	-0.5751412453277526	0.8878678871720893	2.805357938968583	4.87837616396241e-14	0	0	-1.938512162187719	0.8673634279805135	0.3313507938173769	-3.830326830058367	4.87837616396241e-14	0	0
0.2335128561131141	0.3125681325005888	-0.7045543515719678	0.3242023771823609	-0.007464379995334128	0.09742235677197236	0.161555458596853	-1.687944154286476	0.9946380360307197	-0.1337410503665858	-0.9814827699255835	5.387261507429058e-16	-0.7484478386470659	0.0185370653181689	-0.220703992893572	-0.3536407207400021	2.170445206161885	-0.9183660488270328	0.6614843335084041	2.28730827279531	-1.199676626609512e-16	2.86458220118034	-0.2024093403933365	-0.5879082053051631	2.647527612746933	-0.2418058509603083	0.5720318793966684	-0.03901976498365269	1.656666291919758	-0.611634690291371	0.9344433894544584	2.932938009059029	-3.344924217826251e-14	0	0	-1.923756043305358	0.8791829573651715	0.395378552546581	-4.132463415266707	-3.344924217826251e-14	0	0
0.2504558844730551	0.3682698689612748	-0.4318929833307337	0.4796180128112795	-0.05448118701894164	0.1019826462184224	0.1151234215073657	-1.656506781643126	0.6355463084502018	-0.1689410388039283	-0.8809632058186447	2.27397800209774e-15	-0.7203827793781804	-0.007295266026586644	-0.2078549109832971	-0.02845448682521201	2.243233076814718	-0.4251553879338569	0.7432866899532407	1.513001164499689	-1.665425112966383e-15	1.749947643165755	0.3936231398449526	-0.9807246471809998	1.45455146546917	-0.4400592532292475	0.3369945589552741	-0.073532370121057	1.63106730897305	-0.719841619480023	0.8174944161105451	3.148890913747424	4.824057496013157e-14	0	0	-1.701708654606595	0.9243113526757595	0.547288911177891	-4.945611807378882	4.824057496013157e-14	0	0
0.2648312594138309	0.3843247411292853	-0.2483570156662062	0.5730239947603394	-0.0847953236609385	0.1033224650731757	0.08586557457926053	-1.631119390952392	0.4146005791278502	-0.1600428572233477	-0.8498225517626269	-1.583702626756777e-15	-0.7221419974982874	-0.01287576250319356	-0.2504209990868462	0.2194727081666842	2.263124071594087	-0.1332688995310688	0.6721396378551696	0.8042754931533467	-2.847951250592453e-15	0.8282096900375213	0.1876227315524341	-0.6516588640527154	0.5979079391025902	-0.5492909033708845	0.1756900606508107	-0.1011369076835657	1.646058425354034	-0.7720794730985541	0.6533131666579404	3.147977042860245	-6.373983754353688e-14	0	0	-1.558802896322769	0.9317364888074313	0.6121372205011357	-5.415735871962053	-6.373983754353688e-14	0	0
0.2688	0.3843651988471479	-0.2156978160213568	0.58783644774358	-0.09225521284437782	0.1031852959524839	0.07951100228862196	-1.619036486885818	0.3774049353650138	-0.1509130363185816	-0.8394276375780195	-5.927904930288165e-16	-0.7289501253936953	0.00839947287584214	-0.2569055845232348	0.2583435952656694	2.27098356322338	-0.08087551080009581	0.6491584550272985	0.6285260710860718	1.774694466982181e-15	0.5801849289541481	0.2209639685057749	-0.4591520577234176	0.5070298166480129	-0.5738253433835695	0.150542349896795	-0.1033477072087338	1.651461908203433	-0.7800202643498731	0.6375472514122928	3.148036510303973	-2.195729839439724e-15	0	0	-1.558422636933897	0.9298874120369022	0.6235940012774572	-5.509812550393806	-2.195729839439724e-15	0	0
0.2783128561131141	0.3857380145948062	-0.1465135618303148	0.6195699267259088	-0.1075132099922469	0.102201987950049	0.06480871240001967	-1.612675726462324	0.2949826227030338	-0.142530754061372	-0.8420304181769614	1.915575025289119e-15	-0.7581219987071315	0.08560692222853572	-0.2279225974967773	0.3429442076803874	2.235220940459356	0.02358877799304576	0.5390002275401818	0.1326522251644472	5.815528115242545e-15	-0.002243944599148208	0.3896714973135469	-0.2254776935941465	0.2369560255718232	-0.6215884859095994	0.1007035294973885	-0.1160259845941611	1.716960416600006	-0.7975353248494772	0.6065321628533695	3.158483160714348	1.037003172510352e-13	0	0	-1.488486016432981	0.9256901079234898	0.6504443654221038	-5.697629169813031	1.037003172510352e-13	0	0
0.2952558844730552	0.3848574636340517	0.02140614083319481	0.6965285782084315	-0.1322598024449171	0.09875296634292727	0.04165797126749371	-1.628387753467258	0.09847387118054796	-0.1647101894609005	-0.8916932649240121	2.710784409963112e-16	-0.8573012425930844	0.113913587164077	-0.1925191108807526	0.4974297624494994	2.117152851131433	0.2635042238551463	0.3493006300666248	-0.7802660912386382	5.550244314006618e-16	-1.002999401243888	0.6398245352822023	-0.03690305421097173	-0.5087669108948667	-0.699448379765477	-0.06166620178776588	-0.1601716207561828	1.785425067122694	-0.82890302107953	0.3514185893876258	3.193547949004119	-1.696284630057879e-14	0	0	-1.198328239565336	0.9013415876166977	0.6505220442964135	-6.155406840510704	-1.696284630057879e-14	0	0
0.3096312594138309	0.3502986779084872	0.1010477156098096	0.7109305467551791	-0.1441742067027472	0.09273979413108085	0.03213959092925829	-1.633320823500954	0.01662430560519076	-0.1621215088454032	-0.973404236284483	-1.031662303804021e-15	-0.9870601912376618	0.1646452841422845	-0.1425680331846549	0.5532482074213048	1.996441562400315	0.3451143458691847	0.1702579691898622	-1.543063450685227	4.090687021360163e-15	-1.828684155915717	0.2063760565592632	0.4681759098098797	-0.5371140998621629	-0.7037372682873192	-0.1484929771894488	-0.1730609605465729	1.834868837740737	-0.8244956798565282	0.1702216863019607	3.268397616905363	1.063085901690954e-13	0	0	-1.046103303572356	0.8543179492018097	0.5997057158403274	-6.368021645768666	1.063085901690954e-13	0	0
0.3136000000000001	0.3405549975868076	0.1140318100213173	0.7102637756887747	-0.1469931355692024	0.09084229074246211	0.03031196732141807	-1.632714788715548	0.005277573127075968	-0.1577306651705231	-0.990886177488727	-3.100954214157934e-15	-1.029376885684971	0.2014124188520387	-0.121432708890623	0.5633026906384643	1.962291061163796	0.3571158411474972	0.134891020275256	-1.736630347962147	-1.273302215239211e-15	-2.054838312712737	0.129157646192401	0.6776128153357188	-0.5087606682490693	-0.7041192779856927	-0.1645252038783853	-0.173728700019924	1.854269049523956	-0.8235917327937503	0.1507456943730628	3.299937040797149	2.894793071489276e-14	0	0	-1.023427135378499	0.8442200344295919	0.5929390849809397	-6.402217550690879	2.894793071489276e-14	0	0
0.3231128561131141	0.3132534592263886	0.1361973372599234	0.6968865642074414	-0.1526647566690545	0.08549749675718091	0.02607931916408386	-1.636990627358837	-0.01596310601735212	-0.1542574221429698	-1.052158656087801	-4.185583341707337e-15	-1.140202176351669	0.2500743308738411	-0.0525074967572241	0.5723899519911623	1.842657445768914	0.3791243001127886	0.02906014256895545	-2.246943006953221	-6.92473324671968e-15	-2.595572443951996	0.2168699158716325	0.9585097250734662	-0.4627114014937626	-0.6945632729900635	-0.1895960255611435	-0.1741505094005836	1.950172639740293	-0.8169133269787928	0.1184621442922928	3.403136606768913	-1.494803721758365e-13	0	0	-0.9346799626402551	0.8139668431080002	0.5665245951108616	-6.45606004832256	-1.494803721758365e-13	0	0
0.3400558844730551	0.2235921126675706	0.1814647666247087	0.643139684652718	-0.1580311306381076	0.072547677955872	0.02253234035039922	-1.616043095489081	-0.06302601461938254	-0.1506534100534573	-1.186574587817746	4.374539651446666e-15	-1.359644444796228	0.2144338213462497	0.05269513745430315	0.4907552422575398	1.63168364580075	0.4536979494376631	-0.1166248456352846	-3.14690376074405	3.556198466795103e-15	-3.553176383034298	0.3586209084831147	0.9331853728340691	-0.4692510981925353	-0.6293302010480026	-0.2560505529237999	-0.1474589777477252	2.015390044021874	-0.764391790383437	-0.05972970251308246	3.714324668376896	4.468345921298389e-14	0	0	-0.8324916233393211	0.6978598763742989	0.4059668040720664	-6.551847834119501	4.468345921298389e-14	0	0
0.3544312594138309	0.1376041103141362	0.1876020225072006	0.5764466780174627	-0.1557287619460304	0.06170732040901299	0.02259768111245685	-1.584283123705904	-0.06514028192960383	-0.1248198522848115	-1.285367858118196	3.409367558428838e-16	-1.549848967182293	0.2244361074032134	0.1404267791573215	0.4015643018926173	1.44894899152464	0.4839512492710946	-0.1519511103757822	-3.856255854338632	-9.941782903143806e-16	-4.34466353049247	-0.1866384054235498	1.050564172934159	-0.2652761855330477	-0.5518882269439523	-0.2891612529357847	-0.1004414113791301	2.005981060342518	-0.7050300581526397	-0.1430519934154414	3.996802206731463	-2.741812062110965e-14	0	0	-0.8948671095587024	0.5926787086813101	0.2681643907885908	-6.480873580093305	-2.741812062110965e-14	0	0
0.3584000000000001	0.1206692386890534	0.1874604717328879	0.5608430620726058	-0.1556899613866404	0.05930083177702661	0.02253092856566397	-1.577245925437386	-0.06165747413885206	-0.1105822080963657	-1.30399962895897	-7.541838551485414e-16	-1.600056051034741	0.2427515859132796	0.1531310022840038	0.3874987306336148	1.395218838209732	0.4914743626523115	-0.1354910530077943	-4.031594942588934	-3.774439371283664e-17	-4.555361585282441	-0.3012593010523669	1.242838905947948	-0.2240302870571103	-0.5400814666262549	-0.2973955528404265	-0.09148910605569036	2.034267812294154	-0.6948574990456039	-0.1454532167264733	4.052566887238498	-3.267020899425088e-14	0	0	-0.9107651799561991	0.5735405064875468	0.2477301359023753	-6.457309572765833	-3.267020899425088e-14	0	0
0.3679128561131141	0.07886845655095848	0.1792445178110264	0.5081938925043654	-0.1529316087837471	0.05336124483247867	0.0225386713548578	-1.563935801057705	-0.0482692107758162	-0.07338041048479217	-1.356220441546304	-9.688899871124439e-16	-1.711853961614279	0.2508774548768066	0.1986448583602815	0.3195535055420854	1.23937411513459	0.4989935594869939	-0.1028433414735016	-4.474453823947487	1.160837800796531e-15	-5.037331257160229	-0.6634963330069349	1.44043123761497	-0.1627602957017611	-0.5034106779783715	-0.305097541945011	-0.0629358676497057	2.109817750977413	-0.6640371019583852	-0.1334613521862504	4.226133100357231	5.247261344017327e-16	0	0	-0.975590488405472	0.51967841259445	0.1881360876268362	-6.370131667782974	5.247261344017327e-16	0	0
0.3848558844730551	-0.02023944866155642	0.1439333563987652	0.3731362959010002	-0.1395940244283549	0.03924920740700949	0.02862133026827696	-1.503665371021662	-0.005500520765060246	-8.883250871875858e-05	-1.427954434465333	1.179681599017005e-15	-1.863757608042546	0.1538146142656921	0.2644931128157439	0.0182188612053974	0.9873739935924801	0.4732455680216348	0.04438402805633396	-5.175432975371878	-1.90225063183144e-15	-5.769723708050472	-1.498169377180637	1.737620009510876	-0.3363469984914711	-0.4079620703159555	-0.3154006970705242	0.02948484567441131	2.085304860590892	-0.5463885318778207	-0.1927754983311833	4.557347762298346	-5.536405108475592e-15	0	0	-1.362613618259957	0.3526526789040608	-0.01547520794629091	-5.986077237099436	-5.536405108475592e-15	0	0
0.3992312594138309	-0.0758960664094977	0.09426617065051279	0.2908229883405025	-0.1259678022835573	0.02683864588434764	0.02982952526144709	-1.464026671696381	0.03824980824222807	0.006884894426691296	-1.440647370737731	-2.439628962286868e-15	-1.923513098813741	0.1282770740668532	0.3788376149108654	-0.1811983496816441	0.7839662183680751	0.4404912188964691	0.3411119241188975	-5.614303641613923	1.291336662210382e-15	-6.19580957334839	-2.933163846973406	1.783361122145122	-0.3965179663903935	-0.34565670643306	-0.2976192964527135	0.09717812261020753	2.065819779412093	-0.452002694176333	-0.1864169894929787	4.693679848461641	3.817413857996717e-14	0	0	-1.670279767823843	0.2324380488190718	-0.1295832588834431	-5.5314338917142	3.817413857996717e-14	0	0
0.4032	-0.08441784712979644	0.08410013005405487	0.2758869333870926	-0.1230076313118637	0.02312531574978326	0.02883526717596612	-1.454307114747366	0.04843290215931302	0.01634140680534288	-1.434809423903994	-2.940234426427637e-15	-1.926260478837609	0.1290671588584035	0.3863954618092376	-0.2108746804863391	0.7322429645074311	0.4388087676737369	0.4509191164717706	-5.681759703554879	1.497139176722071e-15	-6.272077372527242	-3.277270172706475	1.806808471711306	-0.3888825787766319	-0.3352967338147038	-0.2930389378363922	0.1084896745603025	2.084039518229363	-0.4356768411378847	-0.1703759641223395	4.718189015902635	-7.175713811985125e-15	0	0	-1.711106639222009	0.2107476307254499	-0.14386815014982	-5.430093192622844	-7.175713811985125e-15	0	0
0.4127128561131141	-0.09846785597277299	0.04771408135986341	0.2380244230049121	-0.114160594502961	0.01283808150519574	0.02455547263130641	-1.432046144712364	0.07940510191281321	0.02372052266100173	-1.405005393727342	-1.579020175789372e-16	-1.906038860130873	0.1348437240834156	0.4390482709790544	-0.3069396385155878	0.6111249598624788	0.4150955262659775	0.7028333423649891	-5.750272501884148	-6.543705996070277e-16	-6.369788675427323	-3.836468165515207	1.762608162756527	-0.4811347251826477	-0.3041789836047356	-0.2576051005497885	0.1369305536262736	2.14673856110077	-0.3903211013036598	-0.1128525395716895	4.775043028281384	-1.630863282647196e-14	0	0	-1.786781891450132	0.1518869644099095	-0.1796769257579071	-5.114766237386189	-1.630863282647196e-14	0	0
0.4296558844730551	-0.1152647986507587	-0.07003150259666939	0.1716077349092442	-0.0913278770735188	-0.01080260983893121	0.01440642121740972	-1.383079751870599	0.1902797515888319	0.03683247031767609	-1.323219158104314	1.610419595450624e-15	-1.771481829098757	0.1018535059212539	0.50145503576617	-0.5842143374812299	0.4741201570219474	0.2903245053683982	1.140316493146502	-5.521538075376024	-3.179887079310372e-16	-6.212294905967561	-3.966863400787352	1.609419642347406	-0.9307380035205672	-0.2269229855387183	-0.1179064996481639	0.2138178592363728	2.130416287386151	-0.2477608420601699	-0.07341401214361182	4.721572449406386	4.468746469543671e-14	0	0	-2.082848330761763	-0.008180851631671343	-0.2636489367663421	-4.024462304895102	4.468746469543671e-14	0	0
0.4440312594138309	-0.1095319777371074	-0.1365367101315478	0.118649804483189	-0.06880073204634107	-0.03375154220479717	-0.005053394290948074	-1.363541988224279	0.2305450671420639	0.01608169567175347	-1.216392480929978	-9.005508877414487e-16	-1.559626077970486	0.156807925220657	0.6413226758865311	-0.6753195751647105	0.4038564232449335	0.2080586436510429	1.316151321610138	-4.939059359118171	2.782939433417501e-15	-5.725497962315068	-3.308901869504051	1.425872147205891	-0.9535772532410696	-0.1593064063412787	0.007979160091385357	0.2624948500673369	2.191150379446013	-0.1558601245483987	-0.02170634889893558	4.613067752236597	-1.020771220148838e-14	0	0	-2.270262573663435	-0.1071291183211205	-0.2584024879495705	-3.166321489106142	-1.020771220148838e-14	0	0
0.448	-0.1072892649687025	-0.1371948234437059	0.1070103412859863	-0.06263226743121583	-0.04026159196675847	-0.01124126419735735	-1.358529832229435	0.227947882913155	0.03302538084879784	-1.185013408506451	-1.707703829101833e-15	-1.486658221691598	0.1823356073166311	0.62975669595767	-0.6749235179524642	0.3953236599605643	0.2036283770707997	1.326216578025331	-4.720361568929581	-4.446872618996561e-17	-5.535518731139792	-3.188868861485132	1.357741238818637	-0.921209348111401	-0.1427321850891463	0.0249387207017831	0.2688210591219531	2.208032584375375	-0.1421858062553117	-0.01162803941972301	4.610330426614015	-4.294774834220318e-14	0	0	-2.296713984379533	-0.1233347079679053	-0.2502168053928505	-3.00334427384082	-4.294774834220318e-14	0	0
0.457512856113114	-0.0991602848712642	-0.1446769192261136	0.07052419884385874	-0.04619920889388879	-0.05679856521077339	-0.02810733672680846	-1.346904882605973	0.2153387628909365	0.05707844354310493	-1.092348384993475	-2.887086231489681e-15	-1.289626182048406	0.259494922712359	0.6857917183284978	-0.6984427440846925	0.3939751725051642	0.1855992844047429	1.254448315943522	-4.087923531876061	-3.408068348699444e-15	-4.99109433992971	-2.416975466875298	1.278607888938439	-0.8935228363441825	-0.09743897942703331	0.0841526986482946	0.2878878063615807	2.260463575320132	-0.1058298329717354	0.04619754742068871	4.582994405650706	-9.783993103825961e-14	0	0	-2.386703676101264	-0.1662737280381928	-0.2223530860069733	-2.598074226669151	-9.783993103825961e-14	0	0
0.4744558844730551	-0.08847765713266098	-0.1417033542106078	0.01100397780695799	-0.01354491216047755	-0.08583429133413867	-0.06286795863037578	-1.297673072109734	0.177049059994324	0.1218401971001863	-0.8815117213136963	4.723076687863552e-15	-0.8792484760034762	0.354328249114756	0.6601762376481682	-0.605283859051891	0.4315969094464516	0.1919519947491357	0.6959733298068989	-2.755460837889966	3.467004198607563e-15	-3.769388679089063	-1.058757163135914	0.9091699022442092	-0.8804956852595838	-0.001204573919616057	0.1843039575292848	0.328716786385558	2.242893094204656	-0.008240384240861293	0.04342220170687172	4.325745572092049	3.698317039974915e-14	0	0	-2.69566322925117	-0.2547942312844912	-0.1129141085396873	-1.420667923159123	3.698317039974915e-14	0	0
0.4888312594138309	-0.08057221387416869	-0.08039308511456307	-0.02273666432182542	0.007395935703336132	-0.1061531941485196	-0.09635974313722777	-1.219809619659881	0.0666705839834484	0.0908276885124589	-0.6171348351812938	7.088196181230105e-16	-0.5000607803810165	0.4850937309718247	0.7049006241037929	-0.3044749340162813	0.4711547389534465	0.2985637209580059	0.06794516354084129	-1.602839958420791	-1.053328027930968e-15	-2.587240933099672	-0.7037366377943808	0.3805390891598619	-0.6015442075149688	0.06121191391048749	0.2116092390384097	0.3541581998329414	2.240621326177331	0.0478363352499494	0.09737718957414321	4.031851563831675	2.145860517229128e-14	0	0	-2.738283093191095	-0.3026880172766947	0.007141178671617249	-0.654628222405035	2.145860517229128e-14	0	0
0.4928	-0.08346449820916335	-0.05910725066528535	-0.03105453179531315	0.01220515920222597	-0.1115926952888576	-0.1045296651372924	-1.185934943062047	0.03977403066771704	0.09246249136915938	-0.5323797500826586	-2.033638314084817e-15	-0.394697551251283	0.5641572404598978	0.6706193758835338	-0.2468967493945387	0.4836536653581758	0.3300329119131964	-0.0932081764265302	-1.30315513087944	4.1976357282972e-16	-2.255033913593879	-0.6514758607920045	0.3850151071459773	-0.5205389687681961	0.08017887229314401	0.209958605834251	0.3574935182157308	2.244822549923933	0.0567137107168024	0.115520175488665	3.990394976625002	-7.06429873372746e-15	0	0	-2.712925536726897	-0.312083537059523	0.03224272041455881	-0.5051446771503382	-7.06429873372746e-15	0	0
0.502312856113114	-0.09537702239403642	-0.01318041302504769	-0.06586844001768255	0.02324062639233199	-0.1250686544148631	-0.1247918923930927	-1.094785748305107	-0.03969270364452421	0.1053092558761055	-0.3223336947778772	-3.355020949733855e-15	-0.1468528326669483	0.6895093593596902	0.6765582826513407	-0.1004736553884202	0.5131334934137898	0.4028957089321136	-0.4729436435946011	-0.5813405227025685	-1.874724648690209e-15	-1.474260626542336	0.03000846816042424	0.315454190250942	-0.3896646947523024	0.129963898539275	0.2173370314087525	0.3709906630765585	2.315277692429014	0.08026963697667111	0.1945770032804236	3.880163797355558	-6.168285170877749e-14	0	0	-2.649351274073971	-0.3370459435482834	0.101575934281919	-0.1616534557154801	-6.168285170877749e-14	0	0
0.519255884473055	-0.179422166759277	0.122645777172829	-0.1265896358851142	0.04283162829911552	-0.1487397602802036	-0.1589255875315777	-0.8529336933432317	-0.2366487381980331	0.1255689417693931	0.0826783091929548	1.299703283175404e-15	0.2587494964436318	0.9477174474235182	0.5882900282368676	0.3089385732504299	0.5478294380271678	0.5874169524407453	-1.240702417606756	0.4672226934091063	-1.91665369299584e-15	-0.2280776647262242	1.056119540168451	-0.4253690514576031	-0.14426047585315	0.27474879460518	0.1366033711279442	0.3971564404869425	2.323921274822681	0.1391654908448047	0.22977856436057	3.464886018046596	-3.852987966261986e-15	0	0	-2.513909232141356	-0.3703495570724872	0.2861812863289768	0.6319977865217672	-3.852987966261986e-15	0	0
0.5336312594138308	-0.2480252763397965	0.2349762805521468	-0.1832164877526501	0.0622593873535917	-0.163873470900417	-0.1833936244865678	-0.6815181898110207	-0.4049191493697226	0.0822533379345462	0.3734349964413877	-2.633420356917664e-15	0.5483186616994857	1.081257357882872	0.5928718383423537	0.5563005695647624	0.5081971009825718	0.696772704562386	-1.535012367284589	1.03194127352004	-7.894911427499615e-17	0.590139977241392	0.7318131692540089	-0.8039595523947795	0.2290414180272967	0.386715904224218	0.05115023346677625	0.4182991904077802	2.296036171937584	0.169514108408705	0.2581791163728692	3.180313468386449	-5.378123627543314e-14	0	0	-2.37942657650297	-0.3814131424430114	0.4055356725066998	0.9269778351654647	-5.378123627543314e-14	0	0
0.5376	-0.2586042449690651	0.258753462454843	-0.1984541650973342	0.06749243190520465	-0.1671066610476977	-0.1888873865301671	-0.6445655430249397	-0.4366696920366204	0.06646284552213522	0.4523376971717371	-2.549443928204267e-15	0.6181997495295698	1.160763087065253	0.589247707916122	0.5838173207317261	0.4852211923706136	0.707808594698045	-1.545619718661616	1.155332267235056	-1.749180424547717e-15	0.7695038410903844	0.6043785874830567	-0.6419536463759186	0.2814350626389833	0.405771183521738	0.03410856895109482	0.4221054592233817	2.312776158418994	0.1740110233053695	0.2671300113014151	3.155607162212076	-3.922944532224963e-14	0	0	-2.339845777883735	-0.3836347033229739	0.4279262953480863	0.9795044000628348	-3.922944532224963e-14	0	0
0.547112856113114	-0.2975719778249829	0.3100468594042524	-0.2576254687035778	0.08154233882455136	-0.1758484635374387	-0.2007581190493916	-0.5578392528082751	-0.5234673322090214	0.06519592722917156	0.5999752483552352	8.135052589734825e-16	0.7684864816144061	1.220081222790683	0.6160441697643237	0.6122427846111	0.4292593513277191	0.7234725781152191	-1.438562279531383	1.390981970545432	1.786231799033837e-15	1.115185876288448	0.2481193732581575	-0.4499485042845393	0.4211647934549341	0.4678361989015676	-0.002658903694933462	0.4409491974121346	2.411755866203048	0.188773354853128	0.3241527740226088	3.119444158632503	6.073589169871122e-14	0	0	-2.280608944814816	-0.3915282215583838	0.4832100380425284	1.028807677384369	6.073589169871122e-14	0	0
0.5640558844730551	-0.3903305366516429	0.4443508931385406	-0.3964763144698435	0.1161703343010404	-0.188409122149997	-0.2118623219564497	-0.3943630058214991	-0.7162729376847851	0.08774028938072645	0.851012224311497	-8.65325430258595e-16	0.9870262079649768	1.266093397116968	0.6205364474957751	0.4086367966516352	0.3115648122977436	0.7669162272799075	-0.692419756445933	1.665211759402449	-4.776048160023411e-15	1.459618107667897	-0.862068945447055	0.02604384844170515	0.3886001735897804	0.6066393261741487	-0.1738421656496136	0.499142792095723	2.331942659524659	0.229340204601988	0.3154080040298063	2.961086813749498	-4.833224802555518e-14	0	0	-2.256555299270998	-0.3723267102969143	0.5842181307139411	0.7861840806797289	-4.833224802555518e-14	0	0
0.5784312594138308	-0.4195765281837316	0.5258764107887554	-0.4926136212690726	0.1475927539507408	-0.1916731906785086	-0.2229273619206026	-0.3408206721756745	-0.8509689971150602	-0.0007536183193341955	0.996509447987886	-4.019127675578772e-15	1.149062128374436	1.183127299975974	0.7285934696688032	0.09229580824146566	0.0897520967070497	0.7964391050351636	0.4101406387068116	1.517910446847792	-4.279922268445669e-15	1.541265513376402	-1.499063245539321	0.07542604589794988	0.25113818397223	0.6697849454245056	-0.2710928150582926	0.5506728674029913	2.234100595659877	0.2526511431053907	0.3083365486266093	2.910112272048631	-6.225862665985921e-14	0	0	-2.200568102842423	-0.3458054372124214	0.6144060040068572	0.3871519754790287	-6.225862665985921e-14	0	0
0.5823999999999999	-0.4260275702270012	0.539253234801729	-0.5067314792267456	0.1537979009291862	-0.1916792642726995	-0.2277693745468333	-0.317377863539089	-0.8771041792128111	-0.005429872976449604	1.047960566290964	-2.631813671122001e-15	1.194883798894883	1.19614262734596	0.7357771562890274	0.04427773149095693	-0.007128907222403391	0.8077461278036291	0.7048418252185711	1.332671873288698	-2.896587696075126e-16	1.540611111405201	-1.431755315254016	-0.001449355510868444	0.219378918165445	0.6816912057747241	-0.2788360371127407	0.5583502785822723	2.259680064520896	0.2554797288640796	0.3054545676560512	2.925061459632007	-3.174933525071471e-14	0	0	-2.136489368035824	-0.3413533375342543	0.6213920738400124	0.3517580077113602	-3.174933525071471e-14	0	0
0.5919128561131139	-0.4370787269362779	0.5600474744467167	-0.5113263103300713	0.1656981881040372	-0.1925399269465086	-0.2423626610053428	-0.2731897265350901	-0.9299827145041855	-0.09354931731026785	1.145941717038371	2.641874696033885e-15	1.314394317356814	1.118823025945213	0.7650251259861673	-0.1724775798965983	-0.04246204928889652	0.806261387592917	0.5669576459396719	1.469173848452297	7.682528115161734e-15	1.512710513270522	-0.3736466259058066	-0.4206181495205942	0.1742773517802917	0.7073754923791697	-0.2774435134051088	0.5801366592408086	2.248967789119233	0.263176555597762	0.276898477010543	2.940636373166156	6.869580775452972e-14	0	0	-1.908977028050285	-0.3220254903991063	0.6402311806081793	0.2690635371320391	6.869580775452972e-14	0	0
0.6088558844730551	-0.4485966829337338	0.6085772785394556	-0.4083713867933341	0.1558217078192285	-0.1586858796675936	-0.2732495464017344	-0.05581036905447467	-1.025306378962198	-0.3078636068769233	1.521101407308118	4.602379371324162e-15	1.590476246350237	0.8146660785392908	0.6345296160723919	-0.7722729183638071	0.3346105268154225	0.9312807285614895	0.3315656389206977	2.409136991157374	8.400643520379744e-15	1.410472251812943	2.252897024019459	-1.564029770715903	-0.2499584491304958	0.6786896762592425	-0.3008511758970667	0.6297902941211153	1.406016464839221	0.2856725020174974	0.07531979041275039	2.643220715802885	1.543053668395326e-13	0	0	-1.304052631176925	-0.2245820595037649	0.6389927228581463	-0.1365880258566254	1.543053668395326e-13	0	0
0.6232312594138308	-0.4325246964826419	0.6381943489208629	-0.3021240733814511	0.1318726121860495	-0.1016006657804694	-0.3034428713678648	0.1942345574856628	-1.115320866062106	-0.6467625258373685	1.997798668556509	-3.415102900233489e-15	1.921702736491298	0.5162188919067215	0.595175101813096	-0.9282246913418772	0.6227263989502694	1.092751823717187	0.434201562393336	2.913205534679356	-6.532021521977315e-15	1.295165180746824	2.673495026447652	-1.582394479173466	-0.3752801824193912	0.6040148606838033	-0.2772598918907873	0.653128544832795	0.5121326273176728	0.2982131247332847	0.007426295330296429	2.267693845934931	-2.627368864532214e-13	0	0	-0.9171089630193636	-0.1630213400574341	0.610942887139494	-0.4184095700048992	-2.627368864532214e-13	0	0
0.6272	-0.4273775482270855	0.6457036851065636	-0.2909596021844393	0.130989273790981	-0.09057585527531403	-0.3103240407849195	0.2572640508336949	-1.14357087293264	-0.6946276428321028	2.128779038306759	-3.847931878911231e-15	2.032042842433723	0.4471605076486906	0.586909997307475	-0.9296587652556527	0.5685338378062095	1.099900320406679	0.3622997215505206	2.781015438084733	-6.931450178391537e-15	1.258337426065734	2.376128583488072	-1.561663541307764	-0.3878138761977454	0.596844559662665	-0.2681503622797523	0.6502212955011358	0.4019219363462367	0.2979697968302283	-0.01475091459854405	2.247985554341565	-2.213097208688065e-13	0	0	-0.8180867972807249	-0.1566183685752384	0.6097337386691194	-0.4325563197894861	-2.213097208688065e-13	0	0
0.636712856113114	-0.4195390427445561	0.6560418022847003	-0.2584537403732198	0.1266428118786709	-0.06541941375127458	-0.3270418100803704	0.4161603949783606	-1.207266761169665	-0.8464094826397693	2.439623317955419	-3.524630498310879e-16	2.331412248735118	0.2249886488454182	0.5623986619609627	-1.010636443144594	0.4291588867538353	1.118760053022499	0.2686914669264722	2.49626895667611	-2.569295304937426e-18	1.157335082642153	2.124517330436305	-1.422779607067839	-0.3886055451499022	0.5822491553061026	-0.2348386817713152	0.6451378764669556	0.1204455074514426	0.3011862676483815	-0.04441131043515573	2.172102970575859	6.944329477926455e-14	0	0	-0.5395126961828564	-0.1437091378915773	0.6093165398113017	-0.4371700548333125	6.944329477926455e-14	0	0
0.6536558844730551	-0.3377892142491959	0.6765304069684571	-0.1261579655051807	0.1285249703667937	-0.02239866561999649	-0.3502508313145091	0.6333399030970828	-1.292621833588294	-0.9718894373019258	3.005953874260038	1.960761592993689e-15	2.979469931085272	-0.21953858918659	0.3187788588035879	-1.059397250995544	-0.1119006853269773	1.082723445278498	-0.003383132060897964	1.543644741545676	1.238275611263972e-15	0.9171008524069963	1.160072152020823	-0.8361137378219883	-0.4716668644648989	0.5196052548217824	-0.220880313651923	0.5823621150406675	-0.7799039707807587	0.3044998600676295	-0.2208471810374182	1.857950602041123	6.770369303675022e-14	0	0	0.2930271951026763	-0.08737756723987813	0.5632508446991243	-0.2871670841786169	6.770369303675022e-14	0	0
0.6680312594138309	-0.2457239736253837	0.6948759951331518	-0.07015338076476407	0.1430226506472199	0.004627419619607005	-0.3569024668440435	0.7900469621832169	-1.368511366766185	-1.013073571168375	3.497408111263958	-1.722270898163853e-15	3.616893009504742	-0.527106919902294	0.1157773007403226	-0.7173644080185853	-0.7803940880555942	0.9798064085766989	-0.2531882227611779	0.5472220932485194	-3.284950767581235e-15	0.6436522076854592	1.312027377709304	-0.1092370272596896	-0.2888808183176981	0.4754594472010454	-0.2365586634846121	0.4985228218319719	-1.315099382189827	0.2955678744362041	-0.3238550282655063	1.688207794284479	-7.644997337981332e-14	0	0	0.7237289981613126	-0.06955254508583783	0.5208414981683808	-0.07045584241194169	-7.644997337981332e-14	0	0
0.672	-0.2338856407032291	0.6999835324857032	-0.066448107297048	0.1444262133009208	0.01113654990478301	-0.3573215853571033	0.8728627313785178	-1.391076962829937	-0.9635861607469984	3.661395786935699	-1.502299928100539e-15	3.80082214264526	-0.6315394733605137	0.01996843267241111	-0.6254168948125245	-0.988088959124519	0.9679148125872583	-0.2623608522433774	0.2387673138935845	-2.117259321434098e-15	0.5582426784736029	1.568366922340625	0.05903034242127803	-0.2538685954598661	0.4705006755782244	-0.2417129873676775	0.4769858419901811	-1.367941756409264	0.2918351257868611	-0.3584185489613066	1.706587646892854	-3.610718672528177e-14	0	0	0.837943574295425	-0.0702170007601413	0.5176917634051356	0.01248866835048945	-3.610718672528177e-14	0	0
0.6815128561131141	-0.1997522179540206	0.7091546204450775	-0.06493765434111523	0.1450392512695535	0.0251631736524595	-0.3553667537597656	1.058989534869136	-1.453732908503726	-0.922951832263559	4.049314419721548	-4.042355715416409e-16	4.244542526953706	-0.8484042705892567	-0.1144808612613349	-0.3812071786088778	-1.338641882579855	0.9538276829440062	-0.266411068349825	-0.313393372560524	3.726106727586578e-16	0.341811249453586	1.630568183237108	0.2197239738380166	-0.2339026951264365	0.4445835259818751	-0.2602441211868942	0.4296020101202951	-1.560363748550294	0.2889240252737315	-0.3872791830342435	1.691444671455925	5.654913604712656e-14	0	0	0.9921807663010438	-0.07872442441555402	0.5139637242523577	0.1873646924847374	5.654913604712656e-14	0	0
0.6984558844730551	-0.08955337087059284	0.7409243355118573	-0.03024809786270774	0.1316479370628832	0.06053721318677178	-0.3444388064193747	1.374199341254089	-1.543411742523868	-0.6535115616149615	4.699415636164634	-9.32530747814697e-16	4.997332516981174	-1.376502371513664	-0.548652982717544	0.4095116428838751	-1.736313947744339	1.028901561831065	-0.09748165597296138	-0.8677963344106623	-1.95390269765963e-15	-0.05235216908830536	1.594610193604477	0.07798927502393049	-0.3688700410377004	0.3012047972187322	-0.3404414986221084	0.2992678336893008	-2.093267743097941	0.2918526563074283	-0.4015194142842697	1.331501791790629	-3.554245824858614e-14	0	0	1.111977215159861	-0.09816159611970812	0.4681795905931443	0.6632883138974013	-3.554245824858614e-14	0	0
0.712831259413831	-0.02205461826176389	0.7407233465540031	-0.03318780763353246	0.1099027885821935	0.0888981875531388	-0.3311668967496736	1.624936581259159	-1.598807362291071	-0.4277349738115772	5.063808447727441	1.901098857267175e-15	5.534705728079212	-1.944981633784886	-0.8063941907692966	1.002140852205745	-1.832967656955571	1.086463525028128	0.1160307488074678	-1.014022920451648	4.926733459745833e-15	-0.3487032205527658	1.385867687325099	-0.2662237395275515	-0.2930281424873316	0.1884428819979041	-0.3698525306911006	0.211660676206601	-2.355843477915676	0.2940129070593344	-0.3664853901242839	0.9887182366542802	-4.077905774138992e-14	0	0	1.087682192555772	-0.127294256219199	0.4384325365909169	1.038632310981932	-4.077905774138992e-14	0	0
0.7168000000000001	-0.009224484198713065	0.7368668286108715	-0.03463793240662803	0.1030025649232431	0.09632130387022431	-0.325831146895692	1.71684507830484	-1.60021088162385	-0.3212520617587348	5.200708773661666	1.235474289388494e-15	5.658528946909573	-2.066823985196205	-0.8890145981330074	1.067374740055939	-1.852075055296952	1.084715814071325	0.1372294593117681	-1.074153141512435	5.787359133004744e-15	-0.418562311451331	1.181292583431803	-0.3541867394739898	-0.2660968064998495	0.1612088892978306	-0.3783694303077809	0.1910321900364364	-2.476595149104916	0.2926343379955138	-0.381713674584845	0.9387305441897906	-2.989833909730289e-15	0	0	1.100709917535728	-0.1324051028253812	0.4388850647024838	1.111055672118664	-2.989833909730289e-15	0	0
0.7263128561131141	0.02096014427197349	0.7200730893091889	-0.04322678869799738	0.08594473272914499	0.1106402626045454	-0.3139011134473927	1.910497987517164	-1.617251722909085	-0.1641820110609367	5.528018653140402	6.310449390519197e-16	5.902755953917267	-2.038248518286833	-0.8698671258165354	1.203274501566652	-1.86690180330744	1.062671544955768	0.1903719046189083	-1.107322178655078	1.000469192754943e-15	-0.5595140001854102	1.12625700444715	-0.3867741877030971	-0.2472620587526333	0.1007801894014913	-0.3784384212881295	0.1531201850325838	-2.738278112526563	0.2982074020651341	-0.3641756774662471	0.7591128353200483	5.885306954922722e-14	0	0	1.143710497508819	-0.1572393773785342	0.4400657555146887	1.313586762488639	5.885306954922722e-14	0	0
0.7432558844730551	0.1047984482625515	0.6835323163007655	-0.040934159655633	0.04012249689336975	0.1261517706635251	-0.2800838146820775	2.256660331193546	-1.541519501116199	0.3075711271189246	6.162523633476735	-2.527739161082683e-15	6.128548234979108	-1.780154775481634	-0.9166691770637386	2.071359481318462	-1.892854128105761	0.945034980507526	0.1189716885095771	-1.165663294713618	-7.041464860067248e-15	-0.7109886357035288	0.8019860823238756	-0.2182065254841679	-0.3557907559813214	-0.08064866941581783	-0.392403403303714	0.04980372441085616	-2.953490434428335	0.3250644232870259	-0.3446304419518837	0.1516413285067801	-1.725007803737203e-14	0	0	1.357043676805567	-0.2492427297200513	0.3895009332828433	1.873294764315598	-1.725007803737203e-14	0	0
0.757631259413831	0.1524524993211063	0.6403273392419684	-0.05894869407224934	0.006716953625982042	0.1273462089186745	-0.2489082418614516	2.351451816854971	-1.449345532984649	0.6064858930072384	5.973170987754646	-1.771834584787169e-16	6.091366142981314	-2.247655112745336	-0.6951429904241344	2.925216584977491	-1.893167412001789	0.7928673877633794	-0.04984046360493732	-1.185778778822686	2.857768761335314e-15	-0.7483271740888958	0.6798181205859566	0.1155323388562725	-0.2635179029724262	-0.1862466405112534	-0.3846589805526208	-0.01406047323114367	-2.76901668079194	0.3438761249911951	-0.3291977980803941	-0.2447676391774904	3.812941750692505e-14	0	0	1.579442419451511	-0.3402109148802982	0.3391643265520329	2.118644348429251	3.812941750692505e-14	0	0
0.7616000000000002	0.1637991189825881	0.6220240820942328	-0.05621358346616262	-0.0006818791839438842	0.1284188000653455	-0.2398224582841659	2.365325625131439	-1.402201300794199	0.70474838034111	5.88142766512374	1.904159691809392e-15	6.043733223986846	-1.972560918522444	-0.3774821042721896	2.863170715131208	-1.887178267081051	0.7481070498763198	-0.09441668509268275	-1.187458344115326	4.147357150257223e-15	-0.7472379840052591	0.6006721471241869	0.1866609310804276	-0.2395336557604151	-0.2094594715098734	-0.3821261296508028	-0.0276915648252094	-2.870170178114196	0.3465575008142897	-0.3271709900429435	-0.3580770647882805	1.280055550603639e-14	0	0	1.651127819495179	-0.356319167604935	0.3342416436719963	2.155013956091968	1.280055550603639e-14	0	0
0.7711128561131142	0.1864155308127418	0.5735241901396266	-0.06220586759244331	-0.01795693769259722	0.1313557462344829	-0.2168158366675135	2.345318475988028	-1.261777702055667	0.8963448264582597	5.413615154346039	2.864273847118903e-15	5.86614178775733	-1.563498353065533	0.2840383339757003	2.692092299260318	-1.853544347329437	0.6305071082096579	-0.1976673821692547	-1.130759311997226	5.232201193683404e-15	-0.7310822990745581	0.649176465553154	0.4521594894830656	-0.2116006477563275	-0.2598980273045246	-0.3674644488695493	-0.04457262288908196	-3.01701802882943	0.3614362429080886	-0.2672833674627604	-0.6808672699058753	3.828350847425529e-14	0	0	1.848968908409558	-0.4062241801475489	0.317313878357868	2.209757491286796	3.828350847425529e-14	0	0
0.7880558844730552	0.2624509869719959	0.4258327550977602	-0.08291533885884084	-0.05625518209981287	0.1449962739912451	-0.1675533756251149	2.386449868237552	-0.8525252538548362	1.271711646214395	4.578293435504755	-1.212783141185519e-15	5.346620164707161	-1.380396610300508	0.5393177373357575	2.145219885340544	-1.820748176213626	0.3394701063711349	-0.4119449965241737	-1.045601220332309	-4.310820274215358e-15	-0.681639126027726	0.60652079867233	0.9201374003065121	-0.2613357135218535	-0.4083573172745928	-0.2819161854605058	-0.07747025592830203	-3.247222653347143	0.408067951740064	-0.1267735166784849	-1.842249530195806	-1.159732189284254e-13	0	0	2.322522123410607	-0.553645064022052	0.2154093345083368	2.094254621079187	-1.159732189284254e-13	0	0
0.802431259413831	0.2995477285083993	0.3337604683173068	-0.1262524547013676	-0.08153510257898514	0.1539649656541603	-0.1321994378436574	2.413333875067341	-0.5893618683552438	1.399589446721433	3.841986584405838	-2.232537651865977e-15	4.73518436148007	-1.24843893030232	0.1350910422455754	1.670981062233835	-1.811212130349698	0.1509404135801067	-0.5741423231628335	-1.039606855443915	-2.695842055526644e-15	-0.6509417195778333	0.5226293357180094	1.183338825662082	-0.08473399640674217	-0.4978459875080952	-0.2314670296738471	-0.09646794605570813	-3.262907493556934	0.4230754342042248	-0.1034794003873172	-2.618458503783788	-5.389384197413461e-14	0	0	2.571559516291732	-0.632348285971872	0.1522238274503451	1.871005068729588	-5.389384197413461e-14	0	0
0.8064000000000002	0.3058220031212128	0.3146253602703081	-0.1356550085746763	-0.0876780140869737	0.156603086550106	-0.1235792334424528	2.433089471596749	-0.5342602316820788	1.437709183800569	3.655030992834809	-2.458492387726915e-16	4.544199256840965	-1.335927500211598	0.324533837269172	1.543855098256134	-1.805959431144441	0.1103482114340478	-0.6231550116268593	-1.045590238909355	4.183052530516081e-15	-0.6476973594148295	0.4433022937042217	1.221059965753317	-0.05014515580060741	-0.5202432110927078	-0.2247112342610763	-0.101955898300535	-3.324031843306697	0.4243917319444138	-0.1002441188054004	-2.767275903999379	8.765036713041118e-14	0	0	2.615508706373683	-0.6460689588211129	0.1460561383222996	1.828123357533685	8.765036713041118e-14	0	0
0.8159128561131141	0.3224355526080815	0.2809205810638791	-0.1721637757696715	-0.1013274329885954	0.1615649748097509	-0.1037402148582332	2.435422246892115	-0.4254056787615806	1.44315245184708	3.151281722672743	2.626126675236355e-15	4.055164449895374	-1.083828944297143	0.1676192425526288	1.267546254171908	-1.789908293081551	0.03026706402037438	-0.7095596148254986	-1.00968208962421	8.834596100003384e-15	-0.6519075794634444	0.5153944664778822	1.37737771130897	0.03363284444173831	-0.5736724439903219	-0.2147440888891821	-0.1033620525711136	-3.320159530088464	0.4298804286459603	-0.07303932969597515	-3.10448527857147	1.536015520384178e-13	0	0	2.71375204784967	-0.6769606740326037	0.1300756268142859	1.716565464486225	1.536015520384178e-13	0	0
0.8328558844730553	0.3868934422523574	0.1772304781104306	-0.261998672272269	-0.1248281893154705	0.1738400029940776	-0.06526477642930961	2.42843892400019	-0.1717304572204825	1.455264451232948	2.291990401729956	-9.849414971085486e-16	3.103165599408705	-0.81589651986826	-0.06427326266424913	0.3933754011123995	-1.837922948220335	-0.1711411029842296	-0.9067055232016548	-1.041052290882063	-4.033338558448664e-15	-0.704084036501933	0.4659805942484985	1.629946440229714	0.06898746996642036	-0.698525266695726	-0.1459712036759765	-0.08802247727314873	-3.135237365639393	0.4474877521339585	0.01516396916026685	-4.288948741400718	-6.692774961856761e-14	0	0	2.944180605662829	-0.763781186843518	0.03237855992383957	1.348400214756503	-6.692774961856761e-14	0	0
0.8472312594138312	0.4123744130867827	0.1180700487683425	-0.335106002096125	-0.1360413581587806	0.1788902425952825	-0.04360498909603548	2.385383768077418	-0.06914555705881126	1.34447403993286	1.505577416839122	2.637369455132952e-16	2.247463122850059	-0.8689117625566702	-0.0803243690624246	-0.04267996035937183	-1.894715830685923	-0.2624464299396049	-0.9916771070254271	-1.132196804759782	1.756321857698945e-15	-0.7880379935525104	0.409178267138508	1.685917168948051	0.2111717368649262	-0.7533518640969864	-0.09750012841292033	-0.06881061521996321	-2.877602256580662	0.4447672056258086	0.06856541187484699	-5.073675290615242	2.174825736847025e-14	0	0	2.996544429726164	-0.8029523127128756	-0.0259047233598208	1.168420484492662	2.174825736847025e-14	0	0
0.8512000000000002	0.4138809874471199	0.1086629616085113	-0.3519653858117244	-0.139190781491237	0.1793472117747115	-0.03902786077992329	2.382701947411637	-0.05690415188741779	1.314967151382765	1.30648919422933	-1.779062556796823e-16	2.007304873633447	-0.8951445007893597	-0.05508735871413367	-0.09160499028889457	-1.902185560307562	-0.2725360066422602	-1.0147254210263	-1.166035259409368	4.326010018980328e-16	-0.8159411632262323	0.2950351663131821	1.641846195810637	0.2423550475789039	-0.7655482291090622	-0.08930306245608655	-0.06518823916676464	-2.829766571105796	0.4432533061818436	0.08431510398839992	-5.212463279729635	-5.493573445056828e-16	0	0	2.994897094150972	-0.8094207366677686	-0.03150112887663666	1.1485405609024	-5.493573445056828e-16	0	0
0.8607128561131143	0.4224321578853412	0.08744754911090102	-0.4140844752393174	-0.1449066647508965	0.1789155181346678	-0.02901963569256596	2.341571324402268	-0.04367582058167288	1.216691523433293	0.7964439665363926	6.423392010691244e-16	1.428834570848191	-0.7527522335523964	-0.06910550348207281	-0.2188077673983846	-1.924169728660887	-0.2930740011219006	-1.035397539651917	-1.193153753297183	-8.526376398235401e-16	-0.8879619987751242	0.3733089747816796	1.636320357894876	0.3250432521620716	-0.7922469113518662	-0.06055039840997628	-0.04333222936460733	-2.585427064994743	0.4431306686335139	0.1742039258371023	-5.556102943347173	-3.8967408739439e-14	0	0	2.963599622849919	-0.8285667734369091	-0.05365365631388994	1.12072991414714	-3.8967408739439e-14	0	0
0.8776558844730553	0.4421766255267068	0.02455893222500338	-0.4873032020448748	-0.1509319944423813	0.1770594899348664	-0.01560318961109571	2.205604116238687	-0.005731719214973841	1.007642608500498	-0.1467729377143824	1.290592878563934e-15	0.3995594627461353	-0.5623951236795376	-0.1703437818758391	-0.4041856275477114	-1.998886724596324	-0.3394056461652567	-1.063570832117249	-1.326956236441905	5.245579646003843e-16	-1.02097123693374	0.2295705068102443	1.562218098797906	0.2741271502515248	-0.8273374440161803	0.01808884427056634	-0.0003779184877865521	-2.123071863938538	0.4355464245655263	0.2835795029319907	-6.647244219755509	4.722919567186805e-14	0	0	2.919689106015201	-0.8608795564396428	-0.1663878473048833	1.291175314898616	4.722919567186805e-14	0	0
0.8920312594138311	0.4237952773593686	-0.01086448945051499	-0.4971413679972851	-0.1518038946488384	0.1675973961893551	-0.01488788402760465	2.07507044154364	-0.04565586710307995	0.7950107685836658	-0.9263524088452733	-2.805978318320376e-15	-0.4633566081093784	-0.6336919376198563	-0.1031527162671936	-0.2441536688969537	-2.022076001833901	-0.3148499590808856	-0.9745290040732498	-1.426958932082299	-3.467086747046506e-15	-1.121572501834059	0.1330003534689914	1.393109316121324	0.2750051425143152	-0.8125196852897794	0.08018894206603872	0.02246639761506052	-1.843056415404689	0.417864891232084	0.3163968652653283	-7.318859588010992	-2.943497269058095e-14	0	0	2.845953527652931	-0.8653487840652785	-0.2391816205517232	1.591063368884847	-2.943497269058095e-14	0	0
0.8960000000000002	0.4174999584162195	-0.01224254578991785	-0.524463260325569	-0.1528214415903095	0.1637498929193849	-0.0130867324963975	2.054574999636039	-0.05139166935311262	0.7799083183824449	-1.121537504291232	-1.670460344240677e-15	-0.699182446742238	-0.6391618964899016	-0.07659964843049266	-0.2096133178137882	-2.026187074445117	-0.3050093741894657	-0.9857818448550877	-1.464959433800713	-2.544262485565295e-16	-1.1452951392091	0.01404050199941664	1.315872494805438	0.2939804584292579	-0.8121160869716254	0.0905168929270444	0.03060185575410863	-1.699103009798286	0.4138381398773904	0.3338269429241086	-7.41241383694434	-1.157898154479137e-14	0	0	2.789825409959533	-0.8651973309595221	-0.2482825642757761	1.629028901438709	-1.157898154479137e-14	0	0
0.9055128561131143	0.4012538988447157	-0.02276769580885382	-0.5605362780926048	-0.1556178264616325	0.1530696843088044	-0.01066573220725305	1.969284152902303	-0.06486481432783126	0.7022673307891605	-1.600942455707754	1.470366532685103e-15	-1.259653761160355	-0.3461693752210308	-0.1235678791358568	-0.1429663124250711	-2.011202346226284	-0.2788828145549987	-0.942234509836436	-1.473019870264513	3.562133350340701e-15	-1.192795328382456	0.06166135326051569	1.211973461371433	0.3591909719762822	-0.8088003629333336	0.1218238505424589	0.04934429168184912	-1.392045647015713	0.4056476091102355	0.3814494900688595	-7.661366990731795	1.426555584356162e-14	0	0	2.707192506588695	-0.8665608779858707	-0.2826686525960103	1.816748017329121	1.426555584356162e-14	0	0
0.9224558844730553	0.3286071307438906	-0.04503587372619941	-0.5887456018031513	-0.1618500511070105	0.1277130720580708	-0.01091627586748385	1.818244161339953	-0.07271872681348052	0.578175400466584	-2.479940076073637	-2.178175350327004e-15	-2.23908547626043	0.2508880141766351	-0.4799477877463821	0.04327478407906815	-1.911571666437359	-0.2259576601679908	-0.8477222053193726	-1.469196751629146	-5.520728201197288e-15	-1.239209303937773	-0.06325371115955725	0.9652735905848386	0.2240802045782617	-0.7581084516730835	0.1790043953702171	0.06710094677623715	-0.8114256609696343	0.364762421078389	0.2281869839103866	-8.28129857560632	4.119367708597241e-14	0	0	2.45116276461734	-0.8274966686947128	-0.4167108448187833	2.529965378582141	4.119367708597241e-14	0	0
0.9368312594138312	0.2383537211213374	-0.04640442540935175	-0.5703565751594709	-0.165237570767198	0.1003390379943064	-0.01356805577252623	1.687944594715178	-0.0899695329322891	0.521447384582759	-3.208341742770857	-1.777488667743704e-15	-3.045837346064244	0.3421330166714845	-0.5793050551155017	0.211608557844532	-1.776170408057637	-0.1583250669105725	-0.7120832112251517	-1.417116784185164	-1.852697097012159e-15	-1.237061229842345	-0.07864956148454094	0.7569101961091433	0.0901492550416696	-0.686216378114008	0.2061272405754438	0.05948554881278315	-0.5115390588013428	0.3212644734784001	-0.01299057824931166	-8.457149238478909	-1.803402528913133e-13	0	0	2.258194492924531	-0.7769049610905826	-0.4894466185249202	3.05980729164437	-1.803402528913133e-13	0	0
0.9408000000000003	0.2188451423230117	-0.04603463083492854	-0.5677456877149489	-0.1655079909861671	0.09292198820631545	-0.01292891140030315	1.643499480995016	-0.08532852281731013	0.5276582553471336	-3.405250427530253	-1.290453589732132e-15	-3.263235194278112	0.3300892495690777	-0.5263331753294298	0.2374328074006282	-1.747215773588025	-0.1443752396927293	-0.6886308210730094	-1.402514094261327	-9.038534283269336e-16	-1.229857157780796	-0.0568453659449456	0.7199717603800104	0.08858751012451116	-0.6722613991054259	0.2107013545198684	0.05769055820055435	-0.4564914920749312	0.3127183236827421	-0.05795918348131396	-8.469177436687893	-1.760288709218407e-13	0	0	2.221138998343606	-0.7676963000083252	-0.4973213009735044	3.146909885809165	-1.760288709218407e-13	0	0
0.9503128561131143	0.165044269501723	-0.0441033804294696	-0.5528286648275949	-0.1664693222387637	0.07337558169525485	-0.01125266517238241	1.5239263144182	-0.06964658942715057	0.5413603553084352	-3.883329516712661	4.218405965814203e-16	-3.7716222806461	0.4973869038296395	-0.5449839274664995	0.2479681022849717	-1.664678031320093	-0.1105796331896399	-0.6108391874202318	-1.365395866633079	2.550258428390129e-15	-1.201721435201602	-0.06312106536161088	0.6123095448547982	0.05724705334903979	-0.6311067062596756	0.2180817947804882	0.04921150656215197	-0.3165917276963257	0.2910246127200911	-0.2063654645807857	-8.459638012640616	5.052322204313333e-14	0	0	2.143897850420859	-0.741807931140384	-0.5263656223901266	3.400049740254588	5.052322204313333e-14	0	0
0.9672558844730554	0.004838998803547691	-0.03271443979799113	-0.461444311342451	-0.16188677879499	0.03100609961110175	-0.01443969107205265	1.342237005824133	-0.07447563064863219	0.5690870939144246	-4.722732071304168	4.539209096650482e-15	-4.613431443044556	0.1768344862162501	-0.3967539800031344	0.2488934035433881	-1.422242210536609	-0.0401293567618389	-0.41248493209669	-1.2387543159972	5.760209546145065e-15	-1.118122651640239	-0.05854010518395381	0.4135627845369425	-0.2328226180339874	-0.4738963406538947	0.2227761555261006	0.0003677553684580531	-0.3682661032136653	0.2214318820431562	-0.8115670906570225	-8.272356506988656	1.761030868894683e-13	0	0	1.86143202994391	-0.6326914436213015	-0.62551191781489	4.026561809753191	1.761030868894683e-13	0	0
0.9816312594138312	-0.1092709139887521	-0.009525680343157428	-0.3897047355048284	-0.1531287779207069	-0.003896402903334886	-0.01213109193036259	1.154374490176647	-0.07676285093281571	0.6816557013908886	-5.379827209230212	-2.865887976325839e-15	-5.228436000375488	-0.5366445668745558	0.1942190352708291	0.2643799417334738	-1.229533637691718	0.01439824119743854	-0.2494136489873539	-1.097928860485111	-2.10175921893727e-15	-1.020253300255487	-0.007544718071762602	0.2350837405232999	-0.2113930777793522	-0.3565313694645793	0.2051180653979339	-0.04077498816237757	-0.5781332334122307	0.168980437650989	-1.240234357769966	-7.872594323194786	-1.006422713178705e-13	0	0	1.672480336782793	-0.542722002098997	-0.6486653408934646	4.287979496893136	-1.006422713178705e-13	0	0
0.9856000000000004	-0.1296315402568131	-0.00324412356749279	-0.3784185941462769	-0.1516081121545335	-0.01246491647269134	-0.009485154819313585	1.090755078501607	-0.06674367451188051	0.7333525453200536	-5.549932275646014	-3.018150006764754e-15	-5.376081588300701	-0.5729742102148712	0.3474686779188916	0.2488433453490589	-1.186930213220528	0.02582194853286096	-0.2171374580526998	-1.069583039170354	-3.733139788573421e-15	-0.9897573344135764	-0.05878721296569067	0.1579465028980455	-0.1619509698007162	-0.3388059520882643	0.1976713540971992	-0.04796484809676507	-0.601196443438065	0.1589438239651813	-1.312747115255447	-7.777974952219	-1.424306165798977e-13	0	0	1.650880305010074	-0.5260857095654861	-0.6436321907406157	4.330087461658264	-1.424306165798977e-13	0	0
0.9951128561131144	-0.1783481689843112	0.01186544553777655	-0.3448645659220781	-0.1471083745639127	-0.03331991931847443	-0.002805660582405774	0.9339225396690209	-0.0433683313803582	0.8617486489950144	-5.917371531001654	3.612568673462353e-16	-5.681393696090331	-0.6199015309911916	0.4604296402792382	0.1385735881743876	-1.075753632902687	0.05222289204790354	-0.1011805760448862	-0.9466438811713238	-3.703717141317712e-15	-0.9115116125421635	0.04433393893497961	0.02480907398509957	-0.1174468857012154	-0.2907758934719821	0.1790367005411112	-0.06601601962564181	-0.6637940823729159	0.135863801310136	-1.519913067672679	-7.481971690186581	-5.50349504490327e-14	0	0	1.625975582976527	-0.4828653087514774	-0.6445594732638801	4.439654295136325	-5.50349504490327e-14	0	0
1.012055884473055	-0.2777908105870603	0.08632090513162122	-0.2495590966797337	-0.1304354048543219	-0.07175615533946539	0.008069097282065268	0.7033975017997867	-0.08625163250281798	1.06492333915306	-6.282320127564714	-6.982151329912144e-17	-6.01850054071059	-0.6967813645377112	0.4592765638398626	-0.2391663761022471	-0.8230579763539154	0.1425254781644718	0.1417148944167704	-0.6471474218074806	1.912440361932806e-15	-0.7565832691193909	0.1359496315810921	-0.2697714670899837	-0.1694385146818931	-0.1591491964898293	0.084736639264664	-0.110421766243714	-1.075139297109957	0.08189759558346904	-1.989764389992668	-6.411401253555164	1.233590682845407e-14	0	0	1.558906821646857	-0.3455819731248447	-0.6599498128591477	4.521060637788072	1.233590682845407e-14	0	0
1.026431259413831	-0.295886650732859	0.1358016400817976	-0.2014861213740315	-0.1070956731925949	-0.09843024979281251	0.02888582851268016	0.5397168691749542	-0.09106153170647346	1.147009522031116	-6.077478624721885	-7.928256107641975e-17	-6.053636267835526	-0.9744952481151787	0.476852122700765	-0.3936667175232496	-0.6846611660950612	0.1720684082683472	0.2217813795519459	-0.3520076528568174	1.720410368006654e-15	-0.6111091975455035	0.3693109821794269	-0.3530323158292519	-0.02934989306802671	-0.07225473601001177	-0.01079185486873455	-0.1307887399167155	-1.331876152202579	0.04753006038883825	-2.083980418613716	-5.418437211424269	-3.151988317036028e-16	0	0	1.560056167419173	-0.2507849382194835	-0.6253496479532328	4.409657768015496	-3.151988317036028e-16	0	0
1.0304	-0.2925138143571431	0.146691922691214	-0.194768019308141	-0.1002331879658188	-0.1046657865435079	0.03636955940518258	0.5101437078237363	-0.0868539118412468	1.136194289967249	-5.926298353209066	-8.05681434296616e-16	-6.01841382444503	-1.016502988455311	0.5356392403317105	-0.4067517936419995	-0.6594293072236315	0.1718361580379675	0.239987526750829	-0.2968109503023031	4.333771071356005e-16	-0.5686960236255488	0.2955748855949543	-0.3996420654241885	0.02844590572666972	-0.05258066902418934	-0.03928919190183172	-0.1353153958033337	-1.345719660628254	0.03943438022656584	-2.088775213886211	-5.206070478640495	-7.772367864846349e-15	0	0	1.56528365207569	-0.2332908274478294	-0.6118556517509295	4.39497673101776	-7.772367864846349e-15	0	0
1.039912856113114	-0.2776308549001776	0.1765312578447226	-0.1821304579420706	-0.08190043475896747	-0.1190344517208471	0.05631304270635872	0.4665843119593466	-0.0732390121841251	1.006487089806526	-5.390505192899634	-1.42485369411177e-15	-5.852246569124693	-0.8764137204563156	0.5484000637061642	-0.4970611904349149	-0.6068824449732533	0.1828833190525108	0.2516729817297431	-0.1063578045384742	-1.712846225772127e-15	-0.4629193400379871	0.4770718625934141	-0.4319185321802629	0.09011743842034792	0.0004569397734038513	-0.1210573001691276	-0.1434027342111706	-1.355459627221008	0.02344009088200075	-2.081689458861628	-4.625232976306894	6.064277838548645e-15	0	0	1.614839872131397	-0.1919520481658891	-0.5879376923897202	4.362415946125673	6.064277838548645e-15	0	0
1.056855884473055	-0.2250580252796933	0.2634668067814494	-0.1694413319107596	-0.03977511746069627	-0.138927520771323	0.09723003826489847	0.4686274021099978	-0.055779293652539	0.3701072222522163	-3.987320411755168	6.482647390825405e-16	-5.2776464642271	-0.6647560920752904	0.3906872325408041	-0.7154892613996309	-0.5663253217572554	0.2147949958179673	0.2158300639244348	0.2006491086279925	-3.310530634191699e-15	-0.2589491481013632	0.6691666200690616	-0.3639589829743861	0.05910126779017078	0.1000783749344988	-0.3298264943995368	-0.1614631529019651	-1.639923825721855	-0.00200466668234231	-1.781642320536975	-3.016321520298425	-3.180332611584743e-14	0	0	1.685364542924108	-0.07813722189067684	-0.549128483902062	4.019242207489542	-3.180332611584743e-14	0	0
1.071231259413831	-0.1621820755645133	0.2886138905600802	-0.1779321548751563	0.0003251747391028736	-0.150244064090944	0.1366475306101217	0.4880100740542073	0.05135919189763533	-0.395639450975985	-2.580724757753079	4.857803785944256e-16	-4.542400753923165	-0.9188028534042776	0.2918001015393102	-0.6994149211700176	-0.6117966937503032	0.1807624967753326	0.05943621883148403	0.362130489897262	2.062087419546187e-15	-0.06876737685564201	0.8150307530352254	-0.1833982547997421	0.126736112663496	0.1903471757400482	-0.4650351006073709	-0.1833508706043503	-1.696790581853294	-0.02075023674789733	-1.326785766259169	-1.852289707581336	5.377173471497546e-14	0	0	1.738563027582647	-0.009185146734839347	-0.495514634612391	3.71471287102873	5.377173471497546e-14	0	0
1.075200000000001	-0.1488896888516317	0.2886590713056555	-0.1775624399411231	0.01089653788415959	-0.1530523911437851	0.147469930451759	0.4892863155388628	0.09122496488446535	-0.5675325387537995	-2.221895062933229	-3.258102581266503e-16	-4.306892003328969	-1.01552818182296	0.3013072852112072	-0.691068010536048	-0.6174093996049366	0.1520877036292753	0.09249054513340932	0.4001664173329876	1.517917161465862e-15	-0.01317755775881974	0.7866559804133424	-0.1268232897437384	0.1445766081156044	0.2180731544929683	-0.49376468252987	-0.1914171252405626	-1.677454408942984	-0.02742393938121435	-1.248590356833192	-1.619835980168006	3.370884543115338e-14	0	0	1.74829120237317	0.004003204082270798	-0.4790268823407358	3.672081541103367	3.370884543115338e-14	0	0
1.084712856113115	-0.1283388843779629	0.2807399592158629	-0.1598980532928138	0.03730825386150272	-0.1608151671826908	0.1690584439492517	0.4616469747125692	0.188319338739236	-0.8503504991882035	-1.451324177098611	-6.481615732139668e-16	-3.698545047406331	-0.697956475450846	0.2564329936185135	-0.7274029817571102	-0.6323311422697857	0.117318518436382	-0.01745362695323294	0.490371515129112	1.410071270677574e-15	0.1258803239033796	0.8752473607023581	-0.04755686837092965	0.1136112291487185	0.301960972335748	-0.5415772591005247	-0.2167418524226687	-1.610415751906376	-0.04058393134140406	-1.01327737106317	-1.061127040197811	-4.950365478340973e-15	0	0	1.806989829697957	0.03256372706434794	-0.4500059041125965	3.601737824505528	-4.950365478340973e-15	0	0
1.101655884473056	-0.1484593794882741	0.1593054716432185	-0.03843540484254211	0.09770255947198356	-0.178748266710814	0.1997113619247576	0.3254156149188041	0.3801948982460716	-1.550969493414111	-0.2951276833294187	1.250552231915924e-15	-2.520253023769723	-0.3112085307575627	-0.1248884265875198	-0.7424486696465407	-0.6315276437214861	-0.09655229889071623	-0.05243732238513216	0.6219171832653563	2.618996115524328e-15	0.3973157850294057	1.026715176660096	0.2893057070308718	-0.1959321641413805	0.5524068618636673	-0.4817272499790523	-0.3088661363454206	-1.773072631381215	-0.06956645334605051	-0.2729458776348155	0.1497012850828225	3.802547067682794e-14	0	0	1.805362383238504	0.09712893345557641	-0.4043215432031678	3.263288658008732	3.802547067682794e-14	0	0
1.116031259413831	-0.2188667937342069	-0.03164058152200755	0.1715210303223326	0.1555472360804936	-0.2008305672922978	0.2063164990872999	0.0686021572434703	0.5434411490971174	-1.459982466148099	0.08937977728518337	-2.270757506129439e-15	-1.502554598673397	-0.3607206453400109	-0.430676588815986	-0.4989219598267478	-0.6107810581766457	-0.3482716828844178	-0.09219466283168809	0.6848413015284884	-4.576626523670701e-15	0.656599468453868	1.299670111197952	0.5702282742938856	-0.2613046694568133	0.8314824976907703	-0.2745748341625616	-0.3988612280306073	-2.054805148582115	-0.1028760696504955	0.2258999085849716	0.8033622235465967	-8.36631265941663e-14	0	0	1.883655633708323	0.1223989479837738	-0.354182096813466	3.241581092841161	-8.36631265941663e-14	0	0
1.12	-0.2351902797785641	-0.07598073781495192	0.2287894964494943	0.170843655020948	-0.2077474326120201	0.2082838655882754	-0.008519163528123486	0.581908523350791	-1.30527354990636	0.1502636043314092	-2.573780320662067e-15	-1.223565671499346	-0.2027673943660291	-0.3452392976881763	-0.4266616806622896	-0.6032056489026767	-0.4323254246980193	0.06477633820342321	0.7019076102377186	-5.471648735180289e-15	0.7309946268679718	1.21193329584648	0.6344692558876768	-0.2637170388451717	0.9002934133535666	-0.227924958211739	-0.4173449119412901	-2.13073955696191	-0.11131018418407	0.3145482701537539	0.9410753673443022	-7.997673530400637e-14	0	0	1.9453823136031	0.12516203234859	-0.3402653976674841	3.301082951150492	-7.997673530400637e-14	0	0
