DataType=double
version=3
OpenSimVersion=4.5
endheader
time	pelvis_tilt	pelvis_list	pelvis_rotation	pelvis_tx	pelvis_ty	pelvis_tz	hip_flexion_r	hip_adduction_r	hip_rotation_r	knee_angle_r	knee_adduction_r	knee_angle_r_beta	ankle_angle_r	subtalar_angle_r	mtp_angle_r	hip_flexion_l	hip_adduction_l	hip_rotation_l	knee_angle_l	knee_adduction_l	knee_angle_l_beta	ankle_angle_l	subtalar_angle_l	mtp_angle_l	lumbar_extension	lumbar_bending	lumbar_rotation	arm_flex_r	arm_add_r	arm_rot_r	elbow_flex_r	pro_sup_r	wrist_flex_r	wrist_dev_r	arm_flex_l	arm_add_l	arm_rot_l	elbow_flex_l	pro_sup_l	wrist_flex_l	wrist_dev_l
0	-0.09836148493390334	0.07787264910123211	0.01868866698688672	1.057384833100222	0.9457654577125434	0.4320871363359441	0.6142004555609739	-0.2294640145289747	0.1236638619813504	0.3654490667010842	0.03879643001440361	0.3484251164524865	-0.0620709697306201	-0.3642568729134202	-0.04092374366439875	-0.03602880679062842	0.0671217070951764	-0.08615490986435474	0.1782284690715689	0.09396746454545897	0.1563783269951612	0.2652606216578813	-0.06607120015817741	-0.02588182003513084	-0.2002665191685019	-0.01492263175806325	0.07207780401394846	-0.2075319621015385	-0.1731930041879966	-0.4770599698087119	0.2265608619152055	1.570796326969429	0	0	0.499304465991575	-0.3359513670834977	-0.0496848397080086	1.416575330548534	1.570796326969429	0	0
0.009512856113114032	-0.1018273010223991	0.07576770871161792	0.01985730519773514	1.058991506614776	0.9436614242783594	0.4340917293181916	0.6147301248462871	-0.2241449392620334	0.1088827190660317	0.3700043273174265	0.03879643001440362	0.3352255525811833	-0.06167050637619548	-0.3678488874143941	-0.04498611912565545	-0.04015148660528262	0.06165887829834879	-0.08596580286197092	0.1844524255573781	0.093967464545459	0.1608688073584537	0.2721297020207867	-0.06318162759324275	-0.02594019200549282	-0.1921944097409628	-0.01729804855078351	0.06688847686412891	-0.2257696022253974	-0.1733061621966655	-0.4723154938226079	0.2372724915617744	1.570796326969429	0	0	0.5186844153628378	-0.3343964463300727	-0.05225419792797192	1.446000878978436	1.570796326969429	0	0
0.02645588447305514	-0.1086090426768417	0.06902597839917342	0.02285980181666611	1.06216878740818	0.9399195479788276	0.438025542478259	0.6160278294692905	-0.2116591757230881	0.07425547803155508	0.3938116468019197	0.03879643001440364	0.3279258688304888	-0.05299755735531697	-0.3781768530696038	-0.05224069467657982	-0.04351760490586426	0.04869219368571148	-0.08224722391164804	0.2016430190776722	0.09396746454545904	0.1763614874309316	0.2840863337775732	-0.06634831613368822	-0.02399042252992402	-0.1761385724395348	-0.01854923304711706	0.05632567057947345	-0.2512290979115614	-0.1729369961049901	-0.4558150028311632	0.2629866496501809	1.570796326969429	0	0	0.5491719229112484	-0.3293795233182655	-0.05755432397136917	1.491774617913788	1.570796326969429	0	0
0.04083125941383081	-0.113204213226052	0.06074792302013703	0.02765297013210954	1.065595110605292	0.9369672434984311	0.4414385353659807	0.6132924632966126	-0.2003182030785057	0.04609136920311838	0.4211295325573881	0.03879643001440364	0.3361017332090348	-0.0485374305481156	-0.3926137039863753	-0.05769698126766155	-0.04539561254959174	0.03485076591455448	-0.07458734495976664	0.2224212156267905	0.09396746454545907	0.1983482882394516	0.2999283574652156	-0.07278537209679531	-0.02784799845521635	-0.1624955496908257	-0.0162552408415401	0.04683539297880636	-0.2776495939567626	-0.1719386510701805	-0.4366450254347883	0.2800036713327453	1.57079632696943	0	0	0.5668394173621198	-0.3234454287981898	-0.06319912887169399	1.527906545851319	1.57079632696943	0	0
0.04479999999999995	-0.1139548141043953	0.0583405701295894	0.02942995580995164	1.066706157155529	0.936207808206313	0.4423585874546084	0.6113948071920797	-0.1976218894632132	0.04006757047443624	0.4283223250551693	0.03879643001440364	0.3403153175072408	-0.0509979009848654	-0.3965299210461904	-0.05884001692143079	-0.04635063954568419	0.03090388499698186	-0.07196252073827364	0.2282420591431593	0.09396746454545907	0.2060214459245196	0.3014655982224873	-0.07585454619699072	-0.02960459833769584	-0.159081181221548	-0.01534898496237871	0.04434380745240198	-0.2874556319811895	-0.1716066336967497	-0.4316513364707943	0.2819715685120022	1.570796326969431	0	0	0.5702442518085273	-0.3218224589578022	-0.06486032245977716	1.538571468672949	1.570796326969431	0	0
0.05431285611311398	-0.1157471195697752	0.05226399531411093	0.03379309594258044	1.069384015282116	0.9344669738704886	0.4446185390149628	0.6060791775358618	-0.191082876900942	0.03001980017545115	0.4420960074321649	0.03879643001440364	0.3532275253426	-0.04903013919780577	-0.4027777815098364	-0.06175995584736028	-0.04723063826297202	0.0210551307433626	-0.06496877318927158	0.2454341706000768	0.09396746454545908	0.2274597179529609	0.3093530279426894	-0.08361385918897729	-0.03305057805715597	-0.1509996494975747	-0.01279919462807689	0.03817299490442507	-0.3092301500092829	-0.1707479963912834	-0.419154311158404	0.2866306653032888	1.570796326969431	0	0	0.5772482351739365	-0.317657724244109	-0.06886643430687582	1.5632916037167	1.570796326969431	0	0
0.07125588447305514	-0.1175764181137546	0.04080332015303079	0.04081253966724638	1.074051128722597	0.9320832687546853	0.4489598831765002	0.5956831347625777	-0.177703918655926	0.02060062779357194	0.4660601029056808	0.03879643001440362	0.3833153567823612	-0.01730179710899049	-0.4066872318987977	-0.06858245597332387	-0.04534701133354091	0.00267582870663477	-0.05270772268418088	0.2841613564445962	0.09396746454545898	0.2769414838037666	0.3172338226942153	-0.1029390036062078	-0.04453016811145336	-0.1388883311804744	-0.007510705918765986	0.02664816883790914	-0.3379301909852611	-0.1687467214313617	-0.3993696646039887	0.2866392894370814	1.570796326969429	0	0	0.5807679389744269	-0.3094058489343657	-0.07653944585752626	1.60358349279753	1.570796326969429	0	0
0.08563125941383082	-0.1180771785587693	0.03057382269518824	0.04457191525361935	1.077487855053189	0.931024433501434	0.4531488712727194	0.5898278731374085	-0.1630656676248034	0.01632774999157038	0.4926034182414131	0.03879643001440364	0.412026053934314	0.01862984910085062	-0.4116620747996804	-0.07416022048939434	-0.03847175311327578	-0.01383164045557099	-0.04523632880460953	0.3275482206689809	0.09396746454545904	0.3308064363104889	0.3182482026486901	-0.1233255351501813	-0.06092136515035163	-0.1312393642841062	-0.002888867888952117	0.01635319038081754	-0.3446580262848267	-0.1666575842583982	-0.3872382181688874	0.2793819778916364	1.570796326969429	0	0	0.5734769324221056	-0.3014593143801083	-0.08349283052363878	1.630828842725936	1.570796326969429	0	0
0.08960000000000001	-0.1182411984451338	0.02771094706752965	0.0452140037212844	1.078322827751665	0.9308761909079498	0.4543960354394437	0.5888461771624902	-0.1585609703153668	0.01590045410030404	0.4999232182410394	0.03879643001440364	0.4199149394272091	0.02579541053405189	-0.4145010132046035	-0.0749360690221834	-0.03539257021752967	-0.01858332830409334	-0.04418304245419171	0.3413180182673966	0.09396746454545905	0.3476083824678753	0.3170235485998367	-0.1291402478130901	-0.06563132548641372	-0.1293346155904324	-0.001731678362884022	0.01351478701941399	-0.3436034507585735	-0.1661092399214245	-0.3846883459133089	0.27725723629032	1.570796326969429	0	0	0.5704641394280151	-0.2991852271202423	-0.08536138635629527	1.637289180501598	1.570796326969429	0	0
0.0991128561131141	-0.1184828566506335	0.02065218430492814	0.04665071600916999	1.080307432516459	0.9306988888489319	0.4574584811877086	0.5855063779730418	-0.1475823038062788	0.01386052343233489	0.5163857261357873	0.03879643001440362	0.4380457699112437	0.04442752744983706	-0.4194732832048648	-0.07708261467652625	-0.02656570331320163	-0.03033342290100655	-0.04181987207459618	0.3770711468271513	0.09396746454545904	0.3911827230090199	0.312491949207797	-0.1440294445112767	-0.07717397764806018	-0.1248833366752998	0.001078087064314955	0.006878153825178104	-0.3387027847755085	-0.16479103893424	-0.3789310178625795	0.2710849746426184	1.57079632696943	0	0	0.5616411791554183	-0.2936845800512407	-0.0899759106654327	1.652292968567688	1.57079632696943	0	0
0.1160558844730551	-0.1187530581626794	0.007156800053350738	0.0481625527342084	1.083768602249651	0.9309458372578695	0.4631603254815695	0.5733176341450861	-0.1263772822342827	0.009753087491928172	0.5333410201394049	0.03879643001440364	0.4653720532456865	0.07234912987165998	-0.4263769764615695	-0.08063051558575522	-0.005308475859705064	-0.05273056511856726	-0.0391336343163108	0.449962346040742	0.09396746454545907	0.4794281241452035	0.2957651038459693	-0.1745765952439933	-0.09908020287012481	-0.1166737250946045	0.006554650015251788	-0.003814149827253897	-0.3179449253888519	-0.1628385253205227	-0.3723147433767727	0.2580053501850446	1.57079632696943	0	0	0.5410625965657359	-0.2835349028318488	-0.0985118110715362	1.674922951966817	1.57079632696943	0	0
0.1304312594138309	-0.1187194505081886	-0.005602090405782883	0.04870888940008574	1.086733806980374	0.9315709033343105	0.4680680298523449	0.5543942724794834	-0.1065841236665233	0.005762982256439966	0.5313255168245181	0.03879643001440364	0.4814445210910061	0.08820788997632181	-0.4306278361293332	-0.08452777899222515	0.01759012929496354	-0.07333872827999763	-0.03715250661765156	0.5198936908826693	0.09396746454545905	0.563034013756934	0.2745015695413341	-0.2053923664091633	-0.1137614398823567	-0.1092579106807874	0.012612920017697	-0.01110891091436522	-0.2921319373509054	-0.1618534702710271	-0.3700028488884959	0.2460863191696268	1.57079632696943	0	0	0.519359213862014	-0.2746523193063564	-0.1058244151379541	1.688697331213896	1.57079632696943	0	0
0.1344	-0.1186696625615017	-0.009329599513250322	0.04890319902569392	1.087555996907039	0.9317834640742024	0.4694014627984814	0.5480371835159749	-0.1009233502801461	0.004555063294666789	0.5286409222186057	0.03879643001440364	0.4845776293842117	0.09163813262088978	-0.4316377453186939	-0.08587899507364438	0.02460793680588094	-0.07928696285434217	-0.0366066101695556	0.5402423079752512	0.09396746454545905	0.5871566515903593	0.2677499164149293	-0.2145198131293199	-0.1156820761540182	-0.1071777016839032	0.01458012703250555	-0.01279787977014306	-0.2852176639034762	-0.1617224106817624	-0.3694053376463892	0.2432593628612653	1.57079632696943	0	0	0.5129129737018957	-0.2722142961966654	-0.1077423466279259	1.691632853725141	1.57079632696943	0	0
0.1439128561131141	-0.1185452688821415	-0.01857444417343239	0.04923754091851476	1.089444998178233	0.9323623117579166	0.47257196631533	0.5322221199070015	-0.0868553284735261	0.002104748825291949	0.5207937430162873	0.03879643001440363	0.489776957653244	0.1006446026666613	-0.4338528668225825	-0.08972889456809439	0.04240435661530173	-0.09379142123611742	-0.03514436275141875	0.5901298774573581	0.09396746454545903	0.6461754949386566	0.2507897942418159	-0.2379410833467754	-0.1186702255965346	-0.1022306056897048	0.01974408933449026	-0.0165444770535922	-0.2669919234807508	-0.1615043643334144	-0.3676633113179782	0.2370565927145467	1.570796326969429	0	0	0.4966418744914484	-0.2663319892004467	-0.112267017761726	1.697265907992465	1.570796326969429	0	0
0.1608558844730551	-0.1178848017830349	-0.03699575001025755	0.05004741199343159	1.092437816354148	0.9335739000644878	0.4779883575654929	0.5026541326862255	-0.05927890070224962	-0.0004712913942062635	0.5034543041685297	0.03879643001440365	0.4915658001752486	0.1183427538128511	-0.4392509464052057	-0.1009427894816329	0.07913881215863036	-0.1213428627250885	-0.02917706630503536	0.686849256633234	0.0939674645454591	0.7527490485008804	0.2173769449591915	-0.2844095739405524	-0.109102026798229	-0.09434366367259103	0.03186260978747975	-0.02136572706791333	-0.2359206685035042	-0.1623202225079363	-0.3622696004703151	0.2322237387399428	1.57079632696943	0	0	0.46476916723378	-0.2554662865408897	-0.1191419363282809	1.697108200757539	1.57079632696943	0	0
0.1752312594138309	-0.1164071370141472	-0.0542219663183271	0.05095974389582324	1.094521432633223	0.9346973011427061	0.4822992723729067	0.4766783349358303	-0.03398263751970844	-0.001269908807026807	0.4864633203921866	0.03879643001440365	0.4870073248711306	0.1293663007038847	-0.4463134509435923	-0.1138811045627467	0.1139159392940226	-0.1464757437571702	-0.02132393534274819	0.774882341802549	0.09396746454545901	0.8407928562247766	0.203736829399936	-0.3209671025956101	-0.08980311303700267	-0.08938276808566452	0.04467820321561018	-0.0235658408334446	-0.2121438130541	-0.1647584943594995	-0.3551876964150369	0.2380746057491241	1.570796326969428	0	0	0.4348045378167927	-0.2456090342912695	-0.1229837451211683	1.683360164971363	1.570796326969428	0	0
0.1792	-0.1158420255100818	-0.058922571254205	0.05120640749905509	1.095047932389926	0.9349979036701419	0.4834469135372214	0.4693844398142437	-0.02710177713374479	-0.001458123536905886	0.4814776836244904	0.03879643001440365	0.485015409086006	0.1309904686333188	-0.4484157624433422	-0.1173045333982331	0.1228786632696939	-0.15354612700607	-0.01997215800363637	0.7977035206907872	0.093967464545459	0.8641866533942432	0.2069411361154894	-0.3284031060789129	-0.08490342406240918	-0.08823763887808267	0.04820240032154988	-0.02405334512964384	-0.2056026278135477	-0.1657044174577116	-0.3529454968083152	0.2416313726603235	1.570796326969428	0	0	0.4265149447267374	-0.2427760684210896	-0.1236384932072199	1.677784337386069	1.570796326969428	0	0
0.1887128561131141	-0.1143887709200368	-0.07017545527607713	0.05191609656950884	1.096178152353218	0.935722064804747	0.4861000214635377	0.452149633741892	-0.01079043037705431	-0.001855536958302942	0.4697961043835428	0.03879643001440364	0.4793092799431573	0.1352604452631627	-0.4529039577356628	-0.1258484334513585	0.1442166521403419	-0.1705926484803244	-0.01662280989809845	0.8494205345051054	0.09396746454545898	0.9179741706970704	0.2051676393470999	-0.3443853285068957	-0.0673411699823469	-0.0858592786519696	0.05681364270449417	-0.02501024239583301	-0.1897712514909685	-0.1682592136604432	-0.3469256258351858	0.2518285709685953	1.570796326969428	0	0	0.4061694066388388	-0.2358716921492346	-0.1247760782365507	1.662124579559236	1.570796326969428	0	0
0.2056558844730552	-0.1109001422612141	-0.08872654310983473	0.05403999782786675	1.09769684289965	0.9371214861707945	0.4903681158086767	0.4215880660212835	0.01583527998646699	-0.002735359695312495	0.4495530423946671	0.03879643001440364	0.467122312274925	0.1406961805427046	-0.4595661566696115	-0.1404456875616417	0.1800013263740196	-0.1987858854909655	-0.009975470341726779	0.9236698948051313	0.09396746454545903	1.003582163257851	0.1865495693123027	-0.3571948963939438	-0.02127059409125972	-0.08366979790356718	0.07119893706374733	-0.0263325706790323	-0.1618704118786802	-0.1747212697757973	-0.3340265111449897	0.2819124847969364	1.570796326969429	0	0	0.3715678790277195	-0.2225915061995485	-0.1240284892312893	1.621790092508424	1.570796326969429	0	0
0.2200312594138309	-0.1069402678592737	-0.1019448247919228	0.05717563996525462	1.098367858753472	0.9384396865203662	0.4934145395473461	0.3959219278016909	0.03459051578817801	-0.004226937814876458	0.4333215554385226	0.0387964300144036	0.4560561479351946	0.1416986250618498	-0.4640840991622756	-0.1500386888497362	0.2100358036492161	-0.2180243751303712	-0.001672209365882554	0.9718979808879953	0.09396746454545903	1.063668698373304	0.1701713229141555	-0.3624397523572386	0.02343038449933758	-0.08447185900658973	0.08151224970475945	-0.02714173677969079	-0.1390602673378372	-0.1822088593950232	-0.321647436700624	0.3187715934912462	1.570796326969429	0	0	0.3439455211979091	-0.2103515390531884	-0.1204934770027017	1.573486300733709	1.570796326969429	0	0
0.224	-0.1057853245286715	-0.1051308743889104	0.0582387688768013	1.09845133539158	0.9388113488624998	0.4941651779109858	0.3890354149771293	0.03910378453267582	-0.004764979423124732	0.4291178269570064	0.0387964300144036	0.4530077597625574	0.1415998190848323	-0.4651616109841267	-0.1518472876283876	0.2185337984459065	-0.222460927611144	0.0008422401098835824	0.9835769080068884	0.09396746454545903	1.078003530531132	0.168045175985418	-0.3650116630475485	0.03429220766494545	-0.08503519248901598	0.08399402627809126	-0.02733075240012321	-0.1326698257742222	-0.1844439812263754	-0.3182040062080002	0.3296629473394745	1.570796326969429	0	0	0.3362862635413141	-0.2069283897461938	-0.119244456429331	1.55864727022684	1.570796326969429	0	0
0.2335128561131141	-0.102903410599669	-0.112321430050203	0.06105472701757728	1.098496437654655	0.9397262559897693	0.4958163368229172	0.3728026193205969	0.04925447770006952	-0.00599463119385614	0.4194657342460937	0.03879643001440358	0.4458022787441963	0.1416216837512372	-0.4674739169499331	-0.1558049637081738	0.2390481429066946	-0.2321528437152313	0.007046309089208246	1.007716121419662	0.09396746454545903	1.108215278784868	0.1639636144240538	-0.369764602364803	0.06084172434696705	-0.08692231148536388	0.08976458868844994	-0.02769771137654563	-0.1171151209867487	-0.1900609125967513	-0.3094493233241545	0.3569310799528165	1.570796326969429	0	0	0.3178119947731219	-0.1986380972146247	-0.1158172316823029	1.5209448713297	1.570796326969429	0	0
0.2504558844730551	-0.09713995800719519	-0.122026055420212	0.0678235958168931	1.097969208448004	0.9414171765690422	0.4981574820490532	0.3445135191682232	0.06313015571356942	-0.008562648843229048	0.4037484691311386	0.03879643001440362	0.4333847925262553	0.1418089564989588	-0.4709834321855285	-0.1591494740069655	0.2764400060278697	-0.2436118479687742	0.01898696859258821	1.039802421436173	0.09396746454545901	1.147292291014472	0.1663538789395369	-0.3834293879696968	0.09632698576239435	-0.09268690249798955	0.09757685048338352	-0.02861158507253244	-0.08916243387699752	-0.2013281905454493	-0.2943539595216611	0.408610823725267	1.570796326969429	0	0	0.2869367985938372	-0.1833596562858391	-0.1078189467387771	1.444143817391368	1.570796326969429	0	0
0.2648312594138309	-0.09165722076949001	-0.1267575820618275	0.07550287913094832	1.096948059942743	0.9428974953807974	0.4995809744243291	0.320857958915444	0.0704466693300724	-0.01101245882752591	0.3913915486204268	0.03879643001440362	0.4230557844559663	0.141567657504391	-0.4742345460639656	-0.1576438251035824	0.3089241085144893	-0.2472895023399166	0.02945255450418525	1.056645048709995	0.09396746454545896	1.165782531971648	0.1716440668640568	-0.3964175880373785	0.1102539140900984	-0.0999390424810862	0.1011037974647298	-0.02989640180127574	-0.06575539136456576	-0.2121490950775931	-0.2837990980140236	0.4541855644903191	1.570796326969429	0	0	0.2637086477217547	-0.1699492454179257	-0.09934858199549314	1.369105591241506	1.570796326969429	0	0
0.2688	-0.09014731756719437	-0.1276971290498028	0.07778971385568717	1.09660141445921	0.9433068233376216	0.4999125607927701	0.3144081255473202	0.07204925176278307	-0.01161497276043258	0.3880106477031762	0.03879643001440362	0.420177281475399	0.141548266286562	-0.4752615463658896	-0.1566841908132452	0.3178860594313482	-0.2477713479781242	0.03198684700162292	1.05938377235286	0.09396746454545897	1.168576321574191	0.1719381030035686	-0.3984253370854176	0.1124536351568334	-0.1021322577296262	0.1017683751709771	-0.03030191461065146	-0.05916242592136906	-0.2152095338238563	-0.2812818621015786	0.4665808750140102	1.570796326969428	0	0	0.2575268520957794	-0.1662702011387635	-0.09692802984707774	1.347542867030802	1.570796326969428	0	0
0.2783128561131141	-0.08648847328188544	-0.1294525132921073	0.08351401666284834	1.095651577831343	0.9442840425774082	0.500599234008502	0.299051396536135	0.07528615735146046	-0.01298890093370905	0.3800282830643594	0.03879643001440362	0.4131188954103553	0.1420534571485668	-0.4775562746707532	-0.153838819927802	0.3393426720404012	-0.2480908822576707	0.03763198825807614	1.063020831316597	0.09396746454545903	1.171311945166582	0.1747578599881301	-0.401511709378829	0.116224463648727	-0.1078112298001491	0.1030081149275345	-0.03133061823975263	-0.04311860792601377	-0.2227077251951795	-0.2752605398990823	0.4965769522649699	1.570796326969429	0	0	0.2429373625193069	-0.1574404744455045	-0.09085337142507745	1.294325672145054	1.570796326969429	0	0
0.2952558844730552	-0.07993018286019023	-0.1305077646766505	0.09468304297005635	1.09361067699964	0.9459906012743118	0.5014900679704382	0.2716153843923576	0.07860231683697691	-0.01557112299782969	0.3654179665866041	0.03879643001440364	0.3995195937683619	0.1438330173580412	-0.4811174343185172	-0.1466637495390661	0.3762851747597624	-0.2456165578048034	0.04516501212480394	1.057555313999533	0.09396746454545901	1.16273899049728	0.1840422476851505	-0.4037778157858065	0.1137103741734644	-0.1190586962019671	0.1033729048751181	-0.03366809094132932	-0.01339247677003058	-0.2365105482291203	-0.2669709513545991	0.5503358531869461	1.570796326969429	0	0	0.2200829250494491	-0.1419247666546138	-0.07974355007342362	1.193897831111359	1.570796326969429	0	0
0.3096312594138309	-0.07458912221273592	-0.1294884943455106	0.1049018087596021	1.091609450988918	0.9473712840846018	0.5020047695115113	0.2481388971722641	0.07924864765703776	-0.01798196603425641	0.352052077295471	0.03879643001440364	0.3863096194200766	0.1457171822377102	-0.4835713630504204	-0.1389776485591967	0.4058528432340686	-0.2409934743098808	0.04893533345988924	1.040815941161895	0.0939674645454591	1.142369676288503	0.191221362577853	-0.4014303217345632	0.1049626811845217	-0.12924772930284	0.101725177623752	-0.0361203222692497	0.01261273135513657	-0.2484490506728304	-0.2634137232311903	0.5967141346543825	1.570796326969431	0	0	0.2042231502554278	-0.1292705190470833	-0.07069944397403197	1.103495306248852	1.570796326969431	0	0
0.3136000000000001	-0.07323543606542897	-0.1290892594471717	0.1076983280080391	1.091035085461139	0.947734788176441	0.5021318780777889	0.2416652883762314	0.07932849523620433	-0.01860303713482202	0.3481337421223679	0.03879643001440363	0.3823091029723429	0.1464401974092755	-0.4840949046473317	-0.1367933923288263	0.4137124088386527	-0.2396590711959226	0.04950146247954557	1.034287861986314	0.0939674645454591	1.134663178843068	0.1914630779733305	-0.3990504982713314	0.103211289991168	-0.1320111112203726	0.1011344181513001	-0.03679543702758142	0.01992922520643445	-0.2517018714558225	-0.2627683870740652	0.6097470769749627	1.570796326969431	0	0	0.2000622939411785	-0.1259159005141076	-0.06836308315580918	1.078232454329584	1.570796326969431	0	0
0.3231128561131141	-0.07010720693669267	-0.1279073656823467	0.1144024324919981	1.089608624170552	0.9485752421372937	0.5023986632446469	0.2261015371939706	0.07928860038179233	-0.02008186294488687	0.3384311244161489	0.0387964300144036	0.3719993034195553	0.1486544331382514	-0.4849138907772104	-0.1313469762562005	0.4318087102122723	-0.236180130836716	0.05027525219159673	1.01534508294896	0.09396746454545903	1.112542646389564	0.1930033105161672	-0.3909872239839561	0.09866944848961463	-0.1386837359789008	0.09946469466668117	-0.03845942422790444	0.03806557461450408	-0.2595222243138564	-0.2614172625366716	0.6415704466999561	1.57079632696943	0	0	0.1907508404277664	-0.1179994816394075	-0.06279280166242689	1.01709871324577	1.57079632696943	0	0
0.3400558844730551	-0.06550992495874131	-0.1251965527154367	0.1258014880873281	1.086966331182299	0.9499174787741421	0.5028039999210768	0.1985034200627988	0.07859879408344678	-0.02268036905238938	0.3194791547092647	0.0387964300144036	0.3508486545037596	0.1526813741608012	-0.484893322547734	-0.1222257378737573	0.4612424740008308	-0.2291344758512593	0.04942011800220761	0.9695989851167179	0.09396746454545903	1.060437309502603	0.1984210353320688	-0.374539948851877	0.09069776181732654	-0.1499654282639427	0.09569299801856568	-0.04123104093771436	0.07181809119656155	-0.2729711208357334	-0.2608514005480661	0.7017225895736057	1.570796326969429	0	0	0.1759549904658629	-0.1051237653654283	-0.05443821266884136	0.9067811867141065	1.570796326969429	0	0
0.3544312594138309	-0.06292319974297636	-0.1224835752321492	0.1345848641713835	1.084702219394824	0.9508799653009	0.5031256062634928	0.1754946485167919	0.07760538244413387	-0.02470192009512001	0.301668412335741	0.03879643001440365	0.3299271837989142	0.1556855822999664	-0.4835140106611996	-0.1158410124813442	0.483393002267107	-0.2223140820520448	0.04736316032923464	0.9191734266309483	0.09396746454545904	1.003629078277924	0.2008121950522848	-0.3608674616817373	0.08499380567976453	-0.1584628425893162	0.09171923443405601	-0.04303759825706141	0.1007667983558465	-0.2835322395872346	-0.2625064596011002	0.7571986339238918	1.570796326969429	0	0	0.1637636357479998	-0.09587672641840587	-0.04966410873529428	0.8128397511554646	1.570796326969429	0	0
0.3584000000000001	-0.06241938047084341	-0.1217547242811616	0.1368320371972548	1.08408799564748	0.9511198616799623	0.5032160101244231	0.169224957130937	0.07736863921193837	-0.02517007085606135	0.2965276217684836	0.03879643001440364	0.3236760643051148	0.156634226352472	-0.4829050896681796	-0.1142826764553869	0.4890408338865452	-0.2204036658050824	0.04677827075454592	0.9035077010270178	0.09396746454545904	0.9859666055758773	0.1994131234303994	-0.3564269966369161	0.08418915874275508	-0.1606106702785175	0.09057162275798278	-0.0434040013874985	0.1087138331097878	-0.286299844186463	-0.2630527340185859	0.7731939919511069	1.570796326969429	0	0	0.16011052371507	-0.0935702991714744	-0.04864790842609475	0.7872407953343687	1.570796326969429	0	0
0.3679128561131141	-0.06145339127615956	-0.1200037198179328	0.1419425392166077	1.082616320781733	0.9516573886805355	0.5034267360705943	0.1542642813109213	0.07683776870531611	-0.02605787388346448	0.283872205844457	0.03879643001440364	0.3079120413827463	0.159046434034608	-0.4812145312457365	-0.110821714669672	0.5015613134269314	-0.2156752375478908	0.04563008263389161	0.8630326616979319	0.09396746454545905	0.9403100741581607	0.1947941316628617	-0.3436723419947404	0.08250275456857299	-0.1655919012860928	0.08770872592220391	-0.04416070367604144	0.1285030767823199	-0.292795011209982	-0.2643302257230773	0.8125357036539342	1.570796326969429	0	0	0.151274835129943	-0.08833199109406954	-0.04651703003536647	0.7261376572082076	1.570796326969429	0	0
0.3848558844730551	-0.0609543112733907	-0.1172293604979553	0.1494249207261079	1.080127828712317	0.9524458614540893	0.5038571322799883	0.1282491732764681	0.07635719027951077	-0.02664360068724816	0.2602262990495331	0.03879643001440364	0.2775176601602136	0.162542594551982	-0.4773220295391342	-0.1078224141686086	0.5203911174138333	-0.2073906425841589	0.04490844567438526	0.7810710610371637	0.09396746454545903	0.8484775010881738	0.1772497178769343	-0.3165303523095638	0.07849155757945002	-0.1733282898830468	0.08242767659260136	-0.04447764240210804	0.1642020434606182	-0.3031083429762185	-0.267057266000584	0.8870374878777094	1.570796326969428	0	0	0.1317250854458041	-0.08088713518337665	-0.04500220981855244	0.6211282093061505	1.570796326969428	0	0
0.3992312594138309	-0.06171114575365991	-0.1154962739408514	0.1541138282264098	1.078220511326344	0.9529193387092921	0.504288136244897	0.1069623164990554	0.07659187692414873	-0.0264935617094616	0.2395372923986921	0.03879643001440364	0.2502072575514788	0.1643979642999049	-0.4728102133944592	-0.1092099905244394	0.5331214476459571	-0.2008294523135073	0.04743680668742464	0.7033023759766335	0.09396746454545904	0.762212092564987	0.1465466501392474	-0.2908972241936703	0.07288699081857461	-0.1786927133106351	0.07797730294037729	-0.04352133637364082	0.1939328926711846	-0.310233994450012	-0.2699346223577644	0.9537985530903094	1.570796326969429	0	0	0.109712095207106	-0.07676571077334227	-0.04621108381120151	0.5382679457235919	1.570796326969429	0	0
0.4032	-0.0620211875438835	-0.1151549702418953	0.1552508367463156	1.077727204633258	0.9530196969575259	0.5044035144807287	0.1011583052099182	0.07676700760855215	-0.02649430260260238	0.2338337735087708	0.03879643001440362	0.2425657756580658	0.1649518694475542	-0.4712083563080564	-0.1099627432718742	0.5361206779800871	-0.199095403626679	0.0490247326777892	0.6808434361683273	0.09396746454545904	0.737464653864881	0.133770055068801	-0.2838934877447584	0.07139832743424945	-0.1800481039260524	0.07681949602313139	-0.04311478349266036	0.2021612681198635	-0.3119947675213098	-0.2706199434477634	0.9724167682297611	1.570796326969429	0	0	0.1029935928488512	-0.07587963714620596	-0.04673158704380956	0.5165774872213333	1.570796326969429	0	0
0.4127128561131141	-0.0628917185000193	-0.1144963985666561	0.1576952943957493	1.07659619690724	0.9531928717317908	0.5046568647589885	0.08742127855122794	0.07733863770677984	-0.02630913440501081	0.2203186685138343	0.03879643001440361	0.2243070517100583	0.1662424053970668	-0.4672520937152303	-0.1123492289704136	0.5424795125229118	-0.1949894140859574	0.054484874927197	0.6263616385412024	0.09396746454545905	0.6772355510101513	0.09963994246342486	-0.2668883855138011	0.06746074182440154	-0.183100076385672	0.07416410008361467	-0.04196312310119513	0.2223600329842264	-0.3159587717594991	-0.2719331198717083	1.017635798854545	1.570796326969429	0	0	0.08644600093056053	-0.07412147377617703	-0.04824765176311297	0.4661511271797772	1.570796326969429	0	0
0.4296558844730551	-0.06472653146241372	-0.1146583760450063	0.1611617766467144	1.074845736746301	0.9532177897123028	0.5049980912953336	0.0635809240797828	0.07960957390227966	-0.02577084847548947	0.1971477422963365	0.03879643001440364	0.1929725391427548	0.1682256031902264	-0.4593217929455631	-0.1199055301553837	0.551557066187823	-0.188948632407923	0.07026539462127443	0.5302093662011017	0.093967464545459	0.5700195389028211	0.03204848213147515	-0.238204364822316	0.05550432314059072	-0.1876230479461661	0.07089961209169499	-0.03900516591185321	0.258664380496792	-0.3214037642076559	-0.2734617845279566	1.098293157755243	1.57079632696943	0	0	0.05377699385722122	-0.07287740802880713	-0.05204352164911062	0.3882461201795697	1.57079632696943	0	0
0.4440312594138309	-0.06637189559749057	-0.1162361145062672	0.1632427847168686	1.073693881615219	0.9528991346858395	0.5050826504488	0.043883654609638	0.08276484204705598	-0.02533476646446736	0.178847046327644	0.03879643001440363	0.1689269967082804	0.1699114032367285	-0.4512804204153906	-0.1292801896111291	0.5578386242747106	-0.185461574494482	0.08825620624348768	0.4545712496124412	0.09396746454545905	0.4838277634280166	-0.02102719331450037	-0.2163425090386658	0.04114673886032183	-0.1903885107749992	0.07014661086344495	-0.03553548355394235	0.2895124042422291	-0.3242137008478989	-0.2742185390453129	1.165397096847502	1.57079632696943	0	0	0.0222713083358424	-0.07380677115644205	-0.05594288311326961	0.3370232394562181	1.57079632696943	0	0
0.448	-0.06679460131855103	-0.1167830109410282	0.1636862606889484	1.073433129698095	0.9527523583427437	0.5050466421371178	0.03846848053523777	0.08365862768260249	-0.02529970040274862	0.1740913050093142	0.03879643001440363	0.162880112389575	0.1706198927765798	-0.4486032963378297	-0.1319051408954039	0.5594084162149615	-0.184647470848893	0.09347216756274954	0.4354131143232017	0.09396746454545905	0.4614741228091199	-0.03359505893141806	-0.2107948360545669	0.03761654038463257	-0.1909880238156269	0.07023217850093824	-0.03448261506396352	0.2983143790946053	-0.3248131714690074	-0.2742507004955185	1.183649811868298	1.57079632696943	0	0	0.01323354634820569	-0.07425226742612573	-0.05691876096553013	0.3247588114955342	1.57079632696943	0	0
0.457512856113114	-0.06777489932167943	-0.1181217472181411	0.1645308509635848	1.072912675136289	0.9522912249902045	0.504861120287052	0.02559240390436834	0.08576165756366624	-0.0248964323562384	0.163251228588145	0.03879643001440361	0.1496515960188401	0.1727508261600349	-0.4422732503650412	-0.1384660993508938	0.5631443335330404	-0.1827978489719534	0.1059319036292518	0.3934198768670122	0.09396746454545903	0.4113097752077458	-0.06038577333657727	-0.198179666913113	0.02904805585010598	-0.1921412676940014	0.07074390137688977	-0.03183959511143125	0.3196249885403039	-0.3260134625278298	-0.2740248900935508	1.227466626879548	1.570796326969429	0	0	-0.008932731424965465	-0.07561925690395688	-0.05919121820848033	0.2978532871784698	1.570796326969429	0	0
0.4744558844730551	-0.069359717390368	-0.1206109374350618	0.1652026976778626	1.072408490599738	0.9510790627343407	0.5040983704955497	0.003131333921128965	0.08916356969577821	-0.02333473209867043	0.1464155050955531	0.03879643001440362	0.1311917636176944	0.1779540438918821	-0.4307966572309031	-0.1498231697294516	0.5700916218702182	-0.1797186146887901	0.1230129894033115	0.3352200290068348	0.09396746454545904	0.336715071080621	-0.08918136168528329	-0.1792440079184748	0.01384369001409218	-0.1929774239006873	0.0730692462664823	-0.02661567602171949	0.3578774926117614	-0.3269918449576509	-0.2732033055983618	1.303208169205301	1.570796326969429	0	0	-0.05201171240884167	-0.07919573390682605	-0.06211353563893536	0.2635321667327537	1.570796326969429	0	0
0.4888312594138309	-0.07057524617589953	-0.1222995149591351	0.1650926101653433	1.072378340089523	0.9496918368446949	0.5029578066278074	-0.01500807258606751	0.09104129903324401	-0.0216414310471196	0.1355240141630615	0.03879643001440368	0.1212637197729959	0.1838717283591691	-0.4211830609986829	-0.1566620928483533	0.5765930822395442	-0.1763449362255192	0.1284924509148007	0.3039897839646096	0.09396746454545905	0.2909460492754369	-0.1004653180534525	-0.1697466500406464	0.002698832875256723	-0.1925022969214241	0.07601237869169583	-0.02168680247860281	0.3900090555095954	-0.3266390491847815	-0.2723588493994167	1.36327614685968	1.570796326969429	0	0	-0.09155035982461726	-0.08325821510362243	-0.06288234730918445	0.2493205487093504	1.570796326969429	0	0
0.4928	-0.07089037199393868	-0.1225569609862925	0.1649916755943103	1.072414629194334	0.949261662664135	0.5025560251119986	-0.01979393164876381	0.09120685893989786	-0.02135032728015601	0.1332548549478775	0.03879643001440368	0.1194883791194223	0.1859066453450378	-0.4182934729058592	-0.1576182848969262	0.5784788418399593	-0.1750559443861809	0.1284411830604963	0.298220704592487	0.09396746454545905	0.2813375882835045	-0.103494837242534	-0.1685865126344988	0.0006195385309981372	-0.1922395436386157	0.07683700846834958	-0.02027403542447763	0.398934794990685	-0.3264412443018516	-0.2718857419055823	1.379127193898737	1.570796326969429	0	0	-0.1022843905294794	-0.08446789119835266	-0.06278828937479985	0.2469015292675613	1.570796326969429	0	0
0.502312856113114	-0.07170976260070794	-0.1229277691773027	0.1645291736442706	1.072583731028118	0.9481366763535662	0.5014650763674301	-0.0306867124783991	0.09123421576056723	-0.02041860258344103	0.1291653665028386	0.03879643001440364	0.1169197482865424	0.1918380022466421	-0.4118238057096338	-0.1593603186809296	0.5832170204672602	-0.1716046534819314	0.1258536177793494	0.2893183980652284	0.09396746454545907	0.2636256312833621	-0.1065611876625203	-0.1649100299032875	-0.003687853470509455	-0.1912693637139044	0.07891255509464822	-0.01681027434428481	0.4206758941753325	-0.3258013205539143	-0.2703592688306498	1.416681746011871	1.570796326969429	0	0	-0.1277972488198293	-0.08755798567320162	-0.06218806341075762	0.2435767135148006	1.570796326969429	0	0
0.519255884473055	-0.07397629672337645	-0.1220527936491233	0.162901513066409	1.073141302642942	0.9458128443344607	0.4990560186779572	-0.04724050845171468	0.08895018780453379	-0.01841207813307408	0.1271457830890904	0.03879643001440363	0.1179505756808617	0.2057402648546895	-0.4010716290431633	-0.1576653884532424	0.5922777815024522	-0.1632331717036129	0.1111457549794075	0.2888492030326381	0.09396746454545894	0.2495528774285526	-0.09622250820452316	-0.1654151315551198	-0.008354387550760971	-0.1878889918563661	0.08201940543360448	-0.01030421824235742	0.4601230981322175	-0.3239439545132539	-0.2666563098513132	1.479073249835485	1.570796326969429	0	0	-0.17157587734226	-0.09357562072636108	-0.05893545792355075	0.2476772957263166	1.570796326969429	0	0
0.5336312594138308	-0.07709440201288829	-0.1194419552034644	0.1606844988927844	1.073891713281481	0.9435574328130036	0.4965889502341487	-0.05815865463808639	0.08430465433984191	-0.01681416439095763	0.1305368752423131	0.03879643001440362	0.1238190352243616	0.2204963769288694	-0.3927853832193062	-0.1511743255844663	0.5999773939013968	-0.1538844917918023	0.09051030372888486	0.3000385238243041	0.09396746454545897	0.252461656630431	-0.08140321215705795	-0.1750912364275124	-0.008025821531089591	-0.1830789300203856	0.08333730375253368	-0.004439739278070075	0.493315256767781	-0.321679871589749	-0.2632153936187411	1.526575363388719	1.570796326969428	0	0	-0.2067673806071773	-0.0990018554340123	-0.05385849737367929	0.2596635129716036	1.570796326969428	0	0
0.5376	-0.07809920438767584	-0.1184629052386053	0.1599232297227224	1.074150995255142	0.9429013900292935	0.4958496690350596	-0.06080776291552759	0.08261862238486289	-0.01654382254209322	0.1321416710727245	0.03879643001440362	0.1261352837335508	0.2248053731982902	-0.3903619164395931	-0.1489226070322998	0.6019393230357843	-0.151098674076591	0.08447468088430005	0.304325113549134	0.09396746454545898	0.2551665650610491	-0.0792819277260163	-0.1781992228909389	-0.006825267416405233	-0.1815027308235546	0.08350762503549206	-0.002769142459706015	0.5024222394752018	-0.3210054178932544	-0.2621496791155031	1.53913283878525	1.570796326969428	0	0	-0.216131886696448	-0.100515041945337	-0.05221921510447774	0.2632522136378109	1.570796326969428	0	0
0.547112856113114	-0.08072479243805068	-0.1157839915136089	0.1577739933673047	1.074855506368387	0.9412699257337402	0.493991149095218	-0.0665457548618531	0.07807542464097678	-0.01594798145714024	0.1371413313769579	0.0387964300144036	0.1327495981902986	0.2361382586103773	-0.3845901839001306	-0.1431333281232037	0.6062771640610904	-0.1442997508817723	0.07008786201364892	0.3164434332622963	0.09396746454545897	0.2642244020052788	-0.07494226581948002	-0.1835185071152984	-0.003364046493734894	-0.1773705846844	0.08371715351509493	0.001324205678071771	0.5250145744343205	-0.3192887385299051	-0.2592831546429278	1.569039844320153	1.570796326969428	0	0	-0.2380627945268478	-0.1042166201751733	-0.04789610960142777	0.2729338665174793	1.570796326969428	0	0
0.5640558844730551	-0.08656795671483962	-0.1094108438118998	0.1522494357316077	1.076519093936217	0.9381752043746244	0.4904867747413366	-0.07455393143966793	0.06758870388797988	-0.01459212598236874	0.1494989779036918	0.03879643001440362	0.1476937686854823	0.2573570273391632	-0.3741533975175313	-0.1341137942282908	0.6126680209454809	-0.1316838125025284	0.05110079884090415	0.3427825734298581	0.09396746454545897	0.2864881169461991	-0.07990385770221542	-0.1869641164962847	0.003867777533651832	-0.1682534291111545	0.08229082001389254	0.009261573791543798	0.5654839274607881	-0.3157523183532039	-0.2537537624019171	1.620580087745291	1.570796326969429	0	0	-0.2764452404907466	-0.110729397398457	-0.03881192617421003	0.2887971681076831	1.570796326969429	0	0
0.5784312594138308	-0.0924910911165801	-0.1023523847719698	0.1457991738319883	1.078417636943843	0.9354323204102963	0.4873710710821173	-0.07968331912168969	0.05624836491937385	-0.01376240175778992	0.162888703313927	0.03879643001440358	0.1630514314319746	0.2751357977835249	-0.3646668901945514	-0.1304279720762078	0.6157541752400337	-0.1204239180392827	0.04861301121919125	0.3662317184061997	0.09396746454545887	0.3082391550004854	-0.09771900396477573	-0.1855270857253579	0.008474471379138704	-0.158964871159412	0.07893980137911187	0.0168196284274875	0.598188746541925	-0.3122591617149651	-0.2493430967165186	1.662573209233428	1.570796326969427	0	0	-0.3085970714282684	-0.1158872934145235	-0.03009780114754022	0.2973530318652999	1.570796326969427	0	0
0.5823999999999999	-0.09413949289507489	-0.1002490516913565	0.1438116148114226	1.07901933069995	0.9346731164549278	0.4864768702938781	-0.08105533967597511	0.05282258600747522	-0.01387879145141488	0.1668894301548493	0.03879643001440357	0.1677021664318245	0.2797341389540187	-0.3616484257574557	-0.1302500110137907	0.6159267877699354	-0.1172547612880661	0.05096264200956276	0.3720040707806469	0.09396746454545887	0.3143573308438608	-0.103732424793591	-0.1854275446612995	0.009406035570637291	-0.1563089280028337	0.07786315231854857	0.01902837639118865	0.6070490731772703	-0.3112533031035565	-0.248095591684327	1.674163680520943	1.570796326969427	0	0	-0.3172601720367212	-0.1172478790964971	-0.02767377720832364	0.298647819682436	1.570796326969427	0	0
0.5919128561131139	-0.09824442119499967	-0.09502789873478264	0.138918016673015	1.080551585168264	0.9328330624248944	0.4842424454377463	-0.08392119919044666	0.04422632030258661	-0.01434805819476752	0.1772530372219555	0.03879643001440357	0.1796237741446834	0.2908198577548463	-0.3544083773382141	-0.1306952340626201	0.6154698366761899	-0.1096310484168447	0.05705807797000488	0.3849395599024498	0.09396746454545891	0.3289052280320409	-0.1129895969970086	-0.1870793531403505	0.01148675116180685	-0.1496739714714534	0.07523729784387566	0.02443500624565952	0.6288677286697106	-0.3087917680088142	-0.2452343223785843	1.702201977170584	1.570796326969427	0	0	-0.336621430337484	-0.1204376606749219	-0.02166047466899565	0.3017379236439459	1.570796326969427	0	0
0.6088558844730551	-0.1057761913045592	-0.08513034201713966	0.1309993373456869	1.083319134761709	0.9297993471006183	0.4798825450094404	-0.08690068897252801	0.02767046412484464	-0.01756602202029837	0.1995182780194388	0.03879643001440364	0.2040883399802862	0.3073998934375285	-0.3424238629476044	-0.1387623231078786	0.6175247613720278	-0.09508455412653102	0.06441983499232583	0.4173223006841147	0.09396746454545907	0.3537331437803738	-0.09638654749354503	-0.204245562199673	0.01100755162623708	-0.1378166632618355	0.07033000271814138	0.03468884171127921	0.6608063685377418	-0.3041458860183429	-0.242179780031425	1.749932422371555	1.57079632696943	0	0	-0.3639425768077892	-0.125115278381769	-0.01076689277160198	0.3030721855474765	1.57079632696943	0	0
0.6232312594138308	-0.1121493054940903	-0.07614121120376292	0.1259320081462849	1.085393949585396	0.9279019656095377	0.4757412408880258	-0.0859300054567177	0.01229954430382853	-0.0241902177902858	0.2246648808797517	0.03879643001440365	0.2292090763027966	0.3169278839066524	-0.3338291849436352	-0.1517420319300873	0.6247486891985691	-0.08055003135943284	0.06940156241811421	0.4565459571694709	0.09396746454545908	0.3732100950133992	-0.05732960921437438	-0.2287854003219573	0.005878524136333651	-0.1285575002101663	0.0660817962586403	0.04395002162810073	0.6743682402638881	-0.2999319088000241	-0.2418638680367117	1.785233813923622	1.570796326969429	0	0	-0.3795562306584028	-0.1278231674328397	-0.001758218850798896	0.2988052777878536	1.570796326969429	0	0
0.6272	-0.1138450073474077	-0.0736013298261701	0.1247737868613327	1.085903440884071	0.9275366760441972	0.4745194570321306	-0.08502089442379746	0.007819109392587717	-0.02701414548105352	0.2328912408846676	0.03879643001440364	0.2370519514787201	0.3188325469210275	-0.3314042095703008	-0.1552654657129953	0.6272509867903073	-0.07612629195240676	0.07134350904145578	0.4680500939843347	0.09396746454545907	0.378278074374543	-0.04766037483566768	-0.2344572381895776	0.004534213129067797	-0.1262101615892909	0.06502451319135366	0.04654194604220412	0.6760187890960715	-0.2987472700773604	-0.2417777491857824	1.794041748326495	1.570796326969428	0	0	-0.3831027061636854	-0.1284636563491974	0.0006450201868652972	0.2970887264977147	1.570796326969428	0	0
0.636712856113114	-0.1179026897031255	-0.06741052566074096	0.1221145456250177	1.08712631688773	0.9267939658245447	0.4714868619024281	-0.08179019979759783	-0.003376838655061165	-0.03440392820510993	0.2546161487398123	0.03879643001440362	0.2577674331595384	0.3220652958974164	-0.3258389581254343	-0.1644762026241756	0.6321045114571406	-0.0655515146846357	0.07439320476280713	0.493337617352797	0.09396746454545904	0.3897838600223451	-0.02583596110315653	-0.2487800484805732	0.0009241479221875514	-0.1205823971904516	0.06264966198301465	0.05272438432284559	0.6787377254131665	-0.2958982323662402	-0.2419906501414494	1.815169721021438	1.570796326969428	0	0	-0.3897716109977613	-0.1299135610825404	0.006464998973404593	0.2928895247059913	1.570796326969428	0	0
0.6536558844730551	-0.124405009065525	-0.05612448464019697	0.1188256185801355	1.089268005179028	0.9260593337785124	0.4657321814257117	-0.07281087711630535	-0.02458035481744864	-0.05000602312969804	0.3007269024531867	0.03879643001440364	0.302565945346418	0.322105681249054	-0.3181746379467674	-0.1824131875580318	0.6352545704083601	-0.04677378835982154	0.07676241344008858	0.5281618079652057	0.09396746454545907	0.4074801564838444	0.001742485042692837	-0.2684413457270802	-0.00648188796457261	-0.1112180780616347	0.05885677055694512	0.06320177904812066	0.6733735081039273	-0.2907553965992418	-0.24414973780666	1.849414740894696	1.570796326969429	0	0	-0.391981481993146	-0.131881184153799	0.0164469194406507	0.2865222555363643	1.570796326969429	0	0
0.6680312594138309	-0.1285945927005739	-0.04626757211670691	0.1175615665333556	1.091203514737913	0.9259470127787637	0.4606308551645566	-0.06257476692703656	-0.04368334002557297	-0.06429297610345058	0.3474601668252685	0.03879643001440364	0.3499088199633064	0.3165853916254719	-0.3151881885505077	-0.1957925036939777	0.6290163140380908	-0.03186784652333354	0.07488266419422794	0.5432287330274396	0.09396746454545904	0.4187719948108924	0.01747652978042399	-0.2754156173258177	-0.01244488649483194	-0.1041055426554143	0.05558737709730336	0.07098927265654525	0.6576546395208023	-0.2864233268433795	-0.2482272683840993	1.874617201474995	1.570796326969429	0	0	-0.3839714430751712	-0.1329349484699068	0.02421526760130342	0.2838985667668891	1.570796326969429	0	0
0.672	-0.1295238669796425	-0.04349973116014001	0.1172645951088398	1.091783720563941	0.925975457056137	0.459216239082394	-0.05935206692965117	-0.0491650745730679	-0.0683366238811966	0.3616125249605777	0.03879643001440364	0.3646276863178333	0.314375088820159	-0.3147880745450171	-0.1982666813837614	0.62551155088548	-0.02805776834382721	0.07375686936677123	0.5448629165375005	0.09396746454545904	0.4211581826533685	0.0234250567181061	-0.2754104186537603	-0.01333267170983609	-0.1022287072592156	0.05463623070785974	0.07291854503758505	0.6523663870200535	-0.2852609957197993	-0.2495127186440618	1.881321696722118	1.570796326969429	0	0	-0.381097456907817	-0.133225882486704	0.02626859565000542	0.2837470671238754	1.570796326969429	0	0
0.6815128561131141	-0.1316150557345434	-0.0368094325134839	0.116618499616171	1.093165883263001	0.9261427402931863	0.4558234156116782	-0.05015819216996886	-0.06270344637711607	-0.07740688724585823	0.3982762642795358	0.03879643001440364	0.4028959056930166	0.3073849823697967	-0.3151234334694944	-0.2032422648295629	0.6143742773258893	-0.01896727730365337	0.07116734581810522	0.5443525543127398	0.09396746454545903	0.4254497303673688	0.03868230763659745	-0.2739126995895461	-0.01553688963667962	-0.09782701368971744	0.05227838416971192	0.07725707587554609	0.6385634475162412	-0.2825026887615518	-0.253069813369239	1.8976410820221	1.570796326969429	0	0	-0.3723379949755585	-0.1339343521704422	0.03119632004705702	0.2846122196139576	1.570796326969429	0	0
0.6984558844730551	-0.134095286180681	-0.02451915093656068	0.1158054247042776	1.095532732925962	0.9268595471959326	0.4498842956436486	-0.02951566260472455	-0.08813238696339173	-0.09095908943566472	0.4725809998500216	0.03879643001440361	0.4813079678361907	0.2887756856255156	-0.3206318918969743	-0.2033004221288702	0.5879044280598507	-0.002267050342345728	0.06785072231658566	0.5336548694027133	0.09396746454545898	0.4278802123822255	0.06629429252636324	-0.2707799674609508	-0.02062169121998311	-0.09141772962550618	0.04720678374954865	0.08345997395685772	0.6076537706166758	-0.2775905836192448	-0.2598271029631388	1.923616605962018	1.570796326969429	0	0	-0.3542559599542186	-0.1354184835191141	0.03954895583136131	0.2916746883709965	1.570796326969429	0	0
0.712831259413831	-0.1348197477402374	-0.01381194044526494	0.1154269963073166	1.097277636794242	0.927943316592457	0.4450261150708499	-0.007940221864937425	-0.1107395749366066	-0.09859715531817798	0.5430568801554154	0.03879643001440363	0.5571596762683767	0.2650199817247334	-0.3306922222102409	-0.1927847400376317	0.5619762891636437	0.01301365210167457	0.0679762334896343	0.5198418386534892	0.09396746454545903	0.4249269192105249	0.08793309343317916	-0.272020441339585	-0.02582358415862478	-0.08797730949792022	0.04200301169544133	0.0870621800822602	0.57521911706999	-0.2733737008150029	-0.2654054597397959	1.940141680531045	1.570796326969429	0	0	-0.3383262720619725	-0.1370196691580274	0.04602392808925139	0.3040647044521123	1.570796326969429	0	0
0.7168000000000001	-0.1348967972126369	-0.01089097889429137	0.1152680312761717	1.097699840717393	0.9283081770569808	0.4437193985528699	-0.001358962638900452	-0.1171093407553713	-0.1002216763356502	0.5632614531964778	0.03879643001440363	0.5793751852913058	0.2569590358751079	-0.3339249010027254	-0.1886141826050974	0.554723690175473	0.0173287760610998	0.06854812270282309	0.5158073712876461	0.09396746454545904	0.423402369946461	0.09325816485946202	-0.2732812077061086	-0.02679860790595682	-0.087262132519576	0.04055189310470257	0.08787819666134317	0.565876383114181	-0.2722078548917272	-0.2668242948888591	1.943940404312271	1.570796326969429	0	0	-0.3340529949872645	-0.1375466590782523	0.04776237463714948	0.3083358931570198	1.570796326969429	0	0
0.7263128561131141	-0.134859697670954	-0.003959965534140011	0.114885670385313	1.098607050936377	0.9292954459856615	0.4406708173191927	0.01585993093020477	-0.1324602431591732	-0.1026418907362344	0.6141433608991409	0.03879643001440364	0.6344272298679993	0.2372157214271179	-0.3422069925076745	-0.1781010128497091	0.5370380974229828	0.0275722206252052	0.07016940153728662	0.5054359571156505	0.09396746454545908	0.418719309929407	0.1043706704641952	-0.2768843167558269	-0.02913949530857171	-0.08597163693712491	0.03696229467782468	0.08953670805738478	0.5410114104946269	-0.2694065314233674	-0.2703665278773166	1.952177189504026	1.570796326969429	0	0	-0.3234375922391906	-0.1389031007569744	0.05196759926146559	0.3197321131375008	1.570796326969429	0	0
0.7432558844730551	-0.1338061476084649	0.007947083315441993	0.1141707294701965	1.099686316284455	0.9313210336109711	0.4356241774415313	0.05131855148372302	-0.159349306316964	-0.1015410826076612	0.7137049069537151	0.03879643001440364	0.7367499582527371	0.2052028165586745	-0.3574669666294674	-0.1510864480130822	0.5051695970287334	0.04470136610901135	0.07304387330665821	0.4861562811020471	0.09396746454545898	0.4077763738244887	0.1208134461169445	-0.2823899767730627	-0.03425070267089907	-0.08576474532432758	0.03043056576857837	0.0912731289982458	0.4922485524698914	-0.2641404554292215	-0.2763584461195532	1.960089266250126	1.570796326969429	0	0	-0.3024236220455497	-0.1422880422719267	0.05905447648242659	0.3467105043146773	1.570796326969429	0	0
0.757631259413831	-0.131896393998043	0.01747959385795908	0.1134992079504649	1.100003328865765	0.9331575126239505	0.4318258081101758	0.08478906705213257	-0.1808263081984165	-0.09466846998391742	0.8022393642242389	0.0387964300144036	0.8248386576224215	0.1775885433191947	-0.3695620560357817	-0.1149692349180631	0.4779191762706801	0.05723331310383181	0.07362174163198888	0.4692039177801337	0.09396746454545897	0.3972006992092782	0.1310488699116173	-0.283313730447729	-0.03911740177377533	-0.08781585347231571	0.02480196706408021	0.09146504214388727	0.4506384684486275	-0.2593143121896663	-0.2812073315666673	1.959023974186809	1.570796326969429	0	0	-0.2813002397054573	-0.1465334516898078	0.064270522130429	0.3759348221541927	1.570796326969429	0	0
0.7616000000000002	-0.1312855506416739	0.01999220951766415	0.1132401105525079	1.100018519516499	0.9336595291573191	0.4308532590527151	0.09406442350741109	-0.1865390791606669	-0.09220087481933609	0.8254315792823144	0.0387964300144036	0.8489244530262845	0.167985769036185	-0.3720367996879944	-0.1029839623383507	0.4704172479290226	0.06028758318277372	0.07331375201855027	0.4645027038492548	0.09396746454545897	0.3942316126114628	0.1338198147395827	-0.2826247404668381	-0.03997666953194162	-0.08856810110504881	0.02329374042059918	0.09139615664629154	0.4398878681399398	-0.257945638994081	-0.2825030928547188	1.95797197762777	1.570796326969429	0	0	-0.2749214780720662	-0.1479286399943968	0.0655980644623472	0.3843027305932485	1.570796326969429	0	0
0.7711128561131142	-0.1296419495760197	0.02571443180094303	0.1126774131244066	1.099934778447429	0.9348905646046757	0.4286761388277479	0.1164312759481199	-0.1993023555985487	-0.0846343972390545	0.8791520051864623	0.03879643001440362	0.9056425424713709	0.1514301797484545	-0.3721339853573886	-0.07644377753966138	0.4526349605256618	0.06689474525797551	0.07194268866437267	0.4534728047748572	0.09396746454545903	0.3871873781589626	0.1398198083553544	-0.2796065090385967	-0.04203663346422146	-0.09076565162527148	0.01969548332320709	0.09105533492400487	0.4119009409300505	-0.2545921452474652	-0.2853634090322673	1.953353224697623	1.570796326969429	0	0	-0.2583587944321427	-0.1515190736717699	0.06873625745912917	0.4051466529642151	1.570796326969429	0	0
0.7880558844730552	-0.1258538081756609	0.03421617962875661	0.1114786071721021	1.099307987923483	0.9372252405064603	0.4254166744117419	0.156445194307305	-0.2173080764008162	-0.06615104348807613	0.9638226109273074	0.03879643001440364	1.000975382329629	0.1270614495222619	-0.3637326396493891	-0.03521124036421157	0.4215500753409404	0.07514816050807568	0.0667935421778249	0.4351042976146962	0.09396746454545905	0.3752098103886795	0.1506258768264757	-0.2678699697050554	-0.04611597087185474	-0.09639638760615885	0.01415165726668698	0.09001724235303804	0.3586591629985446	-0.2480741756059514	-0.2886598449144079	1.93240617835881	1.57079632696943	0	0	-0.2230214374557952	-0.1596281648991938	0.07330338047499081	0.4419230259190002	1.57079632696943	0	0
0.802431259413831	-0.121743028883073	0.03957772252839236	0.1100137044807671	1.098300056108267	0.9393841274272686	0.4232788269713098	0.1910086730579061	-0.2274209293162486	-0.04659480086990839	1.024391817457528	0.03879643001440361	1.073603152602344	0.1078510636257278	-0.3584014532182829	-0.007921744302188186	0.39545898527815	0.07851763818594953	0.05965171611782645	0.4202220718793918	0.09396746454545896	0.3656613958967751	0.1587410753827812	-0.25251983092052	-0.04905117972341125	-0.1030119771285988	0.01053914537560124	0.08874958342739796	0.3115725440593005	-0.2420440679745343	-0.2901249057669513	1.899595186349697	1.570796326969427	0	0	-0.1874979385642974	-0.1682720696530123	0.07585824736223694	0.470504173243611	1.570796326969427	0	0
0.8064000000000002	-0.1205577494954388	0.04088530518733251	0.1094773368901077	1.097968428611706	0.9399965711140762	0.4227679491936833	0.2005777982366412	-0.2297013151647943	-0.0410826672852323	1.039221761917095	0.0387964300144036	1.092019685078007	0.1030917520111782	-0.3581956670101524	-0.001495119343530513	0.3882727495221727	0.07906559759221604	0.05730250610683486	0.4160672056052462	0.09396746454545897	0.3630853206338517	0.160775411796114	-0.2477511117984403	-0.04914651210376132	-0.105002312589338	0.009621262690722061	0.08836189024507857	0.2987045520762164	-0.240375188362301	-0.2905836129761472	1.88903823831915	1.570796326969427	0	0	-0.177269214383852	-0.1707849173107255	0.0764583490933278	0.4777921076595708	1.570796326969427	0	0
0.8159128561131141	-0.1175915266282816	0.04374425869040218	0.1080259081986347	1.097070518742961	0.9415073209681137	0.4216833205466941	0.2237336953590781	-0.2343142879297189	-0.02740174532621104	1.071567198720035	0.03879643001440362	1.132954209585384	0.09162363522507566	-0.3558474974094597	0.01211614999473244	0.37120409462676	0.0797767148184399	0.0509986857250915	0.4063272497492624	0.09396746454545904	0.356917844311412	0.1654200282848323	-0.2354059754780829	-0.04915023792083341	-0.1101822335841222	0.007504341725670695	0.0873776126633912	0.2670317278708642	-0.2363187341712041	-0.2914309386590407	1.861433139220596	1.570796326969429	0	0	-0.1519723939733741	-0.1770563825389548	0.07780985618948345	0.494757662173802	1.570796326969429	0	0
0.8328558844730553	-0.1115945552848414	0.04764681897319906	0.1043705316423455	1.095146898430541	0.9443494848763706	0.4202571257503835	0.264978681454129	-0.2393441099877845	-0.002754198216478015	1.117687061676633	0.03879643001440362	1.193714004995972	0.0759356417758548	-0.3551634550341011	0.02633087974069166	0.3405611184326008	0.07857966512695985	0.03728497465962746	0.389102059689745	0.09396746454545903	0.3455104078176766	0.1739254923103643	-0.2097776760672763	-0.04825464391385508	-0.120970158497461	0.004404743555437678	0.08573332477206279	0.2120847049763466	-0.2288800170062746	-0.2919444546688426	1.79921572442386	1.570796326969429	0	0	-0.1039837266995017	-0.18925682275349	0.07923663287044858	0.5207890601967735	1.570796326969429	0	0
0.8472312594138312	-0.1057758012917524	0.04969042856585082	0.1000570865882688	1.09325711047694	0.9468964297926235	0.4194958739363345	0.2996366288262393	-0.2408393225272931	0.01758285097285475	1.14510787837786	0.03879643001440363	1.232206534643965	0.06419807146963667	-0.3564878781828392	0.02806741148870119	0.3137101624999736	0.07528556547857507	0.02346776542134824	0.3735321003795826	0.09396746454545904	0.3348220880644299	0.1801258153967463	-0.1856841449464419	-0.04651156305908576	-0.1315145967920555	0.00270533913725441	0.08460686328924161	0.1688062492893256	-0.2224307566589125	-0.2912791820459352	1.731153628326713	1.570796326969429	0	0	-0.06099700069809821	-0.200599121693111	0.07919491344684275	0.5385369110093789	1.570796326969429	0	0
0.8512000000000002	-0.104149863395303	0.05015321202899836	0.09869496690620015	1.092715615479578	0.9476053811356338	0.4193279052680047	0.3090625202904462	-0.2411339225854262	0.02279134423701044	1.150611548429669	0.03879643001440363	1.240649920793513	0.06061264424947821	-0.3567286886868363	0.02792113287428476	0.3061697353549646	0.07425204083239623	0.01954119864341834	0.3689773019355023	0.09396746454545904	0.3316397296344429	0.1817547995419385	-0.1790424863907285	-0.04550598476555229	-0.1344992010804959	0.002326837636030428	0.08434323353505262	0.1575375650257309	-0.2206786710248317	-0.2909994102894498	1.71085328727222	1.570796326969429	0	0	-0.04916774790074713	-0.2037805426024982	0.07909085410545018	0.5431899485009155	1.570796326969429	0	0
0.8607128561131143	-0.1001801632950701	0.05110134018122713	0.09504181807743738	1.091363007789463	0.9493086291283968	0.4190045966977128	0.331561357220999	-0.2416315888614455	0.03484369749294031	1.160634559024132	0.03879643001440362	1.256995632324599	0.052766119526586	-0.3572560881262946	0.02647823302525354	0.2879941930676655	0.07157735449365663	0.009804827289618859	0.357800192304879	0.09396746454545904	0.3235397914466266	0.1850768280624501	-0.1634366154443301	-0.04270257900845722	-0.1419072982256093	0.001599842213658741	0.08382278615793343	0.1317482526757634	-0.2164609434993174	-0.2897550781317696	1.659911273901847	1.570796326969429	0	0	-0.02083856539111251	-0.2115685022946179	0.07872561348329528	0.5539020356689944	1.570796326969429	0	0
0.8776558844730553	-0.09283232273516913	0.05206138301924232	0.08732636962012556	1.088849239040871	0.9523316316867888	0.4186394954837106	0.3701583084373499	-0.2420075066385066	0.05374956035626589	1.166157049839735	0.03879643001440367	1.272473733852829	0.04187346540862432	-0.3593288136308155	0.02090721566896958	0.2547640653975222	0.06617851301153249	-0.008074933642116353	0.3365268418094988	0.09396746454545905	0.3073627189847795	0.1904505203664141	-0.136190873918057	-0.03746110470548512	-0.1556756029568691	0.001216038226169523	0.08345920568242104	0.09192168120934258	-0.2090008452226012	-0.2857780628617616	1.556813678864299	1.570796326969429	0	0	0.02901875562144261	-0.2259006777745948	0.07691755461815962	0.5739887859045162	1.570796326969429	0	0
0.8920312594138311	-0.08654356857283223	0.05211204823847651	0.0801834364021063	1.086668561321019	0.9548220081629596	0.4184361223900945	0.4009120681053908	-0.2422412931753366	0.06674596514044873	1.158384836532284	0.03879643001440364	1.271999892941949	0.03364240643210724	-0.3616122600688489	0.01571883997728453	0.2257690833269282	0.06135781840156021	-0.02291613134840084	0.3166530855653567	0.093967464545459	0.2919392047234119	0.1928273150313367	-0.1148049745349683	-0.0337206099368946	-0.167532266931505	0.001948419718996938	0.08364439587298475	0.06362856418433882	-0.2028519218668635	-0.2813937815800795	1.455672235570674	1.570796326969429	0	0	0.07053194375825127	-0.2383472495836252	0.07391462233578543	0.5945773400235258	1.570796326969429	0	0
0.8960000000000002	-0.08489200549992298	0.05206556600352905	0.07822423545360699	1.086066892537836	0.9554779410038009	0.41837270404831	0.409083315334751	-0.2424873065901406	0.06977389518592569	1.154301260884543	0.03879643001440363	1.269692611959782	0.03097708283221928	-0.3618822805078243	0.0150004597653534	0.2177620872902699	0.06015900044705505	-0.02667551213397096	0.3109637523073259	0.093967464545459	0.2874402049593636	0.193386651706511	-0.1094107036071598	-0.03255527115267125	-0.1707275964670856	0.002291333935805162	0.08373764791150651	0.05639930979956423	-0.2012075144667662	-0.2801402070706593	1.426515723984383	1.570796326969429	0	0	0.08176354134544939	-0.2417719640808174	0.07295622411078451	0.6010860916721137	1.570796326969429	0	0
0.9055128561131143	-0.08098108103934609	0.05190373694910611	0.07305301502597433	1.084600758745128	0.9569869831573632	0.4182615505647733	0.4282217221030501	-0.2430499783064583	0.07682502424264229	1.141367251786073	0.03879643001440363	1.260370023063517	0.02618321224513581	-0.3626662906807029	0.01329208044942579	0.1985313946040018	0.05738247521739961	-0.03584490167998969	0.2969888247746132	0.09396746454545904	0.2763081340576269	0.1938648735942347	-0.09735680535250843	-0.02932861227516873	-0.1784544314054189	0.003296997899682019	0.08412172390026948	0.04164730563154199	-0.1972982905290539	-0.2766401631210821	1.354964203343501	1.570796326969429	0	0	0.1079671807260043	-0.2500263319940988	0.07047342086970651	0.6172772066711466	1.570796326969429	0	0
0.9224558844730553	-0.07473112664924061	0.05131900385920515	0.06324682396053047	1.081911084708333	0.959376695591831	0.4180852695665941	0.4603086472926307	-0.2442234579587486	0.0876194425650042	1.106807653657985	0.03879643001440364	1.230693520263177	0.02562930222205362	-0.3676640096170737	0.0123710175133195	0.1651854058357487	0.05308121913064179	-0.05106967378604367	0.2720066690816678	0.09396746454545898	0.255632176550097	0.1939917709681449	-0.07885059633427247	-0.02411787156099965	-0.1917967469356046	0.00586099622871894	0.08514198983339229	0.02309929120060034	-0.1907381545997706	-0.2711465598731754	1.219806642464407	1.570796326969429	0	0	0.151757171819316	-0.2644333884961504	0.06458977328834188	0.6537767698311266	1.570796326969429	0	0
0.9368312594138312	-0.07063445514951261	0.05062879758283023	0.05486503408510117	1.079555939263951	0.9610219810778046	0.4179105732883828	0.4855143635844411	-0.2453637487560558	0.09544749122790661	1.065875225492736	0.0387964300144036	1.192674910283138	0.03066754113926205	-0.3758108265057574	0.01422907641178274	0.138637679793096	0.05028352121618707	-0.06236702002343585	0.2511871697689458	0.09396746454545893	0.2377877741603824	0.1926764055964018	-0.06651398315366885	-0.02198954303644766	-0.2021994008187582	0.00866755862303599	0.08608133855172763	0.01394948717437183	-0.185808961840252	-0.269560751601771	1.098768061609768	1.570796326969429	0	0	0.1854930522708415	-0.2759687673850593	0.05795735144631732	0.6943333662370363	1.570796326969429	0	0
0.9408000000000003	-0.06974266404112849	0.05045432321407933	0.05262563219735081	1.078899647354604	0.9614035837453802	0.417855077823283	0.4921406046808351	-0.2457400653390217	0.09750886960657103	1.052758853980981	0.03879643001440359	1.180154472712768	0.03182994215985376	-0.3779856200431048	0.01514992094109899	0.1316722904112587	0.04970303447271923	-0.06509274389829008	0.2456136578604519	0.09396746454545893	0.2328915795917144	0.1924575258415672	-0.0636082758906405	-0.02165307173419048	-0.2048788241998367	0.009488453555672571	0.08630476276978455	0.01197001114782995	-0.184556032664874	-0.2697457806305028	1.065342571506613	1.570796326969428	0	0	0.1943898854181587	-0.2790251999586051	0.05601552732574	0.7066317328388687	1.570796326969428	0	0
0.9503128561131143	-0.06788146680414817	0.05002398233004703	0.04726294676278401	1.077318360284571	0.9621984472631988	0.4177439345947266	0.5071851962519385	-0.2464608281707486	0.1026070318280866	1.018094654090223	0.03879643001440359	1.146678000285356	0.03599419396264624	-0.3830914188828932	0.01746992980142124	0.1153948838649444	0.04848444300167601	-0.07130377884064917	0.2324242736746926	0.09396746454545893	0.2213141524241892	0.1918871679231579	-0.05726961617818491	-0.02079928039699391	-0.2111220469571427	0.01152840705096664	0.08682982553223433	0.008412250892910283	-0.1816680820310267	-0.2708215589675821	0.9847791960949485	1.570796326969427	0	0	0.2152314835382081	-0.2862363764154194	0.05118000308244731	0.7376400177475529	1.570796326969427	0	0
0.9672558844730554	-0.06639445105036609	0.04935444839304075	0.03860952703819336	1.074526455057962	0.9630895346276529	0.4175285521727746	0.5314610205045027	-0.2476500471914698	0.1119402242189586	0.9451323524655784	0.03879643001440364	1.075504380959868	0.0426818983026645	-0.3916219109871532	0.0216854912227383	0.08915772730529015	0.04720148994844635	-0.08002925595689614	0.2102754567776236	0.09396746454545901	0.2016062582937705	0.1908032075315837	-0.04856403476442572	-0.02226180580458848	-0.2205553012344802	0.01528885540928891	0.08728374383268225	0.003046563634529348	-0.1773007060758079	-0.2791673141300423	0.8426705293731692	1.570796326969429	0	0	0.2492690986113749	-0.2979421549482865	0.04142148651115567	0.8005911611484879	1.570796326969429	0	0
0.9816312594138312	-0.06722527494722777	0.04903236325284723	0.03254418544298301	1.072257810082412	0.9632776279693844	0.4173247699237436	0.5494852785726794	-0.2487616540036757	0.1207765449489185	0.872429799926232	0.03879643001440365	1.004627728990982	0.04046441911629892	-0.3937731763650405	0.02533737215701919	0.07018260981698621	0.04703241811166274	-0.08473859941635439	0.1934612258510089	0.09396746454545904	0.1862109172814109	0.1902560731445557	-0.04388909432631999	-0.02607570924911809	-0.2264413492558791	0.01839677333363762	0.08697075998616376	-0.003661760904573735	-0.1745262897749769	-0.2942859465422205	0.7263154044005703	1.57079632696943	0	0	0.2744864505376993	-0.3063449609230843	0.03212547317229034	0.8609408181824918	1.57079632696943	0	0
0.9856000000000004	-0.06769350969441032	0.04901266391847421	0.03101753906465177	1.071655969415987	0.9632454964688726	0.4172821631881192	0.5539375823090235	-0.2490584093704893	0.1235913012597309	0.850745737349798	0.03879643001440364	0.9835808195940687	0.03785686739049619	-0.3924699097585946	0.02640758000490458	0.06537762033519401	0.04711401456800571	-0.08565686967734337	0.1891841170093437	0.09396746454545904	0.1822218645842423	0.1902758531606449	-0.04305752114785502	-0.02669855155201962	-0.2278216815477275	0.01919145371572905	0.08679496439125908	-0.006086858977091769	-0.1738730740599864	-0.2993117383260706	0.6953791619939371	1.57079632696943	0	0	0.2810843495224125	-0.3084667171161222	0.02958349314275691	0.8779107053368197	1.57079632696943	0	0
0.9951128561131144	-0.06914095494137756	0.04902804583672881	0.02755431819849166	1.070232458554702	0.9630293631227813	0.4172261666408168	0.5635492964399493	-0.249535372150045	0.1311754957083852	0.7961475621723157	0.03879643001440363	0.9309289469079557	0.03214376792454571	-0.3885248691542146	0.02836730715967933	0.05457564994928213	0.04745604052475921	-0.08721009717444567	0.1795615506448731	0.09396746454545901	0.1731731384401618	0.1902785875377255	-0.04213186481126646	-0.02793194927393346	-0.2308430290659099	0.02101056614752595	0.08626176168272401	-0.01194108094234503	-0.172462605131947	-0.3126840748851974	0.6225443008943574	1.570796326969429	0	0	0.2966914442341233	-0.3132989532699159	0.02347110838770167	0.9196485402242758	1.570796326969429	0	0
1.012055884473055	-0.07304487798186836	0.04982258021614087	0.02250868664557258	1.067865189730237	0.962135808542036	0.417262598400298	0.5773451850268148	-0.2505729669153504	0.1475947476722522	0.6920967519835063	0.03879643001440364	0.8314015585006146	0.02115120252085724	-0.3805435249194695	0.02756699286079339	0.0384947817621657	0.04909939074576447	-0.08680357134864258	0.165945692110266	0.09396746454545898	0.1590155841446902	0.1917755852800652	-0.04428111363685786	-0.03037556545948081	-0.2346815510293896	0.02331927189247173	0.0847657406242493	-0.02644222909226446	-0.1706138810017873	-0.3425557123939464	0.5042294330534244	1.570796326969429	0	0	0.3236491627149601	-0.3203609847389086	0.01239604618785294	0.9958175834497407	1.570796326969429	0	0
1.026431259413831	-0.07729252805083021	0.0514741189736448	0.01934728703739128	1.066147457318592	0.9609013301782003	0.4175072732215618	0.5862563309708924	-0.2519578543953828	0.1636347701285895	0.6025471812356885	0.03879643001440364	0.7443320890384558	0.009514739343189693	-0.3739794747419178	0.02260957465867355	0.02782644470533616	0.05147121097749366	-0.08394664219409199	0.1587448587317185	0.09396746454545903	0.1491699088366374	0.19507485262085	-0.04908676611557911	-0.03221236615941298	-0.2362713637185041	0.02383802529431398	0.08299370942339976	-0.04410028673544394	-0.1697119713669626	-0.3724350178317601	0.4194068727692264	1.570796326969429	0	0	0.3459508930090219	-0.3245701822300693	0.003065361256119843	1.060250314293893	1.570796326969429	0	0
1.0304	-0.07843740794002603	0.05202087048920882	0.01854722596751845	1.06573806944047	0.9604996352592479	0.4176398982112994	0.5883139127938477	-0.2522835997258407	0.1681889944546458	0.5787481461710138	0.03879643001440364	0.7203700719591937	0.005377434663424441	-0.3720168057506856	0.02109834930993792	0.02512991608035869	0.05213381490808427	-0.08310042662762188	0.1575118524373314	0.09396746454545903	0.146828408894505	0.1967762721432833	-0.05042818860077308	-0.03211886520180037	-0.2365355275211722	0.02374961517450895	0.08247598547590271	-0.04940174373048326	-0.1695327281018554	-0.3805661230952037	0.3983573093207573	1.570796326969429	0	0	0.3521803247553807	-0.3255404064928261	0.0006319005156083211	1.077619906906136	1.570796326969429	0	0
1.039912856113114	-0.0811589427937538	0.05353346137948158	0.0167560873845367	1.06486785836056	0.9594337697692344	0.4180788873173541	0.5929236065712938	-0.2530261057079174	0.1785409675350463	0.5247371272951266	0.03879643001440362	0.6638165295100444	-0.003680973941333529	-0.3667662846777507	0.01686176361459001	0.01911926241307624	0.05380466512616885	-0.08075544339300227	0.1555932279944565	0.09396746454545903	0.1419169351228956	0.2005127070651079	-0.0544241250332263	-0.03146996789414939	-0.2367850057539983	0.02302498706944286	0.08115096330956159	-0.06208752398541198	-0.169234679920964	-0.4005096133875081	0.3512798018095987	1.570796326969429	0	0	0.3673139244030384	-0.3275874203359649	-0.005069468788765578	1.119411346253219	1.570796326969429	0	0
1.056855884473055	-0.08545834401365532	0.05726527253900592	0.0138029500655001	1.063824039003939	0.9572382640627588	0.4193704406736071	0.6007516952271339	-0.2541854348755184	0.1907920762112446	0.4446671486784214	0.03879643001440362	0.5690426014778315	-0.01635482134139134	-0.3586559006885594	0.006488169778843922	0.009297431553517949	0.05720968321846812	-0.07663774253906624	0.15650311716765	0.09396746454545896	0.1357720275154592	0.210369385154398	-0.06139082022368036	-0.0301378327191175	-0.2359430946126996	0.0192359585205031	0.0785771933796211	-0.08733896859343299	-0.1690584225619058	-0.4336875683950494	0.286122469373139	1.570796326969429	0	0	0.39529486712035	-0.3298942519008832	-0.0147147108550752	1.190715857209201	1.570796326969429	0	0
1.071231259413831	-0.08825665669569219	0.06134057098645311	0.01133342132299263	1.063539042667489	0.955153777694953	0.4210467764779332	0.60764880450828	-0.2543831741347478	0.1907390308554193	0.397373100193991	0.03879643001440364	0.4982183860502796	-0.02700295362982261	-0.3539292908219719	-0.004071689872541945	0.0009346067809162251	0.06016773273113965	-0.07447577121074297	0.1607003955754271	0.09396746454545896	0.1333966318787044	0.2209816635661857	-0.06545819732024413	-0.02905842303175337	-0.2338622906480514	0.01340817837286615	0.0761078764242914	-0.1118193901660109	-0.1692249663471074	-0.4561927728366357	0.2518551524111386	1.570796326969429	0	0	0.4199050241577414	-0.3304473477664777	-0.02226194688682699	1.246142326880249	1.570796326969429	0	0
1.075200000000001	-0.08886239112846037	0.06246483002352377	0.01061453913554364	1.063562320744747	0.9545529141810594	0.4216119112029341	0.6095860037723342	-0.2540685660868816	0.1887270779617667	0.3879075520525268	0.03879643001440364	0.4806540979456614	-0.03101586293032549	-0.3527613703375095	-0.00671441153675166	-0.001548753600768588	0.06083008693204489	-0.07438020911303	0.1621800535518122	0.09396746454545896	0.1332335462958228	0.2243195538865796	-0.06605131365619857	-0.02843201664770904	-0.2330555485958364	0.01152711173098609	0.07536554153120834	-0.1184174250233849	-0.1693167944349788	-0.4611715483283431	0.244888762915661	1.570796326969429	0	0	0.4268348702771435	-0.3304711103714709	-0.02418690936162873	1.260781980335283	1.570796326969429	0	0
1.084712856113115	-0.09016223680999449	0.06521085870775013	0.008983419528423187	1.063786175943916	0.9530608759915887	0.4231179919579198	0.6141277796849147	-0.2527481439900497	0.1821956259075958	0.3704411291470017	0.03879643001440363	0.4425326366608183	-0.03914220901685353	-0.349957769961748	-0.01344220794877143	-0.007503077924626345	0.0621740812811781	-0.07410384789410805	0.1664218598181706	0.09396746454545897	0.1337630868912836	0.2322518383244197	-0.06697749169107436	-0.02704585441124225	-0.2306202942229274	0.006557984109903825	0.0734452074359673	-0.1339420217268771	-0.16963902821017	-0.4721093187191254	0.2319679190800532	1.570796326969429	0	0	0.4438108483365039	-0.3303088946060453	-0.02860091679915409	1.295528827531936	1.570796326969429	0	0
1.101655884473056	-0.09240744000835997	0.06911703977818333	0.007127382700243351	1.064911173116793	0.9501938614049151	0.4262653084270117	0.6209954335553387	-0.2479514931330584	0.1615084701894964	0.3563378920799221	0.03879643001440365	0.3897446357837214	-0.04721086698571011	-0.3485524738133397	-0.0261475929495486	-0.01825349443680008	0.06255947744089743	-0.07485068982469367	0.1759127028332513	0.09396746454545904	0.1381463777315065	0.2482561848753987	-0.06512364997670875	-0.02764225441808939	-0.2235375496428548	-0.002381701882469923	0.06904947467073823	-0.1622058914809056	-0.1705596441048972	-0.4832280915747086	0.2243248054664554	1.57079632696943	0	0	0.4744571934555091	-0.3292006579465425	-0.0358413121638728	1.353691180072202	1.57079632696943	0	0
1.116031259413831	-0.0949913734700467	0.07011841225106862	0.007955671519788057	1.066728617482022	0.9474749010753172	0.4292125673019243	0.6240178155090714	-0.2413011046166354	0.1385388842690506	0.3557615045935462	0.03879643001440363	0.3608457915977786	-0.05149648730428577	-0.3527734977167968	-0.03548617831239341	-0.02720005448680418	0.05938596549428954	-0.07576764078762321	0.1853714526921318	0.09396746454545901	0.1456927549941688	0.2647206664131223	-0.05880929345361344	-0.0314399326777911	-0.2136411297925291	-0.007996705008144978	0.06395255989597448	-0.189652132182514	-0.1717874701143055	-0.4831303375499905	0.2319697512009679	1.570796326969429	0	0	0.5007639908517934	-0.3275621854277936	-0.04131702686220615	1.399842552540102	1.570796326969429	0	0
1.12	-0.09591354992931923	0.06986698725934125	0.008787340374897631	1.06737791094324	0.9466630343367239	0.4300263555129653	0.6240939811091593	-0.2390593690777832	0.1332175973816087	0.3560552032185199	0.03879643001440362	0.3554362130447108	-0.05311677472939377	-0.354565490792719	-0.03720534764973832	-0.02960859032985907	0.05786537044782683	-0.07620088704078153	0.1881045638494793	0.093967464545459	0.1484462017454991	0.2701086659546706	-0.05644372470373865	-0.03234175504090328	-0.2101771325909995	-0.008923713983930243	0.06232553642456011	-0.1979696395950487	-0.1722173847775753	-0.4821111050211027	0.2352584977785911	1.570796326969429	0	0	0.5083525611478108	-0.3270820908462674	-0.04268750913088287	1.412893642477579	1.570796326969429	0	0
