DataType=double
version=3
OpenSimVersion=4.5
endheader
time	pelvis_tilt	pelvis_list	pelvis_rotation	pelvis_tx	pelvis_ty	pelvis_tz	hip_flexion_r	hip_adduction_r	hip_rotation_r	knee_angle_r	knee_adduction_r	knee_angle_r_beta	ankle_angle_r	subtalar_angle_r	mtp_angle_r	hip_flexion_l	hip_adduction_l	hip_rotation_l	knee_angle_l	knee_adduction_l	knee_angle_l_beta	ankle_angle_l	subtalar_angle_l	mtp_angle_l	lumbar_extension	lumbar_bending	lumbar_rotation	arm_flex_r	arm_add_r	arm_rot_r	elbow_flex_r	pro_sup_r	wrist_flex_r	wrist_dev_r	arm_flex_l	arm_add_l	arm_rot_l	elbow_flex_l	pro_sup_l	wrist_flex_l	wrist_dev_l
0	-0.1482378561313605	-3.223656439800305	-3.004623528563346	0.4543578353139209	0.1954708410718126	1.350197113173716	4.363330160265223	6.691025083698666	-53.20138016383069	73.66490206561454	2.512657127188725e-13	74.7257901311319	-12.50092679026896	29.98299743255488	2.041232793316242	14.60718011359515	13.90522964066762	-8.217146818985043	-11.21502352777441	-1.140600133795222e-13	31.4073209881029	-191.5347289306435	-187.2631284326865	87.02179876405233	3.030540202760613	1.988775318177569	-3.38871977482666	59.02969015866888	-0.06871040251534533	16.12696493548866	29.04848339408047	9.097922977115988e-12	0	0	3.79262092143579	2.615891042376149	1.932174329741355	-14.55570900414006	9.097922977115988e-12	0	0
0.009512856113114032	0.8332182694760281	-13.83876917557187	0.9383937865868015	1.479761760571461	0.6639192665114051	1.394142815366031	-6.126321047610849	16.86580798627134	-40.01939064329063	55.59392108115796	1.541713083588347e-13	73.8546280888566	74.51106863676227	-16.92054509802603	-6.493786354095411	15.5935740908862	-14.14373977053454	36.42326053711241	33.47655861708412	-1.166247080301655e-13	32.17969159083218	25.3782963801483	-46.80845166574825	51.60747824389458	3.684227763227137	16.01265343914108	-6.092590377738032	41.18094079456687	-0.5672269422752678	39.54352545477693	40.89342649861848	6.178028807346909e-12	0	0	-27.08354224364313	13.40034742789328	-1.136307929785956	-44.85417309326009	6.178028807346909e-12	0	0
0.02645588447305514	8.140662453909112	-11.31534670115547	14.31834402591631	4.12650800852403	0.6908874565393988	-0.5279902347875136	-24.17644379315075	0.1470555522017785	-7.856367615630983	29.96425704351423	-2.340277279284687e-13	63.42599325792921	-37.55754284840603	-33.87245710036485	1.45334122234219	-2.300797098771974	-10.84926968949517	4.485013466954854	16.09907298282464	-5.001801976351185e-14	39.94623260663251	-23.75089279060467	-22.46391657569795	-59.28048176659703	-2.232784982454916	16.83358703864636	-1.309026829419293	-50.71729767248338	1.480031452797499	16.719586549074	-42.74266262181033	-2.134401930755797e-12	0	0	-40.05629741621378	7.258402066999846	-4.729597114387403	-1.67813068761838	-2.134401930755797e-12	0	0
0.04083125941383081	4.872482412715316	-4.977184379307897	7.599620656895047	2.114696752261856	0.4916248398585533	-0.002939479973280444	-21.30536800627563	-4.781541578723385	103.1967293356195	-38.1486365625754	2.829944226410011e-13	50.4015670086437	-92.37905307416266	8.388963941599453	6.909960991880283	7.935114387910794	-8.433243330940748	29.57617264971506	33.46902824837697	2.416628187771853e-13	45.27898507234818	30.81266643075357	-0.4463160539077897	-1.940211837371699	-2.794483453321111	7.510283280264076	-0.6289753177569073	-15.97905348470486	0.6503743660990575	-1.760326663773655	-30.94330178316842	9.149636257153693e-12	0	0	-21.12590461057487	2.327532143749417	-1.391396150107786	5.612105049624766	9.149636257153693e-12	0	0
0.04479999999999995	0.4152036253241973	-3.088564329619897	6.526496186264387	1.556352005402915	0.3707074001707216	0.1726888080178599	-27.64113214319109	-4.60118358902645	138.6518624828188	-93.89830499809415	-2.244387040727489e-13	45.99865966599285	67.25763678243351	35.09541883146164	5.14394800559583	10.8897960623706	-5.265598684083642	-20.9757763635647	12.23809474470947	1.828217991167295e-13	46.88267116023037	-65.30313291239477	-11.82140004375749	15.85722261615121	1.75554143749832	3.818154061397387	-0.7301711167432428	-3.845247857642505	-0.4265452288004273	2.81538578803496	-5.00559652565515	-1.738488141361145e-11	0	0	1.642927341184229	0.5811956226434771	1.733071428609536	9.712370391516536	-1.738488141361145e-11	0	0
0.05431285611311398	3.052675357920707	-7.523432563335723	-0.8054517026854746	-0.4834746004638479	1.829109365124171	0.8412396564149023	-7.610627909336009	7.537084032899299	30.67611788833837	-14.6359719596712	-3.788378514821488e-13	34.84408492191351	81.70448736820633	21.70950524945141	2.256800162840357	17.99690854776628	-7.718960659225267	1.481598420785519	36.53632283458779	-1.106710825387856e-12	49.88574893864686	-14.68964329953389	-21.78485116450303	-27.22621905280916	-5.997078886454442	9.770482949744061	-3.758361672694786	51.65974922688665	3.056593075860505	-4.854428289301802	-29.89337177349651	-2.443632216186871e-11	0	0	-25.93929654837359	3.692824175918883	-3.510118998973181	-8.218535908923263	-2.443632216186871e-11	0	0
0.07125588447305514	0.1979062182786321	-5.332943120907117	-13.03140783344589	-3.654967331288649	3.879111437759232	2.392324939278694	32.80798661854953	18.41722447232749	15.85410865734949	54.11753871894874	4.903400326252798e-13	12.99818594767666	85.59673211616399	-0.4780685498603345	4.067507592176152	30.89129165534487	-6.945624285659392	-22.94287176053777	48.55667617724276	1.16922439315982e-12	53.16492693390302	-28.94388086738994	-13.92241826315695	-30.41719148248407	-8.39686196276813	3.954902368865795	-3.790141975174311	102.4714743356771	2.14057470620375	-22.73474274237603	-21.52750083267952	2.10112211017545e-11	0	0	-40.56811467922978	3.97935957042642	-1.927006573620727	-34.51797790610229	2.10112211017545e-11	0	0
0.08563125941383082	0.2970363677429165	-2.02621898176137	-6.066521485710231	-2.012072459259268	3.508965505889086	1.555696558863631	14.72695711051156	8.85223344240004	7.334731175211819	11.10622993442689	-5.393773103087394e-13	-5.390508099525595	-43.93725162413615	-21.04198662216746	6.112031567559242	27.42678025389878	-4.301990884361384	-14.28524387961555	47.16333491244102	-4.983791341953141e-13	52.76202292256221	-19.39434422796604	-7.269921446722272	5.247841925213343	-3.708932602420107	-0.7510740520649248	1.108796985829352	45.73191027847233	-0.2339097152473752	-14.41500123175684	-15.30878456556682	-3.30897250724838e-12	0	0	-29.63087909803019	1.026559955935377	-0.6818882938106401	-19.46295989367078	-3.30897250724838e-12	0	0
0.08960000000000001	-0.07847100090946096	-0.525303355022976	-0.0253302638364441	-0.8130019395353432	2.933319079968972	1.06559315093341	7.068077493281033	2.488006127937226	-0.2202942548543945	10.24595405768886	-4.912392548189072e-13	-10.10413958021312	16.05345264001831	4.610804009032356	4.085238179692355	19.83017699172528	-5.335190075495639	-21.29725690212414	21.10835161317636	-1.333065247451099e-12	52.01552822087918	-74.61926989874459	-3.679315203979005	13.79394196405407	-0.4534632187981376	-3.008277705971456	1.249493833996539	8.792450297977666	-1.207518650223132	-1.945508171567775	-1.926049854940088	-1.073454104395527e-11	0	0	-15.98843085693312	-0.009517823531911884	0.877129610200867	-6.014514449080849	-1.073454104395527e-11	0	0
0.0991128561131141	0.4667075102325254	-2.376721925983989	-5.587450630351282	-0.6719328677164876	2.999311596861082	1.134723120837737	-14.19305106612799	6.886852505087342	1.385631809387625	-32.37679253593657	3.46461886794922e-13	-20.23669676441391	-21.46030163526292	1.872198438541285	0.4086238168552687	24.47314625944384	-3.988472512580802	-8.207188313761929	42.96169740752067	4.389729098222044e-13	48.90980206611009	-26.85216165140983	-14.44368216852159	-11.42310366271401	1.00534268774936	-0.1165970999900034	3.583000413815138	52.94286760571774	-1.082286564313827	-17.33649070959346	-18.37129500295901	-3.240627536630766e-12	0	0	-29.75309098917675	1.421803893346717	-2.619143583475158	-17.62691490855894	-3.240627536630766e-12	0	0
0.1160558844730551	2.424032439372561	-2.750803984508427	-2.874470414945546	0.6296106102163697	2.310812664458187	0.03231900463544984	-39.64850790771289	3.148935353379686	-5.309774736157088	-72.96462378613694	-8.293362116601324e-14	-32.6529334059982	-50.87248487829403	8.169365110301207	-4.257317326627263	15.29128099058631	-3.859283894056603	-5.045923204147353	25.1162875192868	-4.004079746548089e-13	38.55577839399867	-46.23754851380181	-20.43975231318609	25.34733315334329	1.926737538305048	2.967136846392427	8.279538881507838	22.85363583223816	-3.474119702731916	-15.26185439127938	-6.606754761779387	4.322129976732427e-12	0	0	-22.60695769730563	0.670334073851701	0.006862090829375167	-25.21571029641697	4.322129976732427e-12	0	0
0.1304312594138309	2.210137402622042	-2.910780472487926	-1.271624368016381	-0.7756932894139625	1.612983052900451	-0.4879013918194231	-25.134750059516	1.217649367730681	-5.975528211820787	-46.79550882607391	-2.777609651312616e-13	-36.3839484013078	-24.64110786630894	13.71804160415985	-6.134215490531812	21.94424246367055	-3.454159555491447	2.912330631577245	41.73102705991015	-3.121486401088965e-13	25.14985143560341	8.306207653833201	-11.60730147952295	35.67389041081436	-2.207150131305654	4.468220258065244	7.492423251459644	13.88535074095239	-2.679886338217065	1.032462704546392	10.27360053497274	-1.315114007299679e-11	0	0	-18.93437830126265	-0.44873922549822	1.597434138094606	-25.77793198827834	-1.315114007299679e-11	0	0
0.1344	-0.6970167121062926	0.4739445331698793	-1.516319607240664	-0.2763992468801221	0.9794475719072071	-0.3546201216729423	-14.08353686291223	-1.476394006520647	-1.328940029059279	-27.90067805995473	6.492406627009934e-14	-36.31855189737697	14.33692291946802	18.50745144710926	0.394711874007128	-4.466701571300112	-2.574260294643693	-27.72428755845066	-17.64455098690124	2.836981181366146e-13	20.82518086385643	62.67672328794642	5.961294626711185	-2.096624009903323	3.272921829099391	-0.834024256127945	1.743504922275254	22.53945395147172	-1.335383993985095	4.354155127494233	15.60462076969516	5.635065234096975e-12	0	0	0.2809199457001689	-0.03971567124533648	2.092732038257378	-5.070829973929809	5.635065234096975e-12	0	0
0.1439128561131141	2.953298316152968	-7.105088178080814	0.7170595248993368	-1.670352514049433	1.371067198487807	-0.9577796852445074	-11.78555718913855	7.669316329697912	3.67167849378632	-19.87255008280468	3.172124533823711e-13	-34.46223708466773	20.39841027548587	6.91444431168234	-22.76281819636587	24.52863136645297	-6.283252294526459	16.79138188161703	36.10586682419799	1.035093814892806e-12	9.646244390746064	-77.16079384991058	-31.40565264016767	100.8928507162422	-5.309871296496923	10.63100514046376	8.319399496275336	-2.203056648377427	-4.460498093731162	9.937634529768173	22.82386615705923	1.369183953909615e-11	0	0	-14.88992229825025	1.197026834206426	3.855214134464334	-43.15644879351653	1.369183953909615e-11	0	0
0.1608558844730551	6.12565217694068	-3.939373379954652	0.5294762784274298	-1.839033597704141	0.821070863667075	-1.042484200128241	-9.439292058143682	5.221595484555475	5.928932514785108	-14.81931305767342	-1.504792806681425e-13	-26.70207174524888	-18.94305252400154	-8.812425406023049	-13.9054717789684	7.767819970787455	-7.386201711383224	0.5120783913714018	20.52960032635933	-1.297337784526734e-12	-11.70364187784575	110.6064796767317	29.88133106663412	7.972629192712446	-9.453931180223538	6.209893102373574	7.597117876974578	-11.06416815093487	-8.216967514814737	11.25381624516479	54.58864384162845	-1.731690064947275e-11	0	0	-8.177769024380821	3.15408865684281	10.24213101096179	-64.16148742468212	-1.731690064947275e-11	0	0
0.1752312594138309	3.724099115115286	1.528004024206896	1.685172255497496	-1.976753345536095	0.09612819559325547	-1.134673458486041	-2.436731857527092	-3.581736120616061	-0.3395928684017662	-5.508634936944391	-1.997982596018153e-13	-18.01726122090442	-20.01831289406067	1.02230921680046	1.158673319543971	-4.461459342722174	-4.211093907877949	-10.29293695263553	-16.03673035251619	6.521775604189309e-13	-29.23124917750585	30.94038194474468	44.44101343568359	15.4573347347561	-7.900652487090682	-1.100545424703438	3.560298385230318	-2.886103872617937	-5.792314410421335	8.178026222766736	38.68150254528182	1.379126399509803e-11	0	0	-7.227614781729616	2.097555949164974	8.837691281526112	-45.23568595484472	1.379126399509803e-11	0	0
0.1792	-0.1418091904682497	2.380006951706268	0.9897041250477363	-1.533060746216456	-0.01305024117331965	-0.8519652205231569	3.706460369133854	-3.440914262455992	2.863124761040531	2.115683791969186	-2.872766684233615e-13	-15.60715560690729	10.33663918163048	6.57855458075428	2.393363286249146	-11.01354976107022	-5.521462429973278	-17.93453040435072	-58.76279948029575	-2.049920278287115e-14	-33.70310354363505	-36.61658368085511	64.38745069868638	42.93260084394009	-2.217628086814052	-2.864963101369666	1.57868319840433	6.530215475030232	-2.215950081070615	7.323350727916134	15.03253798880614	-7.672437594031983e-12	0	0	-6.964638021455151	0.2967143266526915	4.077051809078983	-15.74248712965511	-7.672437594031983e-12	0	0
0.1887128561131141	4.620585457005549	4.153496311546057	3.852755104106224	-2.323139459280077	0.7602370697014388	-1.688942773438775	-1.311958608263152	-7.256718706722992	0.2958058577408362	0.06064461163230561	4.613934080339862e-13	-10.17301469578312	-6.083818079566257	3.919859974921297	-2.016109177829953	-9.178451037056266	3.774781172963903	2.144086452193941	-74.98496597316633	6.165922916921594e-13	-43.46875882022394	-52.23068102536334	76.25419091975898	88.52127841340808	-10.1129843132885	-2.887923467799	2.068559683753685	-2.865105440588813	-8.55220737498057	11.91549034781036	55.63155896608711	1.540925843428335e-11	0	0	6.25142694278667	4.499477011055578	12.61074199794036	-55.90326087082524	1.540925843428335e-11	0	0
0.2056558844730552	4.523841237683292	10.44193679631151	6.469130497482373	-2.918178408003224	0.7464050946295693	-2.355515142913905	0.01558258530361023	-16.61509690286348	-6.024631641955796	2.117519355584276	-5.651013489616996e-13	-2.669032167074058	-17.93583649272833	6.297591261216071	17.01029967885367	0.5343012606081574	18.66620548845064	10.90221285055848	-59.23050252789808	-4.480522105324008e-13	-56.69903233444172	10.57589962013761	3.530515203017906	18.82844892743604	-12.33338029215766	-8.875790301338832	1.195916665806646	-3.033988011769647	-9.018688552021638	4.810701980704515	48.641486273559	-2.055213530076218e-11	0	0	9.25113794360591	4.344173923334941	13.33734896964638	-61.70111106944425	-2.055213530076218e-11	0	0
0.2200312594138309	1.642172996397619	8.630020699298873	4.828281149231754	-2.682358325766193	0.4030953792899452	-2.084821961191667	4.14781690118298	-13.24383012321372	-3.606221777419908	5.404699168471086	2.980368499957875e-13	0.9060252219074001	-5.320186026189507	6.513014363476588	16.0717842603058	5.551712009176267	16.11554027103432	4.964624458826441	-50.30325888877436	5.46184552774482e-14	-63.2712543696707	39.42386335151637	3.820408406325576	-21.5412719522059	-9.104955509987365	-6.563302194434367	1.312042841390206	1.949596494451949	-4.642540584344758	2.271015595025718	17.67829079332418	1.491600092204611e-11	0	0	-3.187065642834377	1.259398138839514	7.043606754402457	-38.55102087581769	1.491600092204611e-11	0	0
0.224	-0.6333069761051411	3.213991126745188	1.302534207988788	-2.029318978227448	0.2327625370431833	-1.6322704941885	4.933112199996796	-5.703123834336662	-0.1739785748429057	3.82683957365977	2.425419260578575e-13	1.439634851242128	8.085280852510115	8.68783554188234	6.887096103654878	0.7299009707479112	5.985022172173807	-7.385975397193272	-62.12478143736177	-6.698530827943424e-15	-64.35500540453573	27.60472844776756	3.93866556551249	12.98774874193994	-4.151254057297129	-0.2731808457984379	1.766625323257102	13.0632501624237	-1.094989830269005	8.235054759349522	6.100932618296279	-7.472757353395628e-12	0	0	-8.166146877541273	-0.6595153096393067	2.777953466568445	-14.00075368549183	-7.472757353395628e-12	0	0
0.2335128561131141	2.898552411667981	11.60685716088247	7.537666429580886	-2.718764217847034	0.3197029267376283	-2.451888593718491	1.761600603831041	-16.97056426174947	-4.332679960898989	5.273043823864025	3.080894787086279e-13	1.997900265600094	2.366720631027261	8.214718872039363	15.71570804409105	4.115863112352198	22.08832868996399	4.417505171847932	-49.03689967864191	1.134698344014576e-13	-65.80544690659019	54.46843347674785	-32.30426053854905	-45.18903969659269	-10.69859407442667	-9.568868335941337	-0.8694463101142227	1.556296776068084	-6.451178239418747	0.2231213613744893	16.47080647501854	1.133917582165197e-12	0	0	7.581994812759675	2.844680548519375	9.620810819016222	-45.03722809713922	1.133917582165197e-12	0	0
0.2504558844730551	1.721613889854977	13.62096945517452	8.218303134152599	-2.292076657385572	0.06157052058648926	-2.148093586078388	0.475089860564518	-17.93489987896537	-3.596193718339691	1.378676499410454	-2.136322862682252e-13	0.9406986170477298	-2.243623835962012	2.60857201795632	20.87059615016048	3.028714158286414	22.21345767098681	-0.91557957878541	-49.32850981265477	-3.545528874670064e-13	-65.21308199111697	-1.717459893504653	1.739531995031047	-78.80779967944252	-8.383793310322076	-13.06613802070102	-2.164845824218414	-0.7831327134039867	-5.82356376401254	-12.22830000337913	4.077024607417504	-3.338074605549387e-12	0	0	14.58735114006687	1.827966905311327	7.096888328413475	-41.71179108451119	-3.338074605549387e-12	0	0
0.2648312594138309	-0.3393031245158042	8.231296780265382	4.028419786492022	-1.723940366899249	-0.1910495589358527	-1.402238496108492	1.869050068975317	-9.708587919706201	0.3595796580801149	0.3939700565619475	2.751656361433789e-14	-1.337611005778304	4.299740782100337	1.430482284844353	12.01630718733614	1.425374508131691	12.16703589699767	-7.068759431326654	-48.48148414471154	7.57938748774407e-13	-62.86949697809679	-6.726368474280232	40.55005419933862	-36.08343918580017	-4.927855494224657	-7.67671610426429	-0.7914934170169201	2.248049338505464	-2.530687368343068	-7.068770023634553	-1.403367114902059	4.646318583644907e-12	0	0	3.886507306485114	-0.3907235981324647	2.759470722315414	-23.9476079375447	4.646318583644907e-12	0	0
0.2688	-1.058299051089026	3.189882062292299	0.6242410730536228	-1.338136568890802	-0.2724062262477587	-1.109299903941174	1.203543959418274	-3.553009799938164	2.276882595504153	-1.543225502579658	4.364615171506857e-13	-2.100157466584419	13.10221029483738	6.099404446485893	6.003107041409222	-1.611480948849323	3.772547626204495	-12.87697552785091	-52.13778766133192	1.440919931521463e-12	-62.11797890681031	-5.714135180414655	42.10322830352821	5.999400077199546	-2.731846976882936	-1.469921842900778	0.3805472231119033	9.581003690356884	-0.8381365846281377	4.265924803489605	1.670993283873556	2.435564970159574e-11	0	0	-2.585775082300001	-0.846431423480551	2.152438053812282	-9.164715360357871	2.435564970159574e-11	0	0
0.2783128561131141	-0.05790331663210213	9.032739096098563	4.641520068358652	-1.509759622312303	-0.3183244272238634	-1.352258622129374	-0.318998972111102	-10.77823660127392	-1.032611005877968	-1.479216167045784	-1.023602932053192e-13	-4.055731191897802	7.366312245945099	4.668606800484529	10.08606533169755	-4.326928909870603	13.4788674945273	-9.609761112791997	-53.57896048292008	-9.363542029717943e-13	-60.35797563822945	19.84411400532789	14.41998153015419	-48.13432177114524	-4.350821314840711	-9.106429508459229	-2.115816858972151	4.807359975544543	-2.979516457279094	-9.896811579974411	1.153999286201593	-1.186151088299428e-11	0	0	14.858144874118	-0.4828280753779813	2.506191796709981	-27.04884449431605	-1.186151088299428e-11	0	0
0.2952558844730552	-2.269418144049481	7.509060376686298	2.449212044372667	-0.9183416530508854	-0.5434296031536452	-0.7355820111716201	-0.2917952354118314	-8.090447222039547	-0.4343261148546773	-5.280406382566644	1.160311171916618e-13	-7.630451827160346	1.949770169698905	2.753302797288643	6.620267064862839	-7.203698776804096	9.338240763309461	-11.71123185360843	-55.04308028152986	1.018062875129354e-12	-57.98432196366767	-16.48823157429621	25.25850954819353	-22.62832829332178	-0.2575733638065882	-9.079189814774207	-1.282049485218653	2.737089142760901	-0.7746881417939573	-16.07834245594972	2.913998021282057	1.349810484360525e-11	0	0	16.26138715311033	-3.204396360874159	-2.998408105039032	-21.69631587830615	1.349810484360525e-11	0	0
0.3096312594138309	-2.747447614569571	3.229777718427914	-0.5760546520728105	-0.5332800216260685	-0.5922314487780853	-0.2803796397910703	0.1686888071103976	-2.486850775957975	1.45193084352228	-4.935517906442307	-4.429633900508645e-13	-10.33735255709827	7.296358407331692	4.563357777176447	2.660540453765984	-9.10497141506222	3.065698061120842	-9.754895313890174	-51.7858951651831	-1.086542724058052e-12	-57.0453453070407	-32.08284436217004	44.29899996248407	8.538499179293986	1.122837229277679	-5.013853206597152	0.06799496489992585	6.138674515309823	0.4041485012211115	-7.127999700437369	7.368215705052592	-1.115292881221618e-11	0	0	7.359651655847598	-3.279763306427024	-3.032287657470983	-8.822684067503577	-1.115292881221618e-11	0	0
0.3136000000000001	-1.680955373402298	0.91718246254306	-1.249973841881087	-0.4096340091512193	-0.5150201897147395	-0.3518516138325608	-1.158834113722518	-0.1857221531487858	1.346771943140791	-4.876179030316166	-5.495405988065337e-13	-10.97824959260326	12.83286132971106	8.75582568114759	3.763729772186666	-12.32677494894427	0.2540209078007454	-9.926101204093552	-53.77115698808937	-1.48136303370846e-12	-56.93012417420319	-33.55393933503186	42.8614653569268	19.66033133002905	0.5938924633607413	-1.799535538375039	0.05102192815823392	11.8738959042163	-0.253350412356394	2.826028569661418	7.945048674911601	-2.613399225561452e-11	0	0	5.72985132089753	-1.394118863380239	0.6626775913265498	0.09669104126051353	-2.613399225561452e-11	0	0
0.3231128561131141	-3.484773102083131	2.707436246340538	-2.301088915617427	-0.2495479529367787	-0.6990369905011835	-0.1763869114440919	-0.3291071880884608	-2.160218019009541	1.146235501898348	-7.145662041656729	4.365845423404524e-13	-12.25579662922216	1.568179849040197	5.696274620940156	-1.463168483291435	-13.8749278509088	3.939709223074342	-9.460942519382833	-55.10855067878401	5.607552630471315e-13	-56.76810913575684	18.08335379614427	22.87062725704968	-2.813042727080173	2.63687392213473	-4.529463419901112	0.7434987034773123	7.087124907584396	1.588054455377165	-8.210116057296059	16.50569604126496	-2.49183161828252e-12	0	0	9.169282260689821	-5.422880252078396	-6.353054045841454	-10.12383899348253	-2.49183161828252e-12	0	0
0.3400558844730551	-4.580517022709147	-1.824088811819587	-4.44895375523391	0.3143069261912752	-0.7553504598877898	0.001455003561148409	0.3278504333798749	2.305714310121258	-0.2199322243213704	-8.547702135405414	9.727580438277361e-14	-13.3693131742015	-4.589004220833347	7.077121101655031	-5.816289796485373	-14.22348326883869	0.04613904316996642	-4.061802324304724	-52.81313617293294	-1.394332592074889e-13	-56.05718417990808	-29.97253966049435	-3.178308954048745	9.002960331627154	5.151465906680545	0.3803088943645911	3.220639518189151	1.479280648706251	4.667632115557738	-9.689602547015154	20.80463500283116	9.068724023028927e-12	0	0	-1.7214543219847	-7.785760636930069	-11.42956476279799	-0.04785428320407936	9.068724023028927e-12	0	0
0.3544312594138309	-2.97669069316087	-1.158348792715887	-4.242766284477408	0.3334121841153831	-0.5854574718918355	-0.06118945323321866	0.01803607043355271	1.74630642655028	1.266097938221096	-4.720601144756397	-3.81846958598561e-13	-12.84692685003577	5.543818294471104	8.931868624065329	-4.480162927519102	-15.57074375928708	2.026616464675861	5.053331441612008	-46.57042453035848	1.504468096980846e-14	-53.65008546312976	-45.8017619806534	34.10054055679937	14.30043560500123	2.801594006320703	-0.6185427521566509	2.827551403994925	5.77203161216368	3.48733206100484	-1.715578031493918	16.0675734473989	-7.733412702616286e-12	0	0	-6.245295755827979	-6.11931899955676	-6.8381042598429	6.281221150690049	-7.733412702616286e-12	0	0
0.3584000000000001	-1.811794708469549	-1.102986360889008	-3.212417698084751	0.1867839448559103	-0.4741115252076453	-0.3609395300480737	-1.037877464829246	1.233416723983527	0.3412126365667358	-3.860899592048305	-1.631664077800994e-13	-12.43433695720882	9.728687382465209	11.80303763256439	1.158496540170673	-19.04329991421205	3.198346826402902	6.169422623980104	-50.44842436954012	4.172921668397506e-13	-52.48615083582515	-55.73701242675051	18.43857793416251	21.59920438934207	1.942057458901928	0.1020156790421298	1.310382728967983	15.88065358408178	0.9313399443369215	6.23907331157216	12.29227823498848	4.765700178201309e-12	0	0	2.552545810734093	-2.589443022736983	-1.082345199582069	5.502179258901425	4.765700178201309e-12	0	0
0.3679128561131141	-2.475123982537732	-4.004077242098374	-5.599552048093777	0.7479829289666365	-0.6561117282709013	0.04520166894807497	-0.7027428270902343	5.258771562475649	3.262630343048583	-6.761087588496167	5.547872765457599e-14	-10.95408058658447	-6.563806548722141	2.805040182804994	-13.79189126089478	-18.41050044911406	-0.8035224865313246	8.004152424762822	-46.00865857594081	-3.519920653657562e-13	-48.55779775033454	-1.02502990325145	18.66553067056678	-6.740956445979307	2.773974642935455	2.711322797060297	4.485563705195263	0.5193140711569697	5.849289317216745	-2.343056047601086	20.31037303586169	-3.268378925900211e-12	0	0	-14.60725006708551	-8.897461001239174	-10.58562878138403	13.84081878292415	-3.268378925900211e-12	0	0
0.3848558844730551	-1.504846308904174	-5.851246888493222	-5.303630615160484	1.203510353763527	-0.7156020468027384	0.03196955190332948	-0.7177246020972556	6.452608337672637	0.1730123476995509	-3.321558295655366	4.827615416211246e-14	-6.631269918166836	-2.977470320791069	9.181206812655761	-18.68354878495079	-18.44784491535457	-2.664559594862679	17.3944137506885	-40.5102509076879	2.957218771561081e-13	-36.82025192616998	-67.49426390986852	-11.12681065258346	-9.751446578927222	2.292300798406045	4.523616045536233	6.32724526158632	-9.890838480691016	8.487209633161553	-2.076303047342746	11.0442893436946	7.417358925939301e-12	0	0	-24.98055984019577	-10.72014196117866	-11.27106668821844	30.95520838767721	7.417358925939301e-12	0	0
0.3992312594138309	-0.8917870895821072	-2.804354509137598	-4.532881374303649	0.8388676239283298	-0.9528140799298777	-0.3057594330549112	1.325972129541611	2.83352464542407	0.7872602717568036	1.669149277353333	-2.949379513733965e-13	-1.488745530675544	-3.695230105827365	5.330646135096532	-9.608705393899289	-16.93622497266443	0.5619536769999209	25.19473680838125	-25.75211640282804	5.758027216111365e-14	-21.67919010815563	-69.48141583610142	6.575176410221873	1.418547225478104	1.129250255060325	1.787634136740113	4.191114046812377	1.976977400618285	5.18670976071039	3.96135471982177	4.478292283879788	-7.723059617315422e-12	0	0	-13.3825714376361	-6.434932594795093	-4.638949610996797	28.12359670280999	-7.723059617315422e-12	0	0
0.4032	-0.5245357497361004	-1.114118227567845	-4.445761416588282	0.7081755869887804	-1.061575448695109	-0.7775265777656516	1.264297137457582	-0.2538514870574133	-3.082876436911334	4.853219155641389	5.571533400877731e-14	0.1152042244514262	7.433180188101279	15.7310295703829	-1.4676200691463	-18.10569317253811	2.699670089207138	22.06607167576475	-19.44724424577022	3.308904384067429e-14	-16.70153871637823	-41.22251056879105	1.843432412961992	15.81826588714598	1.538377059714425	1.709307962890592	2.030492000323167	14.75281647911031	1.756187406771068	10.65434288344131	6.610708321842541	-1.351458853975542e-11	0	0	-0.5962201177881166	-3.183061623520464	-0.6130296434845535	10.80624145000494	-1.351458853975542e-11	0	0
0.4127128561131141	-0.5203672046929662	-4.82505576209866	-6.571655946708328	1.059375822858712	-1.343509533978539	-0.2455229710496042	2.884437825572393	5.551434208037855	5.752879848358367	4.843952564098933	3.759518915849774e-13	4.179033210526293	-0.89083211152861	0.7914566920935706	-18.24122837775015	-14.80447833271727	-4.840426479911626	23.32689465564303	-7.55745371118385	-4.631744772649245e-13	-3.583738351949265	-10.22137984612684	5.577847537356854	-25.74722166804322	1.940157312007103	4.754372242895572	5.777277678430757	3.873943691232103	7.501297647640973	4.45083013660785	2.721189717894025	1.420586252544867e-11	0	0	-15.44378291702397	-8.483808668152601	-5.835316129621608	49.74331489022401	1.420586252544867e-11	0	0
0.4296558844730551	-2.080233906345282	-3.895738233832779	-6.484509935104412	1.209484738718227	-1.836867491285525	-0.7783557181691281	5.0081663375327	2.481877255373006	1.596221804715078	7.692885353560912	-1.815418126725956e-13	11.69860585104949	0.4950687826144886	7.468672033302453	-13.95156469914778	-7.183966757397242	-5.127037465728385	17.36333128871176	19.0235760543078	5.867778890132534e-13	22.5473291731743	9.742108340952651	-17.89778613763272	-13.91257835265097	5.175458129643001	5.499733763027198	5.838130506518815	4.98576603859442	8.04191092592764	3.520506465593705	-5.321068728256636	-1.268464216267285e-11	0	0	-16.37326049080876	-8.329866773063729	-1.941076312958335	69.98124675253557	-1.268464216267285e-11	0	0
0.4440312594138309	-1.837691780127979	1.31961891016867	-4.48599614990324	1.362518923660705	-1.910241524276873	-1.286828067337468	3.977982177682595	-2.771934429094724	5.881355226874035	8.449012969456925	-1.673772583925655e-13	17.64339407237552	9.535048253224678	0.06257932571714164	-3.822359861081532	-3.854228065550904	-0.2406147898341233	6.652780495310886	39.43776357465241	-4.996501302974683e-13	44.94798042663255	8.414544453232466	-15.06818793120898	8.415307777938679	5.648018315418955	0.9086053987153484	2.340867005438184	7.508125827041297	3.714974397726408	3.087053558243986	-2.075171710059715	-1.489152758608423e-12	0	0	-7.503432490048437	-4.185554314705477	2.223018451502235	46.56412979538754	-1.489152758608423e-12	0	0
0.448	0.3238188470684979	1.707197649969778	-4.411557497473282	1.187224996280857	-1.77486617870884	-1.519791313396234	1.130803737543418	-4.393815629466687	2.050680339526046	8.350417278518895	-2.332485889798428e-13	19.11225682195894	8.836007676651343	10.94528886754519	0.6855548887038361	-3.836461644008846	0.3792883187163039	8.486415105815722	46.74037064989095	-8.495034510784508e-13	50.74750982459968	29.7395773643514	-13.96326077813701	16.76410810690961	3.045061742346006	2.032410848275729	1.518504225153202	15.65869182537693	1.373575601563828	11.47313949887796	2.568394774920205	-1.423452786759046e-11	0	0	3.164220228265597	-2.729578063246078	1.721867020644187	17.24036629247223	-1.423452786759046e-11	0	0
0.457512856113114	-3.869185900284827	2.657195922577716	-4.978359278967934	1.849398865425405	-2.180590406508701	-1.44733523423364	6.416957337677133	-4.574887761482541	8.138447960175437	9.958858584120421	8.759349181973641e-14	22.2014863379386	7.769788761849743	-5.130040056053971	-4.998421163001073	1.863205283294094	0.4852747026760662	-13.98871331888012	60.65775394231614	3.577250665629704e-13	63.36552461490115	89.11349665117655	7.014102745739049	-7.659059179200042	9.41204141711188	-0.3740274249306479	1.703168773082032	3.287827669290486	4.431904966276536	-0.0011181180269908	-4.574794712272698	9.560259043759468e-12	0	0	-17.62222996099933	-4.662825648640773	4.510056379492261	61.79714160224589	9.560259043759468e-12	0	0
0.4744558844730551	-4.388038543350649	5.544207811291217	-1.787942114163621	1.748572976181815	-1.806717237207909	-1.888842916641808	9.389975296356905	-8.857025824432284	1.838082895189487	15.28301794105576	4.399980749272738e-13	25.7945922673561	3.714013021286066	-4.848210168493553	19.22299988255382	5.883237346189102	7.809726587094963	-32.21123199155461	72.2595924744825	-1.246780204431856e-13	79.19487614205696	47.73289789675452	-36.17555686789629	12.13225093070081	10.27129311315295	-3.238334242378764	0.1790807022875029	-4.064744239465206	4.062477239732843	-0.8200354176744558	-20.02876710194906	-2.758091470239113e-12	0	0	-10.32683125420178	-3.854435644299038	8.808548395035016	66.3591141327425	-2.758091470239113e-12	0	0
0.4888312594138309	-2.584801352455411	6.211931951131659	-1.719012666830206	1.254609263237628	-1.196584838109448	-1.730491053105574	10.99291589982161	-8.276795367793351	1.008101505530245	21.38515034667412	-7.853020743939973e-13	26.60802792470103	11.97060232933011	-10.01099753413265	18.40504646039237	4.700383000917688	8.870371103111037	-33.64029212475656	71.25241568721985	6.911011823338149e-14	83.80274750668966	-3.748117517385278	-19.71020649768082	21.59766901476821	6.795618734793432	-3.931605368421797	-0.316634553589734	3.655015456664053	1.872891539863316	3.032093986088406	-12.11477564439753	-2.746947670863479e-12	0	0	5.710036412499429	-2.116530430597333	7.227168807315968	40.43231475790964	-2.746947670863479e-12	0	0
0.4928	0.5048199963344779	2.822422107093097	-3.632007478039037	1.419615157376352	-0.9879975062504101	-1.719083990960221	6.455211439367876	-6.200406323844738	1.315901103843014	19.03788081168223	-5.51505098739557e-13	26.46249150918699	5.371596565082191	3.716003934597305	7.437416396254119	1.872612491525368	4.05059324186075	-22.91368134703518	72.14227136394963	5.741680867029205e-13	83.49427815198621	35.09415461111898	4.373962661963205	24.98150644376486	3.91839127348619	1.285068169498224	0.7778869729346107	11.4706445909911	0.7421138657688424	10.51711882141428	-0.8026659105145661	-1.103142386932381e-11	0	0	6.918340397972313	-2.157781031047366	3.53622307184959	15.60130265854378	-1.103142386932381e-11	0	0
0.502312856113114	-5.13031001200369	6.948469099302918	-3.214700433510014	1.158478300309301	-1.131183692671891	-1.608881543677154	15.98715333605026	-9.701193268622299	3.496246135163736	25.0143541620893	2.263567461955259e-13	25.50750068273065	10.11909431640898	-11.90168313953342	20.30327034913295	6.423876440282088	10.40631433557967	-38.67090040935784	71.97387807340883	-1.222845507607546e-12	80.02901493312164	61.42022721462874	-18.33704518551596	8.338362990149687	9.158182745743863	-5.497504887162071	-0.1152646729736786	8.775010587641642	2.883589300497964	4.11443560888855	-17.41981346607638	3.991993561695925e-12	0	0	6.302489273443332	-2.339702594551906	10.15486642393606	49.04977803279336	3.991993561695925e-12	0	0
0.519255884473055	-4.857694988633904	6.451444680523091	-3.550182412842484	1.676707712103142	-0.6135131751896685	-1.451175314566982	13.62493722322212	-9.631024779870014	-0.02147249413836505	21.91534717854781	5.263275630628034e-15	22.06242098318669	4.142875942866038	-6.338648694452187	23.57790159107364	1.105700342784582	8.8755353974292	-26.88775320509215	54.22963275686853	1.409128016171657e-12	65.53216332788496	18.26626927136683	-40.09742395837082	25.13257214119336	9.454279077661752	-6.266256161835512	0.6707117444358323	-2.355134243169033	3.116619666057266	2.844515138464985	-25.36452769893945	-4.057186768846022e-12	0	0	3.973737977785955	-1.155151121116912	10.52148185645769	32.25818559348326	-4.057186768846022e-12	0	0
0.5336312594138308	-1.521987655909151	4.105774133622937	-3.747625287094979	1.738099072914194	-0.1656498183943717	-1.227737208220855	8.164962549115794	-6.162516796571584	-2.400169160242939	18.22166307161693	-1.920748324844893e-13	18.15942217713623	5.962196989623444	-3.17896077242851	10.207255924753	-5.455589847429634	3.198902684774636	-6.031720074973107	38.57183992353711	-8.044837813065501e-13	47.80822172558268	-5.100909779477867	-0.6436301794337353	17.9062310252571	5.047143943412851	-3.479015900874983	0.8741347757010776	2.503916024192996	1.528881950100463	2.783915371700338	-8.994279934106039	1.4043838299914e-12	0	0	6.636091301004016	-0.4412306960163339	6.053724909663384	11.55361114406816	1.4043838299914e-12	0	0
0.5376	-0.477455973928902	1.687085543318046	-4.816182677694351	1.633389089134505	-0.2199904441268992	-1.385152090745707	4.036177589531867	-5.535070661911641	-6.573371523923708	12.39391691850721	2.315016429815899e-13	17.05963024779748	-1.846100456743599	10.7812152729582	5.642656082583362	-7.831726932053211	0.6278489424294662	4.072222215840669	31.55863784796459	1.82204448331503e-14	42.57422037302426	9.949929906929126	-12.79486154108045	24.48336345239396	3.747725304606194	1.107891398434385	1.279816048734687	18.55168048953561	0.6348305649889123	10.32158849205186	3.136368011204917	6.0394871655908e-12	0	0	6.900456878390906	-1.691411056311452	3.214274829668885	6.859316768449151	6.0394871655908e-12	0	0
0.547112856113114	-2.445965186893444	3.855225559353583	-6.459084204675859	1.927003853166364	-0.07819077603168023	-0.7758696259262832	7.740171125002199	-6.133074358888334	4.156778929604638	14.43669875127916	2.670157419111919e-13	14.59311717171874	-0.5121239365395418	-4.827303677278068	-0.4929558327958059	-6.00994854953198	-0.4566618858487042	14.85616271026428	32.09297236746715	2.82660137680997e-13	30.20252361771155	-36.68883252788254	12.8967795417331	7.902140130946442	5.818210325100457	-4.538367334837154	2.677970485369662	2.386735617348204	2.959863402062753	4.009027038516509	-10.61709672763636	1.141536248124436e-11	0	0	3.615282774147971	0.04137322121003917	7.136342966516739	1.461350922979258	1.141536248124436e-11	0	0
0.5640558844730551	0.655075478679929	4.115022180076042	-6.857278369358747	2.332356816616878	0.4895600082125151	-0.3783717772804013	0.5086028708225179	-6.517293031330855	-2.773991518688771	8.365336637704583	-3.706287587825024e-13	11.59555393932885	-5.961484656604455	5.396016863230415	-16.45821718365875	-8.584156761833245	-4.606707873873386	68.43324993611355	32.10102635289643	-7.137663625647011e-13	11.40424375909078	-55.35927045943822	11.45092006796575	-4.525192354373502	2.179020705077825	-6.131407465725438	4.349830612970158	-17.06454649677411	3.317063452342113	0.9665722629169902	-12.92494120115578	-1.859082477006417e-11	0	0	1.081638913896568	1.884591199384233	3.761163272693015	-28.22092836586894	-1.859082477006417e-11	0	0
0.5784312594138308	1.071074600290508	2.566906228738675	-3.19049389489015	1.601459483004364	0.6210468667470112	-1.061777091477503	0.5783176085630961	-5.336433163559153	-3.358423296754001	7.062154140029019	1.703689524910724e-13	11.36436405217701	-6.463287792222946	3.173680822711758	-12.92075508564075	-17.60748887109179	-1.09745116198302	37.83077241699313	-10.38181431762618	8.832570827088774e-13	0.8547604230036993	24.89776922324933	-18.53906449432011	-8.59366700989014	0.3124997319012868	-1.454858170780622	2.447969093535406	-7.06985953747057	1.372058197544861	-0.6763018997959076	-1.487981530860464	1.13493466754027e-11	0	0	13.60440610788261	1.331723815827789	1.213269011100422	-17.49701838857077	1.13493466754027e-11	0	0
0.5823999999999999	-0.4300448605135695	1.094998020635315	-3.252122807676539	1.451545700780577	0.3147896982138006	-1.409960684094182	-0.5016571447909715	-5.094497636217676	-16.12100988568357	2.483656750729587	5.098973429028217e-13	11.76177844153374	-7.488415580785162	13.95935148116832	-1.393417480696396	-13.67807703944795	-1.381258663801712	-16.26998272704714	0.889297008939232	1.072960961974912e-12	-1.12017386311065	74.61558155214365	40.16824203331463	23.31335575328387	2.747365569284527	2.38245787369225	1.472730549997606	13.90198932337487	0.3564098094917851	6.759310520469167	5.641661298648709	4.211405126108677e-12	0	0	10.63969885951686	-0.9186387942127601	1.664043502944509	0.5093039709657758	4.211405126108677e-12	0	0
0.5919128561131139	1.712221637340659	1.533800383775684	1.565044824126121	0.6505638975973476	1.135383487716774	-1.533848985916914	2.554787568528536	-3.60821116928622	-3.757220931651183	9.047022958262348	4.408214525601693e-13	13.56439087853018	-13.9841851416645	-5.615036267230737	-31.51004415355429	1.417526715590093	2.250919994052448	-24.10416652419584	13.32300507141935	4.82292310932975e-13	-4.444380783608896	8.152210793030349	-80.66765095571149	-34.71008313578916	-1.85430445118069	0.5122211450627008	3.266421615060392	-30.82457260799688	2.079711386012326	-7.273544738634014	-9.821487536438305	2.015974934452887e-11	0	0	26.50982651478035	3.516668513231453	1.34541123631231	-25.35667647380394	2.015974934452887e-11	0	0
0.6088558844730551	1.778836281029309	2.694247637442771	8.322134046047427	-0.5174442089647548	2.306270519328324	-1.960513111889391	8.46608653434658	-4.917488238205699	-19.13714539092114	19.81721191269023	-2.734051076966054e-13	19.56908224114431	-16.06066007062052	-3.185279586018943	-24.1682059492627	5.70969662710447	4.788472466038505	-21.56326167624825	8.353454073530687	-4.916082868906338e-13	-7.199513072814866	-9.239945226490555	-25.02690475457094	-16.86896387063072	-3.206689870863015	-0.3621452391163484	1.681275137946613	-53.25132367425086	1.370545073793425	-13.60321977515502	-20.54777799146833	-2.280949300971937e-11	0	0	54.78468825444231	5.403459183908207	-1.95275841604997	-12.1480984145426	-2.280949300971937e-11	0	0
0.6232312594138308	0.9072242540053166	3.080185501841767	5.03974290120462	-0.87339707897311	2.835220557817648	-1.62220282312179	14.62527083090814	-6.105924709560913	-15.18255716284621	28.75251693905722	-3.95127316756328e-13	26.73119194823266	-13.55560753403439	-4.426441172662063	-3.819009725252628	4.274958820886727	4.457951565354822	-1.763045043403341	25.23790458638035	-6.993946273361862e-13	-8.952238535927453	160.5479034117791	60.21503641599523	4.592274681072535	-3.122100214402855	-0.002257622796709491	-0.3683262369136928	-34.02445373254319	0.01317205714765346	-6.538567488032911	-10.46385613411774	-7.209255493008588e-12	0	0	32.99844028448017	2.489437611423763	-1.227147690743229	-1.509295018956687	-7.209255493008588e-12	0	0
0.6272	-0.4177870367530642	1.596725024403699	-1.364986417715097	-0.4726926513577469	2.690427636490021	-1.349564303071104	14.63397544829904	-6.655193951876519	-21.17312200375996	23.6576324008928	1.724209489615795e-13	28.87919062178556	-12.64153183939774	6.009462030118847	1.298869681922832	1.564439429107713	3.28711181408936	3.278536044861079	15.14075464438239	4.779407635173666e-13	-9.626200818968787	147.1345628820613	21.02683779852527	18.74982031231598	-1.015609317741289	2.886708087058188	0.6470750730123113	-12.99549230709535	-0.07371654949105522	4.459223599926586	-1.611413640130019	2.674300589537215e-11	0	0	-0.2537646124805347	-0.7536182967934429	0.966547696596497	-7.708783705661832	2.674300589537215e-11	0	0
0.636712856113114	1.310877895765513	1.868380535135159	5.923887438380683	-1.335474874116593	3.484467192899898	-1.62857624639832	17.80304398169906	-4.660149767774534	-10.32958946825037	33.22582690305993	3.292769931716844e-13	34.04017292192123	-24.56304561099044	-14.14374630268738	-16.34626743791209	2.573051511491361	10.49424730149822	19.96078477860299	18.11360388033204	4.665011565009099e-13	-11.72375360471991	117.050516985529	11.76296812199721	-7.569221844161092	-4.284337835649088	1.27512282033668	-0.6980364440993183	-52.92668330201381	0.7204583547064718	-5.919720361662245	-18.76941649530348	1.867065807511306e-11	0	0	32.5623461231996	2.747362885602163	-1.377884525017943	-4.033628611971489	1.867065807511306e-11	0	0
0.6536558844730551	4.264943089884931	0.4437913278494539	6.292953260002678	-0.09646225823515658	2.726362107935716	-1.125577312787182	12.00563543606276	-3.802652991558901	-12.0303263090416	27.95020194237554	-7.975746285345905e-14	42.0519415520384	-22.10542713970421	-8.807052985595282	13.86220892614178	-20.98556543581097	-0.08480356395817079	-14.43462221185474	-51.62583445595693	-1.704548063547392e-13	-16.81286620332509	-157.6720036408345	-2.410350181872371	4.797614912702109	-3.280944891869933	1.667211088052577	-4.764795078793597	-48.09811984899154	-0.2300239546208696	-7.629447802387572	-17.91798022275506	-1.068865120553605e-11	0	0	30.05390126669664	1.781001187875447	-3.720861637147731	7.358785975653636	-1.068865120553605e-11	0	0
0.6680312594138309	2.963548786587365	0.8761862561619187	1.668046135168063	0.3412373558259818	1.589870866123554	-0.2480387146337442	17.58747421378381	-4.378916919238858	0.3642067072127873	39.60586254870774	-1.345370885240096e-13	46.08033719566792	-20.63371836033733	-13.7779963068749	29.44136667244181	-36.03122405205013	-5.460976851636103	-14.4509569134978	-49.00979433921091	-1.664178735167629e-14	-21.05622818716725	81.74316211352655	60.9016794192408	14.13826596379369	-1.110951086377812	-0.1531209491849208	-5.651588525283071	-18.42256918913966	-1.134925818987526	-7.514672452476283	0.8758908313955764	2.020350044084309e-12	0	0	23.09489898730382	-0.2211670896830926	-1.663563423313976	17.65094962630109	2.020350044084309e-12	0	0
0.672	0.1816229294544986	-0.1265442499436067	-2.637403052652479	0.091348605225318	1.43746356805156	-0.329506474158591	17.41499703150714	-8.994623932900705	0.6510381832219618	-1.929307621663781	2.230883933442997e-13	46.55802140302452	-54.6502839358088	-3.384536602741256	9.846683112177177	-30.10304121971197	-4.224337733626886	-6.224017027407212	-49.46169756603692	5.568097599977007e-13	-21.95740503960202	27.9054485062308	33.33474410343524	20.19626265121104	1.28607442681354	2.363011719080636	-2.23142310750685	-1.517100112567459	-0.7309268732602064	-1.374078206859734	8.655573949396368	1.693351019414117e-11	0	0	14.78701970830252	-1.480583749808713	0.7993548994220213	11.04689128939547	1.693351019414117e-11	0	0
0.6815128561131141	4.559389797421457	0.01009870733674356	1.695322412525982	-0.01778973197073283	1.520531855450278	0.2600829159052183	21.2784936246643	-2.128797614725852	4.78408375242469	56.57502220741377	-1.494670523069529e-13	46.41955892599262	1.42544422727843	-17.64995934384574	44.88198312639507	-34.68642126157619	-3.042614703086166	-5.32286304093908	-55.4521567287113	-3.050781003940323e-13	-23.3438734636055	-7.952171046972438	22.36804896496388	-6.387587812088888	-4.093638772594311	-0.886200082386964	-7.180230314699733	-27.68966956551107	-0.3947289957594476	-4.770522084228944	-8.29577260555364	-4.710360132164623e-12	0	0	12.20667945138635	-0.9017163929655674	-1.610219557229124	22.31508067787023	-4.710360132164623e-12	0	0
0.6984558844730551	5.800315272925596	-2.8226402098032	2.005593075848622	-0.6698405479119967	1.500646501846552	0.3904540192202181	19.75847075092424	-1.507305043624746	14.97619609379339	23.8897028723912	2.796167755560253e-13	41.43447095403339	-48.43182446365233	-20.81637785698223	29.70366258837523	-25.07934137913324	-2.584328557667742	5.246966158398719	-38.49942020479315	4.529596919485724e-13	-22.43760501498052	-8.179888679922193	4.149575998910287	-3.755095219299626	-6.680222444596291	2.158300107002997	-7.268575472098645	-34.57525640943826	-0.1299701199673973	0.6094348904227438	-29.11636755598651	1.888468729117518e-12	0	0	6.118025099018292	-1.249709366961555	-2.809156065557184	33.49130283461622	1.888468729117518e-12	0	0
0.712831259413831	3.853016452758586	-2.162778566794786	-0.5066236013067111	-1.451949004023927	0.6749600234653286	0.7631286425469819	28.08327333743137	-1.998151146581578	3.893677195367262	77.94387539456777	-7.167124160124061e-14	32.69787906928442	6.716298615136235	-1.168365122281768	22.8369476096862	-12.40776593832518	-0.8977558965061698	8.364959008903318	-21.57421448807098	2.970047565935079e-13	-18.35645615326222	-10.2973261552043	-10.63764937640507	6.639392904865513	-6.847764414091346	1.553139611866155	-4.70322020493323	-36.1888265530707	-0.2497537609887645	-0.216681065944095	-19.90939745045628	3.516507786879782e-12	0	0	1.676950525484349	-1.543026649039294	-0.6706081953349237	19.47748444417182	3.516507786879782e-12	0	0
0.7168000000000001	0.822435397490036	-2.165037481391463	-2.365279000913688	-0.784944675167832	0.9540760323399159	0.09654882685496677	11.55822483773915	-8.266357756238691	20.57763554091555	-64.80805329868996	-2.330054300373479e-13	29.66101075809093	71.55145818198062	-8.318650573860701	-9.477809262063861	-10.34024028967003	-0.009826337376182437	12.39654926061744	-16.27205378736617	1.018805902657906e-13	-16.8253938950343	29.99268904355643	-3.32673014451855	16.8943184120483	-0.9633400131558265	4.126980406824096	-1.22442689688542	-19.18828620330119	-0.1232098142720899	3.916453762667109	-5.203621940386931	1.454512273031979e-11	0	0	5.902591734939826	-1.864179762640199	1.132712242025702	8.600185602305512	1.454512273031979e-11	0	0
0.7263128561131141	3.791219652545072	-2.115671496213803	-1.61312142092515	-2.738661724097832	0.1070919733873739	0.9508165819005767	29.44377377702045	-2.466969718774917	9.643926177906859	76.35127172977167	1.427387271125694e-13	21.49522479280233	-28.31790789530646	10.99225352681145	70.67933439401367	-3.584748014170325	-1.44037303373317	7.620866441315837	-8.344584600194036	-1.060427462258914e-12	-12.73495269037299	-13.03614093467225	-11.50715784535945	-7.340921245838089	-9.92407428946769	3.017217112188101	-4.352204419397447	-6.34735697778228	1.266295215055983	2.680398430055212	-24.20504413391472	-7.242341661713606e-12	0	0	6.903747353726409	-3.517080604957955	-1.186288523801916	31.36539841409702	-7.242341661713606e-12	0	0
0.7432558844730551	3.551167561550922	-3.929240274112897	1.204659957672622	-3.096907418209724	-0.3744096845546803	1.10260780709144	13.65984240176621	1.977127069695555	20.21706338335963	-4.708447992255426	-4.467464148590395e-13	4.839151766581811	84.67486319691299	0.3340991510045077	26.99976939863035	1.308261119580611	-4.928565830832783	3.070011952353381	-0.4564645552787537	5.293734824343142e-13	-5.259332245303584	-7.242752625864302	2.315684535368476	-0.169877018597127	-9.272477736667192	5.033402744171129	-4.051836310793328	4.576556817108809	1.837134234446288	2.802624779859631	-39.67871897530538	7.071440306715815e-12	0	0	23.00415209121931	-6.079588072001384	-3.85123621352457	31.12067397820633	7.071440306715815e-12	0	0
0.757631259413831	2.291336567948991	-2.613702014314446	0.3151463492385327	-2.075609183012755	-0.7855617420704346	1.517799870601648	7.406634511697497	3.473281723513677	10.8019455435926	4.966804181918504	6.273092020949109e-13	-9.990665121579763	-55.782628032153	70.76180183435497	-3.464479860003095	2.063048791497446	-5.848256585815001	-4.468102986049905	0.4490281947510244	4.60594071174631e-13	-0.2477072665354831	-13.78098490577555	6.375862004661512	8.168598537406226	-5.89586911865642	1.805537118071324	-2.69246757473587	-18.07514656244848	0.8829895444720099	2.663372539919368	-31.42413265857429	-4.50494743038418e-12	0	0	13.39237848169913	-4.592026654310178	-2.037401134900717	6.563176167865967	-4.50494743038418e-12	0	0
0.7616000000000002	-0.1093830200569052	0.08360735447737877	-1.840571253555916	-1.352132530059122	-1.028691190596251	1.203156403452461	-5.226011129808469	-1.259896056020264	5.895380257389785	-43.74621555501756	3.863855226788782e-13	-14.00128393822829	15.66307153385711	51.37703252865261	7.868588690475892	3.899517792383616	-2.628997862965075	-2.227922709229693	5.907277964242676	2.049118602005577e-13	0.7666748772095733	18.93324985589673	13.01443515345468	18.58950902772456	-1.926136344879133	-0.1527466870558398	-0.7109442387941245	-5.861180649020906	-0.08336866575667301	3.057782273963913	-5.397924110666761	-6.952204503713253e-12	0	0	5.439541540468308	-1.636532941274623	1.153346049262741	4.148620274829836	-6.952204503713253e-12	0	0
0.7711128561131142	2.099891831335158	-2.79872864293605	-0.3674469474406112	-2.565406748763781	-0.2772189392154232	2.033263227624535	6.102419754473166	9.890923262716161	24.87671979612293	-38.63950772291969	-1.169333675758696e-13	-23.22852817119551	-16.15388532250632	69.78109850593076	7.621149122793251	5.80812712772033	-7.751387194148935	-8.911768071313553	7.565290734306428	2.942286625610748e-14	2.451060142263077	-4.413999603248634	16.03255690504886	-5.0288362249484	-7.698108431048368	1.021428680166308	-2.663010781086927	-14.88945164669723	2.33637706377822	6.339622213045485	-47.03043045831599	1.159947865218116e-11	0	0	21.31788322965767	-7.512306350304264	-4.030701404590744	-0.01064367391320253	1.159947865218116e-11	0	0
0.7880558844730552	1.740574872416063	-2.410502040116196	-1.863777275498535	-2.495504125401511	-0.05427939078205668	2.290996029769191	5.438628138011458	12.38442255010715	15.29689769861946	-44.44437019408306	-2.496828786552584e-13	-37.58100801941963	24.97199219364029	-39.34421972120445	-31.76343589602349	4.494043152872555	-8.333277410332634	-12.35361737487459	5.394015346524829	-8.899389284258935e-13	2.869304506762493	-3.12670282337761	19.4743510127593	7.143474715307963	-7.242551471386673	0.07707168861826519	-2.484273934608561	0.9086257956639159	1.683059536864471	3.411680461599298	-64.83175670595664	-2.628304680916751e-11	0	0	23.03696790580503	-6.97482406090077	-5.685341264806874	-13.55013361000297	-2.628304680916751e-11	0	0
0.802431259413831	0.6655276911619941	-1.42920937635322	-2.328573268515808	-1.877353197310147	0.08274689594419293	1.992878872203209	6.251057369691688	8.717024024312856	10.41683469318705	-44.42310114053774	3.186594981041345e-13	-47.03862858369238	-16.49830033112322	2.787778638671432	-33.0726232149848	3.078014378418763	-6.192566763938284	-12.62521991386337	0.7321746780856282	1.447529653648916e-12	1.156643333749305	-15.03508429328995	11.09516733487092	14.28320555904477	-5.719591554896516	-0.9195311727604425	-1.784796997724388	-9.512888465868123	0.1525050946093243	0.2960851942174418	-41.84571256908546	3.544829330386569e-11	0	0	11.6218640669088	-3.35419251464048	-2.260067806152265	-13.04848650253254	3.544829330386569e-11	0	0
0.8064000000000002	-0.7546071648718011	0.5543960279988642	-2.573177688627578	-1.299454840131625	-0.1685818364252991	1.496000738723216	-0.6774466837085447	2.988749446991272	-0.7839204854351109	-57.78282841626636	6.349268552105703e-13	-49.17135697405568	20.17915919784674	-6.124271951344332	-5.666681215980987	4.937234292959528	-2.257080782922322	-5.481377797950273	7.660193173201057	1.850257334037585e-12	0.4670413641936967	21.41221429481717	15.19321366527427	21.40679836345794	-3.104398514455025	-1.871917348835542	-0.6138705074918775	-5.372516613518094	-0.5145857686786144	0.7103340546857027	-8.526527311714087	3.264920452323097e-11	0	0	2.303291306218369	-0.7898514512590177	1.294496765004566	-2.251013444211714	3.264920452323097e-11	0	0
0.8159128561131141	2.021308772431753	-1.711502850782875	-3.679944768483332	-1.921770238198236	0.3000530030334633	2.215333855192424	3.83811159758975	10.14072801025719	6.913198048998179	-46.70966153907845	-2.090101902228097e-13	-53.45144968863151	23.76101148988743	-18.9539919383093	-50.03615281990022	2.16446432006097	-6.81244283272674	-12.3416812729695	3.853435732230317	-1.159807034790656e-12	-1.384865678946014	-0.4089862354759717	16.09858381003939	-4.767630123332587	-7.398481186178641	-0.6402607860981941	-0.5702855904629489	2.262751886223182	1.165674285780963	5.365023278482956	-59.71209731808737	-1.946043207952733e-11	0	0	16.02482298928641	-4.666774863263288	-4.125098489799103	-19.21529266424767	-1.946043207952733e-11	0	0
0.8328558844730553	2.119177171973761	-2.494846194443579	-4.574949284134235	-1.310965535423799	0.2888789348979949	1.947942011311092	-0.5418282588842995	8.791801598317742	-0.02220671859965151	-53.4056345310589	1.151339040126311e-13	-58.39270467639967	2.582881772580651	-8.644921176947348	-47.14132805974207	-1.92413927698684	-6.626536732945482	-10.18569903874887	-1.983571491487258	6.175667661497102e-13	-4.703486757235548	0.1004921139970207	12.52755891552476	10.75397569922652	-5.61997024074684	0.9820799145319556	0.2801983058749596	17.37165840900964	0.424813599103423	5.012862294541985	-69.06778931160754	8.45139206343682e-12	0	0	10.74136004190976	-3.921454985489783	-5.577337057830143	-18.9063044647578	8.45139206343682e-12	0	0
0.8472312594138312	0.4181274682528415	-1.277586464047132	-3.378711612219465	-0.8349263756827393	-0.006178730953921518	1.326261797097239	-1.673551408969503	4.008825929026713	-4.537983082504265	-53.88643068437486	-7.551136304954807e-14	-60.37001082427628	-7.656460103650705	4.795233325006906	-15.66420928660965	-1.453674738074025	-2.680362906497033	-6.518916167015274	-5.668532326632018	-2.343266892972955e-13	-6.821544724605752	-16.14918642352476	-0.9618186068990475	11.06930485019189	-3.272028809813807	0.7641623513554414	0.4330581144914979	11.77721075410174	-0.5058755014245994	3.311094712886253	-39.78851814352287	-3.477884561312707e-12	0	0	1.407038514288674	-1.587529250492983	-2.181046486617126	-5.723079482765092	-3.477884561312707e-12	0	0
0.8512000000000002	-0.6897534712864452	0.04426068063292821	-3.127492984322574	-0.6400241997705087	-0.3096967606159047	0.8988740158405059	-3.438924694793937	-0.9444626449390916	-9.388286009836293	-55.44049977351867	-1.205591900797705e-13	-60.63755428960568	6.689085861852897	7.697161491718749	-1.77372612209026	1.606978294675752	0.3279367886467739	1.55184949134679	3.778867980972904	-3.783711203958164e-13	-7.225411406159283	26.81247743883599	4.510851829641819	20.43960731208164	-1.808979503334267	0.6958145146188217	0.938093018152798	10.31225287527161	-0.4073504401105125	6.766247070294654	-10.84836914367573	-6.991160075245254e-12	0	0	-1.596143288831103	-1.029089792647503	0.8416576532733662	-1.893698178002786	-6.991160075245254e-12	0	0
0.8607128561131143	1.664898805751718	-2.153192376186095	-5.248963186004168	-0.7065102169204677	-0.03071293111545037	1.351127527764033	-6.068448210579271	5.209433635058392	-5.714467561325456	-56.39971766877964	3.06648421015579e-13	-60.90042047087023	18.01184077251284	-8.012933583988064	-18.68498921879593	-3.021226874783288	-3.521263131138848	-5.660223967820022	-3.810648218154734	1.735042827351323e-13	-7.828772302164705	-1.907424587255466	2.49270038117222	1.148821542463352	-3.848626390674498	2.456396262052781	1.9317891194341	27.97980874729273	0.2052031232124336	8.806360057515061	-55.21809141496338	1.132015190822184e-12	0	0	0.6018447409237475	-2.494432020195537	-5.015809456057998	1.758349973150234	1.132015190822184e-12	0	0
0.8776558844730553	0.5073997107856266	-4.166492723262095	-3.647541517034835	-0.1433428255923163	-0.3211632223482981	0.7236548214117312	-9.692546706688873	5.080743810338801	-8.883657192435695	-58.06389465908998	-3.801527606669524e-13	-60.44567014161713	-0.8775242694583518	-0.4987768364548348	3.590487674023227	-3.005718338314239	-3.092089666231663	1.811954623676402	-5.346617655568597	-2.906333971000425e-13	-7.601532875950978	-1.302802930241853	-5.514709781413433	-2.20086899206715	-0.7962526216728714	6.053118800131266	2.061708773395309	30.17548244768665	-0.7978800422404487	4.360330096638692	-60.1703257593371	2.072639921582171e-12	0	0	-8.288082627527178	-1.242084880818698	-6.700672809719544	16.39423582133693	2.072639921582171e-12	0	0
0.8920312594138311	-1.122372453687665	-1.566845111773095	-2.272814768312519	-0.0908314246841711	-0.6854192668324166	0.3384416835252104	-9.275635161046148	1.27252728818992	-6.680177590722444	-53.84725536930295	1.069715796569612e-13	-59.56184862074476	-6.982204209731215	10.26555446174747	12.35654587727166	-0.3421382370320716	1.598881047938035	5.46617276004563	-5.959272503062007	3.815810279340048e-13	-6.237287339001938	-18.04334354650498	-18.56834116770391	0.3211229891818306	0.3397185254698202	4.038186842932964	1.393022059571419	24.49244979867846	-1.136616642453708	2.484083408108164	-29.59312909833576	-2.177435941779907e-12	0	0	-8.993109285358148	-0.199200439265762	-3.160062322615182	16.03627944850433	-2.177435941779907e-12	0	0
0.8960000000000002	-1.050338073962209	0.6520616659073375	-2.952772083605607	-0.1969357867788279	-0.8781812027115792	0.4325510007643194	-9.401261180855132	-0.9876539626537552	-5.358810532046526	-51.24818173406547	4.342974016373531e-13	-59.27765745497258	8.849640125771959	10.22171435274714	5.778915124048702	1.486166908024418	3.779291458703968	8.87331348230285	3.259061938496573	1.135516971486495e-12	-5.707943868240167	26.55713909061013	-8.302056973514773	12.99331178510199	-0.3435726423089978	1.667681957859011	1.465628510604065	24.25459131230205	-0.476756215087376	8.023856830945798	-5.526945975530815	1.011004708456399e-11	0	0	-3.859416149230235	-0.8480029156606144	0.180347280353846	5.020508412379964	1.011004708456399e-11	0	0
0.9055128561131143	-1.425565103062132	-2.479709652750198	-1.965075813111163	-0.2247045111743657	-0.9208293215839198	0.3324438307171019	-11.80504684065903	3.91459179693251	-5.680230205309492	-53.57928848833817	4.595896637854691e-14	-58.54509965542859	27.17645028770788	-10.76960675321386	8.643970915395979	1.688329763224961	0.1228567327456762	4.765560829330108	-0.9420792650321046	-7.29803600236623e-13	-4.236246346027327	-2.504728103104867	-10.26202008874461	-4.774011719382344	0.4630340143580428	5.061918936901115	1.520818124551363	33.56285891419585	-1.307157119383623	-1.585712613151975	-38.372385519539	-9.257529074269637e-12	0	0	-10.64816792726872	0.3317168243024202	-6.678684813208478	34.54691399476623	-9.257529074269637e-12	0	0
0.9224558844730553	-4.304104369478712	-3.178005979225256	1.191716638679766	-0.07438514066989033	-1.364867409817324	-0.1350525010878925	-11.5771757710143	4.100048819657623	-4.007583777794622	-52.19360794747082	-2.041348758342239e-13	-56.99546212468611	3.907599457754968	-5.956532679563126	13.94801830415112	7.080114067488023	0.22430393731584	9.043734515542475	2.654813690267037	3.545324990818775e-13	-1.186491535486732	-5.692836325595735	-13.99583623474436	-11.67619242210118	3.591259461671171	6.518786322720777	0.4111840554492554	24.28824317882774	-2.790509996257668	-15.56832640996711	-27.22065982461672	9.573433832560566e-12	0	0	-16.06916266005848	2.608429994911121	-7.409214487642198	44.47245167442883	9.573433832560566e-12	0	0
0.9368312594138312	-4.154059090003741	-0.2984812864968314	0.9399540767050261	0.06291477081530396	-1.431937862031165	0.04037069717674124	-12.20518565773781	2.883054991167374	3.066280513789431	-48.63833202964282	1.592778468366461e-13	-55.1134557109274	-8.187630237137171	13.51463328191567	9.326025197904727	7.071637453533627	2.873090989007816	8.835869640674975	4.345131631552317	1.138770495337041e-13	1.464796384557463	2.526449071413449	-14.01774974451246	-1.854212072657937	2.970400221669511	3.09847692141168	0.0007417892769222556	13.88432321341786	-2.340239945201748	-12.76980879794596	-3.941473770658003	-1.680151112779602e-11	0	0	-11.60555589380928	2.173997071591722	-2.868274017025278	25.23368947436665	-1.680151112779602e-11	0	0
0.9408000000000003	-2.166450981194422	1.267543938446562	-0.7868155438035587	-0.0155564329557431	-1.341795736159171	0.4528882980941022	-14.5281048280753	3.128783470495237	6.294494761857877	-47.51373188486289	8.998034767247183e-14	-54.42641715149498	7.020970737673633	10.68405607362584	4.799039591941764	5.090467900291372	3.317187804290156	6.812169987071167	7.236640586214168	3.684357615419124e-13	2.161843431899843	17.4329258941998	-6.959798163933677	15.2181620635587	0.5721917710494615	0.7696375086686063	0.5145856181335058	17.72239116935064	-1.00721235743121	0.0001159299048767437	3.755886309561978	1.86869848291585e-11	0	0	-2.617892804452466	0.1645647564291391	0.307991292073426	9.633178719995968	1.86869848291585e-11	0	0
0.9503128561131143	-5.615255522404525	0.05227098772317795	2.16471444987844	0.1465073683129977	-1.646973540389016	0.005639922302424501	-13.77351688422902	3.600293499948888	4.104063233212438	-49.65870526215073	3.211505123411045e-13	-52.34342262088639	16.25685322226456	-6.364087606283382	-0.690623837712061	9.594809444739195	2.728301714007452	8.595576296014233	4.895322060390745	2.409574428085186e-13	3.72545489023174	-8.748170766025687	-14.42629432913031	-11.349357582058	4.519075708331348	2.390998731532967	-0.6939296868944183	10.02127268820688	-3.177158597796634	-27.13746380022677	0.9347533586846986	1.359648236217636e-11	0	0	-15.75825069531309	3.904904626086862	-5.793617151885021	36.22037644630451	1.359648236217636e-11	0	0
0.9672558844730554	-6.956461655774604	1.248238937182046	4.594519778135234	0.6209936490701535	-1.78825110980845	-0.1052895361409883	-15.25290628094235	1.25787257556353	6.102468481301571	-49.60017332862674	-1.248335060867051e-13	-46.48872320693837	-23.48351789987985	8.822491544746082	-2.470376721098443	12.56647509461851	3.544019549163	11.1578573426362	10.85728717324205	3.961953010480022e-15	6.036710783564807	8.75337324911432	-10.157626619335	-8.432471630329097	6.739782189548256	0.9441919966149994	-1.680756507778034	-11.15507863175445	-4.395081793035118	-36.72187597299285	23.9301486869935	1.624266257271259e-12	0	0	-17.4096801980249	6.385023185713061	-4.318211755426956	27.75925077610219	1.624266257271259e-12	0	0
0.9816312594138312	-4.645868816007122	1.862178582927865	3.428274115524768	0.5727025659887206	-1.578373861746545	0.4457047042110271	-18.13073407380129	2.300329083329685	12.38961855005921	-45.79921354032845	-3.69747387413506e-13	-38.55953785893638	-16.80553699409267	26.23978170531869	-2.945884227751769	10.21751765433973	2.748316838207291	6.875857496630706	8.158743927126256	-6.736937404417915e-13	7.511530049105834	-12.36331742882009	-13.91720310512757	3.722178292487307	4.183464306933515	-0.6883518725261468	-1.189586206384214	-8.982039149205605	-3.053407355195596	-20.59097075319963	27.22305714485514	-2.244565227033267e-11	0	0	-6.076713883515739	4.29969623277514	0.4020303853485749	11.23264749133882	-2.244565227033267e-11	0	0
0.9856000000000004	-2.092510642905567	1.552888139499746	0.9478328474780069	0.4976384884666035	-1.484322612861843	1.022750393397916	-19.86785029227656	5.033524022876211	14.35387951516734	-37.89587516319926	2.780335194039296e-13	-35.80181171923637	-1.432895014030192	14.63650861119027	0.944443130558235	6.846330530295806	1.762787020943202	2.075635765182619	13.45136816066762	-1.464775670948553e-13	7.852358145106378	29.80327523351243	-0.2033063679634779	12.66415101719834	2.099494569441291	-1.515004731325475	-0.4828006713867199	9.381724316963322	-1.61592316170019	-6.222259902243904	16.03705641479067	1.566558005049623e-12	0	0	1.76071618978316	1.340909774391481	1.660051014300348	8.692117652527791	1.566558005049623e-12	0	0
0.9951128561131144	-4.845114370724214	4.0765536775373	4.512908579593137	0.9076444928775345	-1.728740934166921	0.4949466714330809	-18.07275426503511	-0.9420092001467441	12.24744942340493	-34.11146038090163	1.420021659332645e-13	-28.13845931608096	11.07160620351317	-1.67048601078989	-19.30267723787016	11.28010703107729	4.906513261729766	11.38275193953483	11.89025798528817	-1.39089032607952e-14	8.579492095078209	-1.288846616408271	-13.31876563953647	-1.827458024749745	5.970239091955968	-3.77309769443262	-1.612730440531099	-14.69017035406615	-3.730565036669135	-31.60256845793177	47.42451830564264	6.880554626064455e-12	0	0	-4.042298981474684	6.400623299234167	-1.722051604771633	11.66446494128169	6.880554626064455e-12	0	0
1.012055884473055	-2.86495809908099	6.705214122916771	4.096368041662423	1.714483394532416	-1.693799003505113	0.8945882086052984	-15.22341837664747	-4.79477326092864	10.90964563875666	-7.456441936856551	5.683886536597782e-15	-10.9534443988456	-16.56044806250448	-1.543334851693601	-15.8750963036178	9.175078042704232	6.699576018740388	5.079689038017037	16.58500860504452	5.53362309813217e-13	9.681114535209975	15.51848053568242	-3.966159151301039	4.007097155872717	7.041967928850279	-8.28043496896635	-1.402952572195748	-27.25163013974446	-3.983013166111364	-17.48596520419079	72.59161377822646	3.295027560733159e-12	0	0	-2.693435637987476	7.907766820387797	0.7048041735143196	-5.489362983613409	3.295027560733159e-12	0	0
1.026431259413831	0.1571839658248939	6.970847852976695	-0.9282792556141997	1.86360944597733	-1.481328161231998	1.842821681699709	-8.825584768032551	-2.530156684425242	7.057968875479109	24.85909672548713	-1.170986683254018e-13	6.366354786696422	-19.79955004735763	15.64778532850294	-4.030560032073311	4.219058766149367	4.444528878775228	-2.761208202078834	11.74263976783212	-4.212665034736004e-13	10.5616452579805	-5.239839029555657	1.602857561576879	10.49264285111578	5.653710859120037	-11.0367624730392	-0.9976633370834778	-4.063410016889375	-3.069464023489915	-1.392170926289378	59.99998647223681	-3.16366204828193e-12	0	0	-3.122057857519444	5.172791446454619	3.30060622126225	-9.283272264167044	-3.16366204828193e-12	0	0
1.0304	1.118672144990624	1.409677760276996	0.6365134392511962	1.671348978845891	-1.504807610981682	1.893796932008821	-9.666282421329718	2.453122945921029	-1.948532447520613	34.91597928068491	-2.285925941939872e-13	11.3937289013535	-2.233610227545984	12.57328899147144	0.8803414981868611	3.870544374126764	1.321046223931599	-16.43152669015863	18.82587025699975	-2.16795624390223e-13	10.81260920749907	42.96316369767893	5.15581143803697	17.77116946066014	5.252528781781503	-5.146533614449767	-0.797758988755457	15.50324261140374	-1.875529578311581	-0.612280526316022	32.20508416130072	-3.931247016036584e-13	0	0	6.831402432939973	1.866694585334617	2.9141599029296	6.49958514503429	-3.931247016036584e-13	0	0
1.039912856113114	0.1225415490131664	8.465110589881512	0.9285882180221243	2.165322391232733	-1.617990224768169	2.064353051904397	-2.451272269684864	-4.889500881432189	-11.62953311343538	53.49868210822131	1.619605411586592e-13	23.52928799417548	13.65150372597063	-0.2767234193692305	-16.05041952460953	5.049831962686256	5.288354492807978	0.6944510998880995	15.5763882347545	-3.213392249990732e-13	11.43288067100439	4.646680097324822	7.200422244067004	-2.440520056730726	7.631362884473935	-14.5452831851255	-1.464121084409504	-13.61060555530403	-2.717105402950583	4.304151145056555	79.70425770618297	1.589461182092742e-12	0	0	4.512454056192523	6.729985559073209	1.90880083594307	-11.3311749001077	1.589461182092742e-12	0	0
1.056855884473055	0.3386392589825368	8.11994298232263	-0.8264663444362685	2.628465844328347	-1.609165660702834	2.547550733597114	4.895008646195127	-1.962942083070722	-36.10607237036644	81.92956789963	-3.429267783296131e-14	43.83169250844924	-9.793167139711834	-6.411523836481305	-5.63536792305174	0.8343466687237413	5.190180699323646	-18.26381906219699	11.82666118114558	2.964059487374988e-13	12.66645563863462	19.86820673450268	18.79113884078986	-0.7137769500443625	10.09146367297006	-16.15185508065582	-2.325420116868182	-13.11604973109605	-1.885002793091063	29.7695929273901	94.32363538627226	-1.851099585379789e-12	0	0	3.977249272002691	7.37974556420715	3.356854085024268	-22.79696361277691	-1.851099585379789e-12	0	0
1.071231259413831	1.063251710927312	2.412052912188028	-0.7388301886825237	2.600517798589602	-1.430447953890553	2.881235023554786	3.662491810432047	6.310562887246062	-40.24511641228064	84.51208683383005	-9.805706011061079e-14	57.78126625510957	-25.49186862212497	1.795774191934066	3.265666690206373	-1.406622305847812	-4.934158461760735	-0.3852700699764853	5.011372237944506	8.019514225349748e-14	13.82621554401295	-11.64269591813117	21.69756122843233	4.241842687748768	9.716725827137848	-10.46423973022226	-2.586234821285865	3.337322665501041	-1.326775176869516	25.08867877915735	65.01598100180246	2.614342362174125e-12	0	0	4.343010447032343	4.506289200035122	4.243677517685681	-11.5312154191297	2.614342362174125e-12	0	0
1.075200000000001	1.642445502520569	0.3411413685438345	1.631182029693191	2.37341753865696	-1.312406992187714	1.909543744444054	-3.201264335655629	7.523256593265598	-13.54812305866069	65.96344120074235	-2.840603521274664e-13	60.84054025751689	11.63341815132032	3.012397575228176	3.412191248298969	-4.072627708422511	4.480705888470635	-52.45841907260498	-3.024564231322058	-3.079337111927986e-13	14.18844767670661	-7.749999229238597	-14.01531758674809	17.87988743922769	8.079786736282646	-5.385310409321459	-1.792464706690992	14.26239054933307	-1.498883357571295	8.463941103288375	36.48218351983235	-1.165027006934696e-11	0	0	12.9191599933483	1.864674873762025	3.461744227649381	9.293241691375659	-1.165027006934696e-11	0	0
1.084712856113115	-2.348808380113119	-2.54278381105155	2.207677641764569	2.875744061300613	-1.668987865789443	2.650118887708492	2.677623329413247	10.4481856164218	-46.2059682075088	81.64090721257412	3.114256189082929e-13	66.68855925234526	30.29913183806934	-6.867030180354321	-7.037241135323166	2.749898154363745	-9.47985585193711	4.837972592113374	11.84973632480856	4.472257503619806e-13	15.05924343837878	22.41274492669748	26.28120728328017	-24.10119984405124	14.83058722203035	-4.11671647603842	-4.284775531228575	0.8201765770664267	0.211409851551652	37.5834612453129	79.37812256291069	9.989628357743812e-12	0	0	3.242442085422349	5.55058173816632	3.053018957669623	-15.81037873688915	9.989628357743812e-12	0	0
1.101655884473056	-4.491960330091517	-16.51274820274833	13.63512925352222	3.782139112387251	-1.550501415354557	1.182285009854791	-11.42443471920907	16.00512185728318	-43.30871368396729	54.37075956263231	-3.037459438726635e-13	71.09970146545999	22.03801514896605	-30.26002492451015	11.0544974467422	0.801516180311749	-19.28250487477914	-8.769181984504915	-3.128442702580612	-6.028853059565532e-13	17.10454241809313	-9.994501454275671	-1.950354413131677	22.9010757752717	18.83306970938072	16.23236692931938	-5.841283152830783	-19.0741843803376	3.181793639696999	46.79819119516229	62.42052931479168	-1.354243595278903e-11	0	0	7.951696778505302	4.961303684918963	4.329617372757787	-10.31793165105995	-1.354243595278903e-11	0	0
1.116031259413831	-0.1136313806119011	-20.55026018513418	15.93012959852635	3.941540914695802	-0.6949519856511586	0.6414681852838408	-23.32037355870172	17.57310484048522	-8.377518790980584	28.95374812565258	-8.913082522318603e-14	70.33057243206277	2.193634682884248	-15.6921179620312	18.86052786737891	-1.907420728879475	-27.78404872795365	58.11619400998102	8.691932087542815	-2.461791670450626e-13	18.71115601786182	21.21750082933355	1.078885192059527	-32.92139218601844	12.33375140195265	23.60627071689744	-4.212434635013716	-19.27967518355339	3.406051735827906	31.90940464019261	21.79816959343005	2.683886612460363e-13	0	0	12.55608695552026	2.163529029857723	4.652079225321759	2.282802224976691	2.683886612460363e-13	0	0
1.12	1.947986350682928	-20.23759053806853	15.66377056340298	3.923614955430295	-0.3682804587425836	0.6175833813381338	-26.5936088392641	17.42993400114921	5.027229938810295	21.57928752676103	-7.209290671705186e-14	70.28526163967288	-5.024351501188121	-5.985373265710056	19.69736397137614	-2.810728605465171	-30.16038570829306	86.26067986029074	15.86714811135407	-2.186308677190238e-13	18.75665629985756	38.91324301228045	4.344220610859541	-62.65160978380825	9.129663682324303	23.87796569958896	-3.312540062424815	-19.26250602423053	3.384498896232126	24.56139721679232	7.026596656361548	1.14901271497912e-12	0	0	13.92199477606794	1.104971022087459	4.612406509514011	6.844781319083636	1.14901271497912e-12	0	0
