DataType=double
version=3
OpenSimVersion=4.5
endheader
time	pelvis_tilt	pelvis_list	pelvis_rotation	pelvis_tx	pelvis_ty	pelvis_tz	hip_flexion_r	hip_adduction_r	hip_rotation_r	knee_angle_r	knee_adduction_r	knee_angle_r_beta	ankle_angle_r	subtalar_angle_r	mtp_angle_r	hip_flexion_l	hip_adduction_l	hip_rotation_l	knee_angle_l	knee_adduction_l	knee_angle_l_beta	ankle_angle_l	subtalar_angle_l	mtp_angle_l	lumbar_extension	lumbar_bending	lumbar_rotation	arm_flex_r	arm_add_r	arm_rot_r	elbow_flex_r	pro_sup_r	wrist_flex_r	wrist_dev_r	arm_flex_l	arm_add_l	arm_rot_l	elbow_flex_l	pro_sup_l	wrist_flex_l	wrist_dev_l
0	-0.09571668876163771	0.0714561648249568	0.01869863594668886	1.057384485546998	0.9457940414593091	0.4337677646878833	0.6160487760412712	-0.2329212406332372	0.1234095798249981	0.3654332935627497	0.03879643001440361	0.3484251164524865	-0.06219124896358685	-0.3762745512627201	-0.04041816517861153	-0.03602689817056309	0.05690446362784057	-0.08614562816426345	0.1780867754864751	0.09396746454545897	0.1563783269951612	0.2653272024843679	-0.06646909617380931	-0.04204531269565541	-0.2001808975721476	-0.02579020032830696	0.07275378442969203	-0.2062347236617598	-0.173839504632739	-0.476121122166444	0.2291163786669274	1.570796326969429	0	0	0.4986141777221121	-0.338142012208647	-0.0514298926674718	1.4168101613103	1.570796326969429	0	0
0.009512856113114032	-0.09929198599791403	0.07061724895852528	0.01978716782528342	1.059013126521797	0.9437449317747086	0.4356903295028435	0.6159866823707904	-0.2282568650651207	0.1084514404272253	0.3688668762988676	0.03879643001440362	0.3352255525811833	-0.06011729420917564	-0.3800478848399023	-0.04436384481252563	-0.04002487295275331	0.0531545896491073	-0.08475295690983084	0.1844884222363431	0.093967464545459	0.1608688073584537	0.2735276897116131	-0.06547259895637805	-0.04051225985309501	-0.192375088168764	-0.02807220994293536	0.06795815704915831	-0.2244708385835603	-0.1734476223196393	-0.4712924483189397	0.2393880287942342	1.570796326969429	0	0	0.5175102428250058	-0.3367183089436742	-0.05400157819040179	1.446017849186294	1.570796326969429	0	0
0.02645588447305514	-0.1050721426632633	0.06624580745311923	0.02264493486764196	1.062389853014829	0.9402404347419531	0.4393206930904235	0.6137023584418406	-0.2171373841559699	0.07298182306918394	0.3872090494113514	0.03879643001440364	0.3279258688304888	-0.04625447613667549	-0.3911914904544415	-0.05236462093710281	-0.0447127726837237	0.04389351567637439	-0.07676709561016869	0.2015786603223663	0.09396746454545904	0.1763614874309316	0.2871878281258849	-0.07542217385059491	-0.03206504596931508	-0.1779564595960001	-0.02861806455248044	0.05833366590330058	-0.2526005690286787	-0.172753175804589	-0.4551637782286697	0.2621945893233477	1.570796326969429	0	0	0.544691449469305	-0.3316100430487555	-0.05901311284086361	1.490614143051055	1.570796326969429	0	0
0.04083125941383081	-0.1085295870621947	0.05981781428096611	0.02761231807275093	1.066037051188852	0.9374260320625537	0.4423813353667252	0.6069772503189821	-0.2068425813603412	0.0427592616541443	0.4085658149020861	0.03879643001440364	0.3361017332090348	-0.03756029682720688	-0.407426642838848	-0.05921715932739121	-0.04813726214659081	0.03292858011689148	-0.06601244406554149	0.2218338982382312	0.09396746454545907	0.1983482882394516	0.3014653198463897	-0.08654221320513364	-0.03261790572544133	-0.1659639155650034	-0.02527280569830198	0.0496222654972323	-0.2833065922901662	-0.1719527101732062	-0.4366848387062604	0.2761715294913846	1.57079632696943	0	0	0.5591492634006436	-0.325270869189949	-0.06415005535175866	1.525717765946263	1.57079632696943	0	0
0.04479999999999995	-0.109181391551027	0.05789035585907296	0.02948124506081028	1.06717315862065	0.9366659686209251	0.4431956884125741	0.6041942400466094	-0.2043817898234368	0.03664868870865828	0.4140351662299406	0.03879643001440364	0.3403153175072408	-0.0397446086667656	-0.4120227422380753	-0.06077336756376791	-0.04916831804189015	0.0298586259179419	-0.06314887143737397	0.2277490805131555	0.09396746454545907	0.2060214459245196	0.3030547588664204	-0.09103054829085505	-0.03467233379852091	-0.1628190264546993	-0.02405119103218484	0.04726328549875403	-0.2937889770192839	-0.1716669730697265	-0.4318338573672604	0.2776573496904484	1.570796326969431	0	0	0.5622163189996306	-0.3235293056746499	-0.06568357471814994	1.536273225924038	1.570796326969431	0	0
0.05431285611311398	-0.110709048013973	0.05282363397575342	0.03407107002371605	1.069928112726304	0.9348929586216445	0.4451986425974271	0.5962167122409219	-0.1982427007789341	0.02906507035591914	0.4226594483545477	0.03879643001440364	0.3532275253426	-0.04131009672595296	-0.4213324570173845	-0.06439191874791346	-0.05047525049683954	0.02162205956195731	-0.05449961915869374	0.2447443534838353	0.09396746454545908	0.2274597179529609	0.3104074896208948	-0.1006571017447789	-0.03765730920401652	-0.1552995013690782	-0.02059042929385119	0.04139959835159798	-0.3168643955808502	-0.1709649729012679	-0.4196863541856046	0.2815459373494692	1.570796326969431	0	0	0.5687721716949903	-0.3190330434250154	-0.06936884088602449	1.560857718074724	1.570796326969431	0	0
0.07125588447305514	-0.1129364623699597	0.04225798235291546	0.04146726059861922	1.07457549585541	0.932232265707005	0.449034056205057	0.5822881514727356	-0.1851365331725259	0.02348363006848464	0.4375439332587083	0.03879643001440362	0.3833153567823612	-0.02428367525765786	-0.4337397097506543	-0.07021564145176626	-0.0481746556592601	0.0052699389088805	-0.04048506576289167	0.2834545563294578	0.09396746454545898	0.2769414838037666	0.3185564417513485	-0.122198760020291	-0.04897760282229768	-0.1433071074066007	-0.01257653753894694	0.030102226625887	-0.3439688833826664	-0.1691042787234964	-0.4000399631750861	0.2825267153090862	1.570796326969429	0	0	0.5741875833000256	-0.3101969918379547	-0.07656875142871347	1.601549311254511	1.570796326969429	0	0
0.08563125941383082	-0.1145982323778718	0.03198744233509561	0.04537457201697197	1.077835536073032	0.9307779918974228	0.4527507918367566	0.5760237320892773	-0.1703425500298019	0.02052732854266225	0.4598646671528177	0.03879643001440364	0.412026053934314	0.006298998042387413	-0.4441849302920832	-0.07432968728121908	-0.03978054135389664	-0.01018608545530733	-0.03199448273584644	0.3271633600325412	0.09396746454545904	0.3308064363104889	0.3208732398470223	-0.1439969972030173	-0.06528166949585444	-0.134958312533008	-0.004624417801913042	0.01972576712018436	-0.3464303158174473	-0.1669908266591938	-0.387645524805556	0.2777840117795281	1.570796326969429	0	0	0.5700033615493338	-0.3018268706085238	-0.0832585619245543	1.629477544004478	1.570796326969429	0	0
0.08960000000000001	-0.1151050474720634	0.02909246089023094	0.04605278087241119	1.078619615125477	0.9305195297690739	0.4538580595656871	0.5753856910396355	-0.1657757390957211	0.02096664974345355	0.4671430855679405	0.03879643001440364	0.4199149394272091	0.0151065489971061	-0.4476328567409736	-0.07522764634069974	-0.03633090672168293	-0.01461977531188909	-0.03079684440573421	0.3408757296702805	0.09396746454545905	0.3476083824678753	0.3200151977820779	-0.1502020037912198	-0.06978670240719628	-0.1328166743662106	-0.002503795895077363	0.01685191669703573	-0.344493909574931	-0.1664214828716732	-0.3850104449463756	0.276148781695309	1.570796326969429	0	0	0.5676911246951988	-0.2994579951459925	-0.08508255141354956	1.636112198704236	1.570796326969429	0	0
0.0991128561131141	-0.1162309064731882	0.02199634209363189	0.0476189591216905	1.080461665527524	0.9300848833196014	0.4565691247952994	0.5735447864441129	-0.1545693525326953	0.02079012290342783	0.484049369379123	0.03879643001440362	0.4380457699112437	0.03392118863711906	-0.4562727479194306	-0.0771819630007787	-0.02663297669618558	-0.02555251959871634	-0.0280227073626497	0.3763490719745858	0.09396746454545904	0.3911827230090199	0.3166122666242818	-0.1657447691824122	-0.08070060408408618	-0.1277660208696552	0.00259733767333703	0.01008544444039158	-0.3382677952815699	-0.1650634068127583	-0.3790688133265213	0.2710454574050646	1.57079632696943	0	0	0.5605204653050738	-0.2937271897784729	-0.08960202739487981	1.651544013723454	1.57079632696943	0	0
0.1160558844730551	-0.1180364493675939	0.008836980235204066	0.04936591708518141	1.083673565398322	0.9299545533962044	0.4616000673216077	0.5659349516629801	-0.1333069345598629	0.020422356593375	0.5051733114532104	0.03879643001440364	0.4653720532456865	0.06138667557800417	-0.4709377732191049	-0.08073182846204441	-0.004502648429024092	-0.04593787743689225	-0.02505983135124549	0.4476914646211789	0.09396746454545907	0.4794281241452035	0.3021267797508511	-0.1969080199619834	-0.1005188315222414	-0.1184718203289846	0.01175243593478448	-0.0009479644248812091	-0.3174648163233944	-0.1630222207840763	-0.3722125615819981	0.2585089337707852	1.57079632696943	0	0	0.541625662205186	-0.2832499708889067	-0.09806594926252485	1.674877283729751	1.57079632696943	0	0
0.1304312594138309	-0.1191035580922211	-0.002973073231949418	0.05000615947572474	1.086450330762853	0.930378480277664	0.4659130660797015	0.55160687782261	-0.1143498884821827	0.01922824368765931	0.5082470221035482	0.03879643001440364	0.4814445210910061	0.07442587972777628	-0.4817375257395603	-0.08461850219266548	0.01838633156769276	-0.06407035595194746	-0.02335116607910079	0.515536586402022	0.09396746454545905	0.563034013756934	0.282646636052672	-0.2276843650119999	-0.1135190220819089	-0.110267052108009	0.02014890361418506	-0.008625221177791784	-0.2926492677373267	-0.161943848686337	-0.3698311886188653	0.2459482579388894	1.57079632696943	0	0	0.5199964214292896	-0.2741748918577629	-0.1053943044156926	1.689080373588419	1.57079632696943	0	0
0.1344	-0.1192973049454698	-0.006323727284583207	0.05019451086167651	1.08722441567145	0.9305568884542718	0.4670811536192361	0.5464186320879503	-0.1091251959403662	0.01860060835946685	0.5069201783427187	0.03879643001440364	0.4845776293842117	0.07673401928593837	-0.4842106173911302	-0.08590310629170936	0.0252507971097462	-0.0692197947559824	-0.02298774650847955	0.5351137605397356	0.09396746454545905	0.5871566515903593	0.2760338176959756	-0.2367099110098871	-0.1153185252970566	-0.1080199695546887	0.02261339247696438	-0.01042839858098212	-0.2859087062648521	-0.1617845652628686	-0.3692257674550427	0.2428752928929373	1.57079632696943	0	0	0.513488606515121	-0.2716900694151102	-0.1073218050987416	1.692095990858789	1.57079632696943	0	0
0.1439128561131141	-0.1197230952060557	-0.01458416279042516	0.05050246198504057	1.088984088847133	0.9310724472058981	0.469855037370411	0.5332356577271103	-0.09635072538798138	0.01713082388533382	0.5021740891434459	0.03879643001440363	0.489776957653244	0.08311419367183639	-0.4892505971793505	-0.08960836407174426	0.0429358350259722	-0.08178927554811959	-0.0220196053310713	0.5840561988061587	0.09396746454545903	0.6461754949386566	0.2605404659675159	-0.2593824475803793	-0.1170512960554346	-0.1027383490725834	0.02883967697690538	-0.01444546108377247	-0.2679250983534826	-0.1615023552071905	-0.3674875787889225	0.2361367132844389	1.570796326969429	0	0	0.4969044994724982	-0.2657130813409232	-0.1118922264764313	1.697888532227521	1.570796326969429	0	0
0.1608558844730551	-0.1196851262300078	-0.03066940570132618	0.05115279241474165	1.091758881492806	0.9322718792515203	0.4745871452613538	0.5071165450366323	-0.07204756428966236	0.0154473007674605	0.489290795252196	0.03879643001440365	0.4915658001752486	0.09693123791637882	-0.4974227872069715	-0.1006612668795497	0.07874838377936991	-0.1056201906799921	-0.01795365303502714	0.6780904650290287	0.0939674645454591	0.7527490485008804	0.2285271510295583	-0.3032111513734841	-0.104055999982769	-0.09461774983309815	0.04198729653633654	-0.01982970839033033	-0.2365505334562343	-0.1621726740317956	-0.3621488279588579	0.2309662054114091	1.57079632696943	0	0	0.464606963764525	-0.2547053458201553	-0.1188495220512934	1.697828456412664	1.57079632696943	0	0
0.1752312594138309	-0.1183995201091334	-0.04536323687593712	0.05190730873183658	1.093674379918876	0.9334886079356848	0.4783564153774595	0.4829504885453769	-0.0501759113905579	0.01519922674765273	0.4752001820608401	0.03879643001440365	0.4870073248711306	0.1062319786707516	-0.5056355544537121	-0.1136617522449987	0.1119169140900869	-0.1274502382650542	-0.01301862073629209	0.7633773330681114	0.09396746454545901	0.8407928562247766	0.2130473702776742	-0.3367937329772503	-0.08479992369180217	-0.0898106476531472	0.05478941659421365	-0.02262140852251762	-0.2123343846370581	-0.1644282433961591	-0.3551060994494635	0.2372089212561382	1.570796326969428	0	0	0.4347759239370046	-0.2447435260615133	-0.1227288396695617	1.68395388307284	1.570796326969428	0	0
0.1792	-0.1178694984430463	-0.04934353671218701	0.05213536654198463	1.094144710593999	0.9338295958440451	0.4793619364356863	0.4760837255996407	-0.04424245306366335	0.01519615790881382	0.4709430447578886	0.03879643001440365	0.485015409086006	0.10758520779486	-0.5080903106946623	-0.1171285530885368	0.1206417448581611	-0.1336581658896926	-0.01246467488377886	0.7862352262791877	0.093967464545459	0.8641866533942432	0.2146136239179482	-0.3436311024598489	-0.08106620037374407	-0.08876152569140609	0.05824130384917518	-0.02326882573934626	-0.2057500562336397	-0.1653132867038783	-0.3528531278872432	0.2408844596980545	1.570796326969428	0	0	0.4264815070615602	-0.2418896813565851	-0.1234001717120287	1.678298609625091	1.570796326969428	0	0
0.1887128561131141	-0.1164687688876342	-0.05883863274022176	0.05285335498286219	1.09513282239322	0.9346694968608823	0.4816897226740792	0.4597262213034918	-0.03020990272381212	0.01524883602369867	0.4608387869638647	0.03879643001440364	0.4793092799431573	0.1113842243233114	-0.5135031130392845	-0.1257995942475389	0.1415003801099956	-0.1487494463744308	-0.01099674037569586	0.8381767214295213	0.09396746454545898	0.9179741706970704	0.2104261441522164	-0.3569377945288237	-0.06542331156427238	-0.08668393598005306	0.066546212460457	-0.02461302348703779	-0.1900215777697326	-0.1677208886506069	-0.3468123802340434	0.2513295408008012	1.570796326969428	0	0	0.4060742991299873	-0.2349387960974382	-0.124588771302592	1.662434252394092	1.570796326969428	0	0
0.2056558844730552	-0.1129850344711684	-0.07450070022933046	0.05510482460498504	1.096351046676078	0.9363268544069289	0.4854327668975645	0.4303979491634344	-0.007306563314284281	0.01509430667258949	0.4429562002999491	0.03879643001440364	0.467122312274925	0.1162859264067592	-0.522102473611475	-0.1406300108084354	0.1770077278837503	-0.1741294919640939	-0.007697718088653396	0.9148492848669474	0.09396746454545903	1.003582163257851	0.1944171675491029	-0.3675006720234409	-0.02157432063698989	-0.08527765381472711	0.08035392367285367	-0.02659780826408641	-0.1625685649636068	-0.1739008699684546	-0.3337932821462353	0.2817604098114416	1.570796326969429	0	0	0.3712209008584589	-0.2215887416581035	-0.1239030635150699	1.621714460889187	1.570796326969429	0	0
0.2200312594138309	-0.1089806379199772	-0.08572629296296219	0.05837330115338746	1.09674372085746	0.937909030804834	0.4880973711129006	0.4054591287523002	0.008806348059578986	0.01389487696167666	0.4282093586813978	0.0387964300144036	0.4560561479351946	0.116910426946978	-0.5281359248570792	-0.1503417868139725	0.2069880205537247	-0.1919933356960272	-0.00256689169009372	0.9657601666278167	0.09396746454545903	1.063668698373304	0.1808342803910775	-0.3721924031382892	0.02288371341139251	-0.0868444323823344	0.09039418949141739	-0.02796087461593263	-0.1400203252361933	-0.1811747143207947	-0.3213183269932758	0.318899440382583	1.570796326969429	0	0	0.3435593295485744	-0.2092677564344606	-0.1203330275683642	1.573285234647947	1.570796326969429	0	0
0.224	-0.1078157198108673	-0.08842808860897837	0.05948001875528584	1.096751477338719	0.9383584900344315	0.4887531910204761	0.3987219270430052	0.01264927302691886	0.01334677479921194	0.4243253515685241	0.0387964300144036	0.4530077597625574	0.1167099721846593	-0.5295158985603396	-0.1521658869024433	0.2154800431650579	-0.1962173125737238	-0.000966097758273117	0.9781746091912118	0.09396746454545903	1.078003530531132	0.1789204559886907	-0.3742890765800612	0.03379391243089228	-0.08761015038285692	0.09282287606452568	-0.02830578762888583	-0.1337164303691587	-0.1833666948881759	-0.317875161599928	0.3298246702019103	1.570796326969429	0	0	0.3359129681144537	-0.2058128821975559	-0.1190635835942973	1.558458271592746	1.570796326969429	0	0
0.2335128561131141	-0.1049095175980262	-0.09453885806310924	0.0623821154857753	1.096612872895476	0.9394635990332344	0.4901964664781267	0.3827767763767261	0.02127520957899032	0.0119709620653131	0.4153238012411758	0.03879643001440358	0.4458022787441963	0.1165412675846967	-0.5323626924098624	-0.1561729479415785	0.2359828333182084	-0.2055839749388098	0.002972580300129452	1.004086753914489	0.09396746454545903	1.108215278784868	0.1763586233969761	-0.3785880534424156	0.06041837654605087	-0.089988911425966	0.09846707734286676	-0.02905182941260172	-0.1182770371215065	-0.1888968403795646	-0.3091468272421551	0.3571968611388281	1.570796326969429	0	0	0.3174092603212116	-0.197437993126886	-0.115580087938617	1.52072325484057	1.570796326969429	0	0
0.2504558844730551	-0.09917638825870699	-0.1027867188224339	0.06922592501959188	1.095782983982228	0.941491778862095	0.4922374358501671	0.3547396127465317	0.03286707283898388	0.008606924288381168	0.4002605004156741	0.03879643001440362	0.4333847925262553	0.1165463379437537	-0.5358604053530869	-0.1595566255855962	0.2733310327069747	-0.2174468630469759	0.01058701996494117	1.039014677451582	0.09396746454545901	1.147292291014472	0.180729940677519	-0.3916070601477838	0.09639145918995703	-0.09644050813370751	0.1062783560439894	-0.0306167710488068	-0.0904035827610184	-0.2001135830305625	-0.2941286623419818	0.4088990307269812	1.570796326969429	0	0	0.2863907029035944	-0.1819662523624632	-0.1074075312734012	1.443876141969069	1.570796326969429	0	0
0.2648312594138309	-0.09385120754827826	-0.1067697899691882	0.07687592783625641	1.094544025919874	0.9432333390218084	0.4934739050257781	0.3310848362839666	0.03868167565389571	0.004924048103851053	0.3879680606361593	0.03879643001440362	0.4230557844559663	0.116296267690448	-0.5380317997180775	-0.1579980506685124	0.3057788870152843	-0.2224368994831607	0.01716702175298124	1.057850010411533	0.09396746454545896	1.165782531971648	0.1869716508074127	-0.4035433756098974	0.1105346248394496	-0.1039526581022054	0.1100629652285579	-0.03239441598163233	-0.06698849949801972	-0.2109971158394931	-0.283623146861298	0.4543095056413603	1.570796326969429	0	0	0.26310255336702	-0.168366011223576	-0.09873171132792741	1.368943118696845	1.570796326969429	0	0
0.2688	-0.09240740248485958	-0.1075408052678635	0.07914982792197248	1.094141555287357	0.9437074573558687	0.4937635766572436	0.3246155779219588	0.03989860779231014	0.003905247630165642	0.384546565201191	0.03879643001440362	0.420177281475399	0.1162817416614794	-0.538619521257911	-0.157014905598487	0.3147700653740551	-0.2233630393671587	0.01865196044291055	1.061144732032844	0.09396746454545897	1.168576321574191	0.1876391384755565	-0.4052504321771218	0.112616984171024	-0.1061727127801472	0.1107911214624049	-0.03292554056182433	-0.06040804310417391	-0.214088462694915	-0.2811272595373406	0.4666438675118288	1.570796326969428	0	0	0.2569149318379879	-0.1646349259539222	-0.09626049456614363	1.347433130881301	1.570796326969428	0	0
0.2783128561131141	-0.08892405265812803	-0.1089462063197305	0.08482131736966732	1.093067981678912	0.944830309318978	0.494366458480565	0.3091605082989705	0.04227350574436484	0.001481946162948333	0.3763801976863946	0.03879643001440362	0.4131188954103553	0.1169214380349629	-0.5396706939973217	-0.1541361238224574	0.3362735487469651	-0.2248634609886099	0.02176085343269864	1.065958108963351	0.09396746454545903	1.171311945166582	0.1908507769371591	-0.4078680107453488	0.1162212691868513	-0.1118540082134621	0.1121624884233202	-0.03425120119704422	-0.04433076341506992	-0.2216849699429385	-0.2751788381729888	0.4965287837137387	1.570796326969429	0	0	0.242362128091204	-0.1556757255247433	-0.09006479181533325	1.294347804207817	1.570796326969429	0	0
0.2952558844730552	-0.08285757124382054	-0.1095459642486082	0.09582141769648726	1.090846267605	0.9467485051935333	0.495167533079341	0.2815826707565383	0.04427531701280296	-0.003004302323351429	0.3613021562386533	0.03879643001440364	0.3995195937683619	0.1194595698045268	-0.540594275162477	-0.1469456386709566	0.3735197834617902	-0.2248091626718156	0.0249605121794621	1.062431544939658	0.09396746454545901	1.16273899049728	0.1989175991789194	-0.40852284113117	0.1136638135569192	-0.1227267873632492	0.1126387615374574	-0.03701965488772038	-0.01469003404388688	-0.2357485044272433	-0.2670027796799319	0.5500610211159019	1.570796326969429	0	0	0.2196731982053689	-0.1399726420218886	-0.07875803750308621	1.194145957587169	1.570796326969429	0	0
0.3096312594138309	-0.07811463484712214	-0.1082838046885351	0.1058099465172516	1.088734447214547	0.9482614754657863	0.4956607193659049	0.2580973683793172	0.04402499986860486	-0.006955935851744005	0.3474989424383637	0.03879643001440364	0.3863096194200766	0.1223079167598701	-0.5406572722102434	-0.1392161648279276	0.4035234240257474	-0.2224345903198426	0.02524887910807164	1.047165860873286	0.0939674645454591	1.142369676288503	0.2037966476493753	-0.4039663125507447	0.1049345394225684	-0.1321899754149264	0.1109422427698088	-0.03971176065295631	0.01115351228452915	-0.2479674839795862	-0.2634788293288585	0.5961599499738506	1.570796326969431	0	0	0.2041577758441709	-0.1272443968279372	-0.06958932422954292	1.103962200117723	1.570796326969431	0	0
0.3136000000000001	-0.07693213931733589	-0.1078223623652824	0.1085318045089845	1.088134214128192	0.9486562763346039	0.4957887274017675	0.2516271047523432	0.04387518457038564	-0.007985915750950173	0.3434593729510787	0.03879643001440363	0.3823091029723429	0.1232679116021732	-0.5405454448768211	-0.1370003779568898	0.4114986477160429	-0.2217065404223704	0.02488764491703375	1.041011581752903	0.0939674645454591	1.134663178843068	0.2035701533936033	-0.4010134989484709	0.1031414467358128	-0.1347219352206128	0.1102993508290378	-0.04044089954604108	0.01847953281671685	-0.2512996685657274	-0.2628435606986163	0.6091092301792504	1.570796326969431	0	0	0.2001344269068368	-0.1238828478743903	-0.06723356364316846	1.078768582679333	1.570796326969431	0	0
0.3231128561131141	-0.07421034202386674	-0.1064937508594268	0.1150323553638199	1.086659996488011	0.9495672101718178	0.4960693790452859	0.2360663661203085	0.04331572699016548	-0.01039157465955218	0.3334990966926641	0.0387964300144036	0.3719993034195553	0.1261787458627292	-0.5398307556956931	-0.1314916860668858	0.4298328031483132	-0.2196583099312881	0.02349706744063326	1.022868724706117	0.09396746454545903	1.112542646389564	0.2030527016963719	-0.3916819564809469	0.09855412379365162	-0.1407911570277151	0.1084344917348802	-0.04221714956887905	0.0366418691876956	-0.2593227839512958	-0.2615246133741791	0.6408218732490656	1.57079632696943	0	0	0.191127577396452	-0.1159717458487649	-0.0616316714568452	1.017774472794211	1.57079632696943	0	0
0.3400558844730551	-0.07019060949521576	-0.1037912846659314	0.1259977356205677	1.084004777764632	0.9510309787379552	0.4965368551141511	0.2083023473464429	0.04210409746233151	-0.01450434853942353	0.3140760095103305	0.0387964300144036	0.3508486545037596	0.131455429930148	-0.5371830766995334	-0.1221661113035596	0.4593999895199939	-0.2154106509642664	0.01906403020068992	0.9782702536868786	0.09396746454545903	1.060437309502603	0.2030651358852094	-0.3714061522646013	0.09065896523761006	-0.1508845128014171	0.1044070116058581	-0.04509238752190503	0.07031389371859102	-0.2731126203774851	-0.2610109142072266	0.7011457356764133	1.570796326969429	0	0	0.1765764058038395	-0.1031747965684957	-0.05328349034684939	0.9074796522986603	1.570796326969429	0	0
0.3544312594138309	-0.06775954763443334	-0.1016543958371283	0.1343785097775426	1.081801500943036	0.9521058486736951	0.4969279844705951	0.1847999095637295	0.0413423043238903	-0.01794957723505998	0.2957837513861667	0.03879643001440365	0.3299271837989142	0.1351942989883972	-0.5334213321826661	-0.115444604791419	0.4812341299851735	-0.2114977571311563	0.01438806007568896	0.9285695536393211	0.09396746454545904	1.003629078277924	0.1991278050168642	-0.3532397098974156	0.08513189439136311	-0.1584169400546876	0.1007763371745297	-0.04691226077282747	0.09947359004658633	-0.2838900442718781	-0.2627182803882759	0.7568783110545252	1.570796326969429	0	0	0.1642828836574647	-0.09400645880524823	-0.04857788694787259	0.8133901758950098	1.570796326969429	0	0
0.3584000000000001	-0.06721754873914632	-0.1011854311377547	0.136520165076168	1.081209927659718	0.9523796918277809	0.497035088916376	0.1783165458529476	0.04127368893790945	-0.01889181039939927	0.2905066360586494	0.03879643001440364	0.3236760643051148	0.1363042735781976	-0.5320425291872038	-0.1137731021171428	0.4867273610732193	-0.210454107320402	0.0131931252008918	0.9130925416263178	0.09396746454545904	0.9859666055758773	0.1955922235365997	-0.3476807548901434	0.0843888026028673	-0.1603480429755815	0.09984874611460907	-0.04728401669545285	0.1076476970232598	-0.2867023219541979	-0.2632910658251301	0.7728927204372357	1.570796326969429	0	0	0.1605775038275823	-0.09171313881911392	-0.04759171692213075	0.7877529858288497	1.570796326969429	0	0
0.3679128561131141	-0.06606174947555229	-0.1000686472905597	0.1413988811551251	1.079808709700292	0.9529999159377013	0.4972812933974964	0.162738897481925	0.04116067746816507	-0.02098691322900165	0.2775635009467287	0.03879643001440364	0.3079120413827463	0.1392035278407923	-0.5283224960886319	-0.1100630529287678	0.4987217261051775	-0.207694278608486	0.01074674823540859	0.8729602931253069	0.09396746454545905	0.9403100741581607	0.186659479315734	-0.3320078997590353	0.08282418481833859	-0.164861541103381	0.0975239532563888	-0.04804488625448164	0.1279012135196322	-0.2932907564032857	-0.2646180990709938	0.8123425101526391	1.570796326969429	0	0	0.1515740844990717	-0.08656348544299121	-0.04555087129385524	0.7265151353401357	1.570796326969429	0	0
0.3848558844730551	-0.06450444856304655	-0.09906241700092179	0.1488773517412471	1.077499635314417	0.9539601478130746	0.4977267836052843	0.1348063112704533	0.04217854423767123	-0.02420067945403501	0.2531605883368348	0.03879643001440364	0.2775176601602136	0.1433491039535056	-0.520549924444739	-0.1066689013100209	0.515928441374938	-0.203029708621417	0.008547741486849746	0.7912098971797599	0.09396746454545903	0.8484775010881738	0.1662363673253968	-0.3016637515539673	0.07868940030155989	-0.1723030573000535	0.09407560327222608	-0.04832470463725899	0.1636559496716117	-0.303616971461117	-0.2674279386181136	0.8866281761178717	1.570796326969428	0	0	0.1318637677534468	-0.07943038229417455	-0.04425126165414122	0.6213345017056648	1.570796326969428	0	0
0.3992312594138309	-0.06356319708129923	-0.09942730810730564	0.1539855254380209	1.075793652925249	0.9546066808236195	0.4981124460604619	0.1110042358629039	0.04443396375892469	-0.02667569265577169	0.2316212758844558	0.03879643001440364	0.2502072575514788	0.1456823730380578	-0.5124539537744733	-0.107858944761573	0.5264275625311435	-0.1995909467058751	0.01041554653974384	0.7129486320927197	0.09396746454545904	0.762212092564987	0.1377417982325747	-0.276652577261073	0.07281459920081425	-0.1780915339702291	0.0920729436698431	-0.04720751921632729	0.1922079893472652	-0.3105660115847743	-0.2703167298253881	0.9525535418294373	1.570796326969429	0	0	0.109913879129405	-0.07573329826418995	-0.0456850715718476	0.5384045117386772	1.570796326969429	0	0
0.4032	-0.06332826947525472	-0.09967198082176923	0.155244473281099	1.075358843069637	0.9547553041539774	0.4982091597120784	0.1044454667366837	0.04519268528405429	-0.02740270439606302	0.2257226395718637	0.03879643001440362	0.2425657756580658	0.1463981167010364	-0.5098063505810205	-0.108595331888182	0.5286792431821862	-0.198655569901809	0.01181350959693717	0.6901909287489147	0.09396746454545904	0.737464653864881	0.126107153825297	-0.2701287296367146	0.07130093061805401	-0.1796433651775727	0.09162440392541232	-0.04672178537831689	0.2000015572072402	-0.3122599331203783	-0.2709817256169267	0.9708406340112319	1.570796326969429	0	0	0.1032275176927003	-0.0749758636264449	-0.04627295071529355	0.5166929351069143	1.570796326969429	0	0
0.4127128561131141	-0.06281327891093713	-0.1004068969234017	0.1579036653052966	1.074367352944076	0.9550372147875342	0.498415245377565	0.08886004413449136	0.04717658702814362	-0.02893837458869028	0.2117878995209953	0.03879643001440361	0.2243070517100583	0.1479048884774317	-0.5033225427926391	-0.1109920031511624	0.5330031661254117	-0.1964171376840862	0.01665173120788022	0.6346009590265111	0.09396746454545905	0.6772355510101513	0.09747508986121808	-0.253318233348578	0.06727232177218979	-0.1832769304053564	0.09068289395543429	-0.04532606531553922	0.2192575562704811	-0.3160468258303849	-0.2721983217913783	1.015208637561667	1.570796326969429	0	0	0.08670087158475118	-0.07353695037589503	-0.04796238392822852	0.4661520662879662	1.570796326969429	0	0
0.4296558844730551	-0.06209627459391974	-0.1027518413603166	0.161181684149746	1.072839244023517	0.9552180412115315	0.4986972703035072	0.06184409365157228	0.05176533902423969	-0.0307902135322973	0.1881933784522056	0.03879643001440364	0.1929725391427548	0.1504860017839674	-0.4909267588075051	-0.1189801877767537	0.5376886276294897	-0.1934679307647741	0.03029514649756904	0.5348421006403595	0.093967464545459	0.5700195389028211	0.04474404596795338	-0.2234343646203684	0.0553353158711021	-0.1891583775119152	0.09011598133427209	-0.04156044457316037	0.2546225887968446	-0.3211225346256608	-0.2733120256808703	1.094448413487478	1.57079632696943	0	0	0.05388759621288336	-0.07283233510459475	-0.052044027201643	0.3879885465840203	1.57079632696943	0	0
0.4440312594138309	-0.06188088665836965	-0.1056051019703397	0.1625056789687613	1.071819434580739	0.9549721635961071	0.4987831657314912	0.03996314463804662	0.05634127880600359	-0.03152743278117767	0.1697988068069884	0.03879643001440363	0.1689269967082804	0.152781269014527	-0.4795193113178403	-0.1291804914556927	0.5398611282387953	-0.1921400684627119	0.04580052980451728	0.4540648837672248	0.09396746454545905	0.4838277634280166	0.001919953614019365	-0.2009194177677996	0.04125330813549997	-0.1931066744378933	0.0907874517212886	-0.03706448865209291	0.2855397793095922	-0.3236327699797288	-0.2735623786844797	1.160839539936139	1.57079632696943	0	0	0.02231865972677638	-0.0741217798615815	-0.05611987575190098	0.3367427236365489	1.57079632696943	0	0
0.448	-0.06190987306411354	-0.1063819614369678	0.162697276091302	1.071583433727047	0.9548329897388771	0.4987570429998274	0.03409216026025536	0.05749743252212286	-0.0317155318697607	0.1650483570887559	0.03879643001440363	0.162880112389575	0.1537129489047456	-0.4760332042270362	-0.1320893037314307	0.5403228398422473	-0.1917917391571523	0.05041397047615714	0.4330641194362707	0.09396746454545905	0.4614741228091199	-0.009642589702405557	-0.1955981220555192	0.03784457182761036	-0.1939657801775675	0.09105842980597106	-0.03571726623963952	0.2944241097890125	-0.3241700852866126	-0.2734641114767558	1.178987378311901	1.57079632696943	0	0	0.01331908571358213	-0.07464404384961418	-0.05713682132772199	0.3245225297027972	1.57079632696943	0	0
0.457512856113114	-0.06205520135645796	-0.1081352830598171	0.1628357289177686	1.071115866187598	0.9543764514906137	0.4986156615530813	0.02022296142693497	0.06010449623284048	-0.03153817144354137	0.1541802206268458	0.03879643001440361	0.1496515960188401	0.1565245136546741	-0.4679763214157145	-0.1395509999370493	0.5412482183024436	-0.1910212067831748	0.06156372376286537	0.3858270141204478	0.09396746454545903	0.4113097752077458	-0.03432210113222042	-0.1825193463389129	0.02946091683300844	-0.1956951978792517	0.09174908372692323	-0.03235718096619045	0.3162168689804485	-0.3252455119629682	-0.2729703063008396	1.222637932493756	1.570796326969429	0	0	-0.008794073789040305	-0.07616506058589895	-0.05950644399384324	0.2976953387662842	1.570796326969429	0	0
0.4744558844730551	-0.06316271516235823	-0.1105362199727298	0.1621397533634402	1.070687687884764	0.9530931804940612	0.4980136167183906	-0.002990039274121281	0.06349708561913364	-0.02981105215842364	0.1372329835407664	0.03879643001440362	0.1311917636176944	0.1629830693025483	-0.4544451282883425	-0.1526083989854111	0.5434452550714322	-0.1891755123006518	0.07771872410080355	0.3156799963277336	0.09396746454545904	0.336715071080621	-0.0607808214630966	-0.160414790046765	0.01411230839999118	-0.1966816367772051	0.09279367019345686	-0.02606682334451938	0.3554932117145158	-0.3262094629686506	-0.2719965769665785	1.298577926806277	1.570796326969429	0	0	-0.05161051678885847	-0.07986714304340174	-0.06251942122207363	0.2635986349619766	1.570796326969429	0	0
0.4888312594138309	-0.06510849954715947	-0.1114167792331495	0.1609953930164582	1.070723747759309	0.9515880688232462	0.4971026658229632	-0.02055360955263069	0.06458239276185126	-0.02754770454241859	0.1262451221592548	0.03879643001440368	0.1212637197729959	0.1696642789681813	-0.4445305742229307	-0.160571309809533	0.5465436119913379	-0.1861472451169091	0.08448154927972421	0.2721778361279684	0.09396746454545905	0.2909460492754369	-0.07071828456751347	-0.1470415495027734	0.002676823191552745	-0.1952003214944288	0.0930107390298513	-0.02063053880494945	0.3881666478602123	-0.3260883137985752	-0.2714590346202701	1.359237163454965	1.570796326969429	0	0	-0.09061261138021257	-0.08390792993867369	-0.06326556612741858	0.2496738900805615	1.570796326969429	0	0
0.4928	-0.06573462843707834	-0.11142064648732	0.1606572832988342	1.070779809984333	0.9511273673351343	0.4967799796339886	-0.02504415113955349	0.06452474011773068	-0.02700189635435521	0.1239382765751109	0.03879643001440368	0.1194883791194223	0.1717776530466764	-0.4419206175160935	-0.1617586755209744	0.5475805083025372	-0.1849231953480969	0.08515292069585673	0.2627772621797019	0.09396746454545905	0.2813375882835045	-0.07381118415061108	-0.1450158566931437	0.0006107726484161954	-0.194539298307636	0.09292887403254343	-0.0191523585289498	0.3972313245726242	-0.3259850397461374	-0.2711621692935668	1.375309817151023	1.570796326969429	0	0	-0.1011477907697913	-0.08510070130199837	-0.06316106380808365	0.2473432147952987	1.570796326969429	0	0
0.502312856113114	-0.06740704104561929	-0.1111218526737433	0.1596004624419738	1.070998020015448	0.9499467804260153	0.4959086201416262	-0.03504825782657556	0.06395681157422983	-0.02537010570931472	0.1198324265233132	0.03879643001440364	0.1169197482865424	0.1776201199388078	-0.4363623535768558	-0.1641843572962326	0.5503553250641522	-0.1816087278788796	0.08468105207226331	0.2449130815933221	0.09396746454545907	0.2636256312833621	-0.07807394861008943	-0.139368566064746	-0.003841946903390715	-0.1925150066718304	0.09258166216196244	-0.01558256026387146	0.4196122831098882	-0.3256056336494324	-0.2701517802959549	1.413550056177752	1.570796326969429	0	0	-0.1261785090482825	-0.08812461111779825	-0.06253346448607333	0.2442329589239547	1.570796326969429	0	0
0.519255884473055	-0.07147130232928751	-0.1090959334053861	0.156976063050819	1.071676531518016	0.9476143072783829	0.4939998492476946	-0.0494922894667808	0.06078931496781637	-0.02186864948229586	0.1179142965569399	0.03879643001440363	0.1179505756808617	0.1898878222225546	-0.4286315728047971	-0.1638313383081887	0.5564673809038079	-0.1734862389714449	0.07578691184822886	0.2284967961266046	0.09396746454545894	0.2495528774285526	-0.07427454208792469	-0.1346508727206682	-0.008685264951325721	-0.1868729327848755	0.09076624107545196	-0.009197907949609146	0.4608507265743319	-0.3242868276229941	-0.2673932734074059	1.477414033120434	1.570796326969429	0	0	-0.1694894743282805	-0.09397906113648417	-0.05917316565364757	0.2485312428135295	1.570796326969429	0	0
0.5336312594138308	-0.07605781836335603	-0.1058764426193245	0.1539687402626355	1.072602833887719	0.9454825677960262	0.4920545847509909	-0.05851589798640333	0.05594558861420929	-0.01876151305482358	0.1213881408203368	0.03879643001440362	0.1238190352243616	0.2016377530293696	-0.4239891771492258	-0.1584397184944972	0.5620668324617979	-0.1645402828749339	0.06186463212447647	0.2271649003694226	0.09396746454545897	0.252461656630431	-0.06507001688630398	-0.1381871081075698	-0.008407201256218317	-0.1799733190143341	0.0877793208533432	-0.003678025518086072	0.4958692411378819	-0.3224723006365517	-0.2644900941615046	1.526310246071082	1.570796326969428	0	0	-0.2051848675819574	-0.09924462560320374	-0.05394544260443098	0.2603545830822713	1.570796326969428	0	0
0.5376	-0.07737603476671125	-0.1048455656709943	0.1529974503213656	1.072929200271114	0.9448881166895549	0.4914700434021775	-0.06074013508107357	0.05436285413212547	-0.01801376692674278	0.1229775096885691	0.03879643001440362	0.1261352837335508	0.204957235840439	-0.4226626846922488	-0.1564519837655209	0.5634150150284389	-0.1619413776668177	0.05775281192366738	0.2282504502529508	0.09396746454545898	0.2551665650610491	-0.06308129038711885	-0.1398447803045852	-0.007216311753362945	-0.1778609960209318	0.08683924450354777	-0.002108162604487318	0.5054505731367269	-0.3219081028498063	-0.2635401185425499	1.539289370741537	1.570796326969428	0	0	-0.2148608684215398	-0.1007105962391499	-0.05226933145150617	0.2638615017918846	1.570796326969428	0	0
0.547112856113114	-0.08068795497981389	-0.1021418428030468	0.1503644695246372	1.073808964055413	0.9434456047754761	0.4899945188489789	-0.06550647063557141	0.05018920048326364	-0.01622998468276045	0.1278580334293936	0.0387964300144036	0.1327495981902986	0.2131960237814663	-0.419741280443898	-0.1513203184893759	0.5662889443014983	-0.1555732479047597	0.04767221138269409	0.2330006062405576	0.09396746454545897	0.2642244020052788	-0.05790393566534269	-0.1433401932204103	-0.003835219334868883	-0.1724587744460095	0.08441866782712482	0.001722264255848548	0.5292974423943363	-0.3204479435869694	-0.2609409340238931	1.570221809744164	1.570796326969428	0	0	-0.2375781397256325	-0.1042960431854721	-0.04786221563461447	0.2733623246718601	1.570796326969428	0	0
0.5640558844730551	-0.0869481569968332	-0.09646501775012668	0.14418950968628	1.075832701127506	0.9408844244858966	0.4872115744552103	-0.07269457077840724	0.04135676813070391	-0.01264338760421098	0.1394550981223192	0.03879643001440362	0.1476937686854823	0.227457988176095	-0.4148169163868135	-0.1430609147915487	0.5700052314548092	-0.1445724023435607	0.03600870503638512	0.2491477976021992	0.09396746454545897	0.2864881169461991	-0.0580785075521037	-0.1468038984717663	0.003626715219233496	-0.1617321189539636	0.079042386849734	0.009231421013266201	0.5714380563733921	-0.3171794222957669	-0.2554506964007487	1.622899060817755	1.570796326969429	0	0	-0.2774556964954782	-0.1105983714414709	-0.03862020816105032	0.2890354311597779	1.570796326969429	0	0
0.5784312594138308	-0.09227985279142413	-0.09072780459122146	0.1374826320162928	1.078044499593691	0.9388026615167425	0.484742991066034	-0.07828003016205365	0.03243013716266613	-0.009710481731626946	0.1514562937804255	0.03879643001440358	0.1630514314319746	0.2384730982886516	-0.4102557982970067	-0.1390883584511301	0.5711507692332582	-0.1360259265820004	0.03859631054838089	0.2690162670124397	0.09396746454545887	0.3082391550004854	-0.06880647177950366	-0.1473241134958374	0.009044818247132606	-0.1519833948332672	0.07317213969192317	0.01648874346891172	0.604130332489041	-0.3136762252473486	-0.2506118856642031	1.664789391742681	1.570796326969427	0	0	-0.3106871269357747	-0.1155811435088287	-0.0297655484671526	0.2974542277088532	1.570796326969427	0	0
0.5823999999999999	-0.09366570060720465	-0.0890434274626536	0.1354676846307546	1.078726842924632	0.938253539104804	0.4840324048018492	-0.07991904315667203	0.02975398540073057	-0.009193711167817781	0.1549592536634836	0.03879643001440357	0.1677021664318245	0.241212500358326	-0.4085823710510853	-0.1386408969966546	0.5709229438875516	-0.1337988233944593	0.04167837987439577	0.2747930384944663	0.09396746454545887	0.3143573308438608	-0.07190632050205273	-0.1479258601221339	0.01030846791086845	-0.1493117669912373	0.07145964675062114	0.01861735091192193	0.6126725537281306	-0.3126461878867635	-0.2492492895886482	1.676222649281674	1.570796326969427	0	0	-0.3195628240871598	-0.1168950413767481	-0.02731166795085219	0.2986862144497285	1.570796326969427	0	0
0.5919128561131139	-0.0970164235276576	-0.08489817199784792	0.1305212466586595	1.080434359647719	0.9369700849124037	0.4822389205043489	-0.08363766411077639	0.02305951231819037	-0.008112052103424139	0.1638163913447909	0.03879643001440357	0.1796237741446834	0.2472960598407082	-0.4047545350851465	-0.138310060944865	0.5696769767376333	-0.1283788939365202	0.04775560940807433	0.2882620633653311	0.09396746454545891	0.3289052280320409	-0.07573086674286272	-0.1507004889588561	0.01280777540023539	-0.1428057461159114	0.06740788125327567	0.02384320562718025	0.6330601781107241	-0.3100947708298295	-0.2460081722407727	1.703594944178957	1.570796326969427	0	0	-0.3398051335261277	-0.1199941591782405	-0.02123888557066758	0.3012687817868146	1.570796326969427	0	0
0.6088558844730551	-0.1026208378834303	-0.07712296268870385	0.122373757924651	1.083577899875121	0.9349798893654818	0.4786767421458171	-0.08950387444559682	0.01025025038135809	-0.008066253272963619	0.1819662155914384	0.03879643001440364	0.2040883399802862	0.254963370784312	-0.3987439180272691	-0.1441650990217755	0.5677745321779373	-0.1181437510982779	0.05319915286731917	0.3145830456294083	0.09396746454545907	0.3537331437803738	-0.08256576218719405	-0.1699312924763158	0.01107110256413948	-0.1316314820780275	0.06028646990883072	0.03379661888279789	0.6617872169398138	-0.3051324383459151	-0.2420535060433164	1.749717459233485	1.57079632696943	0	0	-0.368449056390477	-0.1246642025910936	-0.01029540128587832	0.3011539602862405	1.57079632696943	0	0
0.6232312594138308	-0.1069560833888956	-0.0699522150518741	0.1170519220039595	1.086154820943006	0.9337888340512286	0.4752379309967405	-0.09261918769784744	-0.001665915507124777	-0.01129861574962907	0.201709595768062	0.03879643001440365	0.2292090763027966	0.2578741099519338	-0.3949047806140625	-0.1550094202362601	0.5675314506188237	-0.1084274743603483	0.05318715613817217	0.3396975647028173	0.09396746454545908	0.3732100950133992	-0.08677753726588069	-0.1947014463822132	0.004349868158942854	-0.1229055515534997	0.05417189995096536	0.04267587711776787	0.6747264226014839	-0.3005806951341644	-0.2415922225719441	1.784634166330809	1.570796326969429	0	0	-0.3818926769843621	-0.1274753843630012	-0.001292106773491359	0.2974693879540018	1.570796326969429	0	0
0.6272	-0.1081255986291238	-0.06785753167286906	0.1158492047561266	1.086834459138964	0.9335603187338032	0.4742204655341273	-0.09300660695747859	-0.005188003357741486	-0.01309755604623834	0.2081250328330725	0.03879643001440364	0.2370519514787201	0.2581824075095966	-0.3937736687125915	-0.1580973916190631	0.5675485826180151	-0.1055831011099367	0.05290822014623803	0.3471079626602835	0.09396746454545907	0.378278074374543	-0.08435979669697713	-0.1989282896945772	0.003071549483697112	-0.1205832948253756	0.05248578414384717	0.04511146732609365	0.6769239017217352	-0.2993263562531809	-0.2417540084222222	1.793757720798938	1.570796326969428	0	0	-0.3838870072520959	-0.1281351920185803	0.001102986287324505	0.2966225397874422	1.570796326969428	0	0
0.636712856113114	-0.110894988013623	-0.06269857210708685	0.1130603434242282	1.088403338312017	0.9332066794211238	0.4716927880355113	-0.09285044911556273	-0.01398186553816545	-0.01788748990176239	0.2254221010130044	0.03879643001440362	0.2577674331595384	0.2577938901705427	-0.3917023585986505	-0.1663269353252942	0.567995036061534	-0.09831766432182881	0.05303777530553722	0.3670072949365233	0.09396746454545904	0.3897838600223451	-0.06572462102192669	-0.2084657508300632	-0.0005358243521818805	-0.1152377001499011	0.04852496768455518	0.05098878015708345	0.6801072526742786	-0.2962834449187837	-0.2422844596111955	1.81510784928443	1.570796326969428	0	0	-0.3878683848605411	-0.1296321488090412	0.006891568830840345	0.2938028483064993	1.570796326969428	0	0
0.6536558844730551	-0.1153929783942882	-0.05317448088079641	0.1093787780793293	1.090970922492371	0.9333193768396539	0.4668459014923579	-0.08899844682647834	-0.0306693077859338	-0.02914057947954843	0.2631132567059009	0.03879643001440364	0.302565945346418	0.2518959866965271	-0.390528073138195	-0.1829893220743608	0.5683103590574792	-0.08362354855432774	0.05569843734731141	0.4028241914266914	0.09396746454545907	0.4074801564838444	-0.02286006448904221	-0.2241504426641627	-0.007709777219275623	-0.1065988620410372	0.04182368260068343	0.06112176712734382	0.674448570474561	-0.2907534275248371	-0.2444807811275146	1.849021785784878	1.570796326969429	0	0	-0.3882305932537994	-0.1317645364587043	0.01678437880895831	0.2882858536737396	1.570796326969429	0	0
0.6680312594138309	-0.1183771631754566	-0.0449142024552096	0.1076897290342954	1.093065945553449	0.934050146849969	0.4624741789785936	-0.0825648073197176	-0.04569508681555721	-0.04078512371821175	0.3021090159947892	0.03879643001440364	0.3499088199633064	0.241597447930191	-0.3922924482577029	-0.1953178426818889	0.5645404130770642	-0.07069273861521638	0.05657537796781445	0.4248098613493506	0.09396746454545904	0.4187719948108924	-0.004409332581098574	-0.2359717110998351	-0.01357381100453405	-0.1000652355413856	0.03641677503559167	0.06877667067959586	0.658527123524554	-0.286077461628468	-0.2481976044342412	1.873842988640071	1.570796326969429	0	0	-0.3811580210443002	-0.1331080073850576	0.024447494649048	0.285091399589756	1.570796326969429	0	0
0.672	-0.1190553899540781	-0.04262738474512788	0.1072928026048918	1.093672002790587	0.9343117165907345	0.461252613912509	-0.08033263807512842	-0.05000279752409197	-0.04430524267876312	0.3139813849830109	0.03879643001440364	0.3646276863178333	0.2381203512515943	-0.3929511565780863	-0.1973880902955273	0.5621505051223443	-0.06742422831921668	0.05574439829089785	0.4282361430256218	0.09396746454545904	0.4211581826533685	-0.002967251587992326	-0.2380963366370596	-0.01443740940382305	-0.09829404863783191	0.0349670445477866	0.07066504313640432	0.6534221767750266	-0.2848317488069521	-0.2494203188187323	1.880601057603476	1.570796326969429	0	0	-0.3785930255017683	-0.1334992330322025	0.02646554278539036	0.284782887950467	1.570796326969429	0	0
0.6815128561131141	-0.1205740214490802	-0.03708036957283079	0.1063782351108007	1.09510767818294	0.9350424911899566	0.458317545811199	-0.0735307204540076	-0.06066442404635017	-0.05234960924017742	0.3450946674087902	0.03879643001440364	0.4028959056930166	0.2283929507237553	-0.3956398370218899	-0.2010505310233004	0.5544552337037109	-0.05964897386438807	0.05397596188609832	0.4343311468413803	0.09396746454545903	0.4254497303673688	0.009863137496666396	-0.2397442257118292	-0.01636426429129526	-0.09414978611426381	0.03145062405928921	0.07491741768559701	0.6399714896882456	-0.2818796896491272	-0.2527841268572712	1.896970550184804	1.570796326969429	0	0	-0.3709483273358177	-0.1344542842821369	0.0312993013569503	0.285027950034819	1.570796326969429	0	0
0.6984558844730551	-0.122239332262305	-0.02735497249365548	0.1051061682873096	1.097637983355022	0.9366922450462369	0.4531412507613699	-0.05688551151205296	-0.08020177779296567	-0.06501253433089865	0.4099299875443684	0.03879643001440361	0.4813079678361907	0.2072657143232638	-0.4045535769933273	-0.1987751878489271	0.5333953618867859	-0.0464976633991299	0.05012873397072792	0.4335305893835932	0.09396746454545898	0.4278802123822255	0.03151582386685475	-0.2382591387550256	-0.02079193692163165	-0.08773233391434886	0.0252052726813176	0.08092569586170061	0.6098880365392741	-0.276700578786941	-0.2595024937491374	1.923350277116239	1.570796326969429	0	0	-0.3548182014906675	-0.1363811174608963	0.03949867465332399	0.2910302612254007	1.570796326969429	0	0
0.712831259413831	-0.1223600531443387	-0.01959385405337466	0.1044909841404599	1.099641014704521	0.938411621612282	0.4488530822518461	-0.03795843356232986	-0.09701557417923812	-0.07303020104241489	0.4743350973453428	0.03879643001440363	0.5571596762683767	0.1831938494583955	-0.4164627752938189	-0.1889339043151624	0.5096796915001915	-0.03587459590352401	0.04767427883061759	0.4237354046781048	0.09396746454545903	0.4249269192105249	0.04726132314626164	-0.2358562356106165	-0.0257987072243028	-0.08379198207578045	0.02017490876993987	0.08435336714768187	0.5763039997544845	-0.2723433965686936	-0.2653949554533671	1.93998183874027	1.570796326969429	0	0	-0.339650530620688	-0.1382772522844881	0.04588021351604528	0.3030472242696033	1.570796326969429	0	0
0.7168000000000001	-0.1222495608663091	-0.01757374885184319	0.1043051213904498	1.100147219300765	0.938922971384223	0.4476869724629643	-0.0318966901453856	-0.1017803474122033	-0.07484970623456988	0.4931717633384907	0.03879643001440363	0.5793751852913058	0.1748222018470911	-0.42000603433739	-0.185779859034312	0.5026316282503538	-0.03300722679890337	0.04736284259191489	0.4202258008214753	0.09396746454545904	0.423402369946461	0.05160362723123324	-0.2354479566697938	-0.02682307363350509	-0.08292916095044635	0.01891748157042596	0.08513354875748308	0.5659099666657802	-0.2711478404890528	-0.2669234640708809	1.943627086949153	1.570796326969429	0	0	-0.3353760663507766	-0.1388616633611731	0.04759287315599638	0.3073163361056769	1.570796326969429	0	0
0.7263128561131141	-0.1217944231616786	-0.01279751061282904	0.1037644678503376	1.101257827520239	0.9401781564517089	0.4449409607441069	-0.01564739900482359	-0.1134254927651707	-0.07879162862453473	0.5425963297220924	0.03879643001440364	0.6344272298679993	0.1572994870308981	-0.4281299385939749	-0.1755969862952228	0.485102316909999	-0.02613249927884219	0.04711829773310021	0.4106598803276869	0.09396746454545908	0.418719309929407	0.06163222771428703	-0.2351286333754191	-0.02923401468936931	-0.08126439802027863	0.01596964023513244	0.08675635211457255	0.5393230258718438	-0.268268615970323	-0.2705921677505091	1.951670695987443	1.570796326969429	0	0	-0.3249239136181641	-0.1403834499930536	0.05171950503449053	0.3185391712710907	1.570796326969429	0	0
0.7432558844730551	-0.1201788056555696	-0.004875005965018985	0.1025842765010006	1.102622553606361	0.9424311469477294	0.4402525942924465	0.01886602805722287	-0.1345992020244357	-0.08281917361812288	0.6411867644095832	0.03879643001440364	0.7367499582527371	0.1288348724527507	-0.4418262113582789	-0.1447926350118703	0.4532147829319623	-0.01435775647128169	0.04832041019534636	0.3920233779627568	0.09396746454545898	0.4077763738244887	0.07763293671035701	-0.2363420226267733	-0.0345158493435432	-0.08038734152525978	0.01155562574847409	0.08872042650719753	0.4911759588716662	-0.2628380059662714	-0.2764980253636405	1.959976223373866	1.570796326969429	0	0	-0.3038303065996251	-0.1440059415747184	0.05868103428759558	0.3454732657025943	1.570796326969429	0	0
0.757631259413831	-0.1179683111915739	0.001076857322119344	0.1017224118385324	1.103084500582526	0.9442519113639061	0.4365443131313619	0.05213599091626805	-0.152158483355105	-0.08261678927922372	0.7305302960665716	0.0387964300144036	0.8248386576224215	0.1131397711034289	-0.4507286898702358	-0.1097520504341237	0.4263959746880636	-0.005375000016769188	0.04994478971678748	0.3759454837218995	0.09396746454545897	0.3972006992092782	0.08826766000311662	-0.2375298554081438	-0.03964458200543339	-0.08185969403204577	0.008750108289544596	0.08943097441369728	0.45056720914571	-0.2578374054232159	-0.2809124543511995	1.958591700894363	1.570796326969429	0	0	-0.2816895728189585	-0.1483312033970816	0.06383641747821693	0.3751948797590753	1.570796326969429	0	0
0.7616000000000002	-0.1172854275171189	0.002583010323147478	0.1015348605328971	1.10313468596221	0.944735074120869	0.4355628338991197	0.06134210565327192	-0.1569080648627714	-0.08179510562785486	0.7529704097678773	0.0387964300144036	0.8489244530262845	0.111229907411617	-0.4520319511593329	-0.100973332909565	0.4190465075015989	-0.003119311451402415	0.0503438854555705	0.3715230508606839	0.09396746454545897	0.3942316126114628	0.09127836128459527	-0.2374562398420934	-0.0405851265859337	-0.08244227778248998	0.008125856624081128	0.08954053434283486	0.4390598767488676	-0.2564162312974542	-0.2820189509783362	1.956938993021886	1.570796326969429	0	0	-0.2747640212773405	-0.1497294783085073	0.06514850258128141	0.3838110724002174	1.570796326969429	0	0
0.7711128561131142	-0.1155320367290549	0.006132724678573735	0.1010002564059779	1.103120376001662	0.9458375841247098	0.4333248812219956	0.08400461569622356	-0.1680314099331963	-0.07935236233304047	0.8085412635766334	0.03879643001440362	0.9056425424713709	0.1000445967458112	-0.4489357493052001	-0.07794013124210236	0.4017187408230544	0.001978586892678491	0.05089257621922552	0.3612326442920804	0.09396746454545903	0.3871873781589626	0.09773329906542347	-0.236837812811333	-0.04277767481244412	-0.08425847376775077	0.006592709434247633	0.0896457847589883	0.4102522189366875	-0.2529455267100508	-0.2844220341349825	1.95147598362774	1.570796326969429	0	0	-0.2577350611077961	-0.1533271707930914	0.06824609524420436	0.4047672706237754	1.570796326969429	0	0
0.7880558844730552	-0.1119794878777583	0.01188203469382246	0.09987043597046394	1.10253551753024	0.9477370628952582	0.4297982961785246	0.125511751148967	-0.1856309799629887	-0.07016568832068229	0.8984750864795212	0.03879643001440364	1.000975382329629	0.07962514878202816	-0.4342157999503714	-0.03722579017845351	0.3720770094899035	0.009347045402032517	0.04980395760305652	0.3445167590917594	0.09396746454545905	0.3752098103886795	0.1088191190217845	-0.2319140363171247	-0.04688934077339377	-0.08912125649633396	0.00403527785140783	0.08926840525351723	0.3566905158787698	-0.2462944913988593	-0.2874479897291712	1.930674839546358	1.57079632696943	0	0	-0.2226560789455879	-0.1613401854588094	0.07281607886204633	0.4414492404295229	1.57079632696943	0	0
0.802431259413831	-0.1085389418170636	0.01616532629483462	0.09857736556182281	1.101464904603846	0.9493455653210928	0.4273201113206573	0.1622369522997132	-0.1977478104780835	-0.05823355802052746	0.9651384070145586	0.03879643001440361	1.073603152602344	0.06439809830166784	-0.4243067880516774	-0.008124292926770707	0.34800109279037	0.01369669915881365	0.04610696220962773	0.3315615847542249	0.09396746454545896	0.3656613958967751	0.116681851419702	-0.2236535243662906	-0.04961800128380175	-0.09497865948570189	0.0019238250180846	0.08835830560864033	0.3103015140455029	-0.2402320462346771	-0.2891281348850537	1.898938361373414	1.570796326969427	0	0	-0.187742452392971	-0.1697631632584332	0.07546600250863131	0.4700486508404653	1.570796326969427	0	0
0.8064000000000002	-0.1075727498410037	0.0173119061293292	0.09811211253601226	1.101103445252585	0.9497858943766577	0.426708281054079	0.1724760134354629	-0.200794697847416	-0.0547706931620589	0.9818113138869364	0.0387964300144036	1.092019685078007	0.06101863121758547	-0.423548385882447	-0.001716796913918239	0.3414558256744804	0.01467999920019682	0.04465526202352109	0.3280453163236245	0.09396746454545897	0.3630853206338517	0.1187296970263271	-0.2208256390351655	-0.04960351852621977	-0.09676839856968833	0.00130144545226539	0.08805145818335269	0.2975779295817453	-0.2385587668415419	-0.2895959491353814	1.888480563040887	1.570796326969427	0	0	-0.1776299635876741	-0.1722064890340404	0.07609123394467909	0.4773473959203231	1.570796326969427	0	0
0.8159128561131141	-0.1051983934678483	0.01998094231002339	0.09686022177448826	1.100116216903898	0.950853990232447	0.4253667416526141	0.1974146463571853	-0.207573354647891	-0.04574094373355972	1.018775675786947	0.03879643001440362	1.132954209585384	0.05199612648366393	-0.4196177829048871	0.01247397879525872	0.3260432701111859	0.01669014586206176	0.04049077121630189	0.3199165530913308	0.09396746454545904	0.356917844311412	0.1232805294295979	-0.2132679803414993	-0.04944684173191761	-0.1014769521422551	-0.0002561482749053046	0.08722898448786641	0.266189037636089	-0.2345039477015839	-0.2905247271471217	1.861238074276125	1.570796326969429	0	0	-0.1527083692155398	-0.1782915528217764	0.07750166561972112	0.4943211039140802	1.570796326969429	0	0
0.8328558844730553	-0.1005354381125538	0.0243322014264679	0.09376293076029479	1.097963039347872	0.9528190499371424	0.4234559625663935	0.2424073094385983	-0.2175007288388691	-0.0285365855685952	1.073626428998637	0.03879643001440362	1.193714004995972	0.04022067441483215	-0.4162869436855673	0.02701732015319497	0.2989046520235359	0.01877890302050896	0.03048468852775939	0.3061045242629246	0.09396746454545903	0.3455104078176766	0.1318594605003473	-0.1962388561776749	-0.04902133093629869	-0.1113888871470999	-0.003106921630380184	0.08567777446512494	0.2115166134304174	-0.2270748105207562	-0.2910486010506223	1.799318207365284	1.570796326969429	0	0	-0.1051108274971203	-0.1901028065283126	0.07906010069834217	0.5203756077269575	1.570796326969429	0	0
0.8472312594138312	-0.09609183043314287	0.02748092636932817	0.09015204307577811	1.095813098542276	0.9545541028065043	0.4222843350170568	0.2807185302436334	-0.2238572159221104	-0.01359157204285394	1.108656357295968	0.03879643001440363	1.232206534643965	0.0315662704581722	-0.4157909813525484	0.02849099603151757	0.2755813676516913	0.01905627910935001	0.0195569722964509	0.2940264494660609	0.09396746454545904	0.3348220880644299	0.1382785055965338	-0.1791326969962779	-0.04746058423270515	-0.1211723370749248	-0.005356516918099484	0.08439177251707983	0.1683875983869415	-0.220631741646532	-0.2902956225937803	1.731327332403079	1.570796326969429	0	0	-0.06202551680845128	-0.2010613317111179	0.07916460871091763	0.5381928940996421	1.570796326969429	0	0
0.8512000000000002	-0.09484796350768677	0.0282969514009928	0.0890135033689442	1.095194398394131	0.9550330150781818	0.4220091886455311	0.2911601945445246	-0.2254731697076496	-0.009710409787423616	1.1161929189326	0.03879643001440363	1.240649920793513	0.02878707904542467	-0.4154547680311739	0.02828036170605826	0.2690618289568475	0.01901783104186237	0.0163338481578347	0.2905139916469542	0.09396746454545904	0.3316397296344429	0.1399328976275811	-0.1742799290031529	-0.04620844009391824	-0.1239689699010399	-0.005939581299857534	0.08405929163334946	0.1570970022790636	-0.2188808665410035	-0.2899882058165956	1.711021432184752	1.570796326969429	0	0	-0.05012077252827937	-0.2041364838486259	0.07909496052181732	0.5428582041758416	1.570796326969429	0	0
0.8607128561131143	-0.09181929300005698	0.03019711712369355	0.0860411988403552	1.093649266738773	0.9561768074822578	0.4214346305734537	0.3160885264456925	-0.2291247701965555	-0.0006471030104490266	1.130995785030385	0.03879643001440362	1.256995632324599	0.02289654158683299	-0.4147511901090559	0.02664976002870115	0.2534185111852499	0.01879786539332497	0.008275065344202727	0.2819913522022462	0.09396746454545904	0.3235397914466266	0.1435865893113927	-0.1625997345715979	-0.04310549322729779	-0.1309363774605902	-0.007290623845845973	0.08332107430168194	0.1308697981707848	-0.2146693648634146	-0.2887655411366959	1.660040796947888	1.570796326969429	0	0	-0.02137138789455573	-0.211658263798309	0.07880570757671615	0.5537670467835533	1.570796326969429	0	0
0.8776558844730553	-0.08612990891005184	0.0329989375608039	0.07967120728525644	1.090768501025676	0.9581919454054411	0.4206790368044802	0.3589769140003498	-0.2345204127055671	0.01396617913510738	1.144599624360658	0.03879643001440367	1.272473733852829	0.01535727516440125	-0.4147829003213893	0.02087498656145129	0.2249224761611994	0.01764482097592847	-0.006888883405147816	0.2660063518709216	0.09396746454545905	0.3073627189847795	0.1503521897293864	-0.141465585523518	-0.03721790611964434	-0.1440315087431357	-0.008964546165603153	0.08243804563047316	0.09032820910630347	-0.2071800166586359	-0.284854374109423	1.556952972840533	1.570796326969429	0	0	0.02948171482636918	-0.2255383817872592	0.0771304871444644	0.5742935923443535	1.570796326969429	0	0
0.8920312594138311	-0.08112952589708922	0.03454743131313962	0.07336522438019699	1.088267024668944	0.9598388786640105	0.4202283196073833	0.3933006070116378	-0.237917515749487	0.0246369253978273	1.143231250026912	0.03879643001440364	1.271999892941949	0.009680705182037841	-0.4153091334424607	0.01566725586507756	0.2000389298163786	0.01598985729089042	-0.01973525109486236	0.2511360229781721	0.093967464545459	0.2919392047234119	0.154757636152191	-0.1247908050730999	-0.03290490467478384	-0.1554702345340968	-0.009195878132307558	0.0821509076591527	0.06284825128490525	-0.2009566609299935	-0.2803623628710949	1.456014267134914	1.570796326969429	0	0	0.07118421007144428	-0.2376541860451875	0.07424340499523087	0.5948177224049979	1.570796326969429	0	0
0.8960000000000002	-0.07979938663940195	0.03487461520298194	0.07155791734842738	1.087579286228158	0.9602684666345314	0.4201109373558226	0.4024162189089416	-0.2388082657440709	0.02723411272652258	1.140816636954991	0.03879643001440363	1.269692611959782	0.007635256798297185	-0.4150179364792603	0.01495236318379324	0.1931583109461481	0.01555795550186127	-0.02298806496879463	0.2468778132994471	0.093967464545459	0.2874402049593636	0.1558612760696031	-0.1207275492282293	-0.03159802386684899	-0.1585800355243381	-0.009056677996638236	0.08212503181272288	0.05610116961911728	-0.1992916731783965	-0.2790716508581376	1.426948097232028	1.570796326969429	0	0	0.08225975759656326	-0.2409948713416195	0.07331141904674728	0.6012046533430657	1.570796326969429	0	0
0.9055128561131143	-0.07663933827641414	0.03563746047640148	0.06701306847648941	1.085909394637289	0.9612509773676216	0.4198683023439092	0.4236373475786657	-0.2408200821156493	0.03322627614580295	1.131713145176648	0.03879643001440363	1.260370023063517	0.003909865261843004	-0.4143158205414876	0.01325737038394503	0.1766677865825032	0.01464940990618453	-0.03057595708808181	0.2365035714665382	0.09396746454545904	0.2763081340576269	0.1581137388612717	-0.11180762758869	-0.02838851161160341	-0.1661103777252932	-0.008574770232876484	0.082165641382038	0.04186660719870725	-0.1953312856258428	-0.2756121228777798	1.355587044399781	1.570796326969429	0	0	0.1085260430346738	-0.2490609257536937	0.07088090274301168	0.6173947446761964	1.570796326969429	0	0
0.9224558844730553	-0.07147525696237222	0.03642000544077182	0.05862850836253822	1.082891437868534	0.9627730237206471	0.4194860016049295	0.4588452364288433	-0.2435798540530797	0.04263364388018023	1.103557639669463	0.03879643001440364	1.230693520263177	0.002013861444735282	-0.4151266398902426	0.01245917752292736	0.1479511843249068	0.01309081312921691	-0.04273344039686059	0.2180480225774972	0.09396746454545898	0.255632176550097	0.1617640238756068	-0.09838227920306908	-0.02393278555349407	-0.1792623442876411	-0.006520147939803433	0.08252540716390228	0.02353146565505493	-0.1886393712678304	-0.2704093341818861	1.220711759204616	1.570796326969429	0	0	0.1526963423411358	-0.2632486326121247	0.06507271128887812	0.6542445232319563	1.570796326969429	0	0
0.9368312594138312	-0.06793906650627728	0.03640719749293305	0.051657042242488	1.080310314027213	0.9637742791060648	0.4191542974617951	0.4860358092670836	-0.2449359279514446	0.04981037213995412	1.067899675395423	0.0387964300144036	1.192674910283138	0.002390717629448119	-0.4173129661336265	0.01462965140920794	0.1249452684846979	0.01180544468318152	-0.05129244653043465	0.2027832152376099	0.09396746454545893	0.2377877741603824	0.1633268507411541	-0.0900176435311916	-0.02259506687832676	-0.1897503414972352	-0.003389897032614962	0.08296320727631198	0.01378418945823232	-0.1835298562614449	-0.2690081253968587	1.099561037191968	1.570796326969429	0	0	0.186767692362689	-0.2747865088202281	0.05848165692169917	0.6952075309901331	1.570796326969429	0	0
0.9408000000000003	-0.06714544631886649	0.03636879502657359	0.04979698982704472	1.07959979539674	0.96399501916264	0.4190570578567909	0.4931335533395138	-0.2452303054914276	0.05181302577613315	1.056266049387392	0.03879643001440359	1.180154472712768	0.001951872145676825	-0.4174806745802703	0.01567470130257828	0.1189105212969926	0.01154884685365717	-0.05324317127746411	0.1987807246166652	0.09396746454545893	0.2328915795917144	0.1639585386108653	-0.0882420136786177	-0.02235930681937744	-0.1925000752122487	-0.002374216127874203	0.08307752813151199	0.01157066640250007	-0.1822205084037463	-0.269198026905444	1.066037760002047	1.570796326969428	0	0	0.195683570416488	-0.2778712141065326	0.05654210387592072	0.7075736842888282	1.570796326969428	0	0
0.9503128561131143	-0.06543776277983904	0.03630116717040307	0.04532699854997049	1.077896801458173	0.9644368466727608	0.4188460313226898	0.5092302119191057	-0.2456617013397203	0.05697375152981472	1.025265447824294	0.03879643001440359	1.146678000285356	0.002007139171644703	-0.4176897827103646	0.0183521384415994	0.1047986528271122	0.01109953437985668	-0.05756337396790767	0.1894052480561668	0.09396746454545893	0.2213141524241892	0.1653212124989789	-0.08473088430447734	-0.02172466671285144	-0.1989900114045453	0.0001728366437431378	0.08336893059796967	0.007438438547734877	-0.1791905373842452	-0.2702662644323208	0.9852423434250092	1.570796326969427	0	0	0.216516025608259	-0.2851804339818699	0.05169496755296323	0.7387267477410726	1.570796326969427	0	0
0.9672558844730554	-0.06369662510920071	0.03626634012705483	0.03794334055026472	1.074919024970681	0.9648497119245837	0.418466301261227	0.5347580089032271	-0.2457640997596029	0.06714899531851476	0.958913925749321	0.03879643001440364	1.075504380959868	0.003468156031201222	-0.4186381029390654	0.02296687940403881	0.08192473853571469	0.01097170085225578	-0.06317670572565029	0.1741814864307449	0.09396746454545901	0.2016062582937705	0.1673584135142658	-0.08132670188519708	-0.02270854489036352	-0.2094538636807402	0.005163887867124531	0.08369478050363581	0.001326214052821739	-0.174550384453955	-0.2785059877918994	0.8427449693926718	1.570796326969429	0	0	0.2500777239091779	-0.2972300031443681	0.04188090113310407	0.8016654106093868	1.570796326969429	0	0
0.9816312594138312	-0.06373903878723108	0.03645509269034273	0.03263690461230893	1.072513416563175	0.9648026924227916	0.4181299453261509	0.5529924094901452	-0.245428043668774	0.07718021045394756	0.8915010552545565	0.03879643001440365	1.004627728990982	0.001541602517778101	-0.4180441144914686	0.02627960283910677	0.06524841888893868	0.01159268407370935	-0.06561203647546041	0.1633283769811598	0.09396746454545904	0.1862109172814109	0.1692093118534375	-0.08116306086068414	-0.02581431960990703	-0.216895907453048	0.009667685398634801	0.08362400429603598	-0.005536850130761356	-0.1715599296658865	-0.2934938831507926	0.7262347617052205	1.57079632696943	0	0	0.2747208155294715	-0.3061012333455373	0.03250925711555094	0.8618236998587886	1.57079632696943	0	0
0.9856000000000004	-0.06393911803607764	0.03659028140125778	0.03131482205053013	1.071874733306717	0.9647302105350496	0.4180475355606269	0.5573883522996285	-0.2452990662430268	0.08034416493288704	0.8711832206933213	0.03879643001440364	0.9835808195940687	-0.0002454537754034425	-0.4168682240881699	0.02712624943845862	0.06104471420948857	0.01189160601614171	-0.06595396245062798	0.1607615517046268	0.09396746454545904	0.1822218645842423	0.1700512791590786	-0.08144585509060642	-0.02644492650464475	-0.2187698116519365	0.01088022898936893	0.08355361750575832	-0.007960055670207411	-0.1708600464996147	-0.2984892419832323	0.6952945293139342	1.57079632696943	0	0	0.2812287207669061	-0.3083680603570433	0.02993605939225487	0.8787561159224089	1.57079632696943	0	0
0.9951128561131144	-0.06466276681535627	0.03703123275317097	0.02830917834502261	1.070375588768523	0.96445519109855	0.417895746964773	0.5667185606516982	-0.24476242240125	0.08878356558039452	0.8199247615167398	0.03879643001440363	0.9309289469079557	-0.003594701948281515	-0.4134757953667855	0.02864791023281174	0.05155386493747613	0.01276024450120503	-0.06640047587060148	0.1551284785304287	0.09396746454545901	0.1731731384401618	0.1713952415707387	-0.08295673725951425	-0.02792093440555822	-0.2230260832026734	0.01370096716526535	0.08332095191441871	-0.01364460318885005	-0.1693492331706664	-0.31175389694577	0.6225061274254502	1.570796326969429	0	0	0.2966459610320955	-0.3135787945137477	0.02371899391940584	0.9204083028117125	1.570796326969429	0	0
1.012055884473055	-0.06692709914196729	0.03882293127807009	0.02394856088101228	1.067942382049986	0.9635810954420978	0.4177541765706911	0.5793289836133897	-0.244148793584865	0.1065694395579877	0.7219212509101516	0.03879643001440364	0.8314015585006146	-0.008668007858041643	-0.4077455140163893	0.02739098813796194	0.03705740068593139	0.01547642327070511	-0.06502582802033541	0.1480853085003722	0.09396746454545898	0.1590155841446902	0.1751088263965171	-0.08800644506824681	-0.03050398102642002	-0.2292584114447508	0.0177146309010655	0.0825691280806117	-0.02760268728431423	-0.1674847191829161	-0.3415187568504136	0.5044455158556628	1.570796326969429	0	0	0.3233661790159352	-0.3213950851620975	0.01240861312396179	0.9963183587324949	1.570796326969429	0	0
1.026431259413831	-0.06956185221509228	0.04179484856741199	0.02113668156454435	1.066240329648031	0.9624569225152151	0.4178306655915625	0.5866731961709726	-0.2446033178316187	0.124034632659016	0.6368010307601849	0.03879643001440364	0.7443320890384558	-0.01529868828995712	-0.4031414117314487	0.02247839095978159	0.02688349399194456	0.01921790124454643	-0.06244149301214987	0.1454807710745954	0.09396746454545903	0.1491699088366374	0.1798431856119192	-0.09372925947768493	-0.03218859370262082	-0.2329634526787655	0.01933980662377846	0.08159296366317768	-0.04493770774494121	-0.1668089195619184	-0.3714546028622392	0.4198342236570715	1.570796326969429	0	0	0.3452402087708433	-0.3262777378353123	0.002858750800360004	1.060215092420602	1.570796326969429	0	0
1.0304	-0.07028304708972377	0.0428707699801329	0.02036791913988528	1.065841159894941	0.9620919736789495	0.4179133292951109	0.5882932488020014	-0.2448439764451335	0.1291792395600825	0.6139591353226018	0.03879643001440364	0.7203700719591937	-0.01822979660473029	-0.4014179508912226	0.02101768129408908	0.0242411729964358	0.02043900662016582	-0.06186345926868943	0.1453339645634879	0.09396746454545903	0.146828408894505	0.181773414071444	-0.09510931045294066	-0.03217155822029424	-0.233782963945753	0.01940079028509917	0.08129377657144035	-0.05015416776248782	-0.1667314412675511	-0.379625518010747	0.3988469829801625	1.570796326969429	0	0	0.3512424831990336	-0.3274248040469219	0.0003606441419715528	1.07735556086079	1.570796326969429	0	0
1.039912856113114	-0.07201164472069964	0.04578550334098231	0.01854430811733176	1.064997785900886	0.9611177842974538	0.4182321430752953	0.5917499753830319	-0.2455090341811298	0.1414172375826126	0.5615523609816058	0.03879643001440362	0.6638165295100444	-0.02468173112768089	-0.3966562862373118	0.01687606647602781	0.0182404236009481	0.02355885514849539	-0.06060737137724991	0.1458239579005913	0.09396746454545903	0.1419169351228956	0.1862256502035824	-0.09844061521100098	-0.03179190072575983	-0.2353464434049213	0.01892665744008913	0.08049712915640173	-0.06246540893512995	-0.1667247825148317	-0.3997034019947646	0.351888427578282	1.570796326969429	0	0	0.3657204791220905	-0.3298843265114119	-0.00551594678309358	1.118537868809657	1.570796326969429	0	0
1.056855884473055	-0.0750444857933811	0.05281153691812419	0.01540801072551541	1.06399740692081	0.9590202046685652	0.4192809707327089	0.5976370656992918	-0.2476191419803696	0.1595444772288762	0.48134705630645	0.03879643001440362	0.5690426014778315	-0.03439280641302403	-0.3884475161632305	0.006604822239691138	0.00847420809413188	0.03035229659507992	-0.05967853195029295	0.150125963362534	0.09396746454545896	0.1357720275154592	0.1969654760946002	-0.1022275562109684	-0.03131072305653381	-0.2363269056409242	0.01482134707798467	0.07871923797106048	-0.08714917321012725	-0.1672720749825251	-0.4332046426030248	0.286463118917051	1.570796326969429	0	0	0.3925229431226106	-0.3327662904208007	-0.01547436011115135	1.188903996600698	1.570796326969429	0	0
1.071231259413831	-0.07755342581929459	0.06061824654918417	0.01264698853735181	1.063729300520869	0.9568800353780166	0.4207348276663998	0.6035264674951424	-0.2499247438874908	0.1675774039211169	0.430928575199482	0.03879643001440364	0.4982183860502796	-0.04386413309937484	-0.3827133660397486	-0.003966127980844877	0.0005306836128416703	0.03711628304202418	-0.06135783174113128	0.1563658674296072	0.09396746454545896	0.1333966318787044	0.2082909112723253	-0.1016089011537241	-0.03143286374664677	-0.2349564006085599	0.007722242226996134	0.0767051474947372	-0.1112546739536448	-0.1682009896445346	-0.456072246824638	0.2517825715929187	1.570796326969429	0	0	0.4161438782737041	-0.3335508021243211	-0.02323061613089481	1.243897532284872	1.570796326969429	0	0
1.075200000000001	-0.07820702252887579	0.06288129366803351	0.01183380340999743	1.063750962188091	0.9562354422105509	0.4212396510383129	0.6053202611240527	-0.2503603092240416	0.1682101931834657	0.4201907148724386	0.03879643001440364	0.4806540979456614	-0.04757345473019362	-0.3811431585329478	-0.00662889805769809	-0.00173688198919375	0.03892615183880567	-0.06249595330385516	0.1583674459222745	0.09396746454545896	0.1332335462958228	0.2120287731662671	-0.1005824821140234	-0.03118014273017345	-0.23421301552506	0.005361816467120147	0.07605564373893742	-0.1177684674453576	-0.1684972188634395	-0.461156030397303	0.2447562821947301	1.570796326969429	0	0	0.422833279714163	-0.3335963733671629	-0.02520565004068239	1.258520280937049	1.570796326969429	0	0
1.084712856113115	-0.07975239105076737	0.06840714990629151	0.009929528662718012	1.063964519027718	0.9545980980999644	0.4226131541369829	0.6096947599871814	-0.2509528578055756	0.1679110866038331	0.3993106189810845	0.03879643001440363	0.4425326366608183	-0.05559806189961444	-0.3772270683913759	-0.01341259162709012	-0.007170493326546123	0.04302648642726398	-0.06529767178645506	0.1634910259774565	0.09396746454545897	0.1337630868912836	0.2201161536609985	-0.09740776058800235	-0.03127654597713832	-0.2317840151563066	-0.0008449214599980034	0.07432820020073563	-0.1330599686346847	-0.1692979829012854	-0.4723484290249704	0.2317914414849056	1.570796326969429	0	0	0.4392839119147675	-0.3334372348282117	-0.0297454331831867	1.293301500999761	1.570796326969429	0	0
1.101655884473056	-0.08313036919918673	0.07705027607453273	0.007587360153598482	1.06502640022092	0.9513095048810143	0.425572115704125	0.6174040395054822	-0.2494442080733281	0.1572785652274082	0.3790602576474649	0.03879643001440365	0.3897446357837214	-0.06358904393490625	-0.3730162710772006	-0.02606257163652491	-0.01640897811837577	0.04802025119599329	-0.07160844689924757	0.1741214990122333	0.09396746454545904	0.1381463777315065	0.2370191725150937	-0.08799946696487573	-0.03309196959302658	-0.2239574265812898	-0.01187714750744012	0.07023106000208731	-0.1609240993539139	-0.1705530344189427	-0.4836698431781084	0.2254120009559131	1.57079632696943	0	0	0.4696531907056329	-0.331965778393873	-0.03707813739959021	1.352239794963581	1.57079632696943	0	0
1.116031259413831	-0.08688500458193948	0.08112439571508311	0.008232691233406808	1.066752966412909	0.9481791532079644	0.42841555804905	0.6218206017465138	-0.2447076968479924	0.1385833198745689	0.375011390378425	0.03879643001440363	0.3608457915977786	-0.06515523748349147	-0.3750564227477127	-0.03512853907779565	-0.02390772032578142	0.04784860769446564	-0.07546700726771882	0.1837053468309565	0.09396746454545901	0.1456927549941688	0.2519556193710338	-0.07829557074480323	-0.03383208847003959	-0.213278770612962	-0.01827361538096925	0.06549834065999086	-0.1882606210265338	-0.1709922900443244	-0.4829218207068917	0.2346672320008963	1.570796326969429	0	0	0.4969171525557695	-0.3295685464446442	-0.04238188697822753	1.399478115759275	1.570796326969429	0	0
1.12	-0.08798174629234733	0.08143426362751899	0.009078272414951391	1.067376097780608	0.9472807642214613	0.4292088809808154	0.6221645542859345	-0.2427499740806843	0.1329041546832155	0.3748939077893753	0.03879643001440362	0.3554362130447108	-0.06546284939445754	-0.3765936419026863	-0.03676510809882139	-0.02609098425915451	0.0469457993410166	-0.07617446375045002	0.1861697075095921	0.093967464545459	0.1484462017454991	0.2557038705794418	-0.07632616050605781	-0.03341933868131473	-0.2097969910551399	-0.01907883147765849	0.06401848185249273	-0.1966044001192576	-0.1709756671378333	-0.481488432585071	0.2380630196719219	1.570796326969429	0	0	0.504972979699005	-0.3288250842936797	-0.0436635940937583	1.412702310074976	1.570796326969429	0	0
