DataType=double
version=3
OpenSimVersion=4.5
endheader
time	pelvis_tilt	pelvis_list	pelvis_rotation	pelvis_tx	pelvis_ty	pelvis_tz	hip_flexion_r	hip_adduction_r	hip_rotation_r	knee_angle_r	knee_adduction_r	knee_angle_r_beta	ankle_angle_r	subtalar_angle_r	mtp_angle_r	hip_flexion_l	hip_adduction_l	hip_rotation_l	knee_angle_l	knee_adduction_l	knee_angle_l_beta	ankle_angle_l	subtalar_angle_l	mtp_angle_l	lumbar_extension	lumbar_bending	lumbar_rotation	arm_flex_r	arm_add_r	arm_rot_r	elbow_flex_r	pro_sup_r	wrist_flex_r	wrist_dev_r	arm_flex_l	arm_add_l	arm_rot_l	elbow_flex_l	pro_sup_l	wrist_flex_l	wrist_dev_l
0	-0.3720383885381455	-0.04826508808391899	0.1295958709916074	0.168818439063	-0.2173530538214696	0.1942489982896978	-0.01493447956382282	0.4257324498603558	-1.357626110613679	0.05349191274885265	-4.066623667251007e-16	-1.742563521828008	0.01969642318374876	-0.4516894591658709	-0.4011141610088049	-0.5057416006737168	-0.3938756571303706	0.05585783710033432	0.6075479194020841	3.810308149280355e-15	0.3222893037747587	1.226112935742356	0.679611785850555	-0.2540997806074516	0.8010779938866662	-0.279006117668948	-0.4789256653565639	-2.222339622122378	0.04416003429334406	0.3670162967355243	0.8590890734076133	-4.973519903545247e-14	0	0	2.027075907923838	0.1096306187681142	-0.2754897583035677	3.234868761152113	-4.973519903545247e-14	0	0
0.009512856113114032	-0.3731090862267286	-0.1392151475921589	0.1135911836593078	0.1768947118208232	-0.2129072810976613	0.2086479698157817	-0.02055013866473276	0.5564252828260758	-1.7910947797013	0.6572355987783862	1.752680930012193e-15	-1.033779642161637	0.4523653654062539	-0.4126057067481855	-0.4338575469590036	-0.3481560159894308	-0.4211779718410077	0.2534872840724571	0.7664094519259651	2.719172260944688e-15	0.6228994918354087	0.6655656601609319	-0.3228089440776186	0.4543635145317922	0.837242633785851	-0.183239199723038	-0.5293005882563351	-1.697141260407267	0.03926175092629611	0.6635913599911398	1.257118797331814	2.986789989841251e-14	0	0	1.900766704129481	0.198284508273911	-0.2715401517778777	2.899703020177339	2.986789989841251e-14	0	0
0.02645588447305514	-0.2952035107768424	-0.3773221064509427	0.2507373152804113	0.226934510280585	-0.2004368563999828	0.2163000767901414	-0.2923230082874049	0.7284648006669475	-2.271893433233581	1.412180884764701	-7.816198643110825e-16	0.1419461760653826	1.00371015955403	-0.9552012498629255	-0.4989620705182334	-0.2358191108812058	-0.6864917853875476	0.67142646643533	1.259053222984922	9.328199163394646e-16	1.228876852872951	1.043675409629551	-0.6822267280494311	0.3176559824127809	0.8531682359349255	0.1274087896914865	-0.5990377653794593	-1.806489591623093	0.04605998747690843	1.204822229053501	1.281799154940158	-5.985126716386151e-15	0	0	1.265728363082544	0.39872486420873	-0.3281926502141922	2.430477626151692	-5.985126716386151e-15	0	0
0.04083125941383081	-0.1814738383050423	-0.4877823702807337	0.4440447773870851	0.2797790065203445	-0.1920756900950122	0.2074060061852898	-0.6506380106114951	0.6562143334159962	-1.727506325736954	1.438760833889293	2.074003161698089e-15	0.9645412816101985	-0.1750025898270073	-1.194010389028205	-0.421487898377835	-0.2526231032887728	-0.7896631983028104	0.7521838972622943	1.495840101072544	2.279202188640683e-15	1.842487625955602	0.6417672724467938	-0.9966904835356692	-0.4185305956974803	0.8046101882868447	0.3041471995587072	-0.600789841598352	-2.522323705292603	0.06777948829299796	1.268671523539066	0.5389962906016903	1.745048119133162e-13	0	0	0.8010197765402957	0.4505871935762297	-0.3821414814642393	2.573504795416886	1.745048119133162e-13	0	0
0.04479999999999995	-0.1704794041698795	-0.5071113440214188	0.4590780670888791	0.2845414442612795	-0.1901538222426901	0.2093570304461685	-0.7238525407075611	0.6482697747288848	-1.213551417290033	1.223103328146514	2.213083382791467e-15	1.155928025329121	-0.4831589087809854	-1.123237198098771	-0.3975438186560425	-0.1967539630756304	-0.8352828327533863	0.9395598797147939	1.679873916215777	3.240908369353836e-15	2.025377118995442	0.9549687833711271	-0.9293972609009025	-0.3002594933887224	0.7974095722015666	0.3293953898478064	-0.6071490750501863	-2.490217954901102	0.06777401377276926	1.268121159863476	0.4939175550986374	1.58521344024568e-13	0	0	0.7334182543226987	0.4635917669954183	-0.3828151692701479	2.559555615407705	1.58521344024568e-13	0	0
0.05431285611311398	-0.1498555869976715	-0.5622869891206002	0.4888180286385593	0.2901522262588778	-0.1797794337919423	0.2136384856860251	-0.9027202577590554	0.6643149409100686	-0.4944727373146446	0.7252025846919936	-1.938396717067538e-15	1.541091239998905	0.213576286269792	-0.8541537498381603	-0.3656648993798302	-0.06191182878482232	-0.8992273888003233	0.8833928314424146	1.925224389612908	-1.34785711603414e-15	2.486568306150561	0.6293309875653414	-1.101799008342278	-0.383887085041654	0.7727815910196105	0.4021149920184327	-0.6302924351292659	-2.256150704954396	0.08350317623914028	1.2644695585412	0.3019445241561276	-1.030956187129701e-13	0	0	0.6048985673751101	0.4859557757293947	-0.3966378839191747	2.570226762504433	-1.030956187129701e-13	0	0
0.07125588447305514	-0.1166755089369606	-0.6825579323666393	0.3570061345318126	0.2511893571970322	-0.1291951891745852	0.2423742100853896	-0.6525239773832369	0.9099606430423328	-0.2831124963576152	1.213324812777431	9.784772224709764e-16	1.948671996261044	1.758316729392032	-0.6745856956834473	-0.3195272210523872	0.3634301513947936	-1.030239028383476	0.7434727126090377	2.686912858312501	-3.91253676330335e-15	3.363794173169425	0.3481681790845594	-1.430192093597919	-0.9770652182840791	0.6339665160261124	0.5348213905450487	-0.7035717198774736	-0.8226194522699573	0.1360023289178552	1.016388396198288	-0.1862910977340837	-8.552090385235269e-14	0	0	-0.01194502244334619	0.5588034218781185	-0.4536724705691393	2.172844215434468	-8.552090385235269e-14	0	0
0.08563125941383082	-0.1224594023332485	-0.731401003689789	0.1899440794732425	0.2031751442636995	-0.07275853548423632	0.2747529994002404	-0.216124156962726	1.131841905974145	-0.007672861220393304	1.812179734668594	5.876691599291441e-16	2.001607842733069	2.2759148057396	-0.8251433711992161	-0.2427103348546775	0.8079598932207906	-1.111203576907859	0.3824283597924737	3.374796827048226	6.843599670378239e-15	4.12931604876136	-0.1052917725392654	-1.565767263201698	-1.177105260833792	0.5426361390387775	0.5467332792914371	-0.7279630585298331	0.3859615420028376	0.147853900690199	0.7055128095445204	-0.4151232709113575	9.256696751172064e-14	0	0	-0.5348473751460634	0.5969454678698064	-0.4651233368013662	1.723142784478215	9.256696751172064e-14	0	0
0.08960000000000001	-0.1179685905882751	-0.7393541740676524	0.1789388126740312	0.1983401395382501	-0.06005007695662341	0.279204134914921	-0.1973494495774447	1.154150591269109	-0.02523585158602573	1.795422377538108	-1.558768621203744e-15	1.970784332042585	1.963514583811204	-0.9212803579975321	-0.2187880312125667	0.9069907911258537	-1.12702530225584	0.3625627496615633	3.562672800981449	2.963100571731507e-15	4.337333203573983	-0.1392083665802164	-1.597365120554975	-1.134118099538998	0.5313123363194086	0.5453890149029872	-0.7195259375244727	0.4938474261193195	0.1465267269578549	0.6667335197727871	-0.4860806087794489	6.290495335975417e-14	0	0	-0.6423034457441205	0.5989669758396973	-0.469921946154204	1.67313849410024	6.290495335975417e-14	0	0
0.0991128561131141	-0.116922950662473	-0.7545638326976744	0.1459376324061598	0.1903372728431728	-0.03145608271458826	0.2903408349328421	-0.2312072239641294	1.204624277720932	-0.01415951325893232	1.683106377811384	-2.358378158621332e-15	1.824990924267385	1.928131937858323	-0.8958873975939733	-0.1979834166493646	1.128717071383274	-1.170210132680398	0.2329994565241208	3.900622856330349	-3.343622295078738e-15	4.81889366726488	-0.5586199768200217	-1.687667146496133	-1.166417154753475	0.53392675800223	0.5313498863644489	-0.6976136174175895	0.8435878362442488	0.137395446562695	0.5630272393766653	-0.601579850558194	-2.419406363265869e-14	0	0	-0.8757950872475873	0.6072208773828125	-0.4826554196721522	1.55526655541075	-2.419406363265869e-14	0	0
0.1160558844730551	-0.09194541709032998	-0.8010848221199246	0.06203687832709107	0.1909062014671843	0.01443449506588268	0.3011383633535969	-0.7285252130420803	1.300369483249567	-0.04171063144316735	0.7068940076999913	2.964722778833367e-15	1.365513558189463	1.236922141908424	-0.8222913004531018	-0.234143553291003	1.471786737434107	-1.234630433824405	0.1369343850442996	4.509606189391238	4.283528801824618e-15	5.56858224892437	-1.128394684053932	-2.00755484776752	-1.114562253061788	0.5643611269599519	0.5584739487827648	-0.593882386073695	1.582584312060982	0.0992025390485366	0.2455052558687715	-0.8601964852242499	7.501817977666766e-14	0	0	-1.349507178381346	0.6286663686982183	-0.5132384067112519	1.174414585901614	7.501817977666766e-14	0	0
0.1304312594138309	-0.05471268823957835	-0.8401455803567717	0.04169685949452315	0.1949327741093543	0.04231022814320977	0.2963374554340061	-1.249247584500905	1.322030869352752	-0.1378381929806921	-0.2368840101216511	-1.972552936060206e-15	0.8616771764597502	0.6290111170003807	-0.6580368315420831	-0.3112485548969681	1.702761122371789	-1.289195662835227	0.09921186574166529	4.897464901662191	-4.930826378832765e-15	6.031074541913939	-1.593435247912212	-2.253652967410916	-0.5861208917680625	0.5698517145293679	0.612519399673349	-0.4718164535794592	1.746702995726846	0.04832218075031697	0.1370477935458642	-0.8191108592044942	-8.733439551258132e-14	0	0	-1.623242178178903	0.6289468800019794	-0.4948126923314607	0.806153653919381	-8.733439551258132e-14	0	0
0.1344	-0.04732727785848217	-0.8524277704646738	0.03400273497089248	0.1894529727280499	0.04846821127571135	0.2946479955401516	-1.32443249881389	1.329365385849014	-0.1568004271937862	-0.383989383660737	-2.403351908345471e-15	0.7172594011429451	0.5642064298779699	-0.6032253994755494	-0.3359545681161431	1.80572774983698	-1.301955699467093	0.1230305270406101	5.103661779881212	-5.024615292181263e-15	6.122383278138614	-1.465816766875088	-2.290565813072118	-0.4706250568199439	0.5565622216356713	0.6309810820171722	-0.4452512962072678	1.833023215889036	0.04031408273916895	0.1506583990238691	-0.7755527841710399	-1.031648070536821e-13	0	0	-1.705568731938199	0.6271124207420541	-0.4901550691113191	0.7034849674331514	-1.031648070536821e-13	0	0
0.1439128561131141	-0.0358261203786247	-0.8916661007125195	0.03246564739587116	0.1790599704883069	0.06021603650044698	0.2879171399335866	-1.445771989644674	1.366867048770814	-0.143783982989261	-0.6058365102559105	1.105232482637307e-16	0.3788130007048182	0.7594707621226593	-0.4807947116241521	-0.4656282837391634	1.935019174448496	-1.34608713298173	0.1183835769305495	5.242080243406282	2.881461906010447e-15	6.268107380149067	-1.789313729250468	-2.480597460648005	0.1493780743319399	0.5422701942353758	0.6891538748521053	-0.3918724405954609	1.915151936369945	0.01280978556176338	0.2221557932956963	-0.6092970580443511	3.660486097191635e-14	0	0	-1.792394461380815	0.6322773475813184	-0.4646117951652024	0.4573642360348498	3.660486097191635e-14	0	0
0.1608558844730551	0.04849426146008889	-1.004298225852597	0.04619793676462322	0.1469842674710116	0.08025396669995413	0.2699866415366502	-1.627785909284315	1.500367180867354	-0.04923372652898908	-0.8943573221415604	1.449391196129152e-15	-0.1455568789549272	0.7969153694049049	-0.520234876960572	-0.8329503779708458	2.276257909175972	-1.470716864942158	0.3592882363471529	5.853022073339505	-2.195088373526653e-15	6.251673282597604	-1.758485267486791	-2.593181904919914	1.2828173973591	0.4019029648253953	0.8597815448094903	-0.2417374985972939	1.754684019534785	-0.1008691896169647	0.4137355252397947	0.0613610655436847	-9.352570536702537e-14	0	0	-2.018184089844644	0.671541217822493	-0.3430610506041363	-0.5283100047858686	-9.352570536702537e-14	0	0
0.1752312594138309	0.1260292917945463	-1.015618603572654	0.05709649452354273	0.1210587110740152	0.08648409009846389	0.2550194403193549	-1.723056267164306	1.511692033798787	0.000918916374788914	-1.055292484350443	-6.755151453416473e-16	-0.4677510222529171	0.4276229941462455	-0.6135695033565589	-0.9050726008126528	2.251885804818011	-1.557675014249474	0.2213416521025712	5.85350993866813	-3.828947416131336e-15	5.955511711823344	-0.03780588003570784	-1.910017630932688	1.119790200178883	0.2755676838763328	0.8865176599218662	-0.163667628388577	1.649933182100777	-0.2102010957939112	0.5551085355794543	0.8190869488355577	-2.232143989955005e-15	0	0	-2.098591350664942	0.713881880667511	-0.1918624092703824	-1.348349934250987	-2.232143989955005e-15	0	0
0.1792	0.1375431981424067	-1.009192747104459	0.06617303307497568	0.1125644738953046	0.08663826443074554	0.2502080825122422	-1.72572013977052	1.493650941097079	-0.006673057893974613	-1.067009017852323	-1.70783008278294e-15	-0.5344569257685367	0.3777088791984268	-0.5926998179446112	-0.9005834663910881	2.245608468499511	-1.571775590945911	0.2000222135479178	5.784818385465471	-2.56768631745327e-15	5.830558176661789	-0.1979183269231758	-1.777950231997214	1.30120072637738	0.2450537966615117	0.8823910842435446	-0.1505201994536146	1.642754862961975	-0.2292488849031137	0.5857413527698745	0.9357871516536802	8.268838345397386e-15	0	0	-2.137749015853913	0.7202060002389488	-0.1620906566344347	-1.509120264835586	8.268838345397386e-15	0	0
0.1887128561131141	0.1625773550376347	-0.9808612909718351	0.08976908722441382	0.0939500706937797	0.09081796256342844	0.2378600767883082	-1.718853963551608	1.445940122603783	0.0105267821724368	-1.059198769779659	-1.036365299469831e-15	-0.6565816742206276	0.3932504341578785	-0.5465568296747354	-0.9148584941054516	2.145861769730558	-1.581838824517777	0.1358888239185518	5.126019000411115	-1.20503983937179e-15	5.462332339190416	-0.6690729354998153	-1.052489857692029	2.003594306690515	0.1814651958032719	0.8591951564662264	-0.1321718260729247	1.652936013241339	-0.2849619891829908	0.685332311706031	1.306528548426954	4.571206551110974e-15	0	0	-2.133610871176792	0.7462640423982039	-0.0767923770353335	-1.877365287306192	4.571206551110974e-15	0	0
0.2056558844730552	0.250945810706231	-0.8547146088760549	0.1827853540120817	0.04813894851029933	0.1052521399237356	0.2021002418202589	-1.742608035029753	1.237331774541628	-0.04240715277958119	-1.047754471801898	-8.990371328455645e-16	-0.7607609023756499	0.1541866141263503	-0.465768251598493	-0.8014884969385454	2.068668000911524	-1.378001162935934	0.2843375978107336	3.947352625114057	2.788732350583458e-15	4.60566116203066	-1.094265003692824	-0.3307791550559299	3.050816848718592	-0.02472669746755626	0.7596934841146677	-0.1034301078880924	1.582133714565603	-0.4485461997694852	0.8397277385076216	2.289975593861514	-1.937776164790238e-14	0	0	-1.969614372784323	0.831256786841835	0.1631523286006442	-2.962427160514135	-1.937776164790238e-14	0	0
0.2200312594138309	0.2945633488360244	-0.7030828221044152	0.2691217683341152	0.007118251920614743	0.1131864371533182	0.169259320797806	-1.711240802441524	1.001251439966578	-0.1263858304735815	-0.9926531255884838	-3.057305887502657e-15	-0.770281615335686	-0.04128343144481689	-0.3658934918714283	-0.5162710541953028	2.122258994490039	-1.102519041195378	0.4041464196818498	3.19697118238937	-6.204833051481167e-16	3.738255063665774	-0.6329667117757036	-0.4476788574400683	2.899993483031753	-0.1800334706878339	0.6319049181694484	-0.08804150986030165	1.576182419694973	-0.5480257524739236	0.8745484261472032	2.75869408310601	3.371918084391109e-14	0	0	-1.913219528623596	0.8717125367732446	0.3122874265041609	-3.689211577701629	3.371918084391109e-14	0	0
0.224	0.3001113289847495	-0.6745058701890447	0.2858964647961387	-0.003196215464181335	0.1147637440167483	0.1613845956341716	-1.693432350580772	0.9573490638764222	-0.1346908010142986	-0.9699851208578487	-1.951909078924837e-15	-0.765564793939325	-0.04744597144027951	-0.3426826348438708	-0.4690202509385248	2.143676220865151	-1.047831049952007	0.4200279535812661	2.988674902371912	-5.081031867719174e-16	3.484897850036002	-0.4966148012708874	-0.3751389488655256	2.840217438608476	-0.2145599540732109	0.6126403671826648	-0.08186846856386765	1.585321390205723	-0.5641442268759156	0.887881824143586	2.817985597503227	4.87837616396241e-14	0	0	-1.93574312087158	0.875312638476772	0.3366277591979615	-3.83058399769878	4.87837616396241e-14	0	0
0.2335128561131141	0.3143663738020666	-0.5988735548676969	0.3322468868727007	-0.02655631775813729	0.11758825474334	0.1411767501872055	-1.663306787701476	0.8416705543190177	-0.1595541249657096	-0.9231377087534278	5.387261507429058e-16	-0.7484478386470659	0.001306183385211268	-0.2593457495968293	-0.3585708757869281	2.17009851836769	-0.9020236778160815	0.4185523769540853	2.47169730139181	-1.199676626609512e-16	2.86458220118034	-0.04801837522764596	-0.5567074703772248	2.66480850402464	-0.291790497554343	0.5608412442087564	-0.07884883731036872	1.646808155812465	-0.6045535063407	0.92988424039724	2.941328213227004	-3.344924217826251e-14	0	0	-1.931025337373196	0.8890343491781372	0.4024411763224959	-4.137590287475094	-3.344924217826251e-14	0	0
0.2504558844730551	0.3619050438885058	-0.3664378780487384	0.4800533412780498	-0.07084353168080598	0.1212627687534789	0.1000362469990958	-1.650743909963875	0.519464300865832	-0.2376057058948043	-0.8620798264525398	2.27397800209774e-15	-0.7203827793781804	-0.01158365443026438	-0.1656737840061748	-0.02744355578464852	2.238366495693075	-0.4897727711656854	0.4761801549335439	1.661408530423674	-1.665425112966383e-15	1.749947643165755	0.4702997718613235	-0.9232781922145757	1.487031600535803	-0.4687729404147035	0.349246587434825	-0.109954792305372	1.631008491371513	-0.7210167545594177	0.8138721263206081	3.142637142725196	4.824057496013157e-14	0	0	-1.708723486394819	0.9370385579053018	0.5606937008849504	-4.943637835824056	4.824057496013157e-14	0	0
0.2648312594138309	0.3688247763929905	-0.2053937710184478	0.5696152517393268	-0.09898991079182543	0.1201213275568067	0.07481480679298476	-1.635396200820471	0.3174173602961207	-0.2613815221460949	-0.8576205289804681	-1.583702626756777e-15	-0.7221419974982874	-0.011458543387936	-0.1460129668476648	0.2251821111819834	2.266926136929244	-0.2435338319865847	0.4044354783508263	0.9410589198164361	-2.847951250592453e-15	0.8282096900375213	0.2670532208035397	-0.5723196224411624	0.5822625081875361	-0.557939935753	0.1940567555719662	-0.1333107435538207	1.644612875309496	-0.7792571291867482	0.6488461748732119	3.132897681449331	-6.373983754353688e-14	0	0	-1.56055346504583	0.9450037889276186	0.6257769057057648	-5.403466264434197	-6.373983754353688e-14	0	0
0.2688	0.3676297029424758	-0.176330552652613	0.5833027483302736	-0.1058202698754524	0.1193092512873421	0.06948532329953649	-1.626944959221152	0.2835702054397675	-0.2579981437855189	-0.8537185164127858	-5.927904930288165e-16	-0.7289501253936953	0.01350814384262344	-0.1378412979203227	0.2634344639548236	2.273106345769411	-0.1991767589280708	0.378687932608847	0.7555899928735385	1.774694466982181e-15	0.5801849289541481	0.2868168531313469	-0.4092710124803942	0.4839106957797306	-0.5782716659631452	0.1678499711932226	-0.1351971250590068	1.653410016734275	-0.7885232589427923	0.631747691286954	3.134763008433065	-2.195729839439724e-15	0	0	-1.554833173460366	0.9433057041683177	0.6368189309669868	-5.495220788524819	-2.195729839439724e-15	0	0
0.2783128561131141	0.3645148822971593	-0.1128522179919666	0.612733644460412	-0.1198256018300956	0.1165938207127365	0.05725116565344208	-1.624006226027304	0.2083418110836488	-0.2550290597483081	-0.8655707038134968	1.915575025289119e-15	-0.7581219987071315	0.1101963755309399	-0.08635256140020861	0.3450524714087294	2.243991506131258	-0.1070849780916923	0.276247329762368	0.2529773819459974	5.815528115242545e-15	-0.002243944599148208	0.3967288357215435	-0.1682375332826231	0.2253469297520346	-0.6157342309753662	0.11154836403095	-0.145930180721372	1.719567939993838	-0.8097491959327247	0.5980340056694806	3.147387242083405	1.037003172510352e-13	0	0	-1.483627899752739	0.9390130432675653	0.6627698026718883	-5.68429467811182	1.037003172510352e-13	0	0
0.2952558844730552	0.347730835502554	0.04172266114278775	0.6831856467090227	-0.1412104994741748	0.1093257236675471	0.03855603442203359	-1.632299044968528	0.03011833968709987	-0.2751196365758842	-0.9217043469164756	2.710784409963112e-16	-0.8573012425930844	0.1763762443275318	-0.02684257007533347	0.498254384381503	2.143898781651073	0.1100823397892374	0.1006756687105579	-0.6718999251257499	5.550244314006618e-16	-1.002999401243888	0.4959069419628257	0.09923141604698882	-0.5050487859667361	-0.660174676584291	-0.05950780199268191	-0.1805677518663129	1.772881634594256	-0.8470947740160674	0.3474574886617272	3.176788404833966	-1.696284630057879e-14	0	0	-1.181975616235266	0.909414471650103	0.6611306883776499	-6.141496517163662	-1.696284630057879e-14	0	0
0.3096312594138309	0.3066177952861194	0.1163476003006647	0.6925862005439309	-0.1508544587563495	0.100820605183161	0.03205766449417425	-1.632161253505279	-0.0415673381329382	-0.2659792167819923	-1.003935329264322	-1.031662303804021e-15	-0.9870601912376618	0.228571943360024	0.02015027575546385	0.5597356178626585	2.027012370028289	0.190077980001881	-0.06532916682153295	-1.446905849441518	4.090687021360163e-15	-1.828684155915717	0.06671028989947325	0.6212257855355192	-0.543400919355677	-0.6457399087709715	-0.1589803164659701	-0.1869717046587633	1.83185155143601	-0.8446186163565432	0.1682521146286344	3.247263088058183	1.063085901690954e-13	0	0	-1.013902056882616	0.8567006945957585	0.6056669803133804	-6.351149073270664	1.063085901690954e-13	0	0
0.3136000000000001	0.2972100817143705	0.1281636102344121	0.6903354325089109	-0.1530471636712528	0.09855676920906123	0.03089572065990533	-1.631683141612403	-0.05042904406702234	-0.2600486298716728	-1.020410261883624	-3.100954214157934e-15	-1.029376885684971	0.264689085080532	0.04096982535948296	0.5702442423428484	1.9896417600885	0.2026410665498763	-0.09895783289655294	-1.648465178082192	-1.273302215239211e-15	-2.054838312712737	-0.0404555644269502	0.7978571346774992	-0.5176151957768289	-0.6434076597126265	-0.1778409447161113	-0.1869269266546552	1.859290730157284	-0.8442459471495123	0.1478695180931501	3.279894011462384	2.894793071489276e-14	0	0	-0.9876877988331576	0.8457014295736922	0.597673005924398	-6.383832826974016	2.894793071489276e-14	0	0
0.3231128561131141	0.2720310191541133	0.1499521127481895	0.6739237954583361	-0.1563969361621125	0.09268600431727431	0.02841304286764221	-1.638504928993796	-0.06623687287510133	-0.2472482205349453	-1.078035789717633	-4.185583341707337e-15	-1.140202176351669	0.3289708629168211	0.106477817886182	0.579608947916635	1.863656370446662	0.2286096268721107	-0.1926434984149726	-2.167909071567639	-6.92473324671968e-15	-2.595572443951996	-0.04117598652357968	1.115879574568258	-0.4636959722860916	-0.628249047125539	-0.2136092229799821	-0.1841800795469323	1.949580076160918	-0.8384418665204412	0.1149135090049753	3.400138916716299	-1.494803721758365e-13	0	0	-0.9076809029567117	0.8115395180119865	0.5684774986626349	-6.445764641751754	-1.494803721758365e-13	0	0
0.3400558844730551	0.199554379944791	0.1616703362741753	0.6154109962608035	-0.1557661292637594	0.07991784733707642	0.02723672728000132	-1.636997205735651	-0.0696333777475541	-0.2404777790289516	-1.217632368941679	4.374539651446666e-15	-1.359644444796228	0.2771293589894761	0.2072345602912369	0.5089368122992763	1.624016703582768	0.2687678837577103	-0.3154226304675499	-3.090308606275215	3.556198466795103e-15	-3.553176383034298	-0.01998408780092686	1.225941442344368	-0.4599686626632622	-0.5575769412681146	-0.2545513992134866	-0.1498778909743672	2.012020256182294	-0.7822360438476623	-0.06243673480939999	3.733941887567016	4.468345921298389e-14	0	0	-0.8311076450331657	0.6918608822827432	0.4032672908893714	-6.558790047116467	4.468345921298389e-14	0	0
0.3544312594138309	0.142184671633466	0.1273020502957071	0.5492083401278769	-0.1501249567518677	0.07007687336994753	0.02709307661504004	-1.63352958673158	-0.02768928869545076	-0.2382450606228693	-1.320054861220084	3.409367558428838e-16	-1.549848967182293	0.2662004869441199	0.3255654667854306	0.4293645427652101	1.413277362206331	0.267594162132569	-0.313245504926593	-3.80910831345909	-9.941782903143806e-16	-4.34466353049247	-0.6996760859740995	1.350543676073818	-0.250356916525406	-0.4933022164922527	-0.2408485200311415	-0.1012283520552495	2.050209322098196	-0.7171145456400456	-0.1486963252297496	4.006491066394145	-2.741812062110965e-14	0	0	-0.9077305154684598	0.5886336983200464	0.2612383792392599	-6.491642031403414	-2.741812062110965e-14	0	0
0.3584000000000001	0.1321049611156306	0.1274547593551785	0.533658730516251	-0.1491113882093915	0.06789759936834931	0.02673291814055381	-1.633896552481373	-0.02542729516149442	-0.23071104619212	-1.334612726608717	-7.541838551485414e-16	-1.600056051034741	0.2986708635892069	0.3607010797034115	0.4138262129009775	1.349568992770028	0.2822117142645548	-0.2868604589131527	-3.989335266950553	-3.774439371283664e-17	-4.555361585282441	-0.8416235914666746	1.536331340997708	-0.2061963446722488	-0.4856377253698037	-0.2491039088298491	-0.09189341880937862	2.079681696072995	-0.7059412899759092	-0.150627676008941	4.06581531021601	-3.267020899425088e-14	0	0	-0.9281811657098102	0.5660653926333993	0.2396235943247657	-6.471503227167388	-3.267020899425088e-14	0	0
0.3679128561131141	0.1106241866938751	0.1023174607256231	0.4896040499207563	-0.1445257830474193	0.06236041035428853	0.02553691221560726	-1.641527468100434	0.00759704442362627	-0.2089565107201961	-1.389002558222822	-9.688899871124439e-16	-1.711853961614279	0.2971049970400481	0.4176335293471951	0.3453213731927596	1.172254848973967	0.2918347611876539	-0.2224743436049074	-4.445236128757028	1.160837800796531e-15	-5.037331257160229	-1.022043038852996	1.734895691435557	-0.1564669850026077	-0.4623715850321366	-0.2350565317035355	-0.06308247058360844	2.152884320976634	-0.6716271405859224	-0.1387358838009737	4.232649487452268	5.247261344017327e-16	0	0	-0.9919603716409073	0.5078025590563247	0.1773864154071846	-6.383547674809271	5.247261344017327e-16	0	0
0.3848558844730551	0.07489715147662895	0.01180925199868729	0.3922237137280002	-0.1268474987681928	0.05062019446463573	0.02719497584705831	-1.654572663471461	0.1165303839493781	-0.1740258299003976	-1.48476885297807	1.179681599017005e-15	-1.863757608042546	0.1862655729476443	0.5038502114676934	0.03772196758012281	0.8599631945036466	0.2533145015971512	-0.0133731034317891	-5.183748826777932	-1.90225063183144e-15	-5.769723708050472	-1.479787193791923	1.795231122428628	-0.3550973899046459	-0.4168675370607758	-0.1675075768999039	0.03531064566669521	2.039925402272752	-0.5395886154437937	-0.1965206302006472	4.52107061006827	-5.536405108475592e-15	0	0	-1.363936810440113	0.3274624594209098	-0.02992776592720339	-5.992585707257189	-5.536405108475592e-15	0	0
0.3992312594138309	0.05944324271591084	-0.0563105103634334	0.3235812716267206	-0.111208408199297	0.03912763655347491	0.02531748842300613	-1.654198213150203	0.1874798581618827	-0.1781984294645489	-1.494654706592879	-2.439628962286868e-15	-1.923513098813741	0.1661677051357972	0.6389833382327158	-0.1745845846529013	0.6021731931724458	0.2332315327322255	0.2970330507845476	-5.67925395849472	1.291336662210382e-15	-6.19580957334839	-2.666523984892136	1.667604125042294	-0.4080198633230603	-0.392236262530043	-0.1165175638266115	0.1148954047032972	1.95788877589042	-0.435609868297159	-0.1829871466028076	4.615003750364624	3.817413857996717e-14	0	0	-1.66219144170896	0.200097922283004	-0.1463038979019071	-5.536107867745997	3.817413857996717e-14	0	0
0.4032	0.0555890477584239	-0.06407978846332503	0.3051643583034571	-0.1083533604896604	0.03504835215934035	0.02392429691862272	-1.646541333843312	0.195703319767029	-0.170905436272962	-1.486308858436301	-2.940234426427637e-15	-1.926260478837609	0.1409336174955416	0.6473942865339776	-0.2059444740743075	0.5369182610255996	0.2385401272170755	0.3996813600956048	-5.767263403893696	1.497139176722071e-15	-6.272077372527242	-2.872833081405659	1.734378144008346	-0.4006053524110758	-0.3883143127533033	-0.1125479957248637	0.1292899435141872	1.979311966078337	-0.4183312409712658	-0.1646606869877358	4.635753446967959	-7.175713811985125e-15	0	0	-1.702845677659309	0.1777448943862158	-0.161190269741349	-5.436078419634079	-7.175713811985125e-15	0	0
0.4127128561131141	0.05165254571586578	-0.09527474716347074	0.2511879844000982	-0.09970874151939446	0.02366289900957853	0.01977435340272916	-1.626914367714465	0.2270252750382456	-0.1471309109562139	-1.441870903926182	-1.579020175789372e-16	-1.906038860130873	0.165436909996281	0.7074520641688786	-0.3153363925249475	0.378998944574612	0.2227840032447417	0.6186568063148726	-5.898720774448099	-6.543705996070277e-16	-6.369788675427323	-3.103335625407999	1.788297572150705	-0.4878416484137547	-0.373388928181684	-0.08039545857733299	0.1690673620103141	2.058133215664554	-0.3703583110226366	-0.09771380407464603	4.682391783713439	-1.630863282647196e-14	0	0	-1.790010346389081	0.1182286544186374	-0.198184065177382	-5.130878682726729	-1.630863282647196e-14	0	0
0.4296558844730551	0.02996553379479436	-0.1802923966920077	0.1351365414635259	-0.08002735276333145	-0.003562377822716331	0.01264327086715994	-1.557035136354219	0.3107496342179328	-0.07093745762763502	-1.337247156022114	1.610419595450624e-15	-1.771481829098757	0.1394428596751132	0.7541121629150445	-0.6277763000671015	0.1934489181141607	0.1209770547668885	0.9761529678989767	-5.805358235219535	-3.179887079310372e-16	-6.212294905967561	-3.057238525916332	1.696374611035917	-0.9204527017208954	-0.3138564285340734	0.01534874277002088	0.2769731297505796	2.111204235843664	-0.2250812579953176	-0.04070582845708393	4.65350930500557	4.468746469543671e-14	0	0	-2.093027557368988	-0.03710095768206176	-0.278096590984219	-4.034745019614769	4.468746469543671e-14	0	0
0.4440312594138309	-0.00195839498320434	-0.2016330856949263	0.05544518677496924	-0.06189585005311446	-0.03109370475888381	-0.003068325651129553	-1.4879876716848	0.3045471062054412	-0.0438454212518293	-1.216447428282121	-9.005508877414487e-16	-1.559626077970486	0.2083593266999766	0.8528433089825351	-0.7445822243502134	0.1207329951805122	0.0820004165605312	1.153301332109085	-5.377886603634284	2.782939433417501e-15	-5.725497962315068	-2.917787183834873	1.3999585421442	-0.9254112306531506	-0.2304398322375934	0.06749549947829389	0.3376540784227048	2.211617805253017	-0.138529895349125	0.01276980970702862	4.58200173197781	-1.020771220148838e-14	0	0	-2.264888943447783	-0.127817081694252	-0.2689609944374038	-3.158097237815016	-1.020771220148838e-14	0	0
0.448	-0.007873650823392038	-0.1930006860134619	0.03882168957840516	-0.05627207440823925	-0.03852892686412198	-0.008115937900401018	-1.474120390261094	0.2925624266888435	-0.008936343200258143	-1.184121729376815	-1.707703829101833e-15	-1.486658221691598	0.2514072354162997	0.8336073442392717	-0.7591726314714295	0.1051154747593393	0.08324781293507261	1.172797862782788	-5.21269826894045	-4.446872618996561e-17	-5.535518731139792	-2.886306130741206	1.361628179447674	-0.8944671425913422	-0.2096334583369545	0.06690082066631312	0.3447388576867456	2.238555016996795	-0.126353978645742	0.02245739539235947	4.581317682920645	-4.294774834220318e-14	0	0	-2.290894068513837	-0.1423578292267402	-0.2606752329925878	-2.996042360919605	-4.294774834220318e-14	0	0
0.457512856113114	-0.0277634215363221	-0.1731293122730753	-0.008346336398105877	-0.04127021403151428	-0.05783065827683091	-0.0218589156247849	-1.435217919304469	0.2525580270897212	0.04869573925357618	-1.097972158854912	-2.887086231489681e-15	-1.289626182048406	0.3334299122582135	0.8461792379732904	-0.8001412662925866	0.09795743278329394	0.08298930299517038	1.138313295681497	-4.697240857288388	-3.408068348699444e-15	-4.99109433992971	-2.251640628053871	1.377055900905721	-0.8834252158625995	-0.1459566495135597	0.07438605941668947	0.361105889468945	2.323840323401306	-0.09620715098614835	0.06817692594356217	4.576674366403949	-9.783993103825961e-14	0	0	-2.379719011631974	-0.1794252203360335	-0.2315918596875233	-2.588487807775333	-9.783993103825961e-14	0	0
0.4744558844730551	-0.1065257586625144	-0.1034471910252312	-0.06782503054931877	-0.009170593715824918	-0.09295104969514656	-0.0499667041413499	-1.294061315031227	0.1394346894014474	0.1469782304913227	-0.887880823249878	4.723076687863552e-15	-0.8792484760034762	0.4236205743383674	0.7366749043708463	-0.6974449832295011	0.1734290716657614	0.1501271178138982	0.7137347269271304	-3.549281328530683	3.467004198607563e-15	-3.769388679089063	-0.9304787655372447	1.169406325916486	-0.9037646121072436	0.03473119207718593	0.04096771866521309	0.3782940660832877	2.291333445801731	-0.01687317620839149	0.03776333273850224	4.354334122140471	3.698317039974915e-14	0	0	-2.669144545500469	-0.2567159157735844	-0.113941230788164	-1.403491558909334	3.698317039974915e-14	0	0
0.4888312594138309	-0.1560333321931329	-0.01505015604528703	-0.08567468184518184	0.01229423727202196	-0.1143345783636149	-0.07728627976926869	-1.150151827241594	0.006325276516487038	0.1483442143879958	-0.6254889320783488	7.088196181230105e-16	-0.5000607803810165	0.5144817216783466	0.6581970907192092	-0.3671784624280443	0.2535356620160146	0.2836939439217575	0.2300988825179247	-2.507384235265999	-1.053328027930968e-15	-2.587240933099672	-0.6817293207777566	0.6222098193933028	-0.6071902642163907	0.1579179498011717	-0.01267858115261586	0.3747005837926967	2.273549923540357	0.02527407873182419	0.05851332414589727	4.084724989197727	2.145860517229128e-14	0	0	-2.690627861729385	-0.2986986355668083	0.01003080330025189	-0.6325988790908248	2.145860517229128e-14	0	0
0.4928	-0.1658106772197462	0.008699000940213586	-0.09494538947319536	0.0170988754297262	-0.1188625610047546	-0.08363437035547963	-1.104542573660024	-0.0229191517359571	0.1586259593877131	-0.5370215496877383	-2.033638314084817e-15	-0.394697551251283	0.5734351206509724	0.6054860060984024	-0.3148012066796795	0.2705626258233724	0.3148885349833415	0.09803192802939348	-2.22779083915655	4.1976357282972e-16	-2.255033913593879	-0.6970881972636884	0.6020609092882734	-0.5360559833532867	0.1833001178430111	-0.02806808892760634	0.374069233839734	2.296245648771026	0.03193267315180964	0.07025152648084632	4.053136551973829	-7.06429873372746e-15	0	0	-2.664847179552752	-0.3066315480336556	0.03515985048313467	-0.4839659523769967	-7.06429873372746e-15	0	0
0.502312856113114	-0.1923392119289478	0.05869365845650257	-0.1269677052131998	0.02881529689699009	-0.1293196009626892	-0.09942951107016738	-0.9889023590747716	-0.1010674393144797	0.1852451740386002	-0.3209335241663349	-3.355020949733855e-15	-0.1468528326669483	0.6553567752224285	0.5499248547752866	-0.1759620936676678	0.316257756677089	0.3892096995734968	-0.2125848525825588	-1.533863684180897	-1.874724648690209e-15	-1.474260626542336	-0.1916425878955709	0.5362939585692699	-0.4039726322655568	0.2491385057392013	-0.0530665397927651	0.3759773938715343	2.398067424936013	0.05063110664098402	0.1350502020978157	3.959763315364761	-6.168285170877749e-14	0	0	-2.600573854791553	-0.3288123011225113	0.1050700023371434	-0.1401174259303322	-6.168285170877749e-14	0	0
0.519255884473055	-0.2898466759020063	0.1816762873526588	-0.1832540757362809	0.05213858631848056	-0.1448885794648486	-0.1253848782271685	-0.7157328945009589	-0.2739245283663433	0.2216904550341225	0.09138339336340903	1.299703283175404e-15	0.2587494964436318	0.7853169303014249	0.3628622345299668	0.2284592706309911	0.3952538942441527	0.569031867801288	-0.8168998863771579	-0.4465988112296286	-1.91665369299584e-15	-0.2280776647262242	0.5640321247902655	-0.02357772121025381	-0.1503817478873193	0.4196525566964137	-0.1668973333575469	0.3786453571184866	2.447515235390961	0.1065016699670103	0.182942216848582	3.557077351958229	-3.852987966261986e-15	0	0	-2.515950455301385	-0.3597146674567668	0.295577545763726	0.6310806978719405	-3.852987966261986e-15	0	0
0.5336312594138308	-0.3344038338125381	0.2558029538801914	-0.2365651851862001	0.07798695547735768	-0.1499996797108524	-0.1448220682640906	-0.5656918954044111	-0.3892921082294742	0.1983929866191893	0.3727663214206454	-2.633420356917664e-15	0.5483186616994857	0.8364732210950063	0.3189720440579532	0.4867308283512533	0.3588102427917879	0.6550901126181669	-1.046501544197754	0.2100961559669986	-7.894911427499615e-17	0.590139977241392	0.5767045440836067	-0.4055456889405189	0.2268557101317692	0.5261360257954886	-0.2355772889791733	0.3921115970495609	2.419428663487396	0.1406783455035501	0.2282335603215861	3.283814415902334	-5.378123627543314e-14	0	0	-2.448609733702309	-0.3696948358744436	0.4156203841064476	0.9074346514663942	-5.378123627543314e-14	0	0
0.5376	-0.339490792595542	0.2717172344032551	-0.2512303609988241	0.08446719369202743	-0.1505995310183459	-0.1495136997549419	-0.5333464881327248	-0.4115596309102098	0.1897387717831483	0.4459029320013914	-2.549443928204267e-15	0.6181997495295698	0.8684882785878958	0.298919005852865	0.5159948695954617	0.335789983751216	0.6654880249196128	-1.063015066807891	0.3586168873722882	-1.749180424547717e-15	0.7695038410903844	0.5733218038771479	-0.3595314301097965	0.2706717333995007	0.5434611940306376	-0.2487984841258615	0.3948471784729157	2.441411035382643	0.1457939417386588	0.2372793236339831	3.264306387644231	-3.922944532224963e-14	0	0	-2.417975858203074	-0.371589578568698	0.437435725236976	0.9574460002491403	-3.922944532224963e-14	0	0
0.547112856113114	-0.3570097499439726	0.299544899252164	-0.3054212943805195	0.1012775558185012	-0.1522316310288923	-0.159628212224546	-0.4695034497137895	-0.4671368750680224	0.1919069695461533	0.5789321912430603	8.135052589734825e-16	0.7684864816144061	0.8618055261085253	0.3067541723091076	0.545851593501304	0.2716471394048224	0.6685804285996907	-1.002713435430404	0.6546375719999994	1.786231799033837e-15	1.115185876288448	0.4308488618492416	-0.3407787483452896	0.4174230201419101	0.5927592888267514	-0.2682430239981371	0.413510908287983	2.540912718416089	0.1643659225445442	0.3015809034925254	3.220117028103878	6.073589169871122e-14	0	0	-2.367099734615847	-0.3791870592044981	0.4917999123249253	1.012941442218001	6.073589169871122e-14	0	0
0.5640558844730551	-0.3771103913974795	0.3721122339092624	-0.4239649955421819	0.1383321815409499	-0.1487879137581758	-0.167901071538684	-0.3905517089323234	-0.5761886403561401	0.2257733245016456	0.778873553171145	-8.65325430258595e-16	0.9870262079649768	0.8116139637860467	0.2817374144578971	0.3937988020256799	0.1593251197526022	0.6223554014599443	-0.271585398382019	1.233109635373507	-4.776048160023411e-15	1.459618107667897	-0.4903127673528981	-0.06393923126742307	0.4235867095607891	0.6669536306593555	-0.3719770058660288	0.4765083585382432	2.38610398581096	0.2231527637134577	0.3346891473572786	2.987604949726349	-4.833224802555518e-14	0	0	-2.342302800429273	-0.3599347219917563	0.5943519129705882	0.7780773776732943	-4.833224802555518e-14	0	0
0.5784312594138308	-0.3565146976176922	0.4208829897402321	-0.5015418036435206	0.1684110314953768	-0.1399866909496882	-0.1769154996348567	-0.4026236759709535	-0.6635815402172149	0.1554294692460553	0.8766903420972563	-4.019127675578772e-15	1.149062128374436	0.7099887408148955	0.3872195850151686	0.1494537431407017	-0.02076440200200097	0.5676067306125252	0.6477230260609288	1.462947086318202	-4.279922268445669e-15	1.541265513376402	-0.8353625690437064	-0.09537500186179237	0.3291282911367023	0.6779424121790439	-0.431527234896559	0.5306441145158984	2.172367275560726	0.2583200366385887	0.3404867045851313	2.875056546171693	-6.225862665985921e-14	0	0	-2.260250312954464	-0.3339246582767296	0.6227907768640746	0.3735441309613334	-6.225862665985921e-14	0	0
0.5823999999999999	-0.3548910282350874	0.4301543353305951	-0.5106393216594332	0.1738090593050892	-0.137719559334115	-0.1818895623028395	-0.3934582237719222	-0.6834607329485031	0.151159099638565	0.9085235623430832	-2.631813671122001e-15	1.194883798894883	0.6882618903091331	0.3831774908896847	0.1106914927413601	-0.09787042765230258	0.5695635852765538	0.7310222143998084	1.375514954628459	-2.896587696075126e-16	1.540611111405201	-0.6561753787263644	-0.1893199639878444	0.2920662047995006	0.6806519758692324	-0.4335575678348225	0.5377091995936063	2.161920058201657	0.2624155334839723	0.3353717495459969	2.877199873239661	-3.174933525071471e-14	0	0	-2.192215828620478	-0.3297879113078676	0.6289636554406342	0.3345760461049223	-3.174933525071471e-14	0	0
0.5919128561131139	-0.347111943943007	0.4423708966346965	-0.5192972421357791	0.1837883847565616	-0.1307581102416558	-0.1956719882061675	-0.3837281519672637	-0.7229282469340201	0.07782314301850871	0.9637848649405043	2.641874696033885e-15	1.314394317356814	0.5821982735588728	0.4040264103329639	-0.07331289847102196	-0.1459711006690588	0.5752067006489789	0.533888456944175	1.459980001679211	7.682528115161734e-15	1.512710513270522	-0.2807429465041252	-0.5082840199849579	0.1795253857731263	0.6817537701709498	-0.4208068771755248	0.5624743376828836	2.05985205372632	0.2757269769057348	0.3258829899476841	2.852325573788367	6.869580775452972e-14	0	0	-2.023274042435902	-0.3152477859020869	0.6452132962830732	0.1872375138640183	6.869580775452972e-14	0	0
0.6088558844730551	-0.313007772238088	0.478280203752291	-0.4265437497817666	0.1841508054914787	-0.1009396116145055	-0.2256214525748593	-0.2917448366913916	-0.7910887263431989	-0.09176559936170751	1.209399950779832	4.602379371324162e-15	1.590476246350237	0.3146830772728408	0.2943563604203197	-0.6178979421768525	-0.05870355773426966	0.640789022007857	0.1163325710556254	1.654315993234644	8.400643520379744e-15	1.410472251812943	-0.5384986807129765	-1.707923643205861	-0.3850707435378731	0.630977399988114	-0.4228951709912541	0.6097844398630236	1.259347475904369	0.3093786618193464	0.1202773250494782	2.562822420439868	1.543053668395326e-13	0	0	-1.298292429640473	-0.2300158225253227	0.6400366343413394	-0.1900179447885376	1.543053668395326e-13	0	0
0.6232312594138308	-0.2945245227844875	0.521079803044748	-0.3159185101484429	0.1732115604885947	-0.06336120339042289	-0.2527326898747935	-0.1274672791077148	-0.8727685564808161	-0.3926102803783736	1.558258338550418	-3.415102900233489e-15	1.921702736491298	0.1005419085811205	0.2697686428827738	-0.8039586308538194	0.00719598480929623	0.7090282505937542	-0.07143420038278026	1.84114063254426	-6.532021521977315e-15	1.295165180746824	0.2920862293883513	-1.344736011014652	-0.4052687795887873	0.5877997395757005	-0.4258384040448675	0.617334251354707	0.6024649643721727	0.3181800320193642	-0.03406930096514471	2.317330120260203	-2.627368864532214e-13	0	0	-0.5872360233469287	-0.1693097026137116	0.6092321983316676	-0.2484935488466206	-2.627368864532214e-13	0	0
0.6272	-0.290974068657582	0.5330945551286592	-0.3021818137614529	0.169832447118964	-0.05200027361324374	-0.2585518991683047	-0.06554135987449722	-0.8967091061551367	-0.4321010091386818	1.677383239089376	-3.847931878911231e-15	2.032042842433723	0.04807937076384317	0.2404276195948265	-0.8154532923159103	0.02623451478322858	0.726163651153536	-0.06206297150022211	1.968825375047576	-6.931450178391537e-15	1.258337426065734	1.097840558598512	-1.105781225734364	-0.4020259081354078	0.5744227391573435	-0.4256609184981516	0.6155558239636429	0.484584150825028	0.3180175964458559	-0.05401171022548984	2.287607921581048	-2.213097208688065e-13	0	0	-0.4931957944013987	-0.161992377345514	0.6073631475203989	-0.2637334425395715	-2.213097208688065e-13	0	0
0.636712856113114	-0.2873098667820214	0.5507895216764425	-0.275151270129135	0.1597674896492645	-0.02164850184182721	-0.2731310315108608	0.09613009408259982	-0.9494290696981456	-0.5692969698918929	1.961617235965169	-3.524630498310879e-16	2.331412248735118	-0.1405984491795406	0.1799175449003469	-0.9189409608210544	0.05918021387611944	0.8038014735283345	0.08483814969979059	2.174243156032638	-2.569295304937426e-18	1.157335082642153	2.542844838604975	-0.9381998061841532	-0.3780818291939194	0.5460915682380083	-0.4078293341566784	0.6165667481621746	0.1381325071948915	0.3222363932645546	-0.06891677932553786	2.178331105975299	6.944329477926455e-14	0	0	-0.3104601128816503	-0.1491791986341673	0.6051934248039411	-0.3218551594690567	6.944329477926455e-14	0	0
0.6536558844730551	-0.2369281358785238	0.5710067940961638	-0.1549768216056838	0.1453146419207714	0.03355604187293001	-0.2978322167317377	0.3519051181998406	-1.017359902322201	-0.748429182540442	2.489660436424549	1.960761592993689e-15	2.979469931085272	-0.5594373963963454	-0.04869935024333105	-0.9943832491217885	-0.07506448468616378	0.912824847036934	0.1733935605985349	1.917271403030067	1.238275611263972e-15	0.9171008524069963	2.047770477204117	-0.9210699644650467	-0.4605964142924863	0.4740498731044328	-0.3844971453428844	0.5699460886754796	-0.8148393779373547	0.3288623335967285	-0.2019159026620263	1.821416411103568	6.770369303675022e-14	0	0	0.285507586821958	-0.1025918685166263	0.5569367944872426	-0.2990871315703724	6.770369303675022e-14	0	0
0.6680312594138309	-0.1783911363350615	0.5763772316324957	-0.09734926310455527	0.1499594315631132	0.06402476501150285	-0.3078412847606611	0.5387695311870311	-1.075645028635029	-0.8702100848375905	2.932438808327094	-1.722270898163853e-15	3.616893009504742	-0.8500947645991752	-0.1674988796127471	-0.6253094093700835	-0.5100828496070916	0.851380068204951	-0.1271070795760917	1.036846846547533	-3.284950767581235e-15	0.6436522076854592	0.5309374321052212	-0.6309490090620322	-0.2838027150158975	0.444630487540503	-0.3677176512312684	0.489500016272296	-1.288145248739797	0.3176799641240343	-0.3025549892449842	1.687808882220942	-7.644997337981332e-14	0	0	0.636185385657919	-0.09401297936939157	0.5123537930742206	-0.1172567867962091	-7.644997337981332e-14	0	0
0.672	-0.1693897075746562	0.5814626285047572	-0.09281575258743591	0.1505271104199487	0.06998391632077862	-0.3083480284194089	0.6202093763764787	-1.093379500772054	-0.849186645258633	3.110374333558978	-1.502299928100539e-15	3.80082214264526	-0.9374154113598374	-0.2403600326746607	-0.5207709918628693	-0.6523095076445793	0.8345598891739532	-0.1525776433801241	0.8961894370559236	-2.117259321434098e-15	0.5582426784736029	1.299500773244428	-0.3140218959138907	-0.2379627389973402	0.4404295296014686	-0.3713104892309155	0.4684000471675867	-1.349963026360245	0.3132154531282942	-0.3356409990767921	1.703618801775807	-3.610718672528177e-14	0	0	0.7365804663047946	-0.09483862977007845	0.5086298913447296	-0.04243196163385354	-3.610718672528177e-14	0	0
0.6815128561131141	-0.1441337387202648	0.5829354684211684	-0.09413607463543092	0.1510625718118812	0.08399869748500638	-0.3081830077423446	0.8099987273192719	-1.14076999999999	-0.828064107059963	3.45124484024327	-4.042355715416409e-16	4.244542526953706	-1.10067334309758	-0.3475289935451769	-0.2214113240752811	-0.9684212861099444	0.8010220187606854	-0.2128848315250386	0.3840644546101839	3.726106727586578e-16	0.341811249453586	1.362886631304438	-0.04960612953052124	-0.1954005988271732	0.4239899253920916	-0.3691553047727519	0.4198040186735217	-1.507641966807469	0.3079667607843193	-0.3713829044086095	1.705287786535201	5.654913604712656e-14	0	0	0.8658286306009751	-0.1054935646922216	0.5037915323785731	0.1166318348188617	5.654913604712656e-14	0	0
0.6984558844730551	-0.04735777453884515	0.5597923502753308	-0.05308777729003876	0.1458819324078732	0.1104039253662096	-0.3019491218176608	1.158520352462479	-1.159020574120636	-0.6478821237702717	4.206557674435254	-9.32530747814697e-16	4.997332516981174	-1.424656430615503	-0.7136159384581466	0.484177294226033	-1.496294815002455	0.7539901599827263	-0.2179599883821454	-0.4418144785503886	-1.95390269765963e-15	-0.05235216908830536	1.163354544103437	0.1731771235670443	-0.3383720583494088	0.3240330642110323	-0.3647869642988079	0.2864770794149082	-2.078676408676254	0.3041329205457233	-0.4139238189788228	1.357556498308097	-3.554245824858614e-14	0	0	1.022002443693046	-0.122325514935937	0.4607204850961925	0.6170294863925789	-3.554245824858614e-14	0	0
0.712831259413831	0.02299686147857814	0.5165909257944825	-0.04229244716093947	0.130732864269656	0.1273470961854394	-0.2947164318801386	1.480085631093402	-1.190012153104557	-0.4758825034503707	4.70605076335436	1.901098857267175e-15	5.534705728079212	-1.992741324419087	-0.8961945731592426	0.8006627707659126	-1.762049371253148	0.7256166506969031	-0.1040340764188596	-0.8600205882798835	4.926733459745833e-15	-0.3487032205527658	1.07545420414236	0.126227793080486	-0.2992932336917795	0.2278177255136542	-0.3267667752010555	0.2015039825800437	-2.568770184587646	0.3017881498950755	-0.3942079771236568	0.9642744086265389	-4.077905774138992e-14	0	0	1.075787479952065	-0.1433024077624085	0.432206317361443	1.033057850325775	-4.077905774138992e-14	0	0
0.7168000000000001	0.03721758410679815	0.5108072245511558	-0.04534897753152797	0.124531087072341	0.1291738594320468	-0.2911114361535379	1.603442095883198	-1.195875171513058	-0.4779747927531418	5.123744516400327	1.235474289388494e-15	5.658528946909573	-1.845382450336704	-0.8834185473755414	0.9101434586590684	-1.806310589918721	0.7240961533547436	-0.07455391803449429	-0.9418652038314153	5.787359133004744e-15	-0.418562311451331	1.016522182369344	0.07594713889835547	-0.2752463631325084	0.1999125663917745	-0.3248747082903265	0.1835106759026525	-2.720868417176006	0.3006265574409117	-0.4013101974772032	0.9026352187167039	-2.989833909730289e-15	0	0	1.080777412173562	-0.1492423555753105	0.4316683442021811	1.092073048542344	-2.989833909730289e-15	0	0
0.7263128561131141	0.06169285631354164	0.4918618500765457	-0.06555208592271791	0.1064656346850466	0.1337173384577696	-0.2854097835764782	1.823026724813395	-1.244427883847422	-0.3520707972891458	5.354912656953475	6.310449390519197e-16	5.902755953917267	-1.82235160002771	-0.8351580105222748	1.293755481889166	-1.869619583701981	0.7180047921238372	0.01809604572723672	-1.056878096535175	1.000469192754943e-15	-0.5595140001854102	1.05482789724442	-0.009825807027143973	-0.2540988069359451	0.1404628487258461	-0.2936874722520011	0.1542948883501372	-2.841876781175611	0.3067532486982071	-0.3711129696136688	0.7573721038103334	5.885306954922722e-14	0	0	1.130730128492009	-0.1744047408430696	0.4313853480277821	1.298038087070736	5.885306954922722e-14	0	0
0.7432558844730551	0.1303250898762103	0.4403128355607039	-0.06790667136675579	0.05281988643878326	0.13041556322208	-0.2668552725012187	2.230724959324869	-1.240818713397094	-0.1149265918550732	6.23605418909534	-2.527739161082683e-15	6.128548234979108	-1.45183349350629	-0.7566427468140997	2.304680234944548	-1.878987075740412	0.6633839865994694	0.1075779268731609	-1.120541251833503	-7.041464860067248e-15	-0.7109886357035288	0.8087058645852516	-0.1103413818954148	-0.3704495599521895	-0.04120955785899605	-0.2256103154595051	0.07628290238371865	-2.819474640368627	0.3361114331402787	-0.3268221862257266	0.1806337559982176	-1.725007803737203e-14	0	0	1.388063738129518	-0.2589929862533453	0.3839954315676167	1.887977604873932	-1.725007803737203e-14	0	0
0.757631259413831	0.1705587305290115	0.3870489438578882	-0.0502785092611594	0.01536034930001991	0.122753067810997	-0.2494158422101533	2.338555633362321	-1.201504992434224	0.1598116165836229	5.883615025183917	-1.771834584787169e-16	6.091366142981314	-0.6408000778545491	-0.4140837310411168	2.340595650040195	-1.85347228855892	0.5817406473765002	0.1065439952084645	-1.11453669743622	2.857768761335314e-15	-0.7483271740888958	0.7314433053683971	-0.0159187414435833	-0.2840429425975215	-0.1443319294060061	-0.1652070342691309	0.02970701670012013	-2.868447446742835	0.3569367985287534	-0.2855923234328216	-0.3558537264934845	3.812941750692505e-14	0	0	1.699735236932504	-0.3418550204368248	0.3354965747363552	2.174813527499366	3.812941750692505e-14	0	0
0.7616000000000002	0.1797629606797938	0.3794281183691616	-0.05167369662698908	0.007627950270375716	0.1191528281621374	-0.2426670637190391	2.38028984063376	-1.186675991257611	0.1800030460926517	6.034276855709858	1.904159691809392e-15	6.043733223986846	-1.140586596074532	-0.04006648222445497	2.360206644502777	-1.844946393082588	0.5593742015385139	0.08168938356630129	-1.113864742669793	4.147357150257223e-15	-0.7472379840052591	0.6463803933036325	0.0003509969688044734	-0.258365866838189	-0.1684785437800373	-0.163499832567414	0.01890615161210862	-2.967038032685307	0.3596076710333802	-0.2758099059207239	-0.4689513211010317	1.280055550603639e-14	0	0	1.731351590788025	-0.3573611116375552	0.3302633456441109	2.184279998880111	1.280055550603639e-14	0	0
0.7711128561131142	0.191205218401374	0.3639174600596133	-0.06002004397565118	-0.01200443522533239	0.1134793359442917	-0.2267623901545472	2.394907293147138	-1.138089418720677	0.3481864267869969	5.650556858593768	2.864273847118903e-15	5.86614178775733	-1.203792429760315	0.6285907254767725	2.458410269834125	-1.796513165434741	0.5062598564006563	0.02500454283133241	-1.047749068480855	5.232201193683404e-15	-0.7310822990745581	0.6922235378826986	0.1375451064315251	-0.220992685153411	-0.2193257464741309	-0.1579130398543562	0.001159052816480405	-3.085398523041404	0.372591463308501	-0.2269182212681089	-0.7394939989311047	3.828350847425529e-14	0	0	1.869461245603505	-0.4057343717404147	0.3136803543027484	2.208998190225004	3.828350847425529e-14	0	0
0.7880558844730552	0.2286959228229082	0.3136827570158192	-0.07539098095186234	-0.05757860662708442	0.1118411536954413	-0.1884842360384651	2.512675227060239	-0.9272235086908143	0.7298456446604231	4.957865543852916	-1.212783141185519e-15	5.346620164707161	-1.167487725431196	0.9231910106538965	2.267833735781132	-1.704229810680534	0.3592659708432823	-0.165809335636541	-0.9305426547376223	-4.310820274215358e-15	-0.681639126027726	0.5952716301035919	0.4492601767829127	-0.2554345417700452	-0.3576607333746026	-0.1453803441429775	-0.04657974383776921	-3.21720006288789	0.4124385634224809	-0.1349315830478342	-1.774363614131005	-1.159732189284254e-13	0	0	2.282301274626844	-0.5421057097823582	0.2198721834716475	2.090814273391706	-1.159732189284254e-13	0	0
0.802431259413831	0.2445346168022252	0.2885480948941164	-0.1096218794174986	-0.08853087258286882	0.1114088042691493	-0.1575857549336256	2.580685794850173	-0.7767714105390191	0.880662766916077	4.300732700505203	-2.232537651865977e-15	4.73518436148007	-0.9091324032004922	0.3320878078837317	1.720214376425117	-1.65235429039625	0.2558251219693979	-0.3444594354390075	-0.8849212183567869	-2.695842055526644e-15	-0.6509417195778333	0.51546211560797	0.6874921396401101	-0.06044262494604613	-0.4458087652988485	-0.1530754885238177	-0.07583674823389862	-3.216548838268176	0.4241003225862803	-0.1129035967279415	-2.570988137932674	-5.389384197413461e-14	0	0	2.536603857783653	-0.6147020828688873	0.1592608039648938	1.874651936744881	-5.389384197413461e-14	0	0
0.8064000000000002	0.2472364452568185	0.2823936315861633	-0.1176523197059276	-0.09589371965744703	0.1120617312010195	-0.1498177861431079	2.611882644597673	-0.7430145678976126	0.9319129611394807	4.13085251534106	-2.458492387726915e-16	4.544199256840965	-1.063371957533023	0.4751161859606695	1.615466514669903	-1.639904250748569	0.2317310661459481	-0.3953771682809145	-0.8848316357501642	4.183052530516081e-15	-0.6476973594148295	0.4314916324809863	0.7212501282997148	-0.0150975035369576	-0.4697284262573695	-0.1566211867017676	-0.08314866024250697	-3.280958138476925	0.4245707226034685	-0.1115942597061779	-2.717719712732069	8.765036713041118e-14	0	0	2.576065379297777	-0.6270444075823264	0.1529153316142267	1.831211964926559	8.765036713041118e-14	0	0
0.8159128561131141	0.255334855540964	0.2756143621890459	-0.1475911971949631	-0.1120651303134939	0.1130533265172624	-0.1314728543858752	2.633443252645408	-0.6742759631313475	0.9714180399610384	3.647672244154707	2.626126675236355e-15	4.055164449895374	-0.8395560159261122	0.3403734193666144	1.315278405544957	-1.605874942570332	0.1851658726580308	-0.4868864314980917	-0.8303155189358296	8.834596100003384e-15	-0.6519075794634444	0.509265495267347	0.8708568031878585	0.03140778910617004	-0.5241633803331242	-0.1685601546828284	-0.08925618673396118	-3.29960829226638	0.4294465635765897	-0.07869837596536705	-3.076091070647211	1.536015520384178e-13	0	0	2.676989844318776	-0.6564604538301669	0.1362158617588891	1.716334912064683	1.536015520384178e-13	0	0
0.8328558844730553	0.2967298783310846	0.2351966505002736	-0.2201626028190429	-0.1411574989973809	0.1191248709024884	-0.09432347690538319	2.671888567686917	-0.4967483619064565	1.049600200789099	2.822152563766954	-9.849414971085486e-16	3.103165599408705	-0.5946272391263443	0.06929204496653285	0.3861269902277231	-1.607823254136189	0.05991473765265859	-0.6937305964715056	-0.8164344303746808	-4.033338558448664e-15	-0.704084036501933	0.4800383297228878	1.126903897632454	0.02943498325056182	-0.6446535673157366	-0.1638218497833607	-0.09204468642593998	-3.120199964666522	0.446937979702648	0.01907609361152973	-4.279350833905387	-6.692774961856761e-14	0	0	2.937663989211404	-0.7383067102689025	0.04205280343831064	1.352252997237493	-6.692774961856761e-14	0	0
0.8472312594138312	0.3149252350792898	0.2069120147119439	-0.2800501407312382	-0.1553854012184641	0.1211043401087841	-0.07110962346204845	2.643334001375422	-0.407571191368944	1.000951990347868	2.024626450840884	2.637369455132952e-16	2.247463122850059	-0.6626074539673401	0.05505599410711931	-0.06260044393983755	-1.638439845815861	-0.008191169533476983	-0.8076296546079091	-0.8730373740522648	1.756321857698945e-15	-0.7880379935525104	0.4195761727574034	1.224951709440872	0.2493481903068911	-0.7038808498876853	-0.1488536992583388	-0.08541841698248549	-2.877483649260101	0.4444467260070296	0.0757191476397413	-5.073489487394955	2.174825736847025e-14	0	0	3.014069084509744	-0.7758866596223624	-0.01645713357736205	1.172542492326721	2.174825736847025e-14	0	0
0.8512000000000002	0.3158863974638896	0.2027253088820886	-0.2920047897277271	-0.1588895590065979	0.1209730380850224	-0.06601629601054414	2.64057757077869	-0.392757763749874	0.9863582485145956	1.819921847003688	-1.779062556796823e-16	2.007304873633447	-0.6875192741296419	0.07575044841795758	-0.1120929012575705	-1.642012973613072	-0.01666691052576286	-0.8340710619874996	-0.8970962693367619	4.326010018980328e-16	-0.8159411632262323	0.3276674365986969	1.20932711493159	0.2709551272550806	-0.7174709868649155	-0.1466681958995082	-0.08411893784050002	-2.844234070952922	0.4426944367292237	0.08931514716835087	-5.215428191527584	-5.493573445056828e-16	0	0	3.019296525123693	-0.7818858207855545	-0.02276936069265841	1.156499107183063	-5.493573445056828e-16	0	0
0.8607128561131143	0.3230380875794108	0.1924922959875932	-0.33448129226349	-0.1657003936612485	0.1197198987154549	-0.05458696782712803	2.595428573509948	-0.3676623513215018	0.9201126986616177	1.288893485911036	6.423392010691244e-16	1.428834570848191	-0.5492056345020534	0.05759241125830245	-0.2368036144756762	-1.65233920972534	-0.03469392968700855	-0.8640265551363117	-0.9030037296533484	-8.526376398235401e-16	-0.8879619987751242	0.4178335561780668	1.243742047465254	0.359347207767557	-0.7479042190989322	-0.1327590091755955	-0.06979658976103346	-2.649029941427602	0.4428462161668325	0.1676668281247953	-5.560088591375891	-3.8967408739439e-14	0	0	3.022002058220857	-0.8005417710912175	-0.04606972111568715	1.149705634700851	-3.8967408739439e-14	0	0
0.8776558844730553	0.3473694367989051	0.1336154740152912	-0.4153048301782849	-0.1732523423433515	0.1176291329978354	-0.03567709692480767	2.458068009286535	-0.2663341341138988	0.8023927250606944	0.3147047648331749	1.290592878563934e-15	0.3995594627461353	-0.372399631899313	-0.05391303664716496	-0.4096600199908131	-1.713855530637966	-0.1015221117269609	-0.9150567854395786	-0.9932514681829006	5.245579646003843e-16	-1.02097123693374	0.3519479290799092	1.227570891832076	0.3148029055904382	-0.7928651620150911	-0.05711893214753827	-0.03368843398832422	-2.120762071656141	0.4395380617895056	0.2858808401024169	-6.640140518325144	4.722919567186805e-14	0	0	2.964422534985835	-0.8360883507902538	-0.158119559196175	1.305389300637236	4.722919567186805e-14	0	0
0.8920312594138311	0.3405891946107711	0.08610939848585886	-0.4543745655186263	-0.173746437543066	0.1100863185929394	-0.02923599337231105	2.316312662392335	-0.2214356187373677	0.6756245392855046	-0.4994968891645095	-2.805978318320376e-15	-0.4633566081093784	-0.4717483143559684	0.03177892762644946	-0.2431042155591729	-1.737165092230471	-0.115069880946752	-0.8447821514753808	-1.067901567978384	-3.467086747046506e-15	-1.121572501834059	0.276867711028828	1.062541119686062	0.3121484915373172	-0.7892389338576714	0.02457996519181627	-0.008564581897624851	-1.733731138653499	0.4233701091709159	0.3264847322178837	-7.297829643278348	-2.943497269058095e-14	0	0	2.819888417629879	-0.8438922362610978	-0.2319811468873369	1.566151101429734	-2.943497269058095e-14	0	0
0.8960000000000002	0.33622163107679	0.08319289711365618	-0.4639732456176886	-0.1744800947397774	0.1072983607673842	-0.02766651415863745	2.281370369565006	-0.2177277706126937	0.6554097845541711	-0.7078315862464177	-1.670460344240677e-15	-0.699182446742238	-0.4876576024898848	0.07196976848974135	-0.2078464126267894	-1.737674679461033	-0.1056077902037009	-0.8276139673969571	-1.094496144814933	-2.544262485565295e-16	-1.1452951392091	0.1737758120378065	0.979379768421571	0.3100069024978684	-0.7897273441171287	0.03662245404022085	-0.003418937338500558	-1.636466308945807	0.4194749389756854	0.3383632802272141	-7.397997859599296	-1.157898154479137e-14	0	0	2.790732926772182	-0.8450844335774972	-0.2420496177525051	1.620600055324259	-1.157898154479137e-14	0	0
0.9055128561131143	0.3259676706749073	0.07269589563407264	-0.488546011436422	-0.1765818731786797	0.09897437465439163	-0.0237892195553243	2.178154611264798	-0.1998496723915903	0.6027605346308371	-1.208747364336947	1.470366532685103e-15	-1.259653761160355	-0.2876000657122245	0.05128359955809453	-0.1408885860294418	-1.725818155138309	-0.089855525372876	-0.7690751010364467	-1.089137235864521	3.562133350340701e-15	-1.192795328382456	0.2662192962548384	0.8917330106698163	0.3396280153657508	-0.7905430176393832	0.07009195180936253	0.01146793966544314	-1.349217937828777	0.4112814298493098	0.3699334541368459	-7.638604582612367	1.426555584356162e-14	0	0	2.719993886901787	-0.8480269001108769	-0.2777147616969503	1.825028212516941	1.426555584356162e-14	0	0
0.9224558844730553	0.2776093696315092	0.01707525579983299	-0.4941880376668707	-0.1793255134676271	0.07973793517165027	-0.02227805932333345	1.976160271104737	-0.1222160264042201	0.5139337085336092	-2.112294612641054	-2.178175350327004e-15	-2.23908547626043	0.02624026175140892	-0.1453180268028673	0.05753065002461211	-1.652993103332487	-0.09563951745621607	-0.6607784075669172	-1.08475943313275	-5.520728201197288e-15	-1.239209303937773	0.1389583205263631	0.6839831144534132	0.162798828758156	-0.7553114899158173	0.1765340091652565	0.02863610426141711	-0.8309600019446073	0.3752171902117484	0.2098148594677464	-8.275716400276636	4.119367708597241e-14	0	0	2.479720412356127	-0.8214205780606399	-0.4127760726532098	2.559549160341888	4.119367708597241e-14	0	0
0.9368312594138312	0.2108361865843067	-0.01080213700648053	-0.4728271180653104	-0.1792946254430359	0.05885326957070769	-0.02414831975898127	1.809600692436547	-0.07519757194571483	0.4987396828061424	-2.837591737966962	-1.777488667743704e-15	-3.045837346064244	-0.05440077256356257	-0.09036811591815674	0.2409093508429944	-1.53997113414307	-0.07354289959355012	-0.5179821069293277	-1.024831413821339	-1.852697097012159e-15	-1.237061229842345	0.1287933343437929	0.4769670591626431	0.05426664904812428	-0.701313911454379	0.2508117014556436	0.02987925515508737	-0.5690290455025746	0.3353462541753793	-0.01747957832570024	-8.478408389431538	-1.803402528913133e-13	0	0	2.269300107457974	-0.7827914821070052	-0.4881792287032918	3.08112120742589	-1.803402528913133e-13	0	0
0.9408000000000003	0.1963975439073405	-0.009729900513097772	-0.4711820720680232	-0.1790141587142593	0.05339425624055145	-0.02350771146428798	1.759245738202678	-0.06304323750707341	0.5173112773817007	-3.028757768382878	-1.290453589732132e-15	-3.263235194278112	-0.07541851507096325	-0.02818009430222407	0.2703608241677968	-1.51566532472401	-0.06093825807390058	-0.4880118800946575	-1.010164059493489	-9.038534283269336e-16	-1.229857157780796	0.1371840792952636	0.4230998752892912	0.05468139923205684	-0.6920742177793144	0.2598366961601331	0.03024811415918832	-0.5145679787772105	0.3272388762533806	-0.05940447118147435	-8.491109057740712	-1.760288709218407e-13	0	0	2.228970783324509	-0.7757366005843763	-0.497119787116203	3.1662595710901	-1.760288709218407e-13	0	0
0.9503128561131143	0.1576148784571655	-0.005167449266707536	-0.463789055917923	-0.1785587586543788	0.03903704883068281	-0.02155359864112225	1.625740293363849	-0.02896381098807294	0.5646569096258378	-3.492217546676415	4.218405965814203e-16	-3.7716222806461	0.06968644490339232	-0.02919349390795234	0.2861569861766226	-1.444164796113212	-0.03334930020601204	-0.4155184267895388	-0.9587396602974838	2.550258428390129e-15	-1.201721435201602	0.1409640965339056	0.3115170863146034	0.05009735098144752	-0.6662526986656695	0.2769262225838808	0.02904868630308272	-0.3755393050341505	0.3064409639746962	-0.2033668544480894	-8.485280306672408	5.052322204313333e-14	0	0	2.133059743622918	-0.7550401886626167	-0.5286747140243042	3.410135626110349	5.052322204313333e-14	0	0
0.9672558844730554	0.04351996057324378	0.002767204043878424	-0.4011075108987044	-0.1718873494493272	0.009266931233455372	-0.02360321146639483	1.383986375938776	0.01300944714532565	0.6415102933246185	-4.339990623018481	4.539209096650482e-15	-4.613431443044556	0.03328880092407016	-0.05805443907084706	0.250465108896048	-1.247451708996713	0.01907989865093046	-0.2424355637466956	-0.8293921565341699	5.760209546145065e-15	-1.118122651640239	0.1046355167478079	0.09133163769636288	-0.1759951718513235	-0.5624853166995343	0.309887716283614	0.00669845719432445	-0.3935677057310364	0.2377306608333117	-0.8028050285740215	-8.290129207215427	1.761030868894683e-13	0	0	1.819966691491071	-0.6603148367500044	-0.6295776899687304	4.01603281396393	1.761030868894683e-13	0	0
0.9816312594138312	-0.04277350157598954	0.02801880124717626	-0.3396400463478131	-0.1623972495894109	-0.01524566613626438	-0.02183756032214972	1.145031214337493	0.03120610292105558	0.7702431426863868	-5.029723030510886	-2.865887976325839e-15	-5.228436000375488	-0.3636554431078987	0.215767111694984	0.2149454231206612	-1.078463284572274	0.06812755400409004	-0.101919951150325	-0.6725247292329462	-2.10175921893727e-15	-1.020253300255487	0.1834808836512045	-0.05732838893104331	-0.1939947361235232	-0.4793423075225294	0.3096056833406325	-0.01549610240990653	-0.5784154029754872	0.1817656126200997	-1.231908545352483	-7.875789553112032	-1.006422713178705e-13	0	0	1.643073083909657	-0.5789157815837516	-0.6557373703401398	4.276214740468806	-1.006422713178705e-13	0	0
0.9856000000000004	-0.05925990852170544	0.03468969034599914	-0.327730431781674	-0.1604431792482579	-0.02131508931908986	-0.01958553824316953	1.071316217049861	0.04335311529094832	0.8238949215800713	-5.208324836729881	-3.018150006764754e-15	-5.376081588300701	-0.3906469774165342	0.3205732711310409	0.2015655852655085	-1.040599273733911	0.07732242713893572	-0.08034795611634449	-0.6483811403834563	-3.733139788573421e-15	-0.9897573344135764	0.08723788670041965	-0.1230270886393866	-0.1797958604515981	-0.4653651804685757	0.3068382706074184	-0.01951351896356779	-0.6000213279796511	0.1710192909351886	-1.301202990212746	-7.781776589249522	-1.424306165798977e-13	0	0	1.626695735461684	-0.5642386748806096	-0.652737861402539	4.320543796404364	-1.424306165798977e-13	0	0
0.9951128561131144	-0.09540480311265662	0.06204776390187541	-0.2992311965431402	-0.1538872800429747	-0.03679735384362136	-0.01292026449670897	0.8916990917062548	0.0604228315428381	0.9487788592482913	-5.558941824733635	3.612568673462353e-16	-5.681393696090331	-0.3169166935702633	0.370839022482635	0.09640212939146409	-0.9500161877953943	0.1102706370177197	-0.005540841018057518	-0.5330045589962609	-3.703717141317712e-15	-0.9115116125421635	0.1815494048636868	-0.2037799158667846	-0.1435041594069393	-0.4245171224493411	0.2821046627129183	-0.03053160485271349	-0.6343971786211731	0.1440576208957869	-1.509495547580249	-7.470608501286058	-5.50349504490327e-14	0	0	1.60984948793232	-0.5244177166246559	-0.6570843049089271	4.430194604514385	-5.50349504490327e-14	0	0
1.012055884473055	-0.1687498478510801	0.1568321419230811	-0.215746247484881	-0.1313267547557605	-0.06641230898359737	-0.002987550592934349	0.6068254698251442	0.0005642565822390755	1.144666309530834	-5.93892951640871	-6.982151329912144e-17	-6.01850054071059	-0.3289417225419403	0.3005465941759062	-0.2486534137056846	-0.7640947765874595	0.2154381393523497	0.1590502914407413	-0.2923409123168841	1.912440361932806e-15	-0.7565832691193909	0.2568233979272461	-0.3814346197617082	-0.1582788525218473	-0.3065702370340254	0.1796373582292635	-0.05850800032924981	-1.047222910635261	0.0742618421752268	-1.988641650107418	-6.395867758426252	1.233590682845407e-14	0	0	1.542211548279668	-0.3924269343931368	-0.6746788579214368	4.496688678111922	1.233590682845407e-14	0	0
1.026431259413831	-0.1860677089516429	0.2573506966648966	-0.189218803731465	-0.104621706710763	-0.08924702764471279	0.0164968126357393	0.4267774969889945	-0.05733436533592423	1.280140808805663	-5.817816327608297	-7.928256107641975e-17	-6.053636267835526	-0.6582148663826216	0.3910774937631811	-0.3815868380188614	-0.6688045623481682	0.2996612831065758	0.1651412793222747	-0.0684090414383913	1.720410368006654e-15	-0.6111091975455035	0.4390946294553979	-0.3729271941411496	-0.03608788533697749	-0.2150984257843314	0.03860590527003632	-0.07470992210613479	-1.311737379062867	0.02389148043770298	-2.092810660161033	-5.403513026695375	-3.151988317036028e-16	0	0	1.510791355831205	-0.2962841804520274	-0.6413118795196895	4.357027101152529	-3.151988317036028e-16	0	0
1.0304	-0.184770475400893	0.2845543382998165	-0.1965194423482398	-0.09745514725462712	-0.09502701091738158	0.02432868259987447	0.397515133854812	-0.06480675079602616	1.303957845044006	-5.701120483017624	-8.05681434296616e-16	-6.01841382444503	-0.715107908079885	0.464653869983802	-0.3960548990600243	-0.6540136592226575	0.3149521786402607	0.1542266627163745	-0.03113773156814775	4.333771071356005e-16	-0.5686960236255488	0.3698300641873411	-0.372956192260777	0.002061695086124526	-0.1932243020027344	-0.006002341366798059	-0.07887694069419622	-1.304239449735728	0.01195013315183782	-2.102051147860446	-5.183156193487601	-7.772367864846349e-15	0	0	1.494396308903279	-0.277574049910047	-0.6286029535285605	4.329571211720676	-7.772367864846349e-15	0	0
1.039912856113114	-0.1797506831882069	0.3369350365600752	-0.1876927903928988	-0.07907333882128575	-0.1099545161068358	0.04305446443105058	0.3413125744683879	-0.0832597247905954	1.245737038050011	-5.281943230435963	-1.42485369411177e-15	-5.852246569124693	-0.6347281049703744	0.5172014548836676	-0.4880865271603376	-0.6082623069139372	0.3482005965034501	0.109372025015396	0.1308797738076682	-1.712846225772127e-15	-0.4629193400379871	0.5478443139843547	-0.3192545862432858	0.05707934219536581	-0.1314890143478872	-0.1058891504570484	-0.08971539320275557	-1.318182578610129	-0.01106207890653416	-2.097133749612646	-4.623628105893266	6.064277838548645e-15	0	0	1.546729150806338	-0.233337101993297	-0.6073083501232429	4.30019867584212	6.064277838548645e-15	0	0
1.056855884473055	-0.1782870183898966	0.4947951575723142	-0.1857757320109322	-0.03770727293454196	-0.1376421255960688	0.08200320923139939	0.3735049986621397	-0.1620973711325078	0.8354772692673009	-4.112856853731459	6.482647390825405e-16	-5.2776464642271	-0.5530140441008961	0.4329535769771217	-0.7129021509318239	-0.5530825625783425	0.4521823511484042	-0.01635243388488067	0.3638448376449043	-3.310530634191699e-15	-0.2589491481013632	0.7062947102950199	-0.1016164027738101	-0.01058504197682342	0.02240061480982335	-0.3868455230634533	-0.1225206633470534	-1.610285376245605	-0.05229048356179505	-1.804538262568856	-3.045455224993231	-3.180332611584743e-14	0	0	1.614361776788597	-0.1029827617811358	-0.5657064701000174	3.973898531814428	-3.180332611584743e-14	0	0
1.071231259413831	-0.1678584713418269	0.5715419744733486	-0.2012705735068403	0.0003414794023610668	-0.1596521608215715	0.1212742268415227	0.4444827094398593	-0.1305320202111057	0.2528728588824789	-2.881884946202415	4.857803785944256e-16	-4.542400753923165	-0.8477414404474828	0.38724528107274	-0.7035639949116299	-0.5636557903102526	0.4669142886541316	-0.2421086031928637	0.4925595682253138	2.062087419546187e-15	-0.06876737685564201	0.8976321718260043	0.2067140335699137	0.03329269337778307	0.1679235466652788	-0.5806113124590702	-0.1584338654201962	-1.674453292900354	-0.07359554137695071	-1.35333316621124	-1.872872627405671	5.377173471497546e-14	0	0	1.675077491134942	-0.01678768192644726	-0.5083640677050379	3.703672336959541	5.377173471497546e-14	0	0
1.075200000000001	-0.1634421597981321	0.5782489701708232	-0.2027273749058027	0.01052102688113969	-0.1651902930089615	0.1328055695785122	0.4556396311840433	-0.1017813133384028	0.1017606857742288	-2.55565732789735	-3.258102581266503e-16	-4.306892003328969	-0.9423343335708254	0.4020154197721448	-0.6957993733747019	-0.5681634888921292	0.438089883828721	-0.2029833097781691	0.5062236869822545	1.517917161465862e-15	-0.01317755775881974	0.7891206872635657	0.28865674257991	0.04534877225206879	0.2053803172679294	-0.6189472586818867	-0.1686654496044659	-1.656485227749592	-0.07921673965542328	-1.274837279890705	-1.636228357770848	3.370884543115338e-14	0	0	1.692065978707731	-0.000350689074416273	-0.4920295860226708	3.670482658371449	3.370884543115338e-14	0	0
1.084712856113115	-0.1681865134101377	0.5734307874283012	-0.1908198725947688	0.03537929296198522	-0.1796126122023529	0.1559787039149268	0.4652060938978942	-0.01700471165212153	-0.2068884171758445	-1.826918726028829	-6.481615732139668e-16	-3.698545047406331	-0.7247129588247252	0.3923515989161928	-0.7323108952317183	-0.5677221466591175	0.4068972124602749	-0.3595094130197775	0.5726827640141807	1.410071270677574e-15	0.1258803239033796	0.9110260085040538	0.4005890359371489	-0.06014348980117501	0.3166078972725084	-0.6746856429067244	-0.1984848426605879	-1.583906004916387	-0.08569223008781057	-1.038755503143638	-1.043826651621584	-4.950365478340973e-15	0	0	1.758283682861042	0.03803719798756502	-0.4621540413053916	3.61621963590245	-4.950365478340973e-15	0	0
1.101655884473056	-0.2360772137054059	0.4147422677395916	-0.06126271609716279	0.09225326144181688	-0.2082478935631489	0.190706245377258	0.4159180958000025	0.2092388896210982	-1.052756768941544	-0.6170359178562623	1.250552231915924e-15	-2.520253023769723	-0.2291585796002358	0.05640161328883037	-0.7294359200700418	-0.522531245343679	0.1481412849466485	-0.3379791119184804	0.6690769447644274	2.618996115524328e-15	0.3973157850294057	1.056823467940205	0.686503151976865	-0.1176372102613037	0.6177542444777306	-0.58250843365005	-0.2895237987520055	-1.755863845207714	-0.05504915036356989	-0.2627499860700405	0.2726984577922136	3.802547067682794e-14	0	0	1.830426635152393	0.1361504194838062	-0.4010371185745613	3.337774183374736	3.802547067682794e-14	0	0
1.116031259413831	-0.2767814531269436	0.1289043415375624	0.1709811852233258	0.148842959200262	-0.2252166121097597	0.2007628375521662	0.150021809007164	0.4563213637137042	-1.441216954356317	-0.05016597308230322	-2.270757506129439e-15	-1.502554598673397	-0.0596262969990331	-0.3378882280589868	-0.4772575761702147	-0.537836918113474	-0.1800033894900364	-0.196013296348262	0.6390775124199445	-4.576626523670701e-15	0.656599468453868	0.9785478741579197	0.5677491577651537	0.05727734883688773	0.8538488461775827	-0.2670455967303356	-0.3650657287698061	-2.058071271714212	-0.003730054800367699	0.3148645842326818	0.8629950465568723	-8.36631265941663e-14	0	0	1.991089779480335	0.1867117542039838	-0.3338400200353377	3.298898957982895	-8.36631265941663e-14	0	0
1.12	-0.2726887759223591	0.05160008451888509	0.2288306151011629	0.1642375872994556	-0.2272816500494945	0.2040912328636779	0.05711182938882597	0.5251193937454617	-1.452817861351088	0.06332579832771949	-2.573780320662067e-15	-1.223565671499346	-0.05845662491951448	-0.3719570897779601	-0.4113900424577712	-0.5439545405304016	-0.2987817663801061	0.1428984089267111	0.7037686043128273	-5.471648735180289e-15	0.7309946268679718	1.133354294332111	0.6133316143025025	-0.1865326489040866	0.8958353102026457	-0.1792241153530358	-0.379999762216836	-2.126607638151299	0.008676287439316671	0.4315801222359409	0.936191928487661	-7.997673530400637e-14	0	0	2.038309302116941	0.1942937318321516	-0.3161150470422498	3.306688393798437	-7.997673530400637e-14	0	0
