DataType=double
version=3
OpenSimVersion=4.5
endheader
time	pelvis_tilt	pelvis_list	pelvis_rotation	pelvis_tx	pelvis_ty	pelvis_tz	hip_flexion_r	hip_adduction_r	hip_rotation_r	knee_angle_r	knee_adduction_r	knee_angle_r_beta	ankle_angle_r	subtalar_angle_r	mtp_angle_r	hip_flexion_l	hip_adduction_l	hip_rotation_l	knee_angle_l	knee_adduction_l	knee_angle_l_beta	ankle_angle_l	subtalar_angle_l	mtp_angle_l	lumbar_extension	lumbar_bending	lumbar_rotation	arm_flex_r	arm_add_r	arm_rot_r	elbow_flex_r	pro_sup_r	wrist_flex_r	wrist_dev_r	arm_flex_l	arm_add_l	arm_rot_l	elbow_flex_l	pro_sup_l	wrist_flex_l	wrist_dev_l
0	-0.08839826467876542	0.06889146862522844	0.02864439635580379	1.057466059459962	0.9447954696296221	0.4328486501166662	0.6241840194920057	-0.2394096194904866	0.1333792523799799	0.3554704957684756	0.03879643001440361	0.3484251164524865	-0.05225025451267358	-0.3663692106431132	-0.04230565344978472	-0.04601490875595092	0.05928485912075113	-0.09612736420299615	0.1880610007561085	0.09396746454545898	0.1563783269951611	0.2752227771702088	-0.07600329100797805	-0.03547132733257385	-0.1903268247527952	-0.01585726643733479	0.06282947992624853	-0.1989052140932503	-0.1656000629832293	-0.4757383075814438	0.2342248004415332	1.570796326969429	0	0	0.4964542173584691	-0.3321464340298055	-0.04608678731053649	1.407389504403937	1.570796326969429	0	0
0.009512856113114032	-0.09162410600806091	0.06729872354232727	0.03097645456566872	1.059311491564331	0.9426356326342882	0.4347036758258285	0.6246634325519989	-0.2349472351198888	0.1216674731859823	0.3572028781385956	0.03879643001440362	0.3352255525811831	-0.05236934051124633	-0.3700751820343934	-0.04631649111225773	-0.05022675111113072	0.05415020033523012	-0.09658758076052634	0.1956829449131697	0.09396746454545901	0.1608688073584538	0.2854765883330349	-0.0707537846664866	-0.03741865596311345	-0.1834279460914208	-0.01732211847883204	0.05825834859284067	-0.2196820738968656	-0.1660828432537686	-0.4703890881787102	0.243615994247517	1.570796326969429	0	0	0.5157624148535431	-0.3300454544011654	-0.04956178898835142	1.438452093761661	1.570796326969429	0	0
0.02645588447305514	-0.09667130062136592	0.06318209265541604	0.03595415718233785	1.063370929278507	0.9388347308716002	0.4382665230513893	0.6234485501114128	-0.2248178362664934	0.1025530428225994	0.3699743188212722	0.03879643001440363	0.3279258688304888	-0.05129400272890914	-0.3784745039568795	-0.05242386415416905	-0.05677794428205291	0.04288099215409422	-0.09696911422241331	0.2137863496075572	0.09396746454545903	0.1763614874309315	0.3020612254049919	-0.06332962355373768	-0.04211037406846931	-0.170126165460994	-0.01847216618549409	0.04972729625463596	-0.2607874259836018	-0.1667811492228139	-0.4540587503423267	0.2604641364399672	1.570796326969429	0	0	0.5437836147648146	-0.3254292723903914	-0.05610307733233738	1.489709281492247	1.570796326969429	0	0
0.04083125941383081	-0.09957017802496579	0.05861816392205469	0.04098552059167651	1.067561123627693	0.9357823984166789	0.4414485616877503	0.6192971604685378	-0.2146257960289923	0.094203336840831	0.3876338259345679	0.03879643001440364	0.3361017332090347	-0.05574701432854785	-0.3844529377243369	-0.05651533181607361	-0.06179387849252898	0.0317237091890533	-0.09524654724142492	0.2340830122086216	0.09396746454545905	0.1983482882394517	0.3144712752087792	-0.06133331254099589	-0.04700297391029456	-0.1588644134491387	-0.01773438151580484	0.04202005554425543	-0.2982797438134443	-0.1672014880937163	-0.4356624065587121	0.2702759433071405	1.570796326969431	0	0	0.5585105581027392	-0.3204791152409177	-0.06221648056264075	1.528339332279312	1.570796326969431	0	0
0.04479999999999995	-0.1000951389109291	0.05723510474321499	0.04248566997313232	1.068797942768277	0.9349775041130993	0.4423470203320519	0.6175240456312207	-0.2116630298564264	0.09433413117200976	0.3929505837039908	0.03879643001440364	0.3403153175072408	-0.05861634995286795	-0.3852840182919036	-0.05748702109279004	-0.06301081965822806	0.02847269425580066	-0.09439522317818931	0.2405702544454588	0.09396746454545905	0.2060214459245196	0.3172516516002062	-0.06186147555227595	-0.04803023194160641	-0.1559217997990534	-0.01730935465141285	0.03981364491024719	-0.3081348065801416	-0.1673163179220925	-0.4308110959766262	0.2719149898875004	1.570796326969431	0	0	0.5615663880351776	-0.31899250004027	-0.0638480409318618	1.538742585329988	1.570796326969431	0	0
0.05431285611311398	-0.1012078564058131	0.05360359981179067	0.04629163289945554	1.071882422286093	0.9330927437581912	0.4445533204828589	0.611995046522638	-0.204349849201234	0.09651049896496033	0.4044923042151267	0.03879643001440364	0.3532275253426	-0.06135580606238328	-0.3884098601646551	-0.06069330772845842	-0.06514216973100563	0.02026334387894205	-0.09176388468852351	0.2579457140729137	0.09396746454545908	0.2274597179529609	0.3233258118402061	-0.06478354318468525	-0.05090501681985943	-0.1488287176522554	-0.01591753680351631	0.03440011714356341	-0.3311020770477006	-0.1676112580607978	-0.418956759653855	0.2753747377400035	1.570796326969431	0	0	0.5677882920798577	-0.3152367199954443	-0.0676354379640612	1.563294746361852	1.570796326969431	0	0
0.07125588447305514	-0.1024332654051414	0.04592333182736591	0.05159760223403641	1.077327856038786	0.9302223973365493	0.4488626415746472	0.600212759410609	-0.1890330679432666	0.101862293504452	0.4239771880641323	0.03879643001440362	0.3833153567823613	-0.05159113297803399	-0.405228360662528	-0.06934055603459413	-0.06479498787024783	0.004256607831453945	-0.08625169506749007	0.2975999287986785	0.09396746454545898	0.2769414838037667	0.3308467337339484	-0.07742530597495213	-0.0602982672089695	-0.1373154030973115	-0.01205560386911731	0.02416435657312711	-0.3554656052648058	-0.1677860053372896	-0.4002758095329425	0.277674503612553	1.570796326969429	0	0	0.5714639875535367	-0.3075900373759284	-0.07481515803703466	1.602389934889294	1.570796326969429	0	0
0.08563125941383082	-0.1032747903695188	0.03755684151839515	0.05341721892360538	1.081412512430368	0.9285438586994674	0.4530205394460157	0.5927943428665299	-0.1724676710667751	0.1048513276078307	0.4450711270080805	0.03879643001440364	0.412026053934314	-0.03179549411301941	-0.4265351838403096	-0.07526555831040795	-0.05776741287139087	-0.01151195210978059	-0.08275625809897111	0.3427238042387355	0.09396746454545904	0.330806436310489	0.3322075303276681	-0.0952648160064829	-0.07414037670195382	-0.1289602506739032	-0.00689236991488258	0.0150665016227089	-0.3524898108726746	-0.1672817765745964	-0.3881793793683176	0.2756255929083063	1.570796326969429	0	0	0.5666945591222052	-0.300180165414451	-0.08168622939249429	1.629204103723732	1.570796326969429	0	0
0.08960000000000001	-0.1036578783637343	0.03487741021565598	0.05356910954259319	1.082410152380376	0.9282142536949225	0.4542449081062924	0.5917054949716475	-0.167299130834497	0.1058631128606771	0.451955309585698	0.03879643001440364	0.419914939427209	-0.02457217009531516	-0.4308264884034655	-0.0755465944464153	-0.05432526681283609	-0.01637432014706702	-0.08237029188958517	0.357329080402101	0.09396746454545905	0.3476083824678752	0.3314773148961008	-0.1008968673273096	-0.07843517006340964	-0.1267394411657829	-0.00514125348907518	0.01258433031390482	-0.3485395286152116	-0.167056894102818	-0.3854130749747887	0.2748614552164402	1.570796326969429	0	0	0.5647618200904392	-0.2980764847530371	-0.08358288397869404	1.635951681699459	1.570796326969429	0	0
0.0991128561131141	-0.1045211475007727	0.02818521890551064	0.05384325393736741	1.084751742679688	0.9276537452391971	0.4572280676795691	0.5890965821086592	-0.1543998283981882	0.1081831071230908	0.4686761682962521	0.03879643001440362	0.4380457699112437	-0.005179692276897339	-0.4422099851181265	-0.07755661500400643	-0.04429543579646749	-0.0284281348653457	-0.08125354957606733	0.3952969487620345	0.09396746454545903	0.3911827230090197	0.3273696526931136	-0.1162633171196686	-0.08830913599159536	-0.1215123617500156	-0.0006848064052977559	0.006848097308830103	-0.3379086477468118	-0.1664942593264962	-0.3791964552903943	0.2714132681097393	1.570796326969429	0	0	0.5581231114719318	-0.2929779041812833	-0.08827243093869565	1.651231597226969	1.570796326969429	0	0
0.1160558844730551	-0.1061985571343134	0.01524458611553555	0.0540158534167017	1.088780869143717	0.9274255172658964	0.4626243613815785	0.5813206435361649	-0.1301539871435792	0.1121342735293925	0.4912923095531804	0.03879643001440363	0.4653720532456865	0.0250110411055521	-0.4628649077941525	-0.08128677079234364	-0.0198611276710085	-0.05129180677965671	-0.07874834571296403	0.4729046877461633	0.09396746454545905	0.4794281241452034	0.3103544515659499	-0.1500096278942051	-0.1043166409176069	-0.1118343601106519	0.00829897782269823	-0.002181560163106357	-0.3133706775687843	-0.1657389942075095	-0.3722092516925836	0.2601074012773242	1.570796326969429	0	0	0.5402673615665616	-0.2834661599657567	-0.09725391535722815	1.674743727135439	1.570796326969429	0	0
0.1304312594138309	-0.1073353078558543	0.003559727434283609	0.05430775291679257	1.092168339441724	0.927919476586533	0.4670851979833285	0.5679938537635565	-0.1095813599064596	0.1142759819349423	0.4973817759270575	0.03879643001440364	0.4814445210910061	0.03969025522092495	-0.480259343322588	-0.08545996599031347	0.006388980365353509	-0.07142538884835001	-0.07487577607662206	0.547287979498727	0.09396746454545905	0.5630340137569341	0.286443197629402	-0.1853992143757292	-0.1132199073518314	-0.1034502202749513	0.01701134293850291	-0.008185157081132219	-0.2901787023680251	-0.1656707823087423	-0.3702294155897469	0.2469896259602282	1.57079632696943	0	0	0.5193297087518427	-0.2749294536563716	-0.10525214493959	1.689569263432502	1.57079632696943	0	0
0.1344	-0.107534041622966	0.0002807858042705059	0.05451999935481799	1.09308940151532	0.9281454449428616	0.4682705372711716	0.563161299391336	-0.104118459696115	0.1144738815572731	0.4969872840314504	0.03879643001440364	0.4845776293842117	0.04204962086143597	-0.4847023859133314	-0.08678160603047522	0.01439340959933711	-0.07703806292915542	-0.07357673480086624	0.5689986269484685	0.09396746454545905	0.5871566515903595	0.2785693449683323	-0.1959946547769439	-0.1142097420084802	-0.1012405659708842	0.01957366529519175	-0.009556822111629001	-0.2842344569099534	-0.1657714658065068	-0.369777243403522	0.2436836503066543	1.57079632696943	0	0	0.5128972442242605	-0.2725472325074488	-0.1073376635227922	1.692743039062569	1.57079632696943	0	0
0.1439128561131141	-0.1080297084167042	-0.007891015701856588	0.05502353416550201	1.095163836987258	0.9288109367613143	0.4710433442085282	0.5509579586690357	-0.09090485757284573	0.1147644135488471	0.4945289978197324	0.03879643001440363	0.489776957653244	0.0483313447337901	-0.4945097354078529	-0.09052776947740261	0.03515603552744292	-0.0906272797771485	-0.0697265284443994	0.6228207278724438	0.09396746454545904	0.6461754949386566	0.2581596099926692	-0.2234643311486209	-0.1142104865391773	-0.09608488785082847	0.02626409736677927	-0.01249869124482871	-0.2686404945516297	-0.1660197997881361	-0.3682787960686045	0.2363728231374705	1.570796326969429	0	0	0.4963699447716763	-0.2668082011837971	-0.1122799654040666	1.698745665233299	1.570796326969429	0	0
0.1608558844730551	-0.1081248312797047	-0.02348386043275892	0.05649446435079901	1.098299468626859	0.9303712391095279	0.4756208847508391	0.5265700978829854	-0.0671667809137057	0.1147597668294296	0.485296607230305	0.03879643001440364	0.4915658001752485	0.05979877366102809	-0.5101842244102601	-0.101512586057335	0.07760019960426237	-0.1151071548962191	-0.05852246522762072	0.7263632660308451	0.09396746454545908	0.7527490485008803	0.2137034008724913	-0.2787573956746506	-0.09835431540212301	-0.08870549075550895	0.04026507731294869	-0.016290910356969	-0.2405720818823154	-0.1672991656036751	-0.3630742870638796	0.2303472674122151	1.570796326969429	0	0	0.4640403203163725	-0.2560646958555725	-0.1198574075366957	1.698645916031719	1.570796326969429	0	0
0.1752312594138309	-0.1069694434855332	-0.03732213790735326	0.05811049928082454	1.100306875832183	0.9319430009320384	0.4791360719983381	0.5036690694956309	-0.04705580782814742	0.1146466843603756	0.4737127662689872	0.03879643001440365	0.4870073248711306	0.06748169159050305	-0.5224065843476096	-0.1145591531017584	0.1167059505169386	-0.1361351030352546	-0.04641996116615386	0.8177038458770255	0.093967464545459	0.8407928562247765	0.1921609681458976	-0.3209275539852591	-0.07981098219354343	-0.08502468337572774	0.05365553608179592	-0.01820049489457596	-0.2161892926748336	-0.1697548024236988	-0.355870814886048	0.2365374996189636	1.570796326969428	0	0	0.4342695284023724	-0.2461186948304169	-0.124130835029228	1.684405437789772	1.570796326969428	0	0
0.1792	-0.1065170940120913	-0.04105122926009157	0.05853895284220989	1.100779566114966	0.9323841978931253	0.4800581700149749	0.4971281075317392	-0.04168325102766835	0.1146314668948222	0.4700458073601705	0.03879643001440365	0.485015409086006	0.06903040194349887	-0.5255121871528849	-0.1180583307534811	0.1269102334295014	-0.1419528475137314	-0.04389832481447286	0.8408981937792069	0.093967464545459	0.8641866533942431	0.1961477677460677	-0.3285806523174229	-0.07815431530480901	-0.08428105323067622	0.05730698295757029	-0.01866039863379026	-0.2090187137190836	-0.1706652879154249	-0.3535576140318359	0.2404192789674686	1.570796326969428	0	0	0.4259292540201408	-0.2432363418094201	-0.1248108744169137	1.678543247445495	1.570796326969428	0	0
0.1887128561131141	-0.1054215918101646	-0.04993515763594393	0.05985532307373422	1.101764150175876	0.9334485112254343	0.4821533175875951	0.4814228513263888	-0.02919363173351886	0.1142982283146529	0.4608318794441633	0.03879643001440364	0.4793092799431573	0.07260345129913448	-0.5322648756671102	-0.1266741994594844	0.1513726588675927	-0.1559267363354217	-0.03808216868076206	0.8935754074113308	0.09396746454545898	0.9179741706970707	0.1943406290288813	-0.3448089809025076	-0.06528207287055478	-0.08279071455288434	0.0661446830715746	-0.01960468815980114	-0.1921395089182915	-0.1730959251018385	-0.3473838283346651	0.251331806804009	1.570796326969428	0	0	0.4055549946470144	-0.236184059244855	-0.125881118288742	1.662216825768783	1.570796326969428	0	0
0.2056558844730552	-0.1029886177457937	-0.06411732922460357	0.06321337981335932	1.102929679796923	0.9354638219677264	0.485430692664013	0.453370991530836	-0.009766415389340031	0.1129446092179714	0.4437730186717265	0.03879643001440364	0.4671223122749249	0.07761748194632438	-0.541827998659778	-0.1414153835983782	0.1934109531903369	-0.1783907260614345	-0.02822091202259729	0.9695122535312506	0.09396746454545901	1.003582163257851	0.1779124290235536	-0.3582440024847047	-0.02267329188253732	-0.08188836266884797	0.0805506716310754	-0.02108526936894005	-0.1625218349068045	-0.1793446139180262	-0.3344679396657201	0.2824308137265097	1.570796326969429	0	0	0.3704764549241771	-0.2225595338113934	-0.1247853260806854	1.621014062009818	1.570796326969429	0	0
0.2200312594138309	-0.100336923713327	-0.07365960518212605	0.06734701297542811	1.103255400441203	0.9373084145613105	0.4877123072392661	0.4298233797889204	0.002971721513301515	0.1108751678794854	0.4294425038668601	0.0387964300144036	0.4560561479351946	0.0794486866003002	-0.5480017833286058	-0.1513155807388802	0.2286544677543873	-0.1931312533816165	-0.01928634079320116	1.01808517877916	0.09396746454545904	1.063668698373304	0.163971217006902	-0.364903940939583	0.02306777479684355	-0.08334811872009684	0.09050033028508897	-0.02217631824443306	-0.1383681467180426	-0.1867429314757391	-0.3222499735184446	0.3196705460419035	1.570796326969429	0	0	0.3424033083670511	-0.2099650242713637	-0.1209621469343064	1.572555709026808	1.570796326969429	0	0
0.224	-0.09959887032934939	-0.07591126609874763	0.06867756407210159	1.103245294128718	0.9378249220935433	0.4882719911498201	0.4235051931342833	0.005947323238320631	0.1101847444608255	0.4256265884868781	0.0387964300144036	0.4530077597625574	0.07968639048541971	-0.5495197748726571	-0.1532176589850765	0.238475748557517	-0.1965158396233627	-0.01695472563881938	1.029477863896488	0.09396746454545904	1.078003530531132	0.1625640925551708	-0.3679253949845693	0.03410349984899657	-0.08400978770586659	0.09287969506235129	-0.0224338296176602	-0.1317822149667577	-0.1889606406276969	-0.3187976480770775	0.3305951192477101	1.570796326969429	0	0	0.3347084510382074	-0.2064433997943264	-0.1196354359608252	1.557745130691581	1.570796326969429	0	0
0.2335128561131141	-0.09777993330640201	-0.08098076116624212	0.07214149438147523	1.103068241031124	0.9390866257223129	0.4894998161747751	0.408599903267258	0.01256220095379144	0.1084238399092445	0.4166858689804778	0.03879643001440359	0.4458022787441964	0.08020813377555117	-0.5529207119706817	-0.1573200636818901	0.2620284040040227	-0.2039487941048486	-0.01161769484375388	1.052603253117527	0.09396746454545903	1.108215278784868	0.1601209010096108	-0.3735244455545798	0.06116307532138655	-0.08602391869181163	0.09837024586957602	-0.0229849626212974	-0.1160380728393225	-0.194529472887414	-0.310085751474217	0.3579825686257772	1.570796326969429	0	0	0.3161621210834412	-0.1979072465494128	-0.1159661552600952	1.52000290798647	1.570796326969429	0	0
0.2504558844730551	-0.09407234602968891	-0.08723713886834134	0.07987024478127562	1.1021700180249	0.9414029280390706	0.4912363436559561	0.3825466506436564	0.02064013718769789	0.1046040810098695	0.4017715832466711	0.03879643001440362	0.4333847925262553	0.08096600712116996	-0.5578955770285525	-0.1608779613784294	0.3037662014748265	-0.2123114600770097	-0.002986330077808747	1.080666406731469	0.09396746454545901	1.147292291014472	0.1643980684541167	-0.3879085195280996	0.09655125309636492	-0.09168938599252781	0.1054154102989587	-0.02426322138381254	-0.08811759558877363	-0.2057656937374336	-0.2951272443217151	0.4096689208808135	1.570796326969429	0	0	0.2853104278144358	-0.1822242934489368	-0.1076875140065867	1.443162203197905	1.570796326969429	0	0
0.2648312594138309	-0.09037964871648818	-0.08942924070806232	0.08807451953347577	1.100862704010704	0.9434231074908526	0.4923075891212671	0.3605857020936116	0.02361377050000663	0.100848297220115	0.3897647441538282	0.03879643001440362	0.4230557844559663	0.08076495856723433	-0.5619008247564307	-0.1596489333821875	0.3385572694755764	-0.2143460217921142	0.003132220109280517	1.091704695859959	0.09396746454545897	1.165782531971648	0.1711672282344742	-0.4003607850388924	0.1104334843205892	-0.0986573066184111	0.1080750233334122	-0.02590110700136928	-0.06447334545655586	-0.2166357539007387	-0.284653912709624	0.455157588744649	1.570796326969429	0	0	0.2623347583107635	-0.1685129718530116	-0.09917568987739511	1.368283365965723	1.570796326969429	0	0
0.2688	-0.08935587734379188	-0.08978463654094913	0.09049499417141812	1.100440521026733	0.943979864937576	0.4925655960587666	0.354557980993901	0.02416225826458752	0.09984228426829564	0.3864141805104417	0.03879643001440362	0.4201772814753991	0.08062789755917041	-0.563162941633792	-0.1587759170830847	0.347986872726222	-0.2145766021010105	0.004357664192186131	1.092607290292524	0.09396746454545897	1.168576321574191	0.1720347443952168	-0.4022322094358134	0.1126741678301219	-0.1007566470514032	0.1085264337237311	-0.02640592950417106	-0.05784034483710362	-0.2197115564844724	-0.2821292540955346	0.4675894742984191	1.570796326969429	0	0	0.2562888260496941	-0.1647505796790547	-0.09671464652968406	1.34679161167485	1.570796326969429	0	0
0.2783128561131141	-0.08687808270786627	-0.09030379292114817	0.096516263073967	1.099320228265843	0.9453036092159601	0.4931116948356544	0.3401828348089405	0.0250645580653826	0.0973670280787928	0.3784077571240383	0.03879643001440363	0.4131188954103553	0.08053195918251588	-0.5660179355003956	-0.1560589193829423	0.3702272424175471	-0.2145379771550903	0.006704123061463126	1.091275348250089	0.09396746454545903	1.171311945166582	0.1764024993963075	-0.4051321077813801	0.1163161816241117	-0.1061262024312396	0.1092746716661365	-0.02768937322773094	-0.04172948050334119	-0.2272255117387148	-0.2761521728998387	0.4977372234927455	1.570796326969429	0	0	0.2421387550124884	-0.1557261823640577	-0.09049078308013431	1.293769724863285	1.570796326969429	0	0
0.2952558844730552	-0.08219284807302404	-0.08978426757293856	0.1080447603089597	1.097007641846089	0.9476293684826275	0.4938787912087405	0.3141305376636856	0.02499806300795146	0.09266316768110235	0.3635293884992102	0.03879643001440364	0.3995195937683618	0.08071858646110786	-0.5704991600638762	-0.1488694535562913	0.4072802551776096	-0.2123613367835029	0.008262037205592576	1.075542196331494	0.093967464545459	1.16273899049728	0.1857989735371456	-0.4058667469909772	0.1137558181565169	-0.1169295133275797	0.1089577282676822	-0.03041740401931233	-0.0118225772689067	-0.240966937760843	-0.2679497535092011	0.5517186176129877	1.570796326969429	0	0	0.2200729473055002	-0.1399329622444582	-0.07916800652880787	1.193834874590187	1.570796326969429	0	0
0.3096312594138309	-0.07803540080137632	-0.08813155960366049	0.1183505027886372	1.094802433653357	0.949545318547693	0.4943883587096289	0.2913559749358139	0.0236332692535011	0.08844447115721558	0.3497872432219468	0.03879643001440364	0.3863096194200767	0.08092426249633153	-0.5736528308276675	-0.1409456574651092	0.4354563020899525	-0.2088248027717874	0.00727206319976359	1.04880601820636	0.09396746454545907	1.142369676288503	0.1928870017033109	-0.4005306705798857	0.105245812565744	-0.1270738839667158	0.1071606546830073	-0.03305900740956817	0.01459098830219757	-0.2527525407448867	-0.26443630728621	0.598099787035609	1.57079632696943	0	0	0.2046996012137001	-0.1271153573942536	-0.07002160436963399	1.103905118622071	1.57079632696943	0	0
0.3136000000000001	-0.0769513398393024	-0.0877051500032751	0.121161972650804	1.094173504062879	0.9500541145275052	0.4945220988748302	0.2850276046208732	0.02332248464616073	0.08731787557585433	0.3457452653437509	0.03879643001440363	0.3823091029723429	0.08113309616244722	-0.5744043295020707	-0.1386650185667057	0.442729197803498	-0.2079024668226774	0.006659996461215632	1.039357242779351	0.09396746454545907	1.134663178843068	0.1938800614685812	-0.3976187580227131	0.1034095530922587	-0.1298667533822943	0.1066603336417007	-0.03376312400011048	0.02201046153203982	-0.2559432370340459	-0.2638070111738767	0.6111416046713394	1.57079632696943	0	0	0.2006617752594968	-0.1237166672962109	-0.06760951553850791	1.078750033226588	1.57079632696943	0	0
0.3231128561131141	-0.07442174971244858	-0.08669209438312586	0.1278650588981322	1.092622330816829	0.9512349272346151	0.4948140198424258	0.269772522008208	0.02258308685280278	0.08456378963228889	0.335695673792149	0.0387964300144036	0.3719993034195552	0.08198390428565409	-0.5756947626102341	-0.1328330477703712	0.459117723968029	-0.2055379723279168	0.004859278631726903	1.013081158393011	0.09396746454545903	1.112542646389564	0.1971859991332141	-0.3889369562562916	0.09863548998767437	-0.1366115332167426	0.105436306466002	-0.03544904695778218	0.0402642109248828	-0.2635426447452119	-0.2624422822256142	0.6430752533130895	1.57079632696943	0	0	0.1915221499087729	-0.1157242915270523	-0.06182018801862377	1.017865674695303	1.57079632696943	0	0
0.3400558844730551	-0.07028756378522009	-0.08523582943575053	0.1390488650768155	1.089787186148506	0.9531893884860143	0.4952858127775621	0.2421035115521218	0.02166792779351343	0.07961912710837618	0.3158755880643814	0.03879643001440361	0.3508486545037596	0.0838483282846737	-0.5758080937905452	-0.122338744675212	0.4841527727118179	-0.2011917016782023	0.0006365050320409765	0.95342499450949	0.09396746454545903	1.060437309502603	0.2020964487837293	-0.3707852778008022	0.09065880868223757	-0.1485500436650224	0.1035540544583616	-0.03789657873072035	0.07364910662078505	-0.2763313022785919	-0.2618082974519509	0.7034168041360517	1.570796326969429	0	0	0.1761981387260197	-0.1028466266749921	-0.05317503544640707	0.9076521023601328	1.570796326969429	0	0
0.3544312594138309	-0.06733570285247545	-0.08446502897623395	0.1473709697936073	1.08737152065432	0.9546703281242241	0.4956542211160285	0.2182355557761754	0.02137142112721901	0.07547242405510127	0.2970534849015097	0.03879643001440364	0.3299271837989142	0.08574718574868384	-0.5731357779117546	-0.114357379057764	0.5010788611946867	-0.1972562717192897	-0.002882570460299411	0.8904653437328595	0.09396746454545904	1.003629078277924	0.2025084657715721	-0.3532350506106711	0.08543487090354179	-0.1583591867594072	0.1023608165895123	-0.03901926740000199	0.1020999282450549	-0.2860959845374765	-0.2633963087781949	0.7586407177010538	1.570796326969429	0	0	0.1627944521475168	-0.09372821289330356	-0.04833530720910065	0.8133030965979111	1.570796326969429	0	0
0.3584000000000001	-0.06665963063232314	-0.08438768751530375	0.1494639325502982	1.086710033382106	0.955042964345077	0.4957482270129552	0.2116598317841674	0.02141717999148637	0.07434553727717524	0.2916010025631743	0.03879643001440364	0.3236760643051148	0.08653745199005393	-0.5718696533297284	-0.1123959039004615	0.5051260941557936	-0.1961596026467696	-0.003614544384022219	0.8712732997747792	0.09396746454545905	0.9859666055758773	0.2012261688085891	-0.3477718556182883	0.08460961144071207	-0.1609414492829258	0.102158670222772	-0.03915813985557431	0.1099488615627058	-0.2886152934264244	-0.2638925426795264	0.7744733373594191	1.570796326969429	0	0	0.158778913578895	-0.09146786809953848	-0.04728363818873353	0.7875049398931434	1.570796326969429	0	0
0.3679128561131141	-0.06520915283692214	-0.08441832858746889	0.1541715182795889	1.085120898665853	0.9558709177625184	0.4959467270492599	0.1958674328514887	0.0217274423896951	0.07173097917663357	0.2780947310908717	0.03879643001440364	0.3079120413827464	0.08883335330656171	-0.5680480110562431	-0.1078889493845533	0.5136295969417819	-0.1934074575093586	-0.004711511883948936	0.8222978787482959	0.09396746454545907	0.9403100741581609	0.1981196408327869	-0.3333291261151463	0.0828153471715181	-0.1670086785695043	0.1019075024041806	-0.03928306839691657	0.1292581715466363	-0.2944253011883672	-0.2648481845617624	0.8134469609723499	1.570796326969429	0	0	0.1489950409410159	-0.08638898663124163	-0.04507136401495752	0.7258414149736593	1.570796326969429	0	0
0.3848558844730551	-0.0633809554453601	-0.08526992592098682	0.1608955435924637	1.08238942459456	0.957079031318223	0.4962564884889994	0.1677930310953558	0.0230921373570202	0.06784991538438639	0.252575776381964	0.03879643001440363	0.2775176601602136	0.09353783428763676	-0.558666463333137	-0.1033524929063792	0.5246913987652148	-0.1885012634212671	-0.004252640621080577	0.7261824951658667	0.09396746454545903	0.8484775010881738	0.1889913910897756	-0.3057142895414308	0.07870732070507085	-0.1770914734642474	0.1022052879600342	-0.03820837011335505	0.1638430138636671	-0.3033645708246839	-0.2667918779719041	0.8866997522029559	1.570796326969429	0	0	0.1284383525292267	-0.07935618417134314	-0.04365420742086733	0.6199520666551392	1.570796326969429	0	0
0.3992312594138309	-0.06265315852771484	-0.08658636007518469	0.1648013748395113	1.080253252598726	0.9577954359739205	0.4964786101907585	0.1442418289938677	0.02485154430908631	0.06564106090499275	0.2299338498303602	0.03879643001440363	0.2502072575514788	0.09787270523286368	-0.5485833271907923	-0.10436685069239	0.5303965017985109	-0.1844673614409273	-0.0007938752148251212	0.6387215694431168	0.09396746454545905	0.762212092564987	0.1755255964554653	-0.2800830519816948	0.07312965938951468	-0.1846702897062983	0.1028649523480851	-0.03588164993091777	0.192817407216649	-0.3093367050789764	-0.2690154826605501	0.9519770770908725	1.570796326969429	0	0	0.1067582956024744	-0.07564762023967944	-0.04524333283450823	0.5368735460917238	1.570796326969429	0	0
0.4032	-0.06258164752482388	-0.08701999086948779	0.1656659979348193	1.079697027564465	0.9579385707395329	0.4965217309628313	0.13781704536659	0.02538698058236508	0.06517676630744607	0.223629923584407	0.03879643001440363	0.2425657756580658	0.09920059235816955	-0.5455263949441749	-0.1052278946523955	0.5314687294872293	-0.1833707918351589	0.0007916214842937991	0.6141415839539863	0.09396746454545907	0.737464653864881	0.1703237991017666	-0.2724349881420736	0.07141107145128528	-0.1865571607582843	0.103089300122372	-0.03509343789425247	0.2009280621824188	-0.3107961993657599	-0.2694813662674544	0.9702512365992846	1.570796326969429	0	0	0.100304824794502	-0.07487107522242765	-0.04586606344228807	0.5152406856732131	1.570796326969429	0	0
0.4127128561131141	-0.06256460526289118	-0.08818779577631813	0.1673808339737613	1.07841315259532	0.9581842742052987	0.4965835236350685	0.1225776936187968	0.02679726950266414	0.06445893859518258	0.2085684236774947	0.03879643001440362	0.2243070517100584	0.102547992466889	-0.5380795014106106	-0.1079743538501273	0.5333262460507426	-0.1808518376288314	0.005523794296827464	0.5554604083408413	0.09396746454545907	0.6772355510101514	0.1572014897165163	-0.2531759610227245	0.06696159339759676	-0.190793210847894	0.1037767649488247	-0.03301071520036588	0.2209236671962188	-0.3140298725139697	-0.2702035904229311	1.01481362732216	1.570796326969429	0	0	0.08449467730821378	-0.07337309297212487	-0.04760720267327585	0.4650514506465366	1.570796326969429	0	0
0.4296558844730551	-0.06318998514402767	-0.09045708484776555	0.1690270764106724	1.076425956050918	0.9582636725723412	0.49655693408781	0.09620467757653636	0.02947676985297616	0.06489082175621566	0.1823966860895111	0.03879643001440363	0.1929725391427548	0.1088820056716874	-0.5248546608794566	-0.1172189303097754	0.5347713097214409	-0.1769847930005236	0.01586040124137725	0.4552479389008486	0.093967464545459	0.570019538902821	0.1322290371014276	-0.2171714153955832	0.0552364765721028	-0.1968948934938408	0.1051106451827895	-0.02848823032482004	0.2573536232426907	-0.3185160134631743	-0.2709423765812212	1.09490345500257	1.57079632696943	0	0	0.05253344549063797	-0.07239068578166465	-0.05191642342557438	0.3873802405695026	1.57079632696943	0	0
0.4440312594138309	-0.06432243663092038	-0.09231414384892142	0.1691763767541387	1.075120397469622	0.9579833634211813	0.4963555986908526	0.07478523154753379	0.03159603414914782	0.06687831129542041	0.1615621046494368	0.03879643001440364	0.1689269967082805	0.1143064478346115	-0.5142688854728545	-0.1287652651138671	0.5351505925415672	-0.1742841895057443	0.02431024381663151	0.379425034737166	0.09396746454545905	0.4838277634280166	0.1111846022458564	-0.1867671861442767	0.04180948149862	-0.2004071490966969	0.106134421971684	-0.02394797926761541	0.2883093338720427	-0.3210239892186268	-0.2716374989245736	1.161996970539989	1.57079632696943	0	0	0.02058743240305845	-0.07322842998193353	-0.0563668422010913	0.3359065604766963	1.57079632696943	0	0
0.448	-0.06469059493866869	-0.09280051063750643	0.1691142128557526	1.07481966463256	0.9578563357674437	0.4962521852782649	0.06903102840951439	0.03211098368840729	0.06754881419961677	0.1561513918572683	0.03879643001440364	0.162880112389575	0.1158576494197156	-0.5114360762725444	-0.1319245870927307	0.5352624640654223	-0.1735767286140785	0.02618472701349554	0.3606835747915688	0.09396746454545905	0.46147412280912	0.1053664357531148	-0.1787034716477777	0.03822178358144925	-0.2011108032647737	0.1064427596213021	-0.0226641511525048	0.296972135655196	-0.3215950472338858	-0.271740839262228	1.180311153570016	1.57079632696943	0	0	0.01137061132845619	-0.07360238528700559	-0.05745865760830571	0.3235836373789402	1.57079632696943	0	0
0.457512856113114	-0.0657042768833494	-0.09389480273891759	0.1687290863118504	1.074184998488456	0.9574667653309594	0.495933969205907	0.0557341289730757	0.033245674642711	0.06954648594497102	0.1440630561326188	0.03879643001440361	0.1496515960188401	0.1197523400862696	-0.505135607118529	-0.1396956767548082	0.5358041559406326	-0.1719115923004275	0.02962987798385659	0.3202606993312515	0.09396746454545903	0.4113097752077458	0.09165677259636174	-0.159325644803981	0.02948223578957086	-0.2023540903536242	0.1071842036179696	-0.01952486909722264	0.3181512677051235	-0.3227653040045942	-0.271714113482004	1.224375885360368	1.570796326969429	0	0	-0.01102577430198768	-0.07475928312812638	-0.05992845730207755	0.2967113276946818	1.570796326969429	0	0
0.4744558844730551	-0.06810243533229525	-0.09535907634445283	0.1673394810454099	1.073427886325949	0.9564946611662746	0.4950615606407573	0.03399971900949357	0.03453465217403121	0.0740801642608688	0.1259968957463697	0.03879643001440362	0.1311917636176944	0.126966764600023	-0.4956176496486892	-0.1521943571407216	0.5378868083501576	-0.1684298940621274	0.0286052409813225	0.2655771454362004	0.09396746454545903	0.3367150710806209	0.07430280335368693	-0.127655566558759	0.01432024852748148	-0.2026231476225599	0.1083400991332455	-0.01380842172324113	0.3565517933697501	-0.3240159076377937	-0.2712481929318402	1.30035478325088	1.570796326969429	0	0	-0.0536507494962265	-0.07782349443269813	-0.06310526048111892	0.2628477277090039	1.570796326969429	0	0
0.4888312594138309	-0.0706757131963943	-0.09599409944474288	0.16560816980652	1.073157352163307	0.9554467050138369	0.4939878060850311	0.01782403879987549	0.03475074318055735	0.07831971114650776	0.114918269899458	0.03879643001440367	0.1212637197729959	0.1332904198260089	-0.4892757225936714	-0.1591609921859812	0.5407595340732342	-0.1644289910348593	0.01925311211498747	0.2370587221559945	0.09396746454545905	0.2909460492754369	0.0651137047698887	-0.1073285017401059	0.003236203333193296	-0.2009756025093868	0.1090786159354369	-0.008887596375693719	0.3893672512212124	-0.3242302491825605	-0.2707651517529112	1.360504595329114	1.570796326969429	0	0	-0.0924360483116098	-0.08135393808078809	-0.0640227961254186	0.2491775248685311	1.570796326969429	0	0
0.4928	-0.07140875790696349	-0.0961119709036362	0.1650738908914339	1.073127339319706	0.955133894990681	0.4936357305535971	0.01373885324294367	0.03470775362071173	0.07935387417453794	0.1126994251227189	0.03879643001440367	0.1194883791194223	0.1352131381596198	-0.4875817790728896	-0.1601657564143677	0.5416968402307537	-0.163148559280153	0.01566131402541411	0.2319615690863128	0.09396746454545905	0.2813375882835044	0.0621665777286137	-0.1034103993593741	0.0008737947757271615	-0.2003271780955207	0.109315407372849	-0.007528136471428699	0.3985748449153486	-0.3242021621994789	-0.2704628419901449	1.37654049468588	1.570796326969429	0	0	-0.1030860405907774	-0.08240592277863991	-0.06391087910699561	0.2469148840713017	1.570796326969429	0	0
0.502312856113114	-0.07340913192410901	-0.09621576513622483	0.1635409495169827	1.073139818004971	0.9543238933547167	0.4927216634216336	0.004872994571525621	0.03436713176664323	0.08190618499945639	0.1089479861799442	0.03879643001440364	0.1169197482865424	0.1403597197042357	-0.4838254110454041	-0.1618528188669277	0.5442597370541739	-0.1598537157407807	0.005757738067116292	0.2242970188312159	0.09396746454545907	0.2636256312833622	0.05649463217257053	-0.09464764967044743	-0.003984808049341472	-0.1982402532429864	0.1097531512480634	-0.004251037364998324	0.4210207858522135	-0.3239764244591475	-0.269323181322035	1.414674034895748	1.570796326969429	0	0	-0.1285836265786538	-0.08510636441481438	-0.06315427714394189	0.2438387307520596	1.570796326969429	0	0
0.519255884473055	-0.07814772294514087	-0.0954553385729327	0.1599434114947901	1.07345672183853	0.9526704082625729	0.4908525148693541	-0.007257676574147827	0.03251786531425557	0.08649685584904317	0.1079451729735892	0.03879643001440363	0.1179505756808617	0.1512180038865208	-0.4781375863401622	-0.1599219203512738	0.5497616676568089	-0.1528140903653469	-0.01706374764923921	0.2250297473718893	0.09396746454545894	0.2495528774285527	0.05412014439894601	-0.08614407017399917	-0.008622481716219233	-0.1923754526314805	0.1095505160182035	0.001670405923735373	0.4614289284907677	-0.3228891313462247	-0.2661545431736937	1.478167436467897	1.570796326969429	0	0	-0.1736546783057272	-0.09049900999597664	-0.05947465702187192	0.2473746692214778	1.570796326969429	0	0
0.5336312594138308	-0.0835049075124617	-0.09350450692172452	0.1560550168012243	1.074012349928757	0.9510705112847357	0.4890618958232018	-0.01391598775523935	0.0293256223607353	0.09025111776984453	0.1124641384523503	0.03879643001440363	0.1238190352243616	0.1620436237124584	-0.4741953454315175	-0.1533050870358302	0.5547376799852608	-0.145576785784604	-0.03925700394012619	0.2369190250477149	0.09396746454545901	0.252461656630431	0.05574653152356114	-0.08690598741806949	-0.007693927980691392	-0.1852782624091479	0.1077432035554195	0.006763248794038771	0.4954603913618899	-0.3212754011918929	-0.2630994521480201	1.526605701760627	1.570796326969428	0	0	-0.2107762792018613	-0.09549860830055602	-0.05399207393865207	0.2582746835501826	1.570796326969428	0	0
0.5376	-0.08508969862543213	-0.09281024636277564	0.15486258849351	1.074205660969027	0.9506077393169544	0.4885409459926146	-0.01535183220592815	0.02824480754515431	0.09115800430329483	0.1144289440475929	0.03879643001440362	0.1261352837335508	0.165206349794036	-0.4730485366829909	-0.1510482216828307	0.5559815909775029	-0.1435060869748474	-0.0448157091192293	0.2414840885512696	0.093967464545459	0.2551665650610491	0.05513195490331498	-0.08790783422752083	-0.00659979772613082	-0.1831414509435488	0.1070452207266932	0.008183177605616956	0.5049078451665673	-0.3207581726927491	-0.2621955493569624	1.539534745433585	1.570796326969428	0	0	-0.2205537237731908	-0.09689509997553652	-0.05219627941081512	0.2617142363485089	1.570796326969428	0	0
0.547112856113114	-0.08912151417287591	-0.09095503949907086	0.1517483367393198	1.074738109490857	0.9494523154175234	0.4872519433103664	-0.01808938145231154	0.02539669423483772	0.09331694608846185	0.120269421400109	0.03879643001440362	0.1327495981902987	0.1733628960415658	-0.4702768687015115	-0.1450513873913279	0.5586607424642133	-0.138552405169921	-0.05712102871374229	0.254175440309084	0.093967464545459	0.2642244020052789	0.0521670087179675	-0.08985216237910038	-0.003423127444087644	-0.1776679655434839	0.105123636038249	0.01162466434283806	0.5280358161209585	-0.3193867063030004	-0.2596599574398715	1.570168054723281	1.570796326969428	0	0	-0.2432443434110937	-0.100328695077542	-0.04742467618126149	0.2711363604546694	1.570796326969428	0	0
0.5640558844730551	-0.09704216231445489	-0.08625714847296202	0.1449257688936583	1.075979941842787	0.9472699873913748	0.4849179979106781	-0.02098783356692934	0.01872099452780836	0.09777130967516641	0.133960222095462	0.03879643001440363	0.1476937686854823	0.1889334421399227	-0.4654606204347892	-0.135292273618441	0.5617190172055946	-0.1294710604102997	-0.06974813201698175	0.280505066485118	0.09396746454545898	0.2864881169461991	0.03436743168973516	-0.09177516165684801	0.003200531433802701	-0.1669073940716895	0.09956000027649368	0.01815037952785755	0.5692520573972328	-0.3163390544477412	-0.2544278916080552	1.622080959187213	1.570796326969429	0	0	-0.2807369704761091	-0.1065708601988844	-0.03769309731156264	0.2878463542635331	1.570796326969429	0	0
0.5784312594138308	-0.1040596477486773	-0.08076882461815944	0.1375691217196848	1.077428396322303	0.9453360530237477	0.482942207494904	-0.0224786076452739	0.01137591884258995	0.1023652989707224	0.1479892648364909	0.03879643001440358	0.1630514314319747	0.2026812643560209	-0.461173742502641	-0.1308921988260988	0.5609856371443649	-0.1216347151361171	-0.06719841080277568	0.3006552282775249	0.09396746454545891	0.3082391550004854	0.01545981265074997	-0.09031266145970733	0.008367164430894794	-0.1572154644039859	0.09247066104759949	0.02424542009348323	0.6026441056468159	-0.3131505429727756	-0.2499757329525144	1.663764114498191	1.570796326969428	0	0	-0.3108985125022552	-0.1117858304989716	-0.02875566004299933	0.2978268446849014	1.570796326969428	0	0
0.5823999999999999	-0.1059197337526551	-0.07918087183366866	0.1352819355098211	1.077905912797376	0.9447938885293071	0.482385562018624	-0.02296492444357662	0.009226849424758052	0.103630862776797	0.1520461381484015	0.03879643001440358	0.1677021664318246	0.2063450542209954	-0.4597183961450835	-0.130553304908493	0.5599128097486317	-0.1195764847388119	-0.06421333599555276	0.3045466160156232	0.09396746454545891	0.3143573308438609	0.01309968085277307	-0.08965296092126461	0.009644907717612054	-0.1545530018679545	0.09041051445266637	0.02601911692717907	0.6115931961178301	-0.3122127391051269	-0.2487202700173021	1.675403041530107	1.570796326969428	0	0	-0.3192893133045656	-0.1131867270136681	-0.02627159903548919	0.2993566907530157	1.570796326969428	0	0
0.5919128561131139	-0.1104609030958574	-0.07539305351296224	0.1296869334195426	1.079133222930639	0.9434757594262061	0.4809809207391381	-0.0238764613895991	0.003970232443400764	0.1064686451542403	0.1622819339791809	0.03879643001440358	0.1796237741446835	0.2151317801784647	-0.4559642299086688	-0.1303669598388492	0.5565173140247022	-0.1147013420991469	-0.05687583875858453	0.3113071161063495	0.09396746454545894	0.3289052280320409	0.009530841662734822	-0.09109519132447824	0.01240666375783616	-0.1479299606485757	0.08560825778576339	0.03033225970237279	0.6326668268185015	-0.3098826731190803	-0.2457592621346366	1.703284128302694	1.570796326969427	0	0	-0.3386862729411371	-0.1165249559095901	-0.02010952591623874	0.3024460148371895	1.570796326969427	0	0
0.6088558844730551	-0.1180158817428758	-0.06860631977421573	0.1203707162189719	1.081480737483468	0.9412799414390679	0.4781743545707722	-0.02513024366716698	-0.005689217443454036	0.1099571036468882	0.182744433566923	0.03879643001440364	0.2040883399802861	0.2287427823929878	-0.4492907019949774	-0.1369399477835826	0.5509982091377909	-0.1062711651733437	-0.0483374276575871	0.3248405512834141	0.09396746454545905	0.3537331437803737	0.005878528524354555	-0.1101096344943577	0.01210008953333354	-0.1364528855424618	0.07744517269279945	0.0383003260936358	0.6620412814833545	-0.3054556859922585	-0.2424333152514773	1.750199090728853	1.57079632696943	0	0	-0.3681259638266285	-0.1217751032319906	-0.009261106313789291	0.3019568671855438	1.57079632696943	0	0
0.6232312594138308	-0.1236129431239525	-0.06253982429256838	0.1141178437574287	1.083430219767278	0.9397867506042188	0.4754055238519715	-0.02506110468625945	-0.01440475279038434	0.1099450651453407	0.2041499209930429	0.03879643001440365	0.2292090763027965	0.2376178805992938	-0.4441363920460542	-0.1482722214734274	0.5479698045881878	-0.09890253557367221	-0.0473507456822542	0.3400871604616372	0.0939674645454591	0.3732100950133991	-0.001104538690020614	-0.1385485435411613	0.005717125218845354	-0.1276564330067907	0.0708216133502506	0.04516327521566493	0.675157266267947	-0.3014827131415805	-0.2423548283924395	1.785391403621645	1.570796326969429	0	0	-0.3838657875568942	-0.1252024249568161	-0.0006413808832058294	0.2968820575084363	1.570796326969429	0	0
0.6272	-0.1250638323239922	-0.06079776674554983	0.1126884940127482	1.083934162311141	0.9394492058778068	0.4745692860032557	-0.02465173650278612	-0.01694350493595795	0.1091549581162971	0.2110097908746811	0.03879643001440364	0.2370519514787202	0.2396852613280289	-0.4426286584354797	-0.1512812888852038	0.5472617500671831	-0.09681869051373561	-0.04783936024578152	0.3444157761063953	0.09396746454545908	0.3782780743745431	-0.003862151441068244	-0.1458046889530592	0.003685969489887303	-0.1253687827709304	0.069096922635449	0.04703016280791564	0.6773338338022673	-0.3003711272513997	-0.2425050280402347	1.794541968529888	1.570796326969429	0	0	-0.3863262836719568	-0.1260208346385063	0.001674108480526568	0.2956923743111146	1.570796326969429	0	0
0.636712856113114	-0.1284721613503592	-0.05652029779791477	0.1094533670967108	1.08511872581004	0.9387410321027121	0.4724677142231545	-0.02275820813936907	-0.02322505414752379	0.1066988838922563	0.229324867980006	0.03879643001440363	0.2577674331595385	0.2440342728414492	-0.439259374746282	-0.1591099738269974	0.5457664737667376	-0.09180121341429286	-0.05018740737993328	0.3556293655526979	0.09396746454545905	0.3897838600223452	-0.007920507039327647	-0.1623908173288511	-0.00084078607992723	-0.1199919355183856	0.06512170922693367	0.05146928770946883	0.6805788966054966	-0.2976737055242207	-0.2431730871759732	1.81592584409007	1.570796326969428	0	0	-0.3906487817548793	-0.1278780845205806	0.00731584138396507	0.292627102449862	1.570796326969428	0	0
0.6536558844730551	-0.1338687168033317	-0.04822936463397573	0.1053168477106651	1.086998434245841	0.9380186588823398	0.4683365124041659	-0.01598467890662369	-0.03541701829416243	0.09942040419859781	0.2695161462994758	0.03879643001440364	0.302565945346418	0.2478163321077992	-0.4347799299314182	-0.175406641998698	0.5439885416917534	-0.08161426012236042	-0.05387798383456568	0.3798398454547408	0.09396746454545904	0.4074801564838444	0.002663029497558507	-0.1812406370187323	-0.007826613371369359	-0.1114605162149762	0.05822347804894887	0.0589678191505285	0.6755999598035713	-0.29279976434634	-0.2460282117315092	1.850184640857071	1.570796326969429	0	0	-0.3888779116299658	-0.1304373098585429	0.01692153291188719	0.288317442040807	1.570796326969429	0	0
0.6680312594138309	-0.1372250352747034	-0.04055938780487009	0.103322986682022	1.088425195411693	0.9380464109737744	0.4644921042027751	-0.00694699123338969	-0.0467858588878474	0.09069968233291276	0.3120285271919884	0.03879643001440364	0.3499088199633063	0.2466212092113334	-0.432631400861021	-0.1890064262579916	0.5411500753008219	-0.0713055823411593	-0.05439328489955721	0.4012498089613856	0.09396746454545904	0.4187719948108923	0.0255018681333998	-0.18899312904604	-0.01308106062366215	-0.1056224961400618	0.05252855998473017	0.06459795595669142	0.6598251623562433	-0.2886397522286018	-0.250419006428435	1.875373812779945	1.570796326969429	0	0	-0.3797356265584969	-0.1319511867192815	0.02426458799167119	0.2861576689934984	1.570796326969429	0	0
0.672	-0.1379331955721243	-0.0384341008390474	0.1027978746217307	1.088826617782636	0.9381452182160297	0.4633940772522142	-0.003949781766547048	-0.05004111949801891	0.08787818195034454	0.3251198843776765	0.03879643001440364	0.3646276863178333	0.2456780273995426	-0.4320471345810842	-0.1917909299269332	0.5394998531931599	-0.06831752949524227	-0.05443230284370346	0.4058401220574589	0.09396746454545904	0.4211581826533685	0.03056586185529214	-0.1917928685569741	-0.01437535297622666	-0.1041652898648402	0.05111189751066153	0.06601429239806637	0.6544597128924509	-0.2874892447813168	-0.2517190793944495	1.88214784802196	1.570796326969429	0	0	-0.3770628774310231	-0.1323868348598637	0.02622820615137025	0.2857940554693161	1.570796326969429	0	0
0.6815128561131141	-0.139438931858341	-0.03334945135416219	0.1015899266715501	1.089783952712725	0.9384898683119748	0.4607239770591068	0.004610206887819867	-0.05799225192436696	0.08112311004743777	0.3593108770366523	0.03879643001440364	0.4028959056930165	0.242317241412719	-0.4311751438568293	-0.197532898044137	0.5336583323996508	-0.06099351528455226	-0.05436391916334695	0.4136372646184514	0.09396746454545904	0.4254497303673687	0.04187784615152169	-0.19713988820371	-0.01663725018589149	-0.1007762106664803	0.04791779871408861	0.0691975271098297	0.6399336037467841	-0.284702027389701	-0.2551012833485162	1.898189722091797	1.570796326969429	0	0	-0.3693458309535602	-0.1334959943464682	0.03097672646030556	0.2857922828009098	1.570796326969429	0	0
0.6984558844730551	-0.1406272454915381	-0.02414768912675604	0.09962489444537072	1.091491316615842	0.9395151480114453	0.4559211135798867	0.02347034797580401	-0.07282299507332896	0.06906454323303179	0.429101627820785	0.03879643001440361	0.4813079678361906	0.2312523362515551	-0.4317409124833864	-0.2011713847561126	0.5164306572582704	-0.04715718073682251	-0.05316083202798437	0.4176818493069922	0.09396746454545901	0.4278802123822255	0.06059803434683932	-0.2054404405140177	-0.02077671406187094	-0.09605077244381974	0.04243999781285182	0.07385935976570418	0.6070253115394073	-0.279603067436093	-0.2613886089237399	1.92327581955057	1.570796326969429	0	0	-0.3535663834153223	-0.135872638889435	0.03898011024106714	0.2910912288920987	1.570796326969429	0	0
0.712831259413831	-0.1400762813259614	-0.01604560098978685	0.09820373974650044	1.09286215505264	0.9407219671859136	0.4518614903133677	0.04266519429304574	-0.08642336118828302	0.05930663534757896	0.4957162616288081	0.03879643001440364	0.5571596762683767	0.2154979902439686	-0.4343333617725097	-0.1953669456992926	0.4955953969786904	-0.03441339333578271	-0.05065589997235904	0.4121446476688191	0.09396746454545905	0.4249269192105249	0.07414265078626403	-0.2128125048115127	-0.02540884721307556	-0.09365247711032837	0.03763581119172043	0.07672912373416681	0.5727100171299857	-0.27512514714126	-0.266679033753259	1.939166424691306	1.570796326969429	0	0	-0.3383245705976686	-0.1383330608466436	0.0451494001239014	0.302955396716565	1.570796326969429	0	0
0.7168000000000001	-0.1398169964421782	-0.01380701083634379	0.09776653995599727	1.093208784490419	0.941078054400901	0.4507484813491743	0.04853088137177765	-0.09039675158330793	0.0565411011994434	0.514952133583076	0.03879643001440364	0.5793751852913059	0.2100276494900624	-0.4350439254826949	-0.1922022840824051	0.4892447200288363	-0.03080063859120835	-0.04969736530633023	0.4095653376459129	0.09396746454545905	0.423402369946461	0.07746326617567907	-0.2150900975703105	-0.02671931331249142	-0.09312539006714922	0.03635675752953448	0.07741316457968755	0.5629153671700032	-0.2738598671745857	-0.2679643992971216	1.942831967394572	1.570796326969429	0	0	-0.3339143490115289	-0.1390958318980824	0.04685498691198636	0.3073008812509918	1.570796326969429	0	0
0.7263128561131141	-0.1389949774433944	-0.008489163855335716	0.09667460095222001	1.093968073766731	0.941958988662987	0.4481153632393779	0.06402022146251096	-0.1000843780073865	0.05059516873625107	0.5637736071309395	0.03879643001440363	0.6344272298679992	0.1973618937080928	-0.4366890812533924	-0.1824639776948623	0.4731521058426395	-0.02212575657949608	-0.04710607114838595	0.4019400907885373	0.09396746454545907	0.4187193099294069	0.08545510513948996	-0.2205189010488325	-0.0295341538239518	-0.09216787557826452	0.03336730967685077	0.07881832444291903	0.5380263907918744	-0.2707812405316139	-0.2711621301846557	1.950832714382201	1.570796326969429	0	0	-0.3229601196970218	-0.141039497346351	0.05106455759894216	0.3188668396910137	1.570796326969429	0	0
0.7432558844730551	-0.136765816296215	0.001194562450545599	0.09466651527304251	1.094900820736107	0.9435339654402755	0.4436083994819405	0.09662241833661477	-0.1181885176442308	0.04275351242163721	0.6603770483292769	0.03879643001440364	0.7367499582527371	0.1779046320161272	-0.4388616941755559	-0.152263343176862	0.4426187368453228	-0.006478364164026822	-0.04183660919648936	0.3851227636618049	0.09396746454545898	0.4077763738244888	0.09833477245640328	-0.2300604103578049	-0.03458835871882535	-0.09206344821931456	0.0277737117110354	0.08041598695325405	0.4908073456665916	-0.2650704924054562	-0.2768949326489304	1.959016352061444	1.570796326969429	0	0	-0.3013182648362639	-0.1452574720478509	0.05827396357575679	0.3460754709103008	1.570796326969429	0	0
0.757631259413831	-0.1340757020647979	0.009590743462275802	0.0931772399058365	1.0952079619004	0.9447864727478702	0.4400344963136646	0.1279684141692583	-0.1341555313899918	0.0393242748084423	0.7482681993409666	0.03879643001440361	0.8248386576224216	0.1618822452507436	-0.4398441090868887	-0.1146768942346002	0.4157840710508554	0.006563971190537404	-0.03767604774900566	0.3692192154585247	0.09396746454545898	0.3972006992092783	0.1071762588732705	-0.2365996995815258	-0.03925742914218479	-0.09372453271832269	0.02260933117270705	0.08081779576003496	0.4490501268601793	-0.2599747737298572	-0.2818836420957738	1.958006313378915	1.570796326969429	0	0	-0.279591289549498	-0.1498049110944861	0.06361450652102649	0.3754594582556061	1.570796326969429	0	0
0.7616000000000002	-0.1332666445059946	0.01181322085063309	0.09279545152800528	1.095234195787533	0.9451015461214581	0.4390886815948418	0.1367517385927899	-0.1386044526375648	0.03856539477802005	0.7720949785334725	0.03879643001440361	0.8489244530262845	0.1562688861022153	-0.4396924105286005	-0.1037097361829279	0.4083686281701644	0.00994113647269515	-0.03672762137445667	0.3647589603040842	0.09396746454545898	0.3942316126114629	0.1094376563576967	-0.2378356603106048	-0.04042547659287328	-0.09431084342484643	0.02127402272959217	0.08084326009032408	0.4375450155654694	-0.258523058171283	-0.2831364762852424	1.956670267359233	1.570796326969429	0	0	-0.2729729359328089	-0.1512243416183434	0.06500137321188261	0.38390097354623	1.570796326969429	0	0
0.7711128561131142	-0.1312293399710064	0.01691544981361873	0.09192313915396851	1.095187100372829	0.9458218284612565	0.436913637267639	0.1580549412436804	-0.149028740867705	0.03784127007413624	0.8278710525420047	0.03879643001440362	0.9056425424713708	0.1445328098522276	-0.4366546715747855	-0.07761433139739245	0.3908567434832455	0.01755836190606415	-0.03481191077272132	0.3544548588093334	0.093967464545459	0.3871873781589625	0.115065030226564	-0.2397855065980491	-0.04296980374038797	-0.09600204183936166	0.01821654767449985	0.08076671619193364	0.4089085549190228	-0.2549630596398588	-0.2859240436912671	1.951608587415279	1.570796326969429	0	0	-0.2562436485092316	-0.1548326291658583	0.06834570222942529	0.4046779533802627	1.570796326969429	0	0
0.7880558844730552	-0.127124415037282	0.02486791462465267	0.09053707462962932	1.094652224729844	0.9470653133228301	0.4334441914497111	0.1963856313549568	-0.1656980058123631	0.03992871037073001	0.9188761231273431	0.03879643001440364	1.000975382329629	0.1258538151221604	-0.4242139137000829	-0.03559308156767142	0.3607962114664229	0.028821971851989	-0.03324954125391904	0.3379568886738673	0.09396746454545905	0.3752098103886794	0.1254168341485072	-0.2387187914282187	-0.04685594170991879	-0.1002741726602268	0.0135180200472169	0.08030061221907411	0.355551703047337	-0.2482076106136619	-0.2892714277865287	1.93065134695191	1.57079632696943	0	0	-0.2211006616810856	-0.1626506429550278	0.0731197887470689	0.4413593048179016	1.57079632696943	0	0
0.802431259413831	-0.1231331015676501	0.03036942348313345	0.08940033324999072	1.093734638494421	0.9481733349601568	0.4309613533385758	0.2295098756662243	-0.1771937269207138	0.04474876112284872	0.9861783229455058	0.03879643001440362	1.073603152602344	0.1115498822096372	-0.4134325941184204	-0.007721653968639402	0.3363332759813377	0.03583726378335872	-0.03425618169758369	0.3256177143837961	0.09396746454545897	0.3656613958967751	0.133419419156199	-0.2333788785673749	-0.04936281236862086	-0.1053327459070163	0.01025587354253402	0.07958036166023685	0.3086948576427586	-0.2421197312330697	-0.2908858902113383	1.898512379146632	1.570796326969428	0	0	-0.185762768374141	-0.1707307961420891	0.07559418829147571	0.4701349201166535	1.570796326969428	0	0
0.8064000000000002	-0.122013947575996	0.03170918577338357	0.08902363863287033	1.09343043684088	0.9484886252253656	0.4303403498682608	0.2386397660712727	-0.1800332598794235	0.04620368539667505	1.002734065210221	0.03879643001440362	1.092019685078008	0.1080471814961983	-0.4117805521420961	-0.00140030216527964	0.3297066464789318	0.03741721031646365	-0.03489569410516552	0.322315824408833	0.09396746454545898	0.3630853206338518	0.1353239991125381	-0.2314003501592143	-0.04972383482000732	-0.1068498018066135	0.009479991602623573	0.0793551288343449	0.295862750922248	-0.2404190538689501	-0.2912683079531189	1.888073074019221	1.570796326969428	0	0	-0.1755606900716523	-0.1730783520553137	0.07618998156253531	0.4774431199703318	1.570796326969428	0	0
0.8159128561131141	-0.1192741516009365	0.03465903048776257	0.08804106716027296	1.092600064914341	0.9492757795949148	0.4289636068139344	0.2607153382302804	-0.1863256529564159	0.05009751185227248	1.039330744130517	0.03879643001440363	1.132954209585384	0.09965508814709573	-0.4072135643826231	0.01221340624277145	0.3141821641480695	0.04065758474562289	-0.03701697790943283	0.3149666654365049	0.09396746454545904	0.356917844311412	0.1401648799877662	-0.2257018671387213	-0.0502143542196772	-0.11082280436914	0.007769750637584736	0.07875443876289771	0.264572948050907	-0.236293630902968	-0.2919961977738187	1.860718136105205	1.570796326969429	0	0	-0.1504885269799091	-0.1788984497500418	0.07760014080602454	0.4943732516604645	1.570796326969429	0	0
0.8328558844730553	-0.1138903651366062	0.03894746525896285	0.08564832685924907	1.090802370612747	0.9508438576606093	0.4269395360547146	0.2999166587656397	-0.1955445508533634	0.05755427852893839	1.092637381601864	0.03879643001440364	1.193714004995972	0.08856349010811468	-0.4026620599528131	0.02630509110558144	0.286957650501972	0.0443487100277008	-0.04315443932415924	0.3029543074205782	0.09396746454545901	0.3455104078176766	0.1489051793294398	-0.2121601209123427	-0.04957353962246686	-0.1192810105606978	0.005301679276623165	0.07775568139274172	0.2102167104590244	-0.228816038779765	-0.2922724103100676	1.798831985142005	1.570796326969429	0	0	-0.1029826168528271	-0.1901868690978523	0.07910439723003425	0.5203851871191807	1.570796326969429	0	0
0.8472312594138312	-0.1087681067257135	0.0416386454702666	0.08281551785657913	1.089013203002335	0.9523565511180232	0.4256314525463379	0.3328074525327993	-0.2015659308650478	0.06388086175758428	1.12568496114285	0.03879643001440364	1.232206534643965	0.08037092759539155	-0.4011550946851604	0.02802422142750764	0.2636712036770593	0.04552716799949083	-0.05074961311066394	0.2928280790943907	0.09396746454545904	0.3348220880644299	0.1554284073075214	-0.1978665801736659	-0.04763204363745847	-0.1277816318892637	0.003829266225148155	0.07711706196894276	0.167191499887067	-0.2224192250141959	-0.2914228970841725	1.731011342999898	1.570796326969429	0	0	-0.06022854001388517	-0.2006924554358235	0.07904254916390033	0.5383694709447692	1.570796326969429	0	0
0.8512000000000002	-0.1073541009195969	0.04226239275367707	0.08190210259815513	1.088496943863295	0.9527908194863152	0.4253150937999454	0.3417659170659764	-0.2031155147309541	0.06541592495389394	1.132623242479692	0.03879643001440364	1.240649920793513	0.0778092376988027	-0.400546434934862	0.02793107574044626	0.2572140905724853	0.04565660379065728	-0.05308210212374713	0.2898843096768912	0.09396746454545904	0.3316397296344429	0.1568928670491176	-0.1937852569552131	-0.04679056556279752	-0.1302019624463139	0.003536877587415978	0.07698698308707948	0.1559614530257589	-0.2206655300236097	-0.2910440202679676	1.710732227850534	1.570796326969429	0	0	-0.04841799221613224	-0.2036541881246599	0.07897389085801995	0.5430637229926517	1.570796326969429	0	0
0.8607128561131143	-0.1039482885566318	0.04355576755880818	0.07950165986110302	1.087208422182886	0.9538558448277195	0.4246375229569098	0.3631377987588316	-0.2065629053513249	0.06890745197366921	1.145854220969505	0.03879643001440363	1.256995632324599	0.07222968557255292	-0.3992890779954341	0.02659822013708683	0.2418076402258212	0.04563905954027697	-0.05905333628158969	0.2828931368486815	0.09396746454545903	0.3235397914466266	0.1606050312781803	-0.1836407206492172	-0.04426331649590429	-0.1362171804544861	0.003035072991184579	0.07676816087256266	0.1297763229913016	-0.2164454868520401	-0.289643073481325	1.659780732634099	1.570796326969429	0	0	-0.01996850807809084	-0.2109002472196339	0.07878161491442129	0.5539917061087302	1.570796326969429	0	0
0.8776558844730553	-0.0976791363877397	0.04520720963561603	0.07414840695097956	1.084796086718328	0.9558244171117553	0.4236981444907676	0.3999163996824032	-0.2118986471009577	0.07412629256201897	1.156535766139056	0.03879643001440367	1.272473733852829	0.06465446196185623	-0.3980542384364301	0.02118376456811144	0.2139023534222386	0.04464262839813178	-0.07085996116300398	0.2696360932165138	0.09396746454545904	0.3073627189847795	0.1666459536433242	-0.1650921364238145	-0.03849413229376335	-0.1475991972881064	0.002850066580886892	0.07699152130227756	0.08912109931978152	-0.2090102839873803	-0.2855666225149144	1.556671475123525	1.570796326969429	0	0	0.03037896344891357	-0.2243610681404499	0.07733486656761089	0.574576603952424	1.570796326969429	0	0
0.8920312594138311	-0.0922853732449105	0.04599609135991262	0.06854811165682928	1.082676226837244	0.9575033114287108	0.4231241109942548	0.4294854380245123	-0.2156786345990495	0.07763713835949797	1.152797097619242	0.03879643001440363	1.271999892941949	0.05911487218399992	-0.3975876164903823	0.01599063219583774	0.1896187402538544	0.04314155646262437	-0.08154489496151877	0.2570251297006986	0.09396746454545901	0.2919392047234118	0.1702725429506641	-0.1499494029433711	-0.03352672190129769	-0.1576655585414322	0.003436262341241941	0.07784509374643228	0.06196119624524254	-0.2028957715776362	-0.2811507732376484	1.455775151104435	1.570796326969429	0	0	0.07190458829000816	-0.23623375961527	0.07456358797678538	0.5953099959495125	1.570796326969429	0	0
0.8960000000000002	-0.09088151380964876	0.04612232311785126	0.06689439450294876	1.082087021424079	0.9579481634795872	0.4229834763796005	0.4374015290864994	-0.216675651006934	0.07841900762843744	1.149747161756878	0.03879643001440362	1.269692611959782	0.0573033658035946	-0.3971519356953939	0.01525587200483793	0.182932395573925	0.04271244656353234	-0.08437984847500735	0.2533328174594408	0.09396746454545901	0.2874402049593636	0.1709466804540383	-0.1461604209455111	-0.0322362201032723	-0.1603936116044028	0.003748647658828075	0.07816141187549851	0.05546136235286811	-0.2012425273494264	-0.279848381074584	1.426794223398963	1.570796326969429	0	0	0.08299895258047835	-0.2395259851884918	0.07369048736029629	0.6017723133913173	1.570796326969429	0	0
0.9055128561131143	-0.08760479267647983	0.04626445894027626	0.06276644610812282	1.080659118870106	0.958975569803497	0.4226916584367871	0.4558140727901779	-0.2188326910665955	0.0801189998722551	1.139029483182425	0.03879643001440363	1.260370023063516	0.05381759021716791	-0.3961978674325248	0.01349822629651298	0.1669582186489283	0.0415971660036956	-0.09110445796652025	0.2443381090089899	0.09396746454545903	0.2763081340576268	0.1725890931354912	-0.1374028446016954	-0.02886557594388359	-0.1669507876403529	0.004738124058697919	0.07906110220041393	0.04149741146924341	-0.1972997088434014	-0.2763593264152182	1.355687652158142	1.570796326969429	0	0	0.1093498112991232	-0.2474942001816624	0.07147440285028049	0.6182032725235618	1.570796326969429	0	0
0.9224558844730553	-0.08236413893089822	0.04606606769456736	0.05497673790390261	1.078079069790888	0.9606001140268001	0.4222711434287357	0.4865203443444465	-0.2220265832384659	0.0826895792952675	1.108122959723185	0.03879643001440363	1.230693520263177	0.05008971579729474	-0.3954751275952225	0.01246581526095933	0.1390281000901497	0.03961088303527936	-0.1023652940073711	0.2278061180038243	0.09396746454545898	0.255632176550097	0.1747839299559707	-0.1235972759691664	-0.02381421320706772	-0.1783426785743439	0.007267782130827467	0.08111675519577534	0.02326593557789201	-0.1906443708818226	-0.2711447345251293	1.221346394615552	1.570796326969429	0	0	0.1536075917482501	-0.2616579734156719	0.06591885198173472	0.655315892377303	1.570796326969429	0	0
0.9368312594138312	-0.07879274642083009	0.04563166990781913	0.04823207764447049	1.075880298478017	0.9616907683854768	0.4219759891278924	0.5104005649570442	-0.2241392938238646	0.08503782517348858	1.070541658886403	0.03879643001440361	1.192674910283138	0.04735944167181112	-0.3951905394860368	0.01451629510523178	0.1163089319349211	0.03818675997015	-0.1109073191224998	0.2136345118792272	0.09396746454545898	0.2377877741603824	0.17597914472116	-0.1137983505251119	-0.02171256818752691	-0.187418452409646	0.009978839400057981	0.08311282755035675	0.01359375659663884	-0.1855546712793211	-0.2697221802263328	1.100380842446806	1.570796326969429	0	0	0.1874894918187412	-0.2733433138275739	0.05922565200711898	0.6961662347799138	1.570796326969429	0	0
0.9408000000000003	-0.07799354437794641	0.04549340775122496	0.04640951649308054	1.075277478861609	0.9619321197839287	0.4219006903664682	0.5166458350911223	-0.2246372696107726	0.0858152713041137	1.058437773923818	0.03879643001440361	1.180154472712768	0.04621205965875232	-0.3947415614397412	0.01562028709121767	0.1102849013224808	0.03786980246469663	-0.1130093801843973	0.2097925177630932	0.09396746454545897	0.2328915795917145	0.1763029984854541	-0.1114507370673355	-0.0213855120112919	-0.1897811471302424	0.01079991197315688	0.08365850287447779	0.01140127677458338	-0.1842259779591125	-0.2698419767864279	1.066867125785432	1.570796326969428	0	0	0.1963130194064754	-0.2764826389380535	0.05725097629872222	0.7084704753484927	1.570796326969428	0	0
0.9503128561131143	-0.07630739167602402	0.04514391450835184	0.04209230759218478	1.073832937520439	0.9624074376041239	0.4217490035600629	0.5308067597068815	-0.2255623033419525	0.08807644681827055	1.026420342090837	0.0387964300144036	1.146678000285357	0.04393812148457944	-0.3935958551278094	0.01846386302157126	0.09619731428499782	0.03719933244216896	-0.117734810530138	0.2007442519070584	0.09396746454545897	0.2213141524241893	0.1770927603256175	-0.1063270096986027	-0.02058872277561492	-0.1953192859095105	0.01284704633848661	0.08497242586936121	0.007154103004768533	-0.1811362108421384	-0.2708299739417737	0.9861912725972883	1.570796326969428	0	0	0.2169527787042941	-0.2839187451793979	0.05238782845893752	0.7395077639849583	1.570796326969428	0	0
0.9672558844730554	-0.07454390475104959	0.0450773135391275	0.03517159930129388	1.071308770423545	0.9628258506252166	0.4215060928894662	0.5533325826426047	-0.2272082408409519	0.09361183023462281	0.959160627675913	0.03879643001440364	1.075504380959868	0.03995429604834251	-0.3913602883361115	0.02329019260274971	0.07297363520598758	0.03709045145641363	-0.1241519912028543	0.1855636192442116	0.093967464545459	0.2016062582937704	0.1784654802067294	-0.09949329493569986	-0.02070960496495763	-0.2042266411716291	0.01607113545756986	0.08686961252363257	0.0007009279866337687	-0.1763768403155605	-0.2789471841287395	0.843723445386538	1.570796326969429	0	0	0.2504375063526994	-0.2961852863282174	0.04236107046482518	0.802295339517558	1.570796326969429	0	0
0.9816312594138312	-0.07442241787452407	0.04593521838363794	0.03039005032124504	1.06927256575366	0.9627141175202423	0.4213323851459955	0.5695068537664278	-0.2289663293975548	0.1003802943120631	0.8921841136644404	0.03879643001440364	1.004627728990982	0.03438625872145067	-0.3885711634410945	0.02650157008732598	0.05541634647780391	0.03833800646565189	-0.1274517331614731	0.1740506152277421	0.09396746454545905	0.1862109172814108	0.1800174116261083	-0.09570566193851157	-0.02267106260004521	-0.2105646419212817	0.01789103452535663	0.0877048800910059	-0.005829873253636594	-0.1732696758940202	-0.293736500655462	0.7268689182903604	1.57079632696943	0	0	0.2752462369540604	-0.3052115107499578	0.03251115364801261	0.8623849943740395	1.57079632696943	0	0
0.9856000000000004	-0.07457187277520458	0.04628212542219547	0.02922082477928091	1.068734063517728	0.9626087799023375	0.4213053939866735	0.5734102358866302	-0.2294137577471742	0.1027174435986104	0.8721502200552308	0.03879643001440364	0.9835808195940687	0.03216772846071012	-0.387354192177541	0.0273014609210941	0.05088664707140236	0.03880935303386432	-0.1280987641012868	0.1711417200186372	0.09396746454545905	0.1822218645842423	0.1805951725296508	-0.09487772690272346	-0.02320771904615987	-0.2121346669999417	0.01826813058385822	0.08781176761804099	-0.007977830270345519	-0.1725173812159688	-0.298638014088184	0.6958594268740368	1.57079632696943	0	0	0.2817722832816726	-0.307508880522581	0.02982998272886519	0.8793041269931172	1.57079632696943	0	0
0.9951128561131144	-0.0751892839961725	0.0472534035369517	0.02666290188784662	1.067482034691674	0.9622262854124848	0.421291324483834	0.5817000534260565	-0.2303194316987502	0.1092057882524239	0.8218351551730454	0.03879643001440364	0.9309289469079557	0.02719708525817822	-0.3842066599592324	0.02882163182440954	0.04052013962160351	0.04009887833314515	-0.1291416338477128	0.1646077756320178	0.09396746454545903	0.1731731384401618	0.1821065307101155	-0.09349369877288884	-0.02431381030594344	-0.2156194309710294	0.01897324800068233	0.08789047017536618	-0.01315353583866017	-0.1708770420040976	-0.3118417180419271	0.6231174852602778	1.570796326969429	0	0	0.2971146270954373	-0.3127485832295628	0.02350021179008665	0.9208709968167342	1.570796326969429	0	0
1.012055884473055	-0.0772125245681102	0.0502038819385105	0.02352112999208176	1.06549753991632	0.9610773796123137	0.4214091076331521	0.5928632279842427	-0.232631720572635	0.1235716174295787	0.7264337822461099	0.03879643001440364	0.8314015585006146	0.0180537597996878	-0.3786180610906212	0.02769888000802645	0.02395126151940667	0.04369884174501328	-0.1283691076657277	0.1550845972112562	0.09396746454545898	0.1590155841446903	0.1857282567144385	-0.09334679074769178	-0.02603670177466845	-0.2204782806033613	0.01868208294157895	0.08685612926352361	-0.02595293342660872	-0.1687944224688684	-0.341666194150599	0.505437206435104	1.570796326969429	0	0	0.3230919440950459	-0.3204246681452883	0.01209534119511079	0.9963373656568356	1.570796326969429	0	0
1.026431259413831	-0.07955751810414891	0.05394207421313185	0.02242178405142403	1.064172917093084	0.9596541974945382	0.4216999833384701	0.5990572391005056	-0.2355285604240086	0.1380225240701079	0.6439044508726759	0.03879643001440364	0.7443320890384558	0.007840316462098557	-0.3739353356160918	0.02278627336365472	0.01157707760844475	0.04781903116334904	-0.1255188999831106	0.1497718875812554	0.09396746454545903	0.1491699088366374	0.1907603451604996	-0.09445196387915353	-0.02730816783408779	-0.2231080904892644	0.01670177083069109	0.08462232463798142	-0.04190947475967192	-0.1679254964118933	-0.3717403590369139	0.4210427604992859	1.570796326969429	0	0	0.3438814146663384	-0.3250003091849473	0.002466713005549092	1.059652186376781	1.570796326969429	0	0
1.0304	-0.08021007990884729	0.05499965887100301	0.0222875333866688	1.063874791144665	0.9591971946841702	0.421836776161534	0.6002983494199072	-0.2362379419134469	0.1422696506803675	0.6216612676693803	0.03879643001440364	0.7203700719591936	0.00433576133291971	-0.3724234218657134	0.0212683460736653	0.008318251815583187	0.04887213182660481	-0.1246522138541246	0.1487870059923682	0.09396746454545903	0.146828408894505	0.1925697892825656	-0.09462879453399768	-0.02746041380224612	-0.2236275217659357	0.01602202818217124	0.0838592673918931	-0.04678859999930041	-0.1677697058722146	-0.3799589474778304	0.4000958167869549	1.570796326969429	0	0	0.3496535854947782	-0.3260453782786265	1.71316859345059e-06	1.076676407094068	1.570796326969429	0	0
1.039912856113114	-0.08181395622698821	0.05760660218949284	0.02223053590780816	1.063271468228861	0.9579878314440901	0.4222678272736688	0.6027686956940561	-0.2378425952409856	0.1524338457921046	0.5703631296127587	0.03879643001440363	0.6638165295100444	-0.00358140983748448	-0.3686944834570194	0.01703439985141192	0.0008570193304378261	0.05131474402369531	-0.1222811020272899	0.1472839980905429	0.09396746454545903	0.1419169351228956	0.1974434159703881	-0.09530484310487729	-0.027396263470632	-0.2244560037291866	0.01408748844594623	0.08179960243131645	-0.05861373742548451	-0.1675552633714985	-0.4002007155587624	0.3533814470915594	1.570796326969429	0	0	0.3636784583514941	-0.3282258237484842	-0.005616029744513609	1.117585233354022	1.570796326969429	0	0
1.056855884473055	-0.08479642636514946	0.06241617513391895	0.0233604919098943	1.062687316463834	0.9554681079704304	0.4234027712539896	0.6061905865822422	-0.2404907273553019	0.167248803780191	0.4901540751272398	0.03879643001440364	0.5690426014778317	-0.01619814432101635	-0.3629122347081385	0.006569607576400642	-0.0112958959795584	0.05513972494490886	-0.1171679597782006	0.1478475707572392	0.093967464545459	0.1357720275154593	0.208673292768152	-0.09629293717421369	-0.02651058638289776	-0.2241021926959303	0.009597033709436939	0.07711401005043705	-0.08325367538919969	-0.1677616722525855	-0.4340232776907507	0.2882253624994298	1.570796326969429	0	0	0.3897344360340751	-0.3305130562398063	-0.01487225743351895	1.18738882985133	1.570796326969429	0	0
1.071231259413831	-0.0874278692976167	0.06624566801092648	0.02547459112540208	1.062749689721364	0.9530194821723772	0.4247663677666542	0.6089567025019292	-0.2419495183707309	0.1731594261294573	0.4371401995281791	0.03879643001440364	0.4982183860502797	-0.0265173698518563	-0.3593457870499326	-0.004131030398236307	-0.02072251167671792	0.05726475250125371	-0.1127650041505216	0.1514004659622106	0.09396746454545897	0.1333966318787045	0.2208611632659469	-0.09574236536875437	-0.02599738311653355	-0.221708299833581	0.005103140527047956	0.07220654389296065	-0.1083869154651247	-0.1684831409472203	-0.457048124202268	0.252937391549453	1.570796326969429	0	0	0.4132812842230505	-0.3307814311070991	-0.02207140050289268	1.242296497060183	1.570796326969429	0	0
1.075200000000001	-0.08814753537504011	0.06710155377919889	0.02612449755123685	1.062853838589187	0.9523045703665828	0.4252233969863964	0.6097677229917494	-0.2419353761360357	0.1734589553179085	0.425260734490624	0.03879643001440363	0.4806540979456614	-0.02963521575889707	-0.358471383837531	-0.006795627980302403	-0.02326651142708795	0.05748174541424118	-0.1117069645620959	0.1527318458219778	0.09396746454545897	0.1332335462958228	0.2243897671459356	-0.09533698333098463	-0.02594678347123715	-0.2207228338266009	0.00390767854600912	0.07079968695376561	-0.1153487501401176	-0.1687210172441474	-0.4621113949935882	0.2456539413767784	1.570796326969429	0	0	0.4201482980556895	-0.3307070902605239	-0.02388469161333698	1.257037944691106	1.570796326969429	0	0
1.084712856113115	-0.08991985652135341	0.06900014035689626	0.02787838861587342	1.063251865448246	0.9505303289066269	0.426438787836506	0.6117538323497311	-0.2413858290868109	0.1725762670852399	0.401159746877801	0.03879643001440362	0.4425326366608184	-0.03617441511436362	-0.356525586422884	-0.01347109604864366	-0.02907036437468171	0.05760485016336611	-0.1092304609881074	0.1567766450891158	0.09396746454545898	0.1337630868912836	0.2333294443422723	-0.09420009299328198	-0.02583938857129585	-0.2177725496600682	0.0009360854227023094	0.06727214142949721	-0.132036489166881	-0.1694000511643991	-0.4731888159004867	0.2320629248370047	1.570796326969429	0	0	0.4372196462307648	-0.3302648444247753	-0.02791171930150457	1.292282756216649	1.570796326969429	0	0
1.101655884473056	-0.0936910330756914	0.07106841173523185	0.03189899213766365	1.06459107263562	0.9471450314936224	0.4290177699820567	0.6155880072542215	-0.2379534394827715	0.1625155952242049	0.3741959226049659	0.03879643001440364	0.3897446357837213	-0.04336114445588498	-0.3550929681139719	-0.02574090918153622	-0.03823544657740129	0.05550303144957301	-0.1052998265250199	0.1665513401361981	0.09396746454545904	0.1381463777315065	0.2505731084263771	-0.0906082457917908	-0.02810749126232697	-0.2095987284670672	-0.003846002408806678	0.06062231737664141	-0.1641972029982456	-0.1709315978558173	-0.483825943639174	0.2233561199668809	1.57079632696943	0	0	0.4697009798492793	-0.3283325097434718	-0.03463736196569828	1.353126736316749	1.57079632696943	0	0
1.116031259413831	-0.09738373903128679	0.07127637735427728	0.0362209132584376	1.066482794645736	0.9440907156237224	0.431590510087579	0.6183035193403076	-0.2324371232195032	0.1467112025139524	0.3655468503616311	0.03879643001440363	0.3608457915977787	-0.04614718287681097	-0.3572828875576973	-0.03483870715847635	-0.04551837950464231	0.05106657119634286	-0.1031407705365619	0.1766792227717347	0.09396746454545903	0.1456927549941687	0.2664990455700771	-0.08480736492208543	-0.03219024228888574	-0.1996462634237726	-0.006979871019459405	0.05470217877433093	-0.1952351921402662	-0.1725028789150907	-0.4825055542876486	0.2300759117507816	1.570796326969429	0	0	0.4981464269996855	-0.3254845496838162	-0.04012568449939481	1.401840257018678	1.570796326969429	0	0
1.12	-0.09835799764530818	0.0711071514099809	0.03748656643257043	1.067133112031226	0.9432343661599062	0.432359614735678	0.618689680725113	-0.2304706582980398	0.1422473021401046	0.3647717273265594	0.03879643001440362	0.3554362130447108	-0.04678332701050772	-0.3585147679335711	-0.03664423809753381	-0.04769454548721013	0.04944698345471392	-0.1028173712838606	0.1795346309640369	0.093967464545459	0.1484462017454991	0.2708709528886631	-0.08281320459978192	-0.03304279800695454	-0.1965663922202372	-0.007681528523616449	0.05305020336945869	-0.2039577986550781	-0.1729482836669822	-0.4810635249820869	0.2331247823604474	1.570796326969429	0	0	0.5059576576510085	-0.3245875594745851	-0.04152769692652307	1.415032041851916	1.570796326969429	0	0
