DataType=double
version=3
OpenSimVersion=4.5
endheader
time	pelvis_tilt	pelvis_list	pelvis_rotation	pelvis_tx	pelvis_ty	pelvis_tz	hip_flexion_r	hip_adduction_r	hip_rotation_r	knee_angle_r	knee_adduction_r	knee_angle_r_beta	ankle_angle_r	subtalar_angle_r	mtp_angle_r	hip_flexion_l	hip_adduction_l	hip_rotation_l	knee_angle_l	knee_adduction_l	knee_angle_l_beta	ankle_angle_l	subtalar_angle_l	mtp_angle_l	lumbar_extension	lumbar_bending	lumbar_rotation	arm_flex_r	arm_add_r	arm_rot_r	elbow_flex_r	pro_sup_r	wrist_flex_r	wrist_dev_r	arm_flex_l	arm_add_l	arm_rot_l	elbow_flex_l	pro_sup_l	wrist_flex_l	wrist_dev_l
0	2.452151409473329	-5.677560058143286	3.289312418254076	3.179322180182111	0.05207092730693434	1.345876764856857	-7.187017816072448	10.54001498180911	5.718489793361869	48.20202522306083	2.512657127188725e-13	74.7257901311319	4.810242950502357	-6.678835116531725	6.320870226066559	5.247019821080277	-9.879320462994313	-1.57716446710755	19.80328795787661	-1.140600133795222e-13	31.4073209881029	-11.44638325397128	-6.502653410740852	-1.296264413160629	5.068143063638935	5.512300685894247	-1.618301587220349	-12.61680303838944	0.5676877837718399	26.88608753451	6.377252635251239	9.097922977115988e-12	0	0	-19.9938964965347	3.22488842078053	-0.04076606302895269	-12.68007157077253	9.097922977115988e-12	0	0
0.009512856113114032	2.666431093739309	-5.720678493771672	3.472455050075634	3.306126230370393	0.1057771046589152	1.271013633993917	-8.000071685843524	10.2414283658181	5.876339357937034	46.24424056078823	1.541713083588347e-13	73.8546280888566	6.167957892912703	-7.69570953953298	5.51713807865282	4.842302313669035	-9.763368112712458	-0.1557115240910956	19.94041969139229	-1.166247080301655e-13	32.17969159083218	-9.62455505490871	-7.161868050554347	-3.256279186393019	4.95534513642556	5.938642993972786	-1.663217497455638	-15.42735051578675	0.6359293686338987	28.77409298239738	4.296067812268472	6.178028807346909e-12	0	0	-23.51232122386841	3.514857815253179	-0.7152942573191652	-15.0870135445199	6.178028807346909e-12	0	0
0.02645588447305514	6.368823202222387	-4.89592487872267	3.842078010761666	3.551341021528354	0.8233770984360079	0.6200166029459108	-14.65641468359726	6.929111663249725	33.25843666923974	29.21613016332408	-2.340277279284687e-13	63.42599325792921	-21.41340784576243	2.854626752319391	3.973332877165681	1.694848315237985	-7.085391037972744	10.84959195475555	21.94307558257162	-5.001801976351185e-14	39.94623260663251	-4.388005318835944	-19.30604586210012	-7.376499153778039	-0.00354496874455601	8.270595507755896	-2.14012857811179	-16.80691690738306	0.9080597875314139	24.29001061357186	-22.15942437948291	-2.134401930755797e-12	0	0	-45.70059939586798	5.059342669631537	-3.658956804635445	-25.71189629305081	-2.134401930755797e-12	0	0
0.04083125941383081	6.543923726248063	-3.396490650267381	3.502050267256211	1.953636379841317	0.9124268269434211	0.5557720093561334	-18.74918950952891	3.013702189952027	66.29660516174492	1.920459166681974	2.829944226410011e-13	50.4015670086437	-26.57234203878148	19.22719798358341	0.2516590023071563	6.575280980924749	-4.65534953480639	10.09655728337613	25.010432897897	2.416628187771853e-13	45.27898507234818	-18.68332859831216	-30.39045738779971	9.865378469431253	-3.994304267327469	5.493562915143019	-2.056753141048198	15.58088324072285	-0.3323084767055001	-9.65225387189567	-25.10609166595071	9.149636257153693e-12	0	0	-20.2752916281453	2.743744154481993	2.995571709555094	-1.926644045912511	9.149636257153693e-12	0	0
0.04479999999999995	2.452037893715715	-4.775108192772565	5.084241262163763	2.252471255192777	0.4701622778491442	0.6353675919098976	-21.67314990812596	2.050855040110132	35.03525474903478	-18.71000272041379	-2.244387040727489e-13	45.99865966599285	56.04338307636691	-10.60486901175354	-13.72422607752173	10.6762726788879	-6.41215357569248	10.61518962698994	26.36710605489958	1.828217991167295e-13	46.88267116023037	-9.133148928175434	-25.19793043069212	-3.234456267081555	1.232195182502223	5.806448642710718	-1.809033531378892	-1.256407488752438	-0.6131584133672823	5.369372539148875	-7.47640910059612	-1.738488141361145e-11	0	0	-15.11087345200965	2.772571351872538	2.541791524576102	-3.398725602188665	-1.738488141361145e-11	0	0
0.05431285611311398	3.132316179503665	-5.148822535057357	-5.473719329175553	0.02765923341287779	1.913417295872267	1.622193509260645	-10.9566671938952	9.274645396438787	12.21956764527452	-10.10082129358418	-3.788378514821488e-13	34.84408492191351	70.01912003911089	-42.28501770923513	-10.63342786636141	17.72030537442507	-6.131347928571272	3.391755840419022	37.45970578960385	-1.106710825387856e-12	49.88574893864686	-13.54589103346006	-31.48598652542275	-16.41820628200317	-4.260454078572726	5.809056414649357	-2.651273490886487	68.11665091172706	1.22244668218437	-10.38439913723937	-14.31957746439646	-2.443632216186871e-11	0	0	-29.35260741437269	4.048980994844547	-0.930108623031306	-17.54337273496942	-2.443632216186871e-11	0	0
0.07125588447305514	1.353848370108769	-8.292698427209741	-12.413586273444	-2.317046777404254	3.459999126841227	2.248880197444984	11.16522435970372	16.17689728764081	-14.1479823029844	22.44992150499887	4.903400326252798e-13	12.99818594767666	51.5172350180105	-46.76786197603256	-0.6448437954700248	29.22979831992853	-9.409648753396599	-3.317275679943312	50.84636520281471	1.16922439315982e-12	53.16492693390302	-21.71526109478678	-33.77986452812655	-29.85597462924379	-6.710467428390412	8.652159390936571	-2.024353026607286	106.7379027085852	3.141976964152716	-15.20455036702701	-20.36908967370152	2.10112211017545e-11	0	0	-39.3502147525309	4.484513254176113	-4.614033714181936	-31.5045789045755	2.10112211017545e-11	0	0
0.08563125941383082	-4.028246224177004	-9.161583702305467	-7.29843733444635	-3.22524321611522	3.692941764027543	1.79496282156493	24.29805987511181	14.68452506301936	8.636664046110383	26.53813255530783	-5.393773103087394e-13	-5.390508099525595	47.26530105158129	49.11560175064812	31.32579638344744	40.5311126929851	-13.12589079946872	-14.25323184027398	57.78406993001545	-4.983791341953141e-13	52.76202292256221	-33.16324348202826	-18.82897507874866	-4.778729308769668	-1.529765575352319	7.870510581813167	1.81753863699547	67.07981469205444	1.843707203182831	-13.57001371090467	-6.998795636332739	-3.30897250724838e-12	0	0	-15.57641077212591	0.7677893832822886	0.5559321290333579	-13.95028273655672	-3.30897250724838e-12	0	0
0.08960000000000001	0.8317757127206193	-4.513259663485875	-1.860022895761176	-0.9632938861419384	3.605779207093195	0.8753396632938328	4.041706277246964	8.896171722770273	-0.9764788087393905	11.33366878036812	-4.912392548189072e-13	-10.10413958021312	43.69379375379415	-15.55756256803042	-21.99594927198776	28.17310039523768	-6.556538647838429	2.5669401186757	46.98254904851714	-1.333065247451099e-12	52.01552822087918	-35.24663033635037	-29.27752894405852	5.976779630237218	-2.078704088909938	4.311213692040521	2.906730968028754	20.56849098401191	0.791171960927911	-4.820792382409436	-24.9813750075326	-1.073454104395527e-11	0	0	-31.37068699969645	0.6835651652213521	-2.107044619554316	-13.67021396372353	-1.073454104395527e-11	0	0
0.0991128561131141	-0.8019100240753241	-4.568029398690914	-1.352289849008687	-0.7363143899511747	3.485311944846004	0.5080837232605149	-11.02864156469756	5.973590358589634	-0.550507830854628	-27.02640725594425	3.46461886794922e-13	-20.23669676441391	-15.90907986561445	-0.1298785493242338	2.152279940443189	30.15314221294559	-6.890788436825362	-0.1791584119786849	45.96725335709731	4.389729098222044e-13	48.90980206611009	-42.97284993262377	-25.81151281405508	5.928421955706873	1.425695251289351	4.298062632837412	4.943527512355886	24.21687832432389	-1.07488518493526	-17.18209467193952	-20.97264985587794	-3.240627536630766e-12	0	0	-25.62025069436086	1.751204202437595	-2.140377385455087	-15.27549980210609	-3.240627536630766e-12	0	0
0.1160558844730551	1.626644786376767	-3.020495626291291	0.568544393667248	0.1057102730118511	3.066177419389441	-0.6091939320010857	-32.73741067032696	0.1862041225468725	-5.715867103670302	-61.47357114171969	-8.293362116601324e-14	-32.6529334059982	-48.4938568647068	-6.967992678796446	-11.9036229920515	23.23404918174825	-2.390709376525071	11.48664569475805	36.51366007942575	-4.004079746548089e-13	38.55577839399867	-42.75100207114846	-34.19297650035517	20.43185858121767	1.108636253044157	5.049452409821857	7.570378365973017	10.80606012353859	-2.423486986200955	-18.70914818398634	-21.46049745359652	4.322129976732427e-12	0	0	-29.08353055557073	2.307542355618693	-3.012388363222519	-23.56241233509773	4.322129976732427e-12	0	0
0.1304312594138309	2.365769407055191	-2.027798704483079	3.205609924420095	-0.9042977236922121	2.245083242389403	-1.296126373059365	-25.89529752026605	-5.290501383272709	-9.935732392298631	-48.41289780444426	-2.777609651312616e-13	-36.3839484013078	-33.72803560431955	15.93764766500597	-1.866986915880724	21.84913811725084	-1.771724102581679	5.513425509752857	31.17226598573685	-3.121486401088965e-13	25.14985143560341	-33.34668718699969	-22.53297429229487	42.94020158287346	-3.240118246244863	5.111121289297531	7.311853499048418	-8.155299463958418	-2.549621021196811	2.246883907125838	14.29403683732548	-1.315114007299679e-11	0	0	-15.32817846886687	0.1876225136488293	3.964507128525432	-24.1202687570835	-1.315114007299679e-11	0	0
0.1344	-0.7663466678596798	-4.865608891573326	-0.330495714770174	-1.978776884110878	1.998730271430937	-0.9852063720404567	-10.2235769460416	1.699172851070337	-3.501218688671428	-25.42886374534673	6.492406627009934e-14	-36.31855189737697	8.084453083980092	14.27226866753482	-6.9323035322899	25.35198455927858	-2.40337441453698	10.57489012008192	28.92811617216993	2.836981181366146e-13	20.82518086385643	-31.06930584125417	-33.87439665905033	35.95410130532352	-1.425765100016425	8.381724998764588	5.460438467291294	22.63636934069716	0.4015567067830128	5.410080956019618	5.63619548749954	5.635065234096975e-12	0	0	-18.36218696457003	0.08010552187355124	0.1454453181699403	-21.19264652556983	5.635065234096975e-12	0	0
0.1439128561131141	3.001145078221923	-4.19143022075647	2.395804643090027	-2.265705581936396	1.712369277077546	-1.56018407101815	-12.3586652634545	0.3496694108680232	-2.441490536117063	-22.92695093642203	3.172124533823711e-13	-34.46223708466773	2.334551553571624	9.025846491189872	-17.0572974938154	21.80306725489003	-0.8870834885519706	15.66911218012027	27.77467542219819	1.035093814892806e-12	9.646244390746064	-11.21159343261613	-24.92043803962665	54.62660899663426	-6.77709391772765	8.614881466605617	6.01082111617428	2.268615272278445	-3.431299170884306	10.59928051420865	30.17180314956512	1.369183953909615e-11	0	0	-11.91735591073023	2.117981714042639	5.426615786964756	-44.16604010339525	1.369183953909615e-11	0	0
0.1608558844730551	5.716044860584686	-3.879139414110948	1.657572691245797	-3.228818426942363	1.156719686373358	-1.665904054553029	-8.589522637870896	1.402528320689955	-0.1603185651594086	-14.55084401441578	-1.504792806681425e-13	-26.70207174524888	-6.395722439675602	3.702016413530847	-20.3981881973729	19.70762595216488	-1.690620505533633	18.61775282894556	28.76533809381187	-1.297337784526734e-12	-11.70364187784575	24.06411255318858	7.034763512142712	49.67092329308856	-12.59145819801819	8.378894210141318	6.485280553909378	3.66786180409207	-5.910829851012831	13.27139463112683	47.91682130221575	-1.731690064947275e-11	0	0	-12.66402543835023	3.748828537496607	8.596085461991198	-65.95058054700195	-1.731690064947275e-11	0	0
0.1752312594138309	2.42268843748509	3.183048023117769	0.2784697435894612	-1.990197996053984	-0.03482532442445536	-1.360055434805485	-4.662485446403831	-6.323497902511649	-0.7728820344185422	-11.94820696441067	-1.997982596018153e-13	-18.01726122090442	-15.18255470778529	8.959952786990993	5.991971519278753	-20.03821524244838	-0.6431511104632947	-27.29619453427411	-69.11101547827489	6.521775604189309e-13	-29.23124917750585	221.916145875271	111.8684864929906	-71.82158709518291	-5.575579409373463	-2.346040931259755	1.104112583737753	9.086417817618504	-5.736052836245258	8.242321297661011	53.32997461387527	1.379126399509803e-11	0	0	-2.396643179930849	3.282319946723669	13.56564597803131	-45.4388569193781	1.379126399509803e-11	0	0
0.1792	0.0607077550026075	-0.1838633592710667	4.314150240581798	-2.248647009582758	0.02258409104322158	-1.738447942027595	-0.8315480225015925	-4.927707301327272	-4.720610147972169	-7.730965509185925	-2.872766684233615e-13	-15.60715560690729	-2.873694551779541	10.5208961933563	-4.25678552335008	0.2477149850759908	-2.422914066642238	-4.989362195872111	-39.61867658056933	-2.049920278287115e-14	-33.70310354363505	-172.8233689592641	30.08780272531543	135.8845870345403	-4.192570851133933	2.465493572959869	2.676315461880714	-4.77302524172056	-3.211031300488772	9.977512252227266	22.21995901471863	-7.672437594031983e-12	0	0	-7.905953627642259	1.896463659876415	8.263888097028953	-33.42135778741927	-7.672437594031983e-12	0	0
0.1887128561131141	1.679043603114392	6.786166115362025	4.114742441147063	-2.522524099369909	0.4610056687506937	-1.93885269486485	-0.1371392625351947	-11.81821702492716	-3.033140773658495	-3.256243573810411	4.613934080339862e-13	-10.17301469578312	-4.396200517929393	11.34823199631441	3.041610497773577	-8.158489336659096	9.243692693842348	-4.868945038092707	-82.19958654992081	6.165922916921594e-13	-43.46875882022394	-56.57011558638334	74.79848960619184	81.11527101766268	-6.889969221622484	-5.536945493124784	0.9044259772136942	-0.696046703344656	-7.923799761993275	8.517758062445257	49.79023622125705	1.540925843428335e-11	0	0	4.77245031987327	4.381205784882991	12.9566668112366	-50.09420125582166	1.540925843428335e-11	0	0
0.2056558844730552	3.062280587177415	10.94459119467636	6.392284609594496	-3.061875429947883	0.6893410043149224	-2.339428179723946	0.7227237283270915	-16.95735386946939	-4.833810871667657	0.6618137942742577	-5.651013489616996e-13	-2.669032167074058	-11.67835911382196	8.667591765832592	8.878449058945101	0.7425227525447481	19.83936820431819	7.12477990293658	-65.3181861677359	-4.480522105324008e-13	-56.69903233444172	-41.3694824157285	13.66402874409805	74.5256487516757	-10.79879742885232	-9.64466301291267	0.8944232164552829	-6.834765577735479	-9.92921070393227	6.23674118423499	49.86937792378691	-2.055213530076218e-11	0	0	7.557657522634228	5.051544603625087	13.19441318170671	-64.07910262253448	-2.055213530076218e-11	0	0
0.2200312594138309	-0.3593098920706281	8.941859953054731	4.473847113029804	-2.577794790082785	0.1355312905171072	-1.781799730490393	5.675401256826602	-12.5152788930214	-2.381521525185905	4.247325392334864	2.980368499957875e-13	0.9060252219074001	-5.091862722773891	4.054042239559416	22.02087696846268	1.710108073377375	16.19032841859893	-6.700605755433569	-57.55113898295004	5.46184552774482e-14	-63.2712543696707	85.3843843714792	-22.91639348080344	-57.69597931925772	-6.063677787233663	-8.37254893006998	1.297172618947354	-0.5204565328905097	-3.512285896115131	2.829689053914012	12.40863478654001	1.491600092204611e-11	0	0	-0.8341383298469435	0.4852913521707036	6.438554354470006	-32.87869379825121	1.491600092204611e-11	0	0
0.224	0.5375178953810598	4.188943769658781	3.846514586305987	-2.368355172191303	0.368898215473234	-1.736599178527147	4.086136859177063	-6.990579868105893	-1.49493995572947	3.07969239513459	2.425419260578575e-13	1.439634851242128	-1.335743240002851	3.465141129256183	6.401477567684658	0.4752649790305858	9.206192303008967	-3.866525797713043	-65.80352710154867	-6.698530827943424e-15	-64.35500540453573	16.06460705258517	31.8621703923215	16.76466095739283	-6.310150108895769	-2.202447229213097	1.438696584414728	-0.7745279473450599	-3.665486868835933	8.144038590166039	19.70061950657512	-7.472757353395628e-12	0	0	-3.517165720090796	1.35620913041066	7.617302104715463	-33.99235312315312	-7.472757353395628e-12	0	0
0.2335128561131141	1.653557888873627	11.25954147894808	6.54130207321824	-2.545457958807953	0.2890265687625323	-1.965247474008822	2.646594726785101	-15.24106147153663	-2.760527996090685	4.365542026807024	3.080894787086279e-13	1.997900265600094	0.1848444675552791	4.944634559389596	16.20464573643024	-0.770297681174188	19.93219807250848	-4.936629871942305	-59.47432038402543	1.134698344014576e-13	-65.80544690659019	37.15727573744566	-20.75695911258428	-52.94177992137445	-8.482139205448192	-10.88970398097588	-0.9420580849985394	-0.106078767056027	-5.300073272876746	-1.261303459942219	12.11676612971576	1.133917582165197e-12	0	0	8.186485005283975	1.818074782857709	7.401443900655246	-39.81930498834616	1.133917582165197e-12	0	0
0.2504558844730551	3.068674431905002	14.87179096030636	7.818483641033294	-2.52659662542732	0.3087095696378098	-1.889620810359104	0.1722936505566674	-18.60111484497506	-2.765798260474845	3.256309954409593	-2.136322862682252e-13	0.9406986170477298	-4.602773604692673	1.319360384093254	18.17065334577225	-2.707077748302033	24.49189683570507	-3.330507539807974	-56.49337913201774	-3.545528874670064e-13	-65.21308199111697	13.88954267862335	1.767227699017013	-69.29197168274833	-10.72412023079642	-15.75853986735726	-2.768509187899166	-0.9907947772436888	-6.801598920567336	-10.02113952634681	10.17047213134631	-3.338074605549387e-12	0	0	15.41585487069698	2.389654317739953	7.4390874966033	-47.78471319866908	-3.338074605549387e-12	0	0
0.2648312594138309	-0.5305461038542998	4.849949780926734	3.351543273954976	-1.528690687321634	-0.1357671486782809	-0.89468662768306	1.424371149857372	-5.001074513357646	1.188539127093602	-1.320028201397553	2.751656361433789e-14	-1.337611005778304	-0.3052023876371426	-3.863949251508565	13.20262419117028	-5.089900832570729	6.064295068432772	-13.89904928732861	-58.01603506043207	7.57938748774407e-13	-62.86949697809679	-18.29588676452362	45.91192249873151	-36.074338729357	-3.636843247630609	-5.540446697209774	-1.052558339227633	3.734188224903258	-1.100848120108316	-7.640404824850863	-4.434479122147254	4.646318583644907e-12	0	0	5.58482267127277	-1.061020725899268	2.755701697047862	-17.1948583305097	4.646318583644907e-12	0	0
0.2688	0.2068803324717262	5.086947061644848	3.430999354314943	-1.736578221528291	-0.1695387397252897	-1.156263726570798	1.701453051476743	-6.324247342112328	-0.8634675450814246	0.8902946674228875	4.364615171506857e-13	-2.100157466584419	3.50034123370718	2.216435736317172	9.959272483038497	-4.643883657124952	9.263895445136239	-8.842977175574095	-53.69059722740771	1.440919931521463e-12	-62.11797890681031	39.31750560631885	27.43799432074556	-25.9139497469222	-5.204888526168588	-5.013808799341125	-1.02515608223423	2.931162040667866	-2.292307413301722	0.02397024594342323	5.595214225614996	2.435564970159574e-11	0	0	3.94764767564735	0.2859950128149155	5.646789000985564	-23.27242718809732	2.435564970159574e-11	0	0
0.2783128561131141	0.9212918748669707	5.762190613755606	3.41472417466907	-1.409910320249663	-0.15068900923026	-0.9096402925567881	-1.558971276154004	-6.666774159474378	-0.971880144092146	-2.637877466136259	-1.023602932053192e-13	-4.055731191897802	2.499834951792202	2.450937581567691	10.14405768224113	-10.52287521968694	8.258258032412439	-12.45326273021337	-59.59184635809524	-9.363542029717943e-13	-60.35797563822945	2.391846624759602	19.81038975239043	-36.93024413071385	-5.097466360309757	-6.507139252706503	-1.764974902988526	5.354676672832902	-1.427411811395676	-9.505327937733099	1.045923690871641	-1.186151088299428e-11	0	0	12.4643285529789	-1.230510433777081	1.386736347233934	-22.76568768700606	-1.186151088299428e-11	0	0
0.2952558844730552	1.361146279152044	6.648477294049261	2.841966146027559	-1.173568661572507	-0.2192585750699709	-0.7134074535516928	-3.38273078629296	-7.433660735774575	-1.686372270564153	-4.534718542371371	1.160311171916618e-13	-7.630451827160346	-0.7290146962483468	3.478053170580617	8.800240687477629	-15.02896378778953	9.808109177445104	-9.084918272238289	-59.15166993681541	1.018062875129354e-12	-57.98432196366767	8.913521818905464	24.25132268966157	-34.54193597898179	-5.340388339648115	-8.163631978264377	-1.831356254747451	4.613811012182618	-1.102997908336615	-16.12938380927108	3.345941922176455	1.349810484360525e-11	0	0	16.69061254599455	-2.28109117151601	-1.772957684906126	-26.36505473308857	1.349810484360525e-11	0	0
0.3096312594138309	-2.243532102066582	-2.19353423967207	-1.481777324987565	-0.4665394017670538	-0.6301399495540638	-0.1446125676080795	-0.6479657742196578	3.345267320689724	1.251910265059766	-6.918051738648305	-4.429633900508645e-13	-10.33735255709827	5.730210058390251	4.006577028193563	2.290961784105555	-14.03490080683921	-3.044725926778949	-8.709607556240464	-56.35660230567679	-1.086542724058052e-12	-57.0453453070407	-25.49027743949465	41.02088643315405	19.25364036408822	1.142440151108456	1.446060985770122	0.9373449093425164	4.373172971467333	2.007671030259687	-6.174426972362488	7.466401939016993	-1.115292881221618e-11	0	0	4.205113477118611	-3.684827879709289	-2.315153660432016	-5.243522923127975	-1.115292881221618e-11	0	0
0.3136000000000001	-1.023515868961811	0.05023656622840544	-0.1231744561097162	-0.7342104607213866	-0.5951555411695357	-0.4697506440545559	-1.161166739799968	-0.07860317183107729	-0.7863185244107512	-5.180434162984339	-5.495405988065337e-13	-10.97824959260326	6.082528470935198	7.347794058975672	6.436619647567796	-15.78479943079904	2.498317286611313	-5.396226578083673	-56.33379678812521	-1.48136303370846e-12	-56.93012417420319	16.43972404383814	30.63933892384366	-5.976808122941836	-0.9143725188755868	-0.658851573389047	-0.3501956399577604	7.784953164208829	0.3755978608211671	-1.605930177402149	9.454405170980207	-2.613399225561452e-11	0	0	8.933893982560887	-1.855522496414135	1.233302349883902	-9.401530086419335	-2.613399225561452e-11	0	0
0.3231128561131141	-1.725045485376479	-1.784891684629778	-3.086007344389248	-0.3423181457019757	-0.6603621953157534	-0.2211443065445081	-2.031558131077329	2.060014910033182	-0.2498256452079776	-8.35077800810055	4.365845423404524e-13	-12.25579662922216	2.365844289834028	9.499540289567365	0.8844243529510226	-18.04104254609577	0.03440901920433947	-5.305581401497902	-57.57034259076966	5.607552630471315e-13	-56.76810913575684	-7.672578465340179	12.62080047241821	3.814901736300844	0.4942882035541415	1.570580763072156	2.233509635498884	4.13654374441175	3.10534493414652	-6.930537557482484	14.66859512702146	-2.49183161828252e-12	0	0	4.366071785327563	-5.60791009903852	-6.379742202506052	-6.991727139103258	-2.49183161828252e-12	0	0
0.3400558844730551	-2.134593784410912	-1.413058082968508	-5.129180934966994	-0.08983794603491919	-0.7626432938374196	-0.1664186779610834	-2.131815241703945	1.378929353201971	0.09298325600148827	-9.007631094250371	9.727580438277361e-14	-13.3693131742015	0.2770174567972095	12.38273360222346	-3.584796521321555	-19.82351492204485	2.246997694593364	0.6008569066687763	-55.07644869381406	-1.394332592074889e-13	-56.05718417990808	-6.998817990729	8.589256983861368	2.123782125601914	0.8276471144102194	1.117406696596861	4.170105807124862	0.8946952027495405	4.752440798957736	-10.63385942982136	18.63258520977158	9.068724023028927e-12	0	0	-0.5469428828348921	-8.195536698323844	-11.70778754868165	-6.154929615081482	9.068724023028927e-12	0	0
0.3544312594138309	-3.900687518170264	-4.198508519376835	-5.429973120522274	0.1316699440866367	-1.039667091375205	-0.2689391178648929	0.6978588519628461	3.962144067749068	0.7058413087724534	-6.615308743060769	-3.81846958598561e-13	-12.84692685003577	8.786843315684278	14.38928625939363	-5.879700549660925	-16.89513410332626	0.1171294770858038	8.411115729444097	-48.18007301629286	1.504468096980846e-14	-53.65008546312976	-36.85935202240107	20.50383048860073	18.08080035070763	3.648918908709177	4.127116514014266	4.370765264311186	1.66886715603449	4.472261236999683	1.644015178645642	15.45586355858428	-7.733412702616286e-12	0	0	-8.439555777240756	-6.260282962527325	-6.035772827319064	7.968332908344368	-7.733412702616286e-12	0	0
0.3584000000000001	-2.595719840747357	-3.347912102926499	-4.429580016465894	-0.1315915005034716	-0.9915841018924267	-0.4432715948427512	-0.4917360565159024	3.07678106586586	1.035856938115595	-6.758427859015451	-1.631664077800994e-13	-12.43433695720882	7.055190096307401	12.39703942969575	-1.113826836244677	-18.53043843621191	2.1373533928332	10.0942285459491	-47.1856245277289	4.172921668397506e-13	-52.48615083582515	0.7246458596181826	23.84124892924604	4.981804252722394	1.751175822880895	3.668445572476803	2.88639813696216	8.500307354109784	3.166455828339237	4.185396279197133	15.82153955954359	4.765700178201309e-12	0	0	-0.8957550541114079	-4.74412088938597	-3.864543787999799	0.332633533793425	4.765700178201309e-12	0	0
0.3679128561131141	-3.37483851517749	-3.750087011360231	-7.042385642067495	0.3852862391995714	-1.159935291959592	-0.2317358013635091	0.09145121962084335	3.710929390714175	2.871057677684074	-6.860415009272129	5.547872765457599e-14	-10.95408058658447	3.344491188400432	12.15639239227469	-13.78612768988178	-18.54501614955323	0.1715174401189573	10.5076777646235	-42.15519798177279	-3.519920653657562e-13	-48.55779775033454	-18.28611151660361	8.049803523763842	-2.112535450676693	3.256740259331137	3.632312695550635	5.462284860562919	1.682561953059244	5.912220232321569	0.08563290549463809	16.71394684945875	-3.268378925900211e-12	0	0	-12.63884906016696	-8.400879277834143	-10.11898505064091	16.19261337071085	-3.268378925900211e-12	0	0
0.3848558844730551	-3.523373884180228	-2.447653249133518	-8.332844699137093	0.7976296163337948	-1.37191160689849	-0.1386470570631186	1.121413090532928	2.629388184148738	5.375504658368879	-4.383546468857621	4.827615416211246e-14	-6.631269918166836	0.8315128040598327	8.852644707017021	-22.76486032586615	-16.39755844857178	-0.4833503784867303	13.56158621750264	-25.528750540107	2.957218771561081e-13	-36.82025192616998	-18.03308566296831	10.61803648697115	-12.01820715883958	3.952616140286854	1.562903645989774	6.570398488701117	-2.013297063961499	7.460882317645559	-3.916194937139098	14.99893851958786	7.417358925939301e-12	0	0	-19.44051207197875	-10.59083352831943	-13.71238350555803	29.22250487662918	7.417358925939301e-12	0	0
0.3992312594138309	-3.324434481122997	-1.94848414570993	-5.275486830212915	0.8839476470397596	-1.525676158160962	-0.6039611386643191	2.393767594738406	1.354231969116542	4.078217373886268	-0.5149598478979752	-2.949379513733965e-13	-1.488745530675544	4.022662546697963	6.158850002178209	-12.97208745650804	-12.82363888591656	-0.7181566467583872	17.75765271877937	-6.825900360465096	5.758027216111365e-14	-21.67919010815563	-40.09881053604197	16.60934464230491	-2.483213883488242	5.677210851392719	1.475600906376764	3.256334947116602	5.469780455817299	4.431464513660277	6.407367674501813	6.826430486104452	-7.723059617315422e-12	0	0	-9.365369782730951	-5.673798422502627	-2.932525609508118	33.67062528012654	-7.723059617315422e-12	0	0
0.4032	-2.401548460782231	-2.167548124199942	-5.468437233508134	0.6782992980081399	-1.505036393168018	-0.6403193815134569	2.42668358139843	2.149727966520051	5.888856863179397	0.4011425199885167	5.571533400877731e-14	0.1152042244514262	2.70917343770252	2.243824625273786	-9.481115717900089	-11.54521518100068	-1.451634851380279	15.77446771511578	0.676188841633194	3.308904384067429e-14	-16.70153871637823	-12.47196442522064	16.1335861978187	-3.128217970411184	4.197492135190569	2.523833802965256	2.956974048803251	9.16371727057329	3.910071355640734	6.683874619679459	13.07629903583309	-1.351458853975542e-11	0	0	-3.761291115553329	-5.397629758804735	-3.659209359185079	21.9691222518654	-1.351458853975542e-11	0	0
0.4127128561131141	-2.821525614573497	-1.109925473529283	-6.063381346171653	1.264735716641148	-1.592168470224796	-0.650017446971153	3.033059011699221	0.9075442487101254	7.010786990447571	2.280436954989473	3.759518915849774e-13	4.179033210526293	2.224614071053046	1.024058552405187	-17.71660683616293	-9.270133769559484	-2.634763444202123	9.653978849674377	15.51544266687498	-4.631744772649245e-13	-3.583738351949265	-9.615328756703116	7.68622098621063	-14.66614944614557	6.266482312839598	0.9465312428245148	3.437419414057563	4.782328450017927	5.359897614233785	3.492639357571859	4.046393818591856	1.420586252544867e-11	0	0	-14.84325980758818	-7.073007949008906	-4.751952860665237	48.75510997797047	1.420586252544867e-11	0	0
0.4296558844730551	-2.80753969146138	0.4356526024518237	-6.009850028349129	1.712891981604161	-1.561815520612696	-0.7030443044163825	4.597014628331831	-0.5805010923598017	8.245718003334211	6.323093600119787	-1.815418126725956e-13	11.69860585104949	-0.4794379393717119	-4.182208438182346	-19.15140885656765	-3.299719652599058	-2.831189465681747	-1.146615772602011	42.01566475508571	5.867778890132534e-13	22.5473291731743	4.659810264785974	0.6653045247434297	-18.93667561932699	7.344439994393146	-0.8750909739729268	3.493608334495351	-0.6602074879481921	6.200720739434079	-1.365935929209159	-3.387851165715721	-1.268464216267285e-11	0	0	-23.47127946385217	-8.09359361157091	-4.880904396867366	66.24281781529544	-1.268464216267285e-11	0	0
0.4440312594138309	-1.378064071028606	0.8103965742544451	-2.391067721935345	1.544989980301091	-1.322185966314573	-1.378351685228141	4.994150480153059	-2.043069897603822	3.00377737232762	10.77934677267176	-1.673772583925655e-13	17.64339407237552	2.321962502653049	-3.143970934011084	3.501363983759739	1.624776255087598	-0.690518066562822	-14.75317263012627	65.18255373353728	-4.996501302974683e-13	44.94798042663255	-2.78461977709131	-7.953779453929998	6.501380237015432	7.171841765650564	0.9107996434420763	0.3251537413179631	4.927354691637348	2.647420732371037	3.806498499405523	-3.703269955602992	-1.489152758608423e-12	0	0	-6.558465253941279	-3.04492959534849	5.103806230910197	45.68715033280041	-1.489152758608423e-12	0	0
0.448	-1.982058284712157	0.9859508361565134	-3.723648159922231	1.306474818235887	-1.344654812298335	-1.059088450041776	7.49396610445047	-1.331023992235196	6.380319927910183	13.27637498590452	-2.332485889798428e-13	19.11225682195894	2.915745533588159	-7.724205619842407	-4.404411031639631	3.97848292414754	-0.9320748337175778	-13.59550022543895	68.51691453960386	-8.495034510784508e-13	50.74750982459968	-1.604782021316666	3.343250551881065	-2.510886989183083	6.705052524750114	0.09284623994653345	0.9967964451864446	6.860081924572721	2.980682288453033	4.477184943499089	4.612006725341603	-1.423452786759046e-11	0	0	-3.759752944739386	-3.958430233744699	1.882223362756261	38.65879311451393	-1.423452786759046e-11	0	0
0.457512856113114	-2.287657635219408	1.793066988693767	-3.043183108372731	1.613835032618071	-1.245244718992428	-1.374872770744853	8.124356518859951	-2.941467286592988	3.882716794245577	15.0279949868526	8.759349181973641e-14	22.2014863379386	1.687391125533542	-6.288617133411244	5.605498487127736	4.831963719431666	1.797282861963745	-29.76945332287103	76.6775915203647	3.577250665629704e-13	63.36552461490115	27.95428570858319	-13.4579765122552	2.366825854716351	8.230393786819096	-0.1705207612303545	0.5543869444274944	3.849687883403531	3.516631960091395	2.837481171008048	-9.585923787404482	9.560259043759468e-12	0	0	-10.54968006840698	-4.237271643730002	5.366149720364874	58.25475395955223	9.560259043759468e-12	0	0
0.4744558844730551	-2.947691015399302	3.126626218603372	-2.782309884290775	1.711223554363465	-1.032501754734117	-1.424187499744705	10.69874418619339	-4.173734739750285	3.139823874154358	18.91280211755998	4.399980749272738e-13	25.7945922673561	0.2123204434790768	-9.939205178755728	14.3729594083687	5.252869614969296	4.916359460237844	-39.64621525226843	79.94585103858179	-1.246780204431856e-13	79.19487614205696	30.1658180069909	-24.61491449047007	5.288463904945061	8.959096704870186	-1.858895105659463	0.4230529641545344	0.2723556069528987	4.086524329322693	-0.8053159081731082	-19.5642431363797	-2.758091470239113e-12	0	0	-14.00000661765914	-4.619662313044296	7.318389878682536	71.83204652087825	-2.758091470239113e-12	0	0
0.4888312594138309	-0.7431523315150308	1.432486254122198	-1.768999433125703	1.148877756024288	-0.6324755435147722	-1.467135436136034	11.09315338367101	-2.653694164283005	-4.157192297260616	24.08671132046002	-7.853020743939973e-13	26.60802792470103	6.771807325769624	-0.3278164786255136	24.03335494974792	3.907560459164661	4.429346839037374	-23.56075960802826	74.62845964207384	6.911011823338149e-14	83.80274750668966	-13.4752114270643	-42.12965545855596	20.50940034812644	5.164637025552356	1.005155703127422	-0.03245294530410171	5.497159456515962	2.007716121669571	6.299214874299143	-11.74743705878756	-2.746947670863479e-12	0	0	4.558374695132216	-1.724988364759033	10.00497712114196	34.00317165705393	-2.746947670863479e-12	0	0
0.4928	-3.473914612636709	2.555092266303528	-3.793551215045567	1.306027928649267	-0.9272485983825691	-1.119660247936982	14.02001598237426	-3.417519729598881	1.066742879002248	24.26613801673578	-5.51505098739557e-13	26.46249150918699	8.705884962686204	-4.703128466784853	10.3123796742566	4.993110521644556	3.38178244671429	-20.27798278920752	72.070452868671	5.741680867029205e-13	83.49427815198621	16.71034426181013	-7.734636257074452	11.98162282808493	8.01093817228926	-1.5785816610134	0.2266150847891408	6.471553304080441	2.349557042652346	6.531843177942074	-2.671341488323876	-1.103142386932381e-11	0	0	0.489038115536104	-2.767246816212712	7.312037937486126	36.39730537772455	-1.103142386932381e-11	0	0
0.502312856113114	-4.527348640095084	3.620155725703614	-3.831782029615742	1.303540418663168	-0.9017546488445183	-1.100880295519132	15.61209280308389	-4.920608872870994	-0.2396789041533265	25.27282087652203	2.263567461955259e-13	25.50750068273065	6.853923009204652	-3.617187436338742	20.89973734259479	4.287975537190106	4.721970300729586	-21.72226595251657	66.45287880461764	-1.222845507607546e-12	80.02901493312164	33.16749449168165	-31.27092708657933	18.04482741733583	8.886251150357815	-3.399356559735425	0.4311838272911814	2.689017954050387	2.908325492061734	5.940321143911222	-17.65113005262258	3.991993561695925e-12	0	0	1.855077981683098	-2.526011757759883	10.09386389366997	37.54544273608288	3.991993561695925e-12	0	0
0.519255884473055	-7.036580512949411	6.509980828686436	-3.924887016491084	1.312938592679345	-0.9632888494048192	-0.8831912279792484	17.42414766720385	-7.916307525419151	0.5205519651827473	24.26959301008704	5.263275630628034e-15	22.06242098318669	8.302036171238827	-5.650045812697407	22.71414755919977	1.875701858021114	6.293900140268793	-16.51098537904742	49.56092772808308	1.409128016171657e-12	65.53216332788496	23.1461847373659	-33.46021624084543	20.33096828520777	10.67493316646114	-8.407997421608812	0.2539707303765179	-1.778851742907799	3.314902758583019	0.8894848728757871	-25.82727580115535	-4.057186768846022e-12	0	0	3.474139413682548	-2.193622001990603	10.71745365200385	40.18046176521801	-4.057186768846022e-12	0	0
0.5336312594138308	-2.116162753055475	3.268592489375436	-3.132342708215351	1.028874781877187	-0.5293299376160712	-0.7146829262718377	9.760290361290171	-4.400512928930304	-4.000767394489708	18.53971919258337	-1.920748324844893e-13	18.15942217713623	5.21378875460612	3.043400846441342	10.04806611331502	-4.757696921853357	0.557757807832539	20.62658618224419	31.40732134490026	-8.044837813065501e-13	47.80822172558268	-37.26835787922917	-13.88127359586301	20.89243696153418	3.75754996100621	-4.039560990355843	0.3830486366650659	3.862161407494092	1.656309452931739	2.917362732947209	-7.727895330353841	1.4043838299914e-12	0	0	14.67978283507733	-0.2968453901669433	7.20621671848101	8.209971251563072	1.4043838299914e-12	0	0
0.5376	-3.64563823292396	2.485416538960349	-3.57279689347185	1.030297850489575	-0.7361994632334984	-0.7189019718923459	11.3740040451408	-3.519877250727354	-0.9610914114660349	18.33670444355111	2.315016429815899e-13	17.05963024779748	9.923152179894572	0.5394107534559687	11.68519644437417	-4.172858920120755	-0.2505126893024134	10.94085652541227	29.10079855276436	1.82204448331503e-14	42.57422037302426	-18.81987921634192	5.817294254923777	10.11463952553911	5.605325631811882	-2.961672786904938	0.3415439679077237	8.466413100502205	1.917621561717093	5.783220865636257	-4.855321864834599	6.0394871655908e-12	0	0	11.659435110832	-1.411904768912002	7.64308775041691	21.33776519515014	6.0394871655908e-12	0	0
0.547112856113114	-3.11585929406708	5.616907213735818	-5.622782361584746	1.276840239329888	-0.5687150805428455	-0.218222507740929	8.751064151685586	-6.64141781637478	2.05975789214651	14.70423301089811	2.670157419111919e-13	14.59311717171874	3.735033755194253	0.1958928545992778	-2.769994225344699	-7.319266933647882	0.7100177289017138	40.92966614157664	19.34773597581612	2.82660137680997e-13	30.20252361771155	-52.90397460698806	6.174618312502343	5.630446781256393	4.335253397365113	-8.575078781322972	1.702111969976915	1.495409350015245	2.579910528307679	4.230586280502276	-10.21150494257589	1.141536248124436e-11	0	0	12.97736430280591	-0.6276679429830767	5.578006557179181	0.5000390176976532	1.141536248124436e-11	0	0
0.5640558844730551	-2.00901828828135	7.470595941619202	-6.90938725248326	1.728133966999469	-0.3928862037860678	0.06362126803883456	5.325444070351866	-8.12636485247735	4.627009227680894	11.48542166709815	-3.706287587825024e-13	11.59555393932885	4.540954864413134	-0.6334634211447798	-16.72147848976237	-13.89012720539054	1.268737916468883	56.26679423093063	-8.218827715370798	-7.137663625647011e-13	11.40424375909078	-26.33558832541929	15.92264891610905	-3.441131650076027	3.196235918120529	-11.80186803400143	2.448137323460877	-7.531416404966152	2.880332521245215	-0.7088524760291279	-12.96553894097709	-1.859082477006417e-11	0	0	8.070913717820025	0.2181668457316215	3.388156400471465	-15.61204193169322	-1.859082477006417e-11	0	0
0.5784312594138308	2.061768636012343	0.3317098913589144	-6.194800328518283	2.062506228670494	-0.2554203013295606	-0.5384949867680819	-2.128819616865232	-1.985206801901693	-1.452677074558361	4.30394549134124	1.703689524910724e-13	11.36436405217701	-4.209712289886445	8.696546736591404	-21.30370190015036	-24.53623802045294	-3.292550631977338	52.98790504993089	-55.10010704643172	8.832570827088774e-13	0.8547604230036993	90.76435593965279	-5.681975306138516	-2.988659674068046	0.03611144843847058	0.1338126839508554	2.16005152277833	-5.345077556874643	1.239164655247848	1.153699593400087	6.921933640935306	1.13493466754027e-11	0	0	-1.572554871269916	0.9359667898107338	0.6660783851314702	-31.43887403098571	1.13493466754027e-11	0	0
0.5823999999999999	-1.736324861969395	-0.2893060010410086	-2.883919159893323	1.443975551788548	-0.448499705480883	-1.009934673783963	4.134803548227382	-1.733075634464267	-1.92579163419798	7.658013144182627	5.098973429028217e-13	11.76177844153374	1.57636884268579	4.909722621117006	-6.981209919194638	-16.64572219306628	-0.8979407758692964	10.85518931883785	-50.41455551387543	1.072960961974912e-12	-1.12017386311065	40.48103784356323	-40.10316500016317	-1.416312644350244	4.439140353441529	1.973721078143329	0.9663885955199871	-0.793035376651605	1.288131527943326	0.4849088612302853	2.208418959759895	4.211405126108677e-12	0	0	8.143934005476996	-0.1337943362250467	3.753304577466289	-7.64177242719704	4.211405126108677e-12	0	0
0.5919128561131139	2.140054428768518	-0.08897838383667672	2.173832528687746	0.8250426768218511	0.5173885812298633	-1.326709513081322	1.077459341934661	-1.245409097699083	-7.41799169064212	8.545608646267189	4.408214525601693e-13	13.56439087853018	-8.73004288287567	1.568978471176248	-28.34955850076518	1.06950781202961	-1.670709159979446	-17.86317612774831	3.596336419061319	4.82292310932975e-13	-4.444380783608896	16.69028999520938	-68.88025049052126	-20.60790076752032	-0.9349340189627897	2.122972710424051	1.347966072277593	-31.43996298036472	1.222639630092764	-6.730246902111093	-9.862620722932977	2.015974934452887e-11	0	0	20.92517878638738	2.738350946856047	-0.2129873496589807	-24.81778306299204	2.015974934452887e-11	0	0
0.6088558844730551	3.454752654922081	1.533119770375654	7.804438545063082	-0.208296568288348	1.678981786344	-1.734395164588102	5.600142521329621	-2.268468095449121	-11.55720665474087	18.65147662267521	-2.734051076966054e-13	19.56908224114431	-11.36045616852431	-4.344922178369911	-28.73424248764894	8.454710545224581	1.613011477324666	-31.74641357447373	18.34502103613305	-4.916082868906338e-13	-7.199513072814866	-22.70102034043924	-66.58193587354747	-30.44820777049785	-4.057834267812429	0.9158370051956254	0.4182185889535524	-56.25669997892188	1.043770221569153	-14.40196726644295	-22.80255516559212	-2.280949300971937e-11	0	0	41.3864071805455	4.761149293541859	-2.555648798219634	-22.7174771932734	-2.280949300971937e-11	0	0
0.6232312594138308	2.075312033461038	1.748149332346045	6.7763723773882	-0.9073146538548518	1.968479499379739	-1.896967566520196	12.26660039513561	-3.685697808546033	-20.56858418299452	27.86028454527564	-3.95127316756328e-13	26.73119194823266	-9.779811294861506	2.669826961605291	6.77585717309354	2.246125095831021	0.653791695700256	-18.63843814204807	2.247174533035838	-6.993946273361862e-13	-8.952238535927453	-9.77410605909318	31.59069202645907	0.2648926000233603	-3.267194489719373	3.268534935334602	-0.863032321691629	-33.2854271357854	0.3041272105652762	-2.513399637573213	-11.7712996245763	-7.209255493008588e-12	0	0	46.7552991724396	2.763080891126417	-0.7720864015192637	8.74950121115579	-7.209255493008588e-12	0	0
0.6272	0.8505456481204801	1.383984330071215	2.534526878043698	-0.2801757385656567	1.457086724600647	-1.490397127384961	14.04204959124412	-2.837971840066043	-8.269160777445343	28.60067652916297	1.724209489615795e-13	28.87919062178556	-7.842849674185519	-3.210723275337744	-8.553135784175016	2.693669136391281	-0.508561301387925	-21.68529235830803	11.13170393884789	4.779407635173666e-13	-9.626200818968787	30.54529244612669	8.841785521472637	5.174831134853434	-1.279108856580007	2.711950864484354	-0.3953179791171024	-28.403609960409	0.5325364525606512	-4.518109861426822	-7.353937926430997	2.674300589537215e-11	0	0	23.24209882422245	1.442793696781885	1.858141658331596	-4.040887827351211	2.674300589537215e-11	0	0
0.636712856113114	2.619454725293172	2.739314917761789	6.67157349129738	-0.9872444001526677	2.299611218109019	-1.7588319851074	14.74177826890732	-4.388376400728805	-14.5919240789302	32.31203721173932	3.292769931716844e-13	34.04017292192123	-17.25696873375711	-5.086397929896297	-9.228479529449828	4.7310563734997	4.792002047865116	-1.142742893350501	18.6604409810596	4.665011565009099e-13	-11.72375360471991	70.97792653564271	41.96618362629268	4.874438126608116	-4.196509622952402	1.396057324978957	-1.5372199954001	-44.10744011985084	0.337147258021159	-5.874123077281875	-15.79423440677635	1.867065807511306e-11	0	0	40.04079365877107	3.033829246786401	-1.511166385268253	4.835939371030563	1.867065807511306e-11	0	0
0.6536558844730551	5.530208172618361	3.226254437579483	7.386706423304052	-0.8009537579455193	2.891805882741099	-1.489308313053695	15.23033343395723	-4.621349646347097	-8.541188767964034	38.62792688887286	-7.975746285345905e-14	42.0519415520384	-19.57252580601583	-9.978392449076665	-3.872911968488744	-4.941326471793324	8.105299100454445	14.21068636209808	8.192128223672754	-1.704548063547392e-13	-16.81286620332509	79.45018453334187	44.22425411899519	3.135918312952295	-6.539804706685231	-0.1736765493106543	-3.359196779409083	-56.14994998777858	0.120350884738589	-10.92763289822295	-18.89729331561815	-1.068865120553605e-11	0	0	36.70196288658813	3.378389972231885	-3.826440464000714	5.614690188783873	-1.068865120553605e-11	0	0
0.6680312594138309	5.225176831748827	-0.5223306428608983	-0.5630874204072294	0.3265760430700377	2.241819092870032	-0.8554005540959981	15.44667150171589	-2.689263776416345	-9.765102427200974	38.56940779904363	-1.345370885240096e-13	46.08033719566792	-15.92661583801804	0.2909771229042504	29.79370151020809	-28.77307702579166	2.686288440664857	0.1222768975131069	-48.9921222312351	-1.664178735167629e-14	-21.05622818716725	-54.8114087984812	-21.21673804969182	7.276855925344651	-2.990963153420558	5.106615606647464	-3.712693647930209	-21.15695717538273	0.1146758581296526	-1.088546130003746	-0.9805872556044288	2.020350044084309e-12	0	0	2.146249175014555	-1.332163155335725	-0.6717640373744099	7.940274641150792	2.020350044084309e-12	0	0
0.672	2.542247842899997	-0.2612122716565157	0.8216932715374019	-0.0719593459805547	1.695313285741868	-0.6768331687560737	22.11354091321222	-2.179227725559724	0.1529423619788417	44.62185191534687	2.230883933442997e-13	46.55802140302452	-15.45140639874862	-7.783338999405166	12.90056999178808	-29.5013255376975	2.431744852662312	1.838643349746026	-51.66941774785191	5.568097599977007e-13	-21.95740503960202	-18.25932650252628	21.25195133030257	15.33395682078442	-1.054983153972418	3.551408630008983	-3.203227468759491	-25.29150319675499	0.3977774077985734	-4.840984378928066	-0.775321020942194	1.693351019414117e-11	0	0	21.68500324681797	-0.8527446626073188	1.012479849501098	11.65625667074818	1.693351019414117e-11	0	0
0.6815128561131141	6.126667998573545	0.3244655923905038	0.3064981725405888	0.05419071950285834	1.82084747337774	-0.2739980474603524	16.26746254528021	-2.991644292324606	-2.426136138085258	38.9761498157876	-1.494670523069529e-13	46.41955892599262	-23.791874770106	-7.947293372886848	28.38956097355159	-29.67271404245621	3.10294505087628	4.643676135165807	-43.29506173874758	-3.050781003940323e-13	-23.3438734636055	-5.463250901296827	5.481951152420339	0.414537277805973	-5.04611621214424	1.692295416846868	-4.101773201839478	-28.45560791407554	0.6181003067513867	-0.1999527577578464	-13.41585050152653	-4.710360132164623e-12	0	0	8.150686067058217	-1.892994688920684	-1.62396030999488	21.43647190499033	-4.710360132164623e-12	0	0
0.6984558844730551	7.457961804349937	1.723060225396833	1.952199000571641	-0.3681398455100773	1.557037981350591	0.1020110938147248	14.712567218771	-4.261619402391799	5.528683938516433	35.34399101688476	2.796167755560253e-13	41.43447095403339	-26.22051276573592	-12.26895112665231	37.96343971313299	-29.44232733814481	4.989585295611909	6.654016476129366	-42.00295760504157	4.529596919485724e-13	-22.43760501498052	-9.103778878066713	2.800939572841386	-4.845886966390246	-7.915106996735224	-1.598224194171614	-5.296945276449065	-33.3881888779071	0.6501169011463508	-1.751020023854175	-25.6025613791848	1.888468729117518e-12	0	0	11.42919494003514	-1.738451149764694	-3.151394463582057	34.70729415832528	1.888468729117518e-12	0	0
0.712831259413831	2.082470316673194	-0.5963174538223776	-1.876048333638929	-0.9759890977322692	0.4306538330509485	0.2917993949391198	17.04526620775728	-5.499555926146369	-1.14143492305773	24.60300138553599	-7.167124160124061e-14	32.69787906928442	-23.725860399115	3.150049342103745	40.86269983399213	-13.32296502627276	1.503670373739004	6.911428394416936	-24.94276573664154	2.970047565935079e-13	-18.35645615326222	-9.321205764882661	-7.990589704289995	1.283961987685784	-2.961727387031596	2.070514041888993	-2.615891801430672	-6.920434570115635	0.7878281377986297	4.799031521236795	-16.04991391454402	3.516507786879782e-12	0	0	3.557909951089648	-2.237383752808432	1.301325900741018	24.95837090281591	3.516507786879782e-12	0	0
0.7168000000000001	3.065719206915936	-0.980256511433045	-0.7493587245353649	-0.990095649096973	0.5070064575497503	0.4939516037299697	21.98793054893366	-2.377240633201044	10.3386524898238	41.06155811281434	-2.330054300373479e-13	29.66101075809093	4.976290250777121	0.8295787158839354	29.8298028436367	-14.41261993570978	0.2362422802942424	4.928475159046888	-23.89811665084505	1.018805902657906e-13	-16.8253938950343	0.8894198294212841	-0.08182453315570659	5.632815030873964	-4.378703622422541	1.512362006583258	-3.605820743851162	-23.19904378598097	0.6502910846952694	-1.972952907734715	-10.12005116456836	1.454512273031979e-11	0	0	5.252896539827874	-1.510163854722749	2.407127541765027	16.62959232712801	1.454512273031979e-11	0	0
0.7263128561131141	3.10939654329584	0.5543952164910584	-0.7085059561182466	-1.729087109431999	0.04333596171413885	0.7185176403050844	22.18904911356829	-4.226001711888003	9.284059835800557	42.55948569729409	1.427387271125694e-13	21.49522479280233	8.63583699524742	2.736905008323772	55.0330659967421	-9.037051246479415	0.7518532500886412	3.572935325533977	-15.9325680549941	-1.060427462258914e-12	-12.73495269037299	-5.138603208581591	-0.08822568889608806	0.8134684562264127	-6.295981699829563	-0.3471995600084868	-3.663809215729565	-11.55794020242136	1.03083884668246	0.8454518292533775	-24.4309237778268	-7.242341661713606e-12	0	0	8.570323188865212	-3.313151774919072	-0.8107200254141032	27.42096379402718	-7.242341661713606e-12	0	0
0.7432558844730551	4.073621872457433	1.401239709924635	1.441966183732485	-2.297555791079403	-0.3053116177423106	1.201305415849928	18.14114542997422	-2.117957912602039	18.91165328791667	31.61769238686743	-4.467464148590395e-13	4.839151766581811	12.55129066826357	3.575654337001841	56.79204362210051	-4.262600506304307	-0.5117957789904581	-1.616590620639055	-6.785236953691057	5.293734824343142e-13	-5.259332245303584	-9.49278675907088	7.179286370256591	-2.58093711255194	-8.988867802398353	-3.034759306631853	-4.840861891259358	-11.47659581937044	1.054426889898543	-2.50804780533183	-37.22232153497919	7.071440306715815e-12	0	0	15.52035355482105	-4.176502409420316	-3.725765888502387	30.71580939191427	7.071440306715815e-12	0	0
0.757631259413831	1.220921377685252	-3.580304567833519	0.5699036534188675	-1.471443641742369	-0.9096285915517088	1.143332447238726	0.8213109719102069	-0.2251844567767175	4.539900167278183	-21.91639308402255	6.273092020949109e-13	-9.990665121579763	-29.36390122779635	20.57263518947604	4.890470161761102	1.532629303607556	-7.410937716876248	-6.065106162239133	0.6184913203729205	4.60594071174631e-13	-0.2477072665354831	-2.189049987190415	16.91499666972596	4.674899676382414	-2.459961659393268	3.586451263547825	-1.782008897510341	-0.5472763565006594	1.25032889124921	4.663775212516151	-26.02949741200157	-4.50494743038418e-12	0	0	15.85823977979959	-4.154638729599071	-1.221976351210349	5.086406283019654	-4.50494743038418e-12	0	0
0.7616000000000002	1.470234042324281	-3.232533014644012	0.6995294206707027	-1.670164723496978	-0.6154994180311747	1.365553434060358	4.481622288039163	2.796610384782852	17.02495786305247	-17.1285313225216	3.863855226788782e-13	-14.00128393822829	25.36920659953316	42.51361691732968	0.365414939692309	3.778429353144555	-6.968025442217099	-5.227602511569103	5.414638770663189	2.049118602005577e-13	0.7666748772095733	3.281801576187187	15.14547353212158	4.002449179570141	-4.293894992576086	2.055237546391284	-2.3134141179896	-17.17431717608874	1.146450662243185	2.613558640241205	-25.04860074480731	-6.952204503713253e-12	0	0	11.91857297441153	-2.77168376978564	1.146929019532285	10.1053256152462	-6.952204503713253e-12	0	0
0.7711128561131142	1.801214498325792	-4.952375124579175	0.5701146973192256	-1.887342851281464	-0.3013154976315866	1.700605636827502	0.4408141612891051	7.262238813543225	13.45592074825095	-38.51089393905646	-1.169333675758696e-13	-23.22852817119551	11.88750828597221	31.67581728085776	-17.54606380506205	4.873530611383114	-9.942027865122288	-7.675808536248566	7.550899229056861	2.942286625610748e-14	2.451060142263077	1.396398158312375	19.6701944999704	3.77135534880024	-4.798505555632649	3.556044383206379	-1.27528873699466	-8.668544247387475	1.791550078228448	7.418281673018441	-48.37806315496174	1.159947865218116e-11	0	0	22.40954608390755	-5.806590488766997	-4.446135922714852	-0.8278854873291996	1.159947865218116e-11	0	0
0.7880558844730552	2.745578103516245	-5.563592645320147	0.5562137712163086	-2.247001937824078	0.3533547790909867	2.166817426259432	4.715621682368336	13.066999635066	17.12546796341816	-39.9470724276586	-2.496828786552584e-13	-37.58100801941963	8.698197845989512	6.816865697377041	-35.46300679412175	4.985622931906562	-11.53027309399208	-10.73493355642464	8.709998149514204	-8.899389284258935e-13	2.869304506762493	-2.370304356486037	20.45922649413146	2.049091665784864	-7.559903964838922	2.784003093077458	-1.800963646187255	-11.41440605684699	1.700401680600063	5.216964849652543	-69.00444804640249	-2.628304680916751e-11	0	0	26.24815656835377	-6.864227559763204	-7.756784692118374	-9.226339958190135	-2.628304680916751e-11	0	0
0.802431259413831	-0.007904455986576416	-4.619346187869529	-2.017571516604627	-1.256897052862836	0.2567522352880121	1.662930618672785	-0.7934747924938159	7.956906761357133	1.051528959852232	-57.399893564387	3.186594981041345e-13	-47.03862858369238	8.102128833334143	-33.92761104218013	-33.996531888503	3.808159854062163	-9.156842073908923	-9.540680818058595	3.085445672729844	1.447529653648916e-12	1.156643333749305	-6.649759123770504	12.81104043051589	9.863919615814774	-2.69621359291307	3.392021411691487	-0.5765027556497978	3.090918958590413	0.3785225973638334	1.363877034492879	-34.81610944587064	3.544829330386569e-11	0	0	8.721393870012879	-2.38438067909683	-0.6222786429063039	-17.00222038670168	3.544829330386569e-11	0	0
0.8064000000000002	0.6571922717582281	-4.102021429815484	-0.9846927807192878	-1.596697741766733	0.437877912722321	1.719653395844998	3.537989216158806	7.991187546768368	6.961895690211684	-47.38627440262039	6.349268552105703e-13	-49.17135697405568	-3.606197268973153	11.59761008208066	-21.45203227261434	6.091365558650769	-8.505791406106468	-9.118481927113159	9.191717231036407	1.850257334037585e-12	0.4670413641936967	4.44042109548962	14.93626888328604	5.783843025745512	-5.035877139244562	2.354446648232021	-1.170976751792634	-10.392423886288	0.7835324656674025	2.584067383652667	-33.04674948201214	3.264920452323097e-11	0	0	9.243747082084058	-2.836271472648174	0.3491080644292158	-8.148429413896441	3.264920452323097e-11	0	0
0.8159128561131141	1.831838236238641	-4.201029634880599	-2.785577532753041	-1.386960601831928	0.6777069110306271	1.848178959037974	-0.835276607239539	8.307067008430973	1.651514199278652	-54.45307898918983	-2.090101902228097e-13	-53.45144968863151	19.18478066990702	-16.43596702367925	-41.36677668559945	2.456958947758042	-8.976779760201046	-9.883577529406516	4.985304391296495	-1.159807034790656e-12	-1.384865678946014	0.09461237184532512	14.39542248420499	7.388317838706651	-5.571851747097378	2.602191991885185	0.2600800803722687	5.768790452193469	0.5449739957456792	4.199258987494108	-53.2625188350405	-1.946043207952733e-11	0	0	11.54949845376151	-3.733876190643825	-3.617466707472937	-17.37518878802567	-1.946043207952733e-11	0	0
0.8328558844730553	3.082781204600067	-4.364401505140615	-3.460322703144373	-1.299060231939797	0.9021052889568193	1.932522314107107	-0.6217045447017227	9.024017171886827	1.953051067764764	-51.00975020623068	1.151339040126311e-13	-58.39270467639967	3.06425346765699	-7.143493428950725	-50.26667895260981	-0.9879764697353716	-9.22949694266512	-11.55387976125024	1.245299032569384	6.175667661497102e-13	-4.703486757235548	-1.975625705718128	14.22779741389706	5.036043207560565	-6.965884658265179	2.61908536499086	0.8234860161522646	11.79042512217756	0.3699058989465153	5.247063058619537	-74.42861694012879	8.45139206343682e-12	0	0	12.99892077191075	-4.714197851424899	-6.93298157757921	-19.15754607955142	8.45139206343682e-12	0	0
0.8472312594138312	-0.6564798562973195	-3.031108581690418	-3.512203489319075	-0.5154507715865819	0.3429830081665641	1.091836532629464	-3.478209234680004	2.110590885065833	-6.920443146502075	-60.54690841663282	-7.551136304954807e-14	-60.37001082427628	-5.977176953689174	4.597105361405331	-9.179695502537855	-0.1616192779993891	-4.567939856908703	-5.332230786742612	-3.909150913839829	-2.343266892972955e-13	-6.821544724605752	-7.958865440832895	2.102138615472021	9.285482464160058	-1.216750012784423	3.241454224538245	1.346442298260361	17.19034757162926	-0.3331260844359149	4.479395198480822	-33.4892882093236	-3.477884561312707e-12	0	0	-1.885770841319643	-1.142339727173785	0.2254566098609623	-5.258755066376642	-3.477884561312707e-12	0	0
0.8512000000000002	0.1342436969011724	-3.180451866695577	-3.030685542605424	-0.8303921803422019	0.3847370884731948	1.270578153770361	-0.9793118791769337	4.252928099125151	-2.76010975246004	-52.54698466167377	-1.205591900797705e-13	-60.63755428960568	7.580405666926632	-2.841640499969784	-17.90981748546206	1.518316981246138	-5.260595247950937	-6.185614183087164	1.498745879342879	-3.783711203958164e-13	-7.225411406159283	3.523260521788645	6.229099821472797	8.363195557078662	-3.331182886976784	3.064072584254771	1.204940200344408	9.137381365188951	0.3273756167176224	7.509939433743797	-33.69740419027349	-6.991160075245254e-12	0	0	2.706530283348488	-2.208644522402153	0.3294698231565965	-6.909119547359392	-6.991160075245254e-12	0	0
0.8607128561131143	0.6121672430746865	-2.919500803320875	-4.666813169079081	-0.5281400721918177	0.3207271570850759	1.155946808517677	-5.29362158222505	3.133769742660846	-5.034428042184539	-57.89811483686555	3.06648421015579e-13	-60.90042047087023	9.663359386069981	-2.779241432527231	-12.05452275547816	-1.522334775649631	-4.227979367113305	-4.746537640789693	-3.214473967879653	1.735042827351323e-13	-7.828772302164705	-2.518101072522102	1.780226667530153	6.416735201400162	-2.683627015290817	3.283434472196415	2.621414544612998	24.98552006807419	-0.302702489332946	7.314437796439113	-50.34482161228689	1.132015190822184e-12	0	0	-1.68882611765383	-2.308496857817845	-4.026205390137574	3.987885271184536	1.132015190822184e-12	0	0
0.8776558844730553	0.9161716570920814	-2.759351460102687	-4.88497088105346	-0.3824538183495765	0.1006538087982138	1.09733875045469	-7.331781608270651	4.180225439902785	-3.000985929578385	-55.77812880371663	-3.801527606669524e-13	-60.44567014161713	6.834345430661854	-5.814889922283087	-7.394589657061297	-3.258725661781641	-3.360039213365487	-4.19755422091791	-5.78780688590116	-2.906333971000425e-13	-7.601532875950978	-5.293517232848172	-0.900536137913639	-0.02804026906902179	-2.620145787672332	3.077045300393679	3.040159305182326	33.2442635358222	-0.8205324494210288	4.454698922573986	-66.06968311076767	2.072639921582171e-12	0	0	-3.942135741213511	-2.404312869017395	-7.837004613614194	14.06363898282379	2.072639921582171e-12	0	0
0.8920312594138311	-2.764785454210306	-2.480089023329554	-2.521242835358248	-0.07760309422423074	-0.642038658079087	0.4197184180825521	-7.144958697282821	1.13392875934177	-5.256964478748047	-55.16038054178819	1.069715796569612e-13	-59.56184862074476	-6.270196014693738	9.683459600190357	20.32006746419834	1.241991267018271	-0.05007319584570992	4.156554361463349	-5.112643688912135	3.815810279340048e-13	-6.237287339001938	-7.739844567863868	-11.5001440690399	-0.6539203231801274	1.846020024437852	4.299737520289361	2.06257553737868	25.65210303600777	-0.7828385083110276	3.120167354958305	-21.7368724825257	-2.177435941779907e-12	0	0	-9.746169754261286	-0.1959327439939432	-1.387924742031981	19.24101648755603	-2.177435941779907e-12	0	0
0.8960000000000002	-1.215048231312684	-2.571461480686004	-2.658565530168528	-0.2472250505147087	-0.5548893011185649	0.7388222084702725	-8.616754563641555	3.649926970286443	-2.887601156056289	-53.30179083906462	4.342974016373531e-13	-59.27765745497258	12.49057249121664	-0.327750384327461	-0.4235877272120958	0.551094132540304	-1.519286174202677	0.8031475266350679	-2.426588289651512	1.135516971486495e-12	-5.707943868240167	0.5369878807487166	-4.822532545836042	5.412893590381738	-0.4535353579922233	3.807668689464207	2.224531637524066	24.5590576684537	-0.1226719039701858	7.164002952669063	-24.35957471034706	1.011004708456399e-11	0	0	-2.717863218805535	-1.368152530140034	-1.037091653652206	11.56757130119203	1.011004708456399e-11	0	0
0.9055128561131143	-2.650214363032416	-2.130455363585512	-2.038702706973503	-0.1646439304342277	-0.8796495889335109	0.4442223948413285	-9.023925397480539	2.699012870961219	-2.641261326126414	-53.01318011395247	4.595896637854691e-14	-58.54509965542859	10.71331736097331	-3.022441150576244	9.672854354109363	2.269367283654074	-0.0598131876686156	3.514788559658819	-2.425423055878321	-7.29803600236623e-13	-4.236246346027327	-3.165029472865137	-8.405359320111904	-2.974411063821849	1.295619127339629	3.63644472380466	2.063768640163724	28.78912555454642	-1.43354934333998	-2.598976533567358	-30.98670607085703	-9.257529074269637e-12	0	0	-11.16170159034525	0.003157243564442386	-6.200712984719275	32.16307836932857	-9.257529074269637e-12	0	0
0.9224558844730553	-3.566093817696718	-1.176955209537073	-0.7462204960239849	-0.07633885196762238	-1.249197861445168	0.3238184809954308	-10.02477445526274	3.103372402254218	1.180967372627068	-50.38564262814786	-2.041348758342239e-13	-56.99546212468611	4.998059889301834	-4.459581244174583	10.50774717362612	3.983005826293142	0.9286380079484325	3.537452391649512	-0.6010036675522645	3.545324990818775e-13	-1.186491535486732	-2.58683481047189	-7.324178418917237	-10.24705420731138	2.200729579936276	2.337965351024931	1.23480560825154	27.54127944336146	-2.579390763755243	-14.13290825548624	-36.87037608432813	9.573433832560566e-12	0	0	-16.197710145232	1.328250376825306	-9.922821558271789	43.89407138251185	9.573433832560566e-12	0	0
0.9368312594138312	-5.047396171065119	-0.4780633923238648	1.251024766502008	0.1237527919239843	-1.698884632535995	0.2086837853966357	-10.09484006501106	2.735369837052504	4.460076711847017	-46.85912353681886	1.592778468366461e-13	-55.1134557109274	-9.956558729596395	11.47931708932246	13.87465765517285	6.973649500781088	2.025368459583472	7.194526170611736	2.42024270952163	1.138770495337041e-13	1.464796384557463	0.2632962283875045	-9.998743135861057	-4.382623527791814	3.786634063183295	1.961935320729898	-0.2620481585341919	11.34632092265674	-1.770999597199747	-12.41363120471065	2.906414254687593	-1.680151112779602e-11	0	0	-12.56466601518282	2.237825685418184	-1.570240732540013	23.681950468187	-1.680151112779602e-11	0	0
0.9408000000000003	-3.337301474841498	-0.7507301315763135	0.3934831055729904	-0.02059028627582802	-1.564744324273672	0.4907802298375285	-12.55618254679974	4.797945638129307	6.037248336752933	-46.95757514631843	8.998034767247183e-14	-54.42641715149498	7.682961412948797	1.698413951960881	4.482673621982924	5.086649186368026	0.8523767914444478	4.306838970623049	2.224704515867762	3.684357615419124e-13	2.161843431899843	0.3251889331359431	-7.556334632359032	0.988050238876042	1.680254054202674	1.778434822050331	0.4148744773666617	17.36325849893783	-1.211604561880568	-8.329390413141159	-7.087096945030145	1.86869848291585e-11	0	0	-7.173514217946659	0.9433721480801288	-1.357966713332992	22.79051273559941	1.86869848291585e-11	0	0
0.9503128561131143	-5.336984708572558	2.030259564532942	3.049178067910238	0.1844485709775071	-1.87139922584302	0.1510514895237143	-11.97155287491438	0.5736673311528362	6.459881101939445	-46.15722692855272	3.211505123411045e-13	-52.34342262088639	0.2083742124935206	1.671349037172904	-0.007312775910170866	8.035877766963941	4.368136754593166	8.609791815702213	3.91323003430731	2.409574428085186e-13	3.72545489023174	-0.2766760882449577	-10.14394810699883	-5.602865217374072	3.999873089047694	-1.294150264303047	-1.67121300507014	6.004523169553342	-2.981271643771915	-25.06126164198828	5.693229905942703	1.359648236217636e-11	0	0	-13.61967476423002	3.924374786784482	-5.264764249577909	31.05016588891814	1.359648236217636e-11	0	0
0.9672558844730554	-6.164793616281506	4.399201133761669	5.052947424059342	0.4581640194277702	-2.085388492831883	0.1120437694825073	-13.06025067042122	-2.010084242190533	9.163597664003241	-43.75429518538434	-1.248335060867051e-13	-46.48872320693837	-6.974206537983841	1.668152320038098	-5.430245547597038	9.593565927486624	6.354905196364308	9.60956046787658	6.058399885615739	3.961953010480022e-15	6.036710783564807	1.613941515072654	-9.018191539922483	-9.56311657335052	5.439190941463787	-4.507976914710625	-3.556456242853184	-4.034425016391589	-4.43603797854455	-38.24882609330253	14.41944403277646	1.624266257271259e-12	0	0	-16.91600775442069	6.357845937779	-7.219221256202626	34.28866569230868	1.624266257271259e-12	0	0
0.9816312594138312	-4.608502646029149	2.37373486002925	3.747791118452874	0.6526269469279017	-2.031850749743425	0.7186846308066958	-16.11885068120764	2.276738813321965	13.81957891145457	-41.17822762431322	-3.69747387413506e-13	-38.55953785893638	-15.81241993485164	13.02092595984297	-1.764285030531232	8.315317427884674	2.524176666565061	6.769740405668498	7.43324095868714	-6.736937404417915e-13	7.511530049105834	4.038436452755373	-6.138572737485694	2.777758678918136	4.647531049171941	-2.915461852624248	-3.09296197977041	-7.857166491271226	-2.434471928000868	-18.95656622605431	35.14356051690923	-2.244565227033267e-11	0	0	-6.332628584653548	4.709606853035267	3.018460236203262	5.754136764834824	-2.244565227033267e-11	0	0
0.9856000000000004	-4.077029349581273	1.699539705913365	3.398849377602662	0.5267795066964993	-2.017247318668689	0.8060137441513037	-16.58183193736596	3.440516454838641	13.96864730898393	-37.51995502399933	2.780335194039296e-13	-35.80181171923637	5.297906303742323	4.797370470363706	-4.135416845853153	7.612289562780341	2.002272618649199	7.182593140922634	6.531296130751728	-1.464775670948553e-13	7.852358145106378	1.886584059913142	-9.026742205253607	3.010902804642931	4.096935948808444	-2.517039789913249	-2.391073857051647	1.699033123603237	-2.364052424333995	-21.93067975501074	20.50337858807194	1.566558005049623e-12	0	0	-4.738847385694972	3.685436781039196	1.950843781629522	16.99804061242357	1.566558005049623e-12	0	0
0.9951128561131144	-4.104851694759365	4.791689261677086	5.902268822835383	1.012176567352041	-2.081391113312414	0.6724188188469539	-16.52386123239301	-1.942508218330696	13.02756999735413	-28.66076750304619	1.420021659332645e-13	-28.13845931608096	-1.354053441142353	0.9841742432024585	-15.14604694414482	8.226227895581527	5.117976824041524	11.24956704846408	8.764789467909912	-1.39089032607952e-14	8.579492095078209	3.389689263516651	-10.07391923907793	1.754395876631794	5.722381842825047	-6.110488908945886	-4.82482328158056	-13.88916385994962	-3.438263967477213	-25.95378209375193	49.74550007138213	6.880554626064455e-12	0	0	-5.237975108479977	6.815997231541784	-0.1025442709670835	6.415779412134482	6.880554626064455e-12	0	0
1.012055884473055	-3.044759826053007	6.368535078562747	7.403695167235998	1.608928606932067	-2.015942574306787	0.7567599206131082	-14.30382080102121	-5.556354122899694	9.918604254460407	-6.800199779595863	5.683886536597782e-15	-10.9534443988456	-8.133065514492223	-2.237797817518492	-20.29701985350709	7.940992272615209	5.903205042456902	10.78164907156158	12.63392107826881	5.53362309813217e-13	9.681114535209975	8.872995195303846	-6.806739656059987	-0.1533486438827925	6.875914087429225	-8.629355083279165	-6.428837342680653	-23.9648161486696	-4.383236024779079	-25.70809731833726	69.33410088519865	3.295027560733159e-12	0	0	-6.814416389848152	9.155175153947546	-0.7287462995699368	-0.7574789961814576	3.295027560733159e-12	0	0
1.026431259413831	0.3306724417791365	-0.3452573541806466	3.898820034266393	1.852780018658406	-1.719380701067952	1.72233393495386	-11.751791335777	3.966812798963786	5.794718634171514	21.49743735974718	-1.170986683254018e-13	6.366354786696422	-15.554162586041	7.336984219499454	-1.96922411709436	3.862791416943431	-3.717991068921311	0.9470079551316963	13.32437068444154	-4.212665034736004e-13	10.5616452579805	11.28573862820055	3.862724482047635	7.127805557373227	5.506678923383657	-2.86186081125653	-3.387169098820829	-7.78261360512877	-1.900201972491003	4.832206453305323	60.25145407141778	-3.16366204828193e-12	0	0	2.866256871356733	5.024804278586541	6.501244777410044	-11.31312691421795	-3.16366204828193e-12	0	0
1.0304	-0.5800338939971564	1.204335615413535	3.94267058489809	1.670606191399341	-1.793550396589778	1.598064268292147	-8.704556313678353	1.593069366101173	2.69190665354052	27.63504135162564	-2.285925941939872e-13	11.3937289013535	6.341552387030196	3.060248618250229	-8.397409487552853	5.47617746352344	-1.133328209255883	4.342336731059874	13.34083530113413	-2.16795624390223e-13	10.81260920749907	8.4203162328849	-4.041886428750168	7.218709111478328	6.151344355668931	-4.760550935405343	-3.480250955733625	-0.3735972664693366	-2.460814345106786	-11.12543556415462	50.6405863333204	-3.931247016036584e-13	0	0	2.49335993666154	4.772688526900214	4.859445776975901	3.384712492788584	-3.931247016036584e-13	0	0
1.039912856113114	-0.4652844608819048	0.3638281207168821	5.083822220849768	2.112123269502031	-1.665105751092163	1.686242905753682	-5.053226055471924	1.622833317857169	-12.53222611101937	47.11194529474085	1.619605411586592e-13	23.52928799417548	5.538173061650689	-3.105380909745294	-11.50540430736847	4.87902986922583	-2.688044610725502	4.224559797166901	13.86737010295296	-3.213392249990732e-13	11.43288067100439	9.929852160907242	-0.09826937350328246	4.250903711007057	7.855380946940659	-4.252756440323101	-4.203070691965364	-12.97849058170441	-2.42575495235466	9.147823221758419	76.29447609425371	1.589461182092742e-12	0	0	5.058925578563342	6.587607963139649	3.681417097123546	-12.1072322189998	1.589461182092742e-12	0	0
1.056855884473055	-0.6762207848206668	-0.1305003266135313	5.801866745460447	2.520565290711372	-1.392744000100138	1.674392489527882	-0.1846317166923583	1.858478842461727	-30.09263875007458	67.56941694567365	-3.429267783296131e-14	43.83169250844924	5.230891564608892	-6.856563259261094	-11.50664733216896	4.50382549197032	-3.828341704222149	0.7851211273924447	14.61419903684785	2.964059487374988e-13	12.66645563863462	13.6519802082343	6.295095905332284	-1.475307092683429	9.568598886880602	-4.039266306284382	-4.70549021146294	-22.22208925316093	-2.798047262393561	22.50440868824203	92.78643392631821	-1.851099585379789e-12	0	0	5.593014513546476	8.153632410565768	2.35498384554041	-19.47425254415502	-1.851099585379789e-12	0	0
1.071231259413831	0.3203045626368916	-5.840833484089478	1.177353715243803	2.320079959545462	-0.9728693325795619	2.260103778049173	1.303402699329108	12.63051590269237	-34.53135474286472	75.35342344818156	-9.805706011061079e-14	57.78126625510957	-6.205491628283247	-1.64818340329476	9.40817692673826	1.53730601685415	-10.46841679787861	-4.640584133043355	9.444454042043512	8.019514225349748e-14	13.82621554401295	3.328967211639142	6.034070099788292	-1.514089318973118	8.583841502579981	1.561415016730414	-0.9822924119661298	4.567475584573654	-0.8256753507909699	33.1401902456354	60.21662999585695	2.614342362174125e-12	0	0	10.87812383315815	3.159456086878969	5.560587843571111	-7.56732572530963	2.614342362174125e-12	0	0
1.075200000000001	-0.2869592705909288	-1.992180709232495	2.775782245104318	2.24531856627173	-0.9330900734238129	1.897361624970605	0.5281459889570407	7.789162914189712	-23.49245527416435	68.13036909034638	-2.840603521274664e-13	60.84054025751689	11.65325634257942	-1.211159757703423	-3.871918926888598	4.191865195141209	-5.760819925675687	-1.160667573362028	13.39203784996158	-3.079337111927986e-13	14.18844767670661	7.822720508608773	2.41541372717824	1.545304444117908	8.4595889685957	-2.139056912390813	-2.476382416656121	1.811686529591474	-1.701852559457466	13.51845602171793	58.83524021707457	-1.165027006934696e-11	0	0	9.414322962927841	3.929034858194489	5.532723564624535	-0.8625498038155416	-1.165027006934696e-11	0	0
1.084712856113115	-2.559173060189698	-5.632567610477204	3.753221378729543	2.683449087967928	-1.009933750677504	1.879824930935161	1.513776715994189	10.99704905749966	-36.25415420785474	71.34486761906393	3.114256189082929e-13	66.68855925234526	20.44732202827192	-7.757642914260979	-2.133585963681102	5.325926196607808	-9.986175969946229	-1.495057931405783	11.53844468683944	4.472257503619806e-13	15.05924343837878	4.916118094954907	5.277172890449549	-9.624838966281073	12.51969852737399	1.956687262817349	-1.618916951328787	-7.817998665996368	-1.3718991207053	37.83902846348967	67.5669896516151	9.989628357743812e-12	0	0	10.30225164582664	4.746239112725017	2.46029661279076	-6.733261387365687	9.989628357743812e-12	0	0
1.101655884473056	-2.61089683964053	-6.685441683317864	4.53366560670512	3.430514431739836	-0.8423843530355637	1.665314354632845	-1.92183317853565	10.95242044724247	-35.27403470467338	64.30170518782174	-3.037459438726635e-13	71.09970146545999	15.96074304837872	-15.75517229178674	3.916751492497333	2.8752968847862	-11.6722396878722	-5.34910171552953	9.091329121936003	-6.028853059565532e-13	17.10454241809313	7.763251996507023	13.56981457656131	-11.7040644344606	14.05994195817748	3.885693727661642	-1.477357847706795	-20.41468483213957	-1.433970855738608	47.46672690247618	66.5740638896454	-1.354243595278903e-11	0	0	3.324296611404703	5.945416967453696	0.4882666130630317	-14.50780724549573	-1.354243595278903e-11	0	0
1.116031259413831	2.305401874353524	-6.221807633695359	1.217785611944241	3.523674721754983	-0.2313163967207185	1.617815625112482	-12.11915425868414	12.72455266274371	6.001661313121561	39.07516013629097	-8.913082522318603e-14	70.33057243206277	0.192916605701246	-17.49197841790626	23.90662680643686	-6.599304344363631	-10.73992168988362	-8.019258936914298	-0.5401736541566969	-2.461791670450626e-13	18.71115601786182	-3.406994283679207	9.773402000160159	12.81947695016178	7.74913549776806	4.766752674204798	-0.1482556510850321	0.7951088708738184	0.03146471349015233	25.06752027959114	23.34750016134473	2.683886612460363e-13	0	0	-2.086469447796269	2.158322928492073	3.870410293499896	-4.857660735004095	2.683886612460363e-13	0	0
1.12	2.478618268471626	-6.229984970166434	1.086706071479643	3.523315904375813	-0.2105850686532207	1.6192305723375	-12.45983676175047	12.82712927028	7.41518944338928	38.24438180318501	-7.209290671705186e-14	70.28526163967288	-0.3758314399404158	-17.52350245460456	24.65797517669998	-6.93412577067932	-10.73174509686323	-8.100865824515379	-0.9016894027924645	-2.186308677190238e-13	18.75665629985756	-3.879033692029231	9.590452894958052	13.67649086061584	7.523653284134327	4.819159373138742	-0.08956533601371272	1.652266454975726	0.09163770933558998	24.35778380300405	21.79975695028974	1.14901271497912e-12	0	0	-2.21670744807418	2.008390377026108	3.997061978197059	-4.488099323771881	1.14901271497912e-12	0	0
