DataType=double
version=3
OpenSimVersion=4.5
endheader
time	pelvis_tilt	pelvis_list	pelvis_rotation	pelvis_tx	pelvis_ty	pelvis_tz	hip_flexion_r	hip_adduction_r	hip_rotation_r	knee_angle_r	knee_adduction_r	knee_angle_r_beta	ankle_angle_r	subtalar_angle_r	mtp_angle_r	hip_flexion_l	hip_adduction_l	hip_rotation_l	knee_angle_l	knee_adduction_l	knee_angle_l_beta	ankle_angle_l	subtalar_angle_l	mtp_angle_l	lumbar_extension	lumbar_bending	lumbar_rotation	arm_flex_r	arm_add_r	arm_rot_r	elbow_flex_r	pro_sup_r	wrist_flex_r	wrist_dev_r	arm_flex_l	arm_add_l	arm_rot_l	elbow_flex_l	pro_sup_l	wrist_flex_l	wrist_dev_l
0	-0.3508687474409214	-0.1404053822975176	0.2294155704613985	0.1788109537881235	-0.2273172262463519	0.188636014919555	0.08496758893779972	0.4190990605743638	-1.258427439480065	-0.04622866437758591	-4.066623667251007e-16	-1.742563521828008	-0.03604378926828618	-0.3573239817764369	-0.4513053415147431	-0.4675172320450444	-0.4928248296594986	-0.04155281345199814	0.7069674924224605	3.810308149280355e-15	0.3222893037747587	1.131467220961998	0.5830757871064354	-0.1976070836705072	0.7011637303040762	-0.1804082138472446	-0.4728027426181339	-2.122734477427337	-0.05348292145612656	0.4335350027717527	0.9578677059597811	-4.973519903545247e-14	0	0	2.126468149476049	0.2053799986675463	-0.3647805699396869	3.32678405489627	-4.973519903545247e-14	0	0
0.009512856113114032	-0.3270321809639354	-0.1945177390726869	0.2611418785835026	0.2093569553964282	-0.2266941582228209	0.2012611063816026	0.01466490645227978	0.5186546036475741	-1.203652868842673	0.4076542349819198	1.752680930012193e-15	-1.033779642161637	0.01294429651140747	-0.4232771242609956	-0.393087259612463	-0.4185655923180658	-0.5865296242132544	-0.05317563276468892	0.8956794499446735	2.719172260944688e-15	0.6228994918354087	1.026912121431536	0.5196492273525565	-0.2145995951467889	0.7491079884162906	-0.1269565573121919	-0.4883042324127996	-2.249440392776925	-0.04792029615750155	0.6937885659737673	1.013584089734445	2.986789989841251e-14	0	0	1.927901521920033	0.2367475074769853	-0.3667725440457098	3.200436135372305	2.986789989841251e-14	0	0
0.02645588447305514	-0.2584434432089848	-0.2895051464646351	0.3281472154666534	0.270985130722819	-0.2199252582060521	0.2173382114962498	-0.1784013506167588	0.6673754799178766	-0.9824124716944	1.048429142483377	-7.816198643110825e-16	0.1419461760653826	0.04959184309047084	-0.5456548855612927	-0.3351393534559188	-0.3644519947489764	-0.7364250837136608	0.04207253688874392	1.246959535507563	9.328199163394646e-16	1.228876852872951	0.951735562985432	0.3230883935868593	-0.35791914735875	0.8079933620988898	-0.00108257076137703	-0.5201243319231403	-2.618044002219417	-0.03353163238522522	1.230414111092831	0.8992468782881996	-5.985126716386151e-15	0	0	1.308640843937658	0.3133008559428785	-0.4156900943694289	2.812995658814807	-5.985126716386151e-15	0	0
0.04083125941383081	-0.1424928256198185	-0.3408588881303693	0.3696740783293972	0.3075269000586945	-0.2042804122050625	0.2252564664226699	-0.4072409709335866	0.7414657842491599	-0.07875102440468168	1.350308604170361	2.074003161698089e-15	0.9645412816101985	-0.7251275156325004	-0.2285825581589581	-0.2356974792547757	-0.3223135926364252	-0.8087707711644089	0.1939309567073238	1.584329511539737	2.279202188640683e-15	1.842487625955602	0.7314135136520777	-0.07624524146167369	-0.270335865982103	0.7457683283747102	0.09603958099477249	-0.5520611831267721	-2.501320393201698	-0.0280095687532521	1.231594395344493	0.4507951957824971	1.745048119133162e-13	0	0	0.8058115854934638	0.3692021636237074	-0.4169678918197126	2.625231974282871	1.745048119133162e-13	0	0
0.04479999999999995	-0.1248490767852254	-0.3570612833369723	0.3874485783803133	0.3159754554882117	-0.2016459304642168	0.2275596554940853	-0.4883451025218558	0.7508986014556968	0.1233395386750525	1.314965974496066	2.213083382791467e-15	1.155928025329121	-0.6645313029613693	-0.2105060121971259	-0.2635431671308572	-0.2882084126146653	-0.8307461861964115	0.2354948009884502	1.685695414329259	3.240908369353836e-15	2.025377118995442	0.6763176579393194	-0.1863153595980319	-0.2562754388482614	0.7407344061385759	0.1183729743730496	-0.5596601383243988	-2.47701462600301	-0.03005467002051447	1.223622206395094	0.3872380145500672	1.58521344024568e-13	0	0	0.7376327823057975	0.3799818927569992	-0.4055552155015626	2.616345381262572	1.58521344024568e-13	0	0
0.05431285611311398	-0.1072121838843166	-0.4067645466085295	0.3946225569447429	0.3286796120177137	-0.1921095889716407	0.2379511928362459	-0.6555336238557776	0.7989556744073925	0.3030083361408422	1.129316924785395	-1.938396717067538e-15	1.541091239998905	0.09668161930434363	-0.4923360606906085	-0.4016409730663578	-0.1487010954655052	-0.8944012646065179	0.3051069225404655	1.985820456604493	-1.34785711603414e-15	2.486568306150561	0.5913574554243575	-0.439401489676721	-0.3672814420172313	0.7402698868224431	0.1741125429813644	-0.5799602267507663	-2.230910635324244	-0.02884518560825552	1.238627649548636	0.3256719134304093	-1.030956187129701e-13	0	0	0.5462738654246401	0.4117319041670215	-0.3962607864556513	2.522594144166495	-1.030956187129701e-13	0	0
0.07125588447305514	-0.041790446830606	-0.5084305094364553	0.2145001568006312	0.3084552666773191	-0.1425977790133894	0.2722242033472145	-0.6787597212660591	1.026678704321853	0.2401449831181684	1.259612794280271	9.784772224709764e-16	1.948671996261044	1.014857320595427	-1.539557333989592	-0.6128946146505589	0.21834550779583	-1.003325374609459	0.3339471275488922	2.72886082374282	-3.91253676330335e-15	3.363794173169425	0.2770926133210495	-1.062287201927958	-0.7844024599184374	0.613096438269964	0.289931223423679	-0.6265735507298664	-0.5568518119049617	0.01351088906332414	0.9628730351519365	-0.07370214415340977	-8.552090385235269e-14	0	0	-0.1464378322592303	0.4925804922570148	-0.4633731310547669	2.049823806794751	-8.552090385235269e-14	0	0
0.08563125941383082	-0.09175846904411392	-0.6600689617257187	0.04903198097017175	0.2562770989980251	-0.09032553310069116	0.305557331802853	-0.3096075437597441	1.276997491035757	0.2437016594064135	1.691008608725887	5.876691599291441e-16	2.001607842733069	1.726930990510759	-1.136683828161285	-0.09699483377083473	0.7950700454553086	-1.203495299809342	0.1143146125635248	3.572548415596451	6.843599670378239e-15	4.12931604876136	-0.1168054760604584	-1.374825072697426	-1.080426510971311	0.5629974679083792	0.4280138241870395	-0.629777297823977	0.8942029414366592	0.05367752303976198	0.7177432356795249	-0.1666306001845714	9.256696751172064e-14	0	0	-0.4457281480046044	0.5286953538847924	-0.4773050743790745	1.727281379495651	9.256696751172064e-14	0	0
0.08960000000000001	-0.09795112582609804	-0.6870246083887288	0.03120482924814257	0.2480177367955582	-0.07583437715046744	0.3108241024965124	-0.2528895566298296	1.323698664049404	0.2595151833755481	1.768021515496644	-1.558768621203744e-15	1.970784332042585	1.911102438990471	-1.070440195760902	-0.08129846979030846	0.9310757175606064	-1.242338512108093	0.09173523647216272	3.780215969319675	2.963100571731507e-15	4.337333203573983	-0.2525206263015323	-1.470594414908284	-1.07662770177977	0.5557448125901771	0.4520168721965572	-0.6203623090504911	1.064841565152267	0.05894667074898677	0.6823487698845472	-0.2308023523876424	6.290495335975417e-14	0	0	-0.5391555354201389	0.5313785465122134	-0.4803317417736999	1.673215702042128	6.290495335975417e-14	0	0
0.0991128561131141	-0.08734259094096751	-0.7209599187520715	0.02628656070036466	0.244192874558898	-0.04218810488361279	0.3159361475327321	-0.3166642527264497	1.384435166010827	0.2311023822551526	1.685969026827471	-2.358378158621332e-15	1.824990924267385	2.065677834361238	-1.282537571440734	-0.2886946280193862	1.183651963389554	-1.293895499906929	0.134428812990058	4.20293243892776	-3.343622295078738e-15	4.81889366726488	-0.6238006474140735	-1.751383810891017	-1.001388048201236	0.5492450919407528	0.485509053591999	-0.5824129044235294	1.185065334217077	0.05635296974010963	0.6021066745741462	-0.4830508815096386	-2.419406363265869e-14	0	0	-0.8431385392355646	0.5423245433311332	-0.5049157537607873	1.53681385271325	-2.419406363265869e-14	0	0
0.1160558844730551	-0.1023899820914178	-0.8016003826994418	-0.0003557324520783018	0.2344341086823143	0.01408511503473065	0.3177411747455335	-0.6656325133408283	1.462245792059627	0.2190917705243698	0.8895761840188363	2.964722778833367e-15	1.365513558189463	1.424206032142964	-1.203411015684155	-0.2194807391509294	1.676808266068519	-1.389693237690881	0.204853941837112	4.927269803657304	4.283528801824618e-15	5.56858224892437	-1.383995034970869	-2.267286248861789	-0.8474556714589564	0.5922614090008561	0.5772518381279588	-0.4762237223149868	1.669856108792513	0.02984536339722874	0.2206183330658106	-0.8687720382877604	7.501817977666766e-14	0	0	-1.284969350517271	0.5822171376119099	-0.561136921131655	1.214642764194823	7.501817977666766e-14	0	0
0.1304312594138309	-0.05254935844101261	-0.8202318670951291	0.04953602773045621	0.2346174840622172	0.0526523135091948	0.3010230485189967	-1.177081944821222	1.382311193715045	0.06533705496211023	-0.01901707217337937	-1.972552936060206e-15	0.8616771764597502	0.6329380832509794	-1.150810215629322	-0.3265969490088959	1.970929031342135	-1.410201541914855	0.3132394172747824	5.409859008058411	-4.930826378832765e-15	6.031074541913939	-1.917979829126441	-2.617234506018908	-0.3302177952331587	0.5619077108168635	0.6332706152975123	-0.3588680517388956	1.492895040177999	-0.02240634259147604	0.1071409658773534	-0.8555180286084609	-8.733439551258132e-14	0	0	-1.588424453435609	0.6000477749572606	-0.5307630230302752	0.844924328000388	-8.733439551258132e-14	0	0
0.1344	-0.04975741028372348	-0.8340972167885328	0.05498787969460943	0.2288123884939646	0.06105758984653578	0.2965314215931685	-1.247548877562286	1.375449862291378	0.03878583817438458	-0.164152911495816	-2.403351908345471e-15	0.7172594011429451	0.5845741691423592	-1.089427999081254	-0.3429110726267832	2.065232027834619	-1.418677703078262	0.344879531296705	5.529485484343182	-5.024615292181263e-15	6.122383278138614	-2.048706677955266	-2.730092599325308	-0.173439486004205	0.5528987279113563	0.6602169747555156	-0.3336292377300649	1.523813295103563	-0.02629495521698844	0.1227979985182694	-0.8166711738532193	-1.031648070536821e-13	0	0	-1.655310992029417	0.6003664967542903	-0.5228737530091988	0.7565778791655992	-1.031648070536821e-13	0	0
0.1439128561131141	-0.04751036870797762	-0.8821089527133339	0.05618077631837155	0.2070850314766442	0.07841463314922864	0.2853969398434108	-1.324884661295651	1.398730623626279	0.02279695859233871	-0.3531346275454736	1.105232482637307e-16	0.3788130007048182	0.7181485164296442	-0.9806354118796843	-0.4601794550288655	2.292457495048984	-1.435563533843517	0.4711794165903004	5.782859106839306	2.881461906010447e-15	6.268107380149067	-2.201344291936551	-3.026014503214089	0.2020323893930669	0.5217920319258627	0.7459357705302521	-0.2836857571242564	1.714042362454457	-0.03299006349899496	0.2004169322389859	-0.6765741070756758	3.660486097191635e-14	0	0	-1.807453713558189	0.6096609693510409	-0.5063498030049772	0.4664798937683132	3.660486097191635e-14	0	0
0.1608558844730551	0.04272430089289513	-0.9608669687871305	0.1146797918348581	0.1596124974094181	0.1043500880350402	0.2547390857278288	-1.537782552835532	1.410850398473838	-0.01598071166729719	-0.7058562164840342	1.449391196129152e-15	-0.1455568789549272	0.6252551291642162	-0.885712035080259	-0.8529493718570019	2.726733043905782	-1.4580801956875	0.8751473961041654	6.470831094240637	-2.195088373526653e-15	6.251673282597604	-3.084525855468765	-3.450868532142863	1.723921420400083	0.3325307182377632	0.9102975507239139	-0.161582301678458	1.613277334517601	-0.1230256530520849	0.4225296603561313	0.0001470132199858296	-9.352570536702537e-14	0	0	-2.017883477550122	0.6625896687660193	-0.383504181505899	-0.5381343628285206	-9.352570536702537e-14	0	0
0.1752312594138309	0.1108528801580967	-0.9436035611438034	0.1046922366767985	0.1231900455264218	0.1112315337165744	0.2352842844064494	-1.641430002298691	1.365296331302695	0.0004398173366616564	-0.9029167389358457	-6.755151453416473e-16	-0.4677510222529171	0.4123160652076349	-0.801426703345899	-0.8869544242165506	2.597805371415442	-1.463109177932247	0.6754195570147192	5.962118312029526	-3.828947416131336e-15	5.955511711823344	0.8289944386647943	-2.095936823430574	0.4209453522731775	0.1973017886140662	0.9214426847705882	-0.1190821347833907	1.798204202153167	-0.2198564870018554	0.5653824583132452	0.893816237257276	-2.232143989955005e-15	0	0	-2.092878515153875	0.7207590974083864	-0.1946814131298717	-1.395835947709933	-2.232143989955005e-15	0	0
0.1792	0.1154930574139673	-0.9379906512183893	0.1139819960959779	0.1148364288005051	0.1111449531882651	0.2291378462612411	-1.652204240682507	1.343160354841452	-0.01081036827300715	-0.9421458129329996	-1.70783008278294e-15	-0.5344569257685367	0.3765839539048037	-0.7625648045610838	-0.8835462962507596	2.558559805691977	-1.46995819846624	0.6107234637095237	5.747116626953045	-2.56768631745327e-15	5.830558176661789	0.9092165790049161	-1.817197415649897	0.5564958319543684	0.1783741235115419	0.9220284444210703	-0.1115799175981669	1.8058337881341	-0.2372226163858467	0.6015392580882825	1.040948208253056	8.268838345397386e-15	0	0	-2.113976702325253	0.7308113960169882	-0.151679563609274	-1.550130802781778	8.268838345397386e-15	0	0
0.1887128561131141	0.1179275691463862	-0.9172660004357548	0.1615452877594019	0.09178042047091525	0.1133281387491771	0.2111039723130581	-1.649203095186341	1.270728015746277	-0.05552875596499125	-0.9882855426229141	-1.036365299469831e-15	-0.6565816742206276	0.3697827039323943	-0.6559440241215669	-0.9129916824781913	2.565564976137535	-1.447969132685488	0.6069151991845154	5.248355873943717	-1.20503983937179e-15	5.462332339190416	-1.009447211374725	-1.500866180145095	2.011894513503595	0.1303329457822443	0.921403257316173	-0.09031785415556684	1.752852035542527	-0.2821835777455105	0.6935229331742929	1.305915066713871	4.571206551110974e-15	0	0	-2.146901854821997	0.7562857706423499	-0.06435534212841275	-1.912125096584858	4.571206551110974e-15	0	0
0.2056558844730552	0.1733720917400069	-0.7480859427468975	0.2431265542895062	0.0441063521923219	0.1253192487764174	0.1744023733252502	-1.660184121325457	1.009949533961944	-0.1115935693838358	-1.014824805002148	-8.990371328455645e-16	-0.7607609023756499	0.2026936806402006	-0.4803652999330539	-0.8209790314707853	2.431822629900636	-1.176522142750385	0.6035084266450934	3.786176955298377	2.788732350583458e-15	4.60566116203066	-1.062290662232788	-0.2874869667920505	3.113754812555527	-0.0357307093324564	0.7717807026521528	-0.08347505145675228	1.718249502086896	-0.460771397215815	0.8271814072961272	2.358213226536642	-1.937776164790238e-14	0	0	-1.990074854121269	0.8540514278668966	0.1932351154853749	-2.993121481150598	-1.937776164790238e-14	0	0
0.2200312594138309	0.1861659684096831	-0.581678302705435	0.3269310888901721	0.002412968471396493	0.12972605689972	0.144510063389996	-1.602307006163445	0.7705756678355922	-0.1699324727385789	-0.969159664728799	-3.057305887502657e-15	-0.770281615335686	0.0674178834523072	-0.390016105950362	-0.5124585476267373	2.472141936103057	-0.8798816712086559	0.5991930103661229	2.990625349983786	-6.204833051481167e-16	3.738255063665774	-0.4803956993229658	-0.7540875471478869	2.846186297242999	-0.1546696089682741	0.6117481869158675	-0.06762056842920693	1.660500834733001	-0.5518729976222252	0.8604862360296607	2.723455438507841	3.371918084391109e-14	0	0	-1.93494666186802	0.8858806109268427	0.3208121111501788	-3.666515962367948	3.371918084391109e-14	0	0
0.224	0.1863858874834274	-0.5562965432753478	0.3431515038683047	-0.007364147356912027	0.1307235599959554	0.1375658202124763	-1.582761631847167	0.7327441604117612	-0.1773984529281674	-0.9546389377260824	-1.951909078924837e-15	-0.765564793939325	0.0549004186038058	-0.375354958926653	-0.4568382958767252	2.476354969516354	-0.830550270900871	0.5778057942359097	2.744933367565964	-5.081031867719174e-16	3.484897850036002	-0.2767378501762614	-0.73079888494906	2.766895892967734	-0.1789467245734964	0.5915615198079331	-0.06204007406386265	1.658190608359284	-0.5658325690399334	0.8829636244438803	2.786983198704939	4.87837616396241e-14	0	0	-1.944659095850882	0.889407944777197	0.3485948371068052	-3.797942274575379	4.87837616396241e-14	0	0
0.2335128561131141	0.1976285960245666	-0.4967932167172185	0.3897079320135308	-0.03018316021679999	0.134347195587003	0.1201947230711948	-1.55296970565997	0.6431604929883677	-0.1950427678350479	-0.922688072705392	5.387261507429058e-16	-0.7484478386470659	0.05685010044619736	-0.3370911584990763	-0.3858387281385847	2.473507558824021	-0.7129695151938648	0.5414688417726359	2.129179116453113	-1.199676626609512e-16	2.86458220118034	-0.1865050893843548	-0.5468645527346168	2.788246691363504	-0.2479352017723985	0.547040236944573	-0.05783643491771077	1.653251426309936	-0.6075399599469884	0.9317306115383041	2.956133096754816	-3.344924217826251e-14	0	0	-1.93445342367107	0.9057478245889587	0.4220907487135799	-4.145789067610714	-3.344924217826251e-14	0	0
0.2504558844730551	0.2451844113751553	-0.2319498153010078	0.5264725360867476	-0.07594650272135768	0.1393075981383247	0.08483006183263365	-1.530144982476623	0.3009234930436051	-0.2565897699533636	-0.8404459536164171	2.27397800209774e-15	-0.7203827793781804	0.01820648823325862	-0.2593794099137745	-0.03502849008798645	2.448206470280587	-0.2607150803841583	0.4870851547282046	1.190093398082684	-1.665425112966383e-15	1.749947643165755	0.6157956083619566	-1.064092280839615	1.377174542618497	-0.4289938237547	0.2719876775129331	-0.09819545868864191	1.638232772507764	-0.724482988745334	0.8129848591210782	3.149222805512917	4.824057496013157e-14	0	0	-1.688061664029797	0.9484406715295854	0.5574199541577969	-4.955748734915163	4.824057496013157e-14	0	0
0.2648312594138309	0.2586058257699779	-0.09914961259934815	0.6032569726717224	-0.1032114286955999	0.1405872950912529	0.06695087774380387	-1.521939391657696	0.1487823766512073	-0.2545317420709365	-0.8431361297437524	-1.583702626756777e-15	-0.7221419974982874	-0.036592354598095	-0.3143437690959782	0.1959877057628257	2.385641111921981	-0.07201126324952691	0.3330528463306803	0.3394742704986359	-2.847951250592453e-15	0.8282096900375213	0.2152543054422463	-0.550990923312127	0.6287533145877469	-0.5208251763649233	0.1241762463896814	-0.1251807466520152	1.664415379444837	-0.772102865173563	0.6458375228574033	3.134687528610618	-6.373983754353688e-14	0	0	-1.53295754712028	0.9492287486393298	0.6126621351413173	-5.377609384648673	-6.373983754353688e-14	0	0
0.2688	0.2578251842071297	-0.07975589376600045	0.6165823216457815	-0.1096898008844505	0.1399625325286265	0.06288541393561406	-1.515458901753124	0.1266744185014069	-0.2538510540787211	-0.8437976900150692	-5.927904930288165e-16	-0.7289501253936953	-0.02989453841051952	-0.3175199938650585	0.2417530092053785	2.36663834354168	-0.04193378344789861	0.2880096078833974	0.1183673990737533	1.774694466982181e-15	0.5801849289541481	0.2615597318315598	-0.4047480915148706	0.5073329107446799	-0.5382104146252291	0.1036398732086004	-0.1292025304917406	1.677628478512668	-0.778750436894431	0.6317104661494677	3.137143153679606	-2.195729839439724e-15	0	0	-1.514948244959938	0.9477252395360229	0.6295660502393756	-5.457172412414446	-2.195729839439724e-15	0	0
0.2783128561131141	0.2640751548621081	-0.02853489156249701	0.6492057583672981	-0.1252320757298339	0.1383755772926507	0.05241224946348175	-1.512295476880492	0.06301372870704264	-0.2662112304469338	-0.8459646645623585	1.915575025289119e-15	-0.7581219987071315	0.007487925403989728	-0.2836256215101208	0.3303048342235226	2.29927881076695	0.04727914355841065	0.1979175281290649	-0.4092977095668814	5.815528115242545e-15	-0.002243944599148208	0.5809523166331905	-0.2138980990808956	0.2387192836191573	-0.5900247824453386	0.05130254234604822	-0.1418252823149046	1.713842903138902	-0.7991882266391065	0.6074543107049017	3.191269525232952	1.037003172510352e-13	0	0	-1.445590964450111	0.9466882709414861	0.6711185053407499	-5.687492123704732	1.037003172510352e-13	0	0
0.2952558844730552	0.2913735153008989	0.0949331715340033	0.7112218380514856	-0.1474097652717887	0.1360361828280856	0.03838694850944528	-1.568150158746957	-0.07666778498922708	-0.2928628540224013	-0.9134436886838349	2.710784409963112e-16	-0.8573012425930844	0.004571842403194385	-0.2400770516952662	0.5158554869799957	2.062141051998276	0.2197917288699826	-0.000327218606593566	-1.444039964037511	5.550244314006618e-16	-1.002999401243888	0.592812319984323	0.1330608812994811	-0.5451674436232058	-0.6883345391462946	-0.0958392399500354	-0.1810968597399361	1.814057520450094	-0.8236069681631937	0.3445016491620428	3.191591405897079	-1.696284630057879e-14	0	0	-1.145408079236149	0.9160102847575728	0.6589757408825208	-6.127577561890661	-1.696284630057879e-14	0	0
0.3096312594138309	0.2768295783694203	0.1103988540047387	0.7104248941899443	-0.1573671332506963	0.1294331827322458	0.03419985366015797	-1.592996954388687	-0.08278893626069185	-0.2850330741755599	-1.005934029444256	-1.031662303804021e-15	-0.9870601912376618	0.0407869566465928	-0.1994735245483551	0.5672646643206278	1.861487388403046	0.2348977507217705	-0.1391424263498625	-2.269050502470185	4.090687021360163e-15	-1.828684155915717	0.2727191436974529	0.6583919682113926	-0.4845906948018905	-0.7046837936509682	-0.1276339357425159	-0.1783857095315311	1.85838988118735	-0.8068271029700846	0.1674293831803726	3.270097933843678	1.063085901690954e-13	0	0	-1.028841122076769	0.8623694809113442	0.609781406993654	-6.325441463168831	1.063085901690954e-13	0	0
0.3136000000000001	0.2703199737413716	0.1060587698029699	0.7073401985717821	-0.1597619423870232	0.1269941147093343	0.03297153521419559	-1.596465722507474	-0.07621533434208518	-0.2841069389713636	-1.029760116340197	-3.100954214157934e-15	-1.029376885684971	0.06468903742518908	-0.1769650276117833	0.5849184159126606	1.802414961061056	0.2337494776538476	-0.1670321656985184	-2.492529883534401	-1.273302215239211e-15	-2.054838312712737	0.2566689979412359	0.801992685920435	-0.4582305223151505	-0.7041856388338914	-0.125980456821928	-0.1773480010022435	1.882916072432729	-0.8022272559820711	0.1528126233180329	3.303496182059152	2.894793071489276e-14	0	0	-1.002676938800091	0.8516348853211981	0.6082284642436527	-6.354100412379089	2.894793071489276e-14	0	0
0.3231128561131141	0.2600122888203852	0.1032286997609927	0.6966250429465115	-0.1656343446442326	0.1211401555574612	0.02889452092874096	-1.612095658115616	-0.07476374893252044	-0.2935831469577475	-1.088798058871271	-4.185583341707337e-15	-1.140202176351669	0.108029889318505	-0.09137144825991005	0.6309143740615397	1.639766658657253	0.2578363972392333	-0.2121884861487276	-3.033911588188314	-6.92473324671968e-15	-2.595572443951996	0.3876489455419958	0.9949516866655571	-0.5229778278146662	-0.7109367445976675	-0.1270123844815062	-0.1724618442474743	1.947902062752356	-0.7905216891213773	0.1244369586109946	3.418624968525324	-1.494803721758365e-13	0	0	-0.9277259297291081	0.8220114051778332	0.5954561854089429	-6.44095752457498	-1.494803721758365e-13	0	0
0.3400558844730551	0.2279982700993375	0.07185680733628536	0.6189438357877267	-0.1685761525073642	0.1093594438343789	0.02677392186631329	-1.655079585024712	-0.03777676267186302	-0.2898072159309276	-1.251860315934596	4.374539651446666e-15	-1.359644444796228	0.104742776641292	0.08606348750548667	0.5988269789459164	1.309254693181244	0.2653022379167851	-0.2684620940913022	-4.001186889211987	3.556198466795103e-15	-3.553176383034298	0.2285657676652385	1.137347472004635	-0.4401076261709778	-0.6993979932130754	-0.09865879473124568	-0.1121235164112128	1.986611304011921	-0.7156480421053456	-0.06008710013834986	3.715937012953047	4.468345921298389e-14	0	0	-0.8898648433402978	0.6918585209248487	0.4114656248562903	-6.573449364770623	4.468345921298389e-14	0	0
0.3544312594138309	0.177226159177676	0.02729769607295047	0.5374000401623817	-0.1667484100903971	0.09592397113156957	0.02434377451829786	-1.65750413597692	0.004215795543619123	-0.28553405233812	-1.360679454570696	3.409367558428838e-16	-1.549848967182293	0.1825807678054319	0.2917883246990317	0.5023870381337979	1.054332344188127	0.2747499474989359	-0.2023612634858545	-4.740866817137325	-9.941782903143806e-16	-4.34466353049247	-0.2751068637260425	1.332902370085433	-0.2356121184078232	-0.656629576982899	-0.05888323607325812	-0.04260073548678894	1.969585134083848	-0.6427066690001964	-0.1303337390050234	3.958495461185865	-2.741812062110965e-14	0	0	-1.00029478783879	0.5808061201805265	0.2752344908327235	-6.510828293197701	-2.741812062110965e-14	0	0
0.3584000000000001	0.1643744732917147	0.0122725160789115	0.51802201819919	-0.1667837514241731	0.09189625942879107	0.02290942047051164	-1.657078779214462	0.01822426521130931	-0.2821328292832919	-1.387137000322617	-7.541838551485414e-16	-1.600056051034741	0.2144738812951908	0.3448941993484722	0.489405297786614	0.9840970614365564	0.2793056795570186	-0.1653809575982747	-4.930099289106488	-3.774439371283664e-17	-4.555361585282441	-0.3451780124695759	1.422546766409642	-0.1892452381650277	-0.6459867196625967	-0.04331203430702583	-0.02841055824967141	1.990491847187317	-0.6277752745504915	-0.1180220682605219	4.020425501012548	-3.267020899425088e-14	0	0	-1.018047360726841	0.5593163852598098	0.2562381230708464	-6.495200935430669	-3.267020899425088e-14	0	0
0.3679128561131141	0.13896977746482	-0.01962615449505731	0.4671385809289738	-0.166392764561788	0.08188042786686847	0.01920980615425758	-1.661912659918235	0.04829379668522826	-0.2646140439636598	-1.452623990809301	-9.688899871124439e-16	-1.711853961614279	0.262441913880138	0.4587031722370183	0.4359449010090232	0.8039714986121517	0.2955623973618793	-0.06485474286133903	-5.358577269292705	1.160837800796531e-15	-5.037331257160229	-0.3487611775908614	1.586405491500887	-0.1968917235126985	-0.6266105324877278	-0.009386892378927821	0.006757852097165427	2.056323406153291	-0.5888738135018983	-0.0900394391001994	4.174732677895927	5.247261344017327e-16	0	0	-1.0602399721854	0.5020862382094796	0.1980897172226082	-6.440570077790669	5.247261344017327e-16	0	0
0.3848558844730551	0.0771629843659673	-0.07667756971724696	0.3230487469833854	-0.1550819576020921	0.06018279795660689	0.01761815477641199	-1.649650318865415	0.1094810907441457	-0.1856208903877389	-1.552665657338599	1.179681599017005e-15	-1.863757608042546	0.2849032429979242	0.6376985052231655	0.07621108838676775	0.5075593607265267	0.2826206468178447	0.1273982038596251	-5.939520768833296	-1.90225063183144e-15	-5.769723708050472	-0.7007984818143277	1.686083647344183	-0.3215333275585037	-0.563189221645036	0.03831354810329427	0.122903590274543	2.018109714788542	-0.4623194150501961	-0.1519013453431649	4.470128184964376	-5.536405108475592e-15	0	0	-1.382025704339608	0.3219747052814151	-0.0417241049767731	-6.030193131456797	-5.536405108475592e-15	0	0
0.3992312594138309	0.02398691910922349	-0.1052207257918126	0.2283889027323471	-0.1417522114648945	0.03907929335947244	0.01209472539670833	-1.623633574451018	0.131671312199022	-0.1262448914249769	-1.588003284233806	-2.439628962286868e-15	-1.923513098813741	0.3274155953492535	0.7606794376017901	-0.1939504891520066	0.294748862597913	0.2781959505801361	0.3653425851491977	-6.184774182236925	1.291336662210382e-15	-6.19580957334839	-1.249053093803863	1.894100423321277	-0.4282079956779034	-0.4856823489201864	0.05284991810401116	0.1924121982757543	2.030060569982066	-0.3760987600095783	-0.1305674878217762	4.586659063541651	3.817413857996717e-14	0	0	-1.611727810192116	0.2066064181473976	-0.1508196643289349	-5.509093986792227	3.817413857996717e-14	0	0
0.4032	0.01268232848541398	-0.1134573791888371	0.2071887704104522	-0.1386947670907871	0.03306678064570599	0.009612394832202711	-1.614043709866949	0.138708358642127	-0.1064924933087923	-1.588179952643507	-2.940234426427637e-15	-1.926260478837609	0.3408498273937278	0.7771597834586439	-0.2375706967585376	0.2464400868477627	0.2739146516609415	0.432317835016049	-6.197022518900837	1.497139176722071e-15	-6.272077372527242	-1.35337967737252	1.959768869906786	-0.4382782241599121	-0.4662125427252986	0.06092913526588904	0.2046017249182606	2.059730255119413	-0.3597498668623035	-0.1040397673129545	4.626732083319628	-7.175713811985125e-15	0	0	-1.636569620861266	0.1849050240069496	-0.1635257947934008	-5.40067972232808	-7.175713811985125e-15	0	0
0.4127128561131141	-0.009970783341378693	-0.1302664300251627	0.1524514479735592	-0.130201522731632	0.01843920954122016	0.00335443623531991	-1.588953780806808	0.1555313666609335	-0.04304382022352587	-1.575444708973568	-1.579020175789372e-16	-1.906038860130873	0.3624883666226559	0.7874288251246291	-0.3540442593580717	0.1475652049264972	0.2538379290128524	0.5527203864501171	-6.116916852079857	-6.543705996070277e-16	-6.369788675427323	-1.406835421685937	2.074930711099104	-0.5160351318132841	-0.4205780729456599	0.08080818081310433	0.2340767498752955	2.136252959814434	-0.3176274749394228	-0.05300352738918788	4.725564282426541	-1.630863282647196e-14	0	0	-1.706862046240868	0.127269369199765	-0.2039934470126025	-5.103905585018445	-1.630863282647196e-14	0	0
0.4296558844730551	-0.06389009322915826	-0.1332852277920002	0.0410766020112955	-0.1032651647726693	-0.00899447783864033	-0.006433900811738682	-1.519029950400035	0.1572876871355293	0.09988266506663257	-1.50222336191316	1.610419595450624e-15	-1.771481829098757	0.3762415367696026	0.7556792015304974	-0.7449287575456588	0.04051752974505694	0.2017169735162303	0.6389882306811767	-5.638023352898785	-3.179887079310372e-16	-6.212294905967561	-1.489564120449019	2.161061608878015	-0.8851818764481765	-0.2975215661955465	0.07122400022400061	0.300566360731419	2.148892881540075	-0.2091082460500027	-0.04905166511402945	4.712455081188073	4.468746469543671e-14	0	0	-2.090290801721721	-0.01513717838022032	-0.3079013085257771	-4.020247176217763	4.468746469543671e-14	0	0
0.4440312594138309	-0.08964904383905799	-0.124262444123523	-0.01006821585953608	-0.07866974345574826	-0.02936899020792111	-0.02353364405773307	-1.461463384087973	0.1333114043868661	0.1607321725173292	-1.386418888190526	-9.005508877414487e-16	-1.559626077970486	0.3857538946465888	0.723123778174503	-0.7977885799230136	0.02333610399396478	0.1798271468246909	0.5005742048169357	-4.853959805764632	2.782939433417501e-15	-5.725497962315068	-1.4601796330548	2.039589674869327	-0.9111472977957297	-0.1911827056392821	0.07640281481003056	0.322434590900129	2.171494708925708	-0.1492867810724617	-0.03418300577151036	4.615970327862935	-1.020771220148838e-14	0	0	-2.311710028616587	-0.08766931278285005	-0.2831515122086285	-3.190049631690616	-1.020771220148838e-14	0	0
0.448	-0.09629665846693267	-0.1207201636100496	-0.02218476021722122	-0.0730448990488623	-0.03466179273339943	-0.02835820931754891	-1.436594046554423	0.1266900916204068	0.179501477156028	-1.338562137550684	-1.707703829101833e-15	-1.486658221691598	0.3963550953080113	0.7012864039012674	-0.7998430244236766	0.03463106552463698	0.1765034179336952	0.4449643845093332	-4.588406851335579	-4.446872618996561e-17	-5.535518731139792	-1.471121956481815	2.031872963618051	-0.9030991086250186	-0.1637409585376771	0.07841448152236891	0.325006824761974	2.195337038692919	-0.1382543939514524	-0.01744986103429134	4.61900431789079	-4.294774834220318e-14	0	0	-2.331110105478988	-0.1014208623863611	-0.2693090796208069	-3.024773670878988	-4.294774834220318e-14	0	0
0.457512856113114	-0.1171229796922626	-0.1080855636116341	-0.05730079414823625	-0.05983134699839728	-0.0470641838990614	-0.03915457556799069	-1.358512588966665	0.1090440457426969	0.2353779695444838	-1.200456868785927	-2.887086231489681e-15	-1.289626182048406	0.4203866328068405	0.627018470840067	-0.8151327511874733	0.08022495600906913	0.1782005223159263	0.2519441768096182	-3.896922281145848	-3.408068348699444e-15	-4.99109433992971	-1.36222400057244	2.010824671414829	-0.9238099577912474	-0.09507248060100434	0.07732539081090538	0.3340868786100756	2.252098750542229	-0.1070103490187388	0.02039242262280632	4.619673211993932	-9.783993103825961e-14	0	0	-2.3891377141031	-0.1419999077583426	-0.2432847886065106	-2.591227134599432	-9.783993103825961e-14	0	0
0.4744558844730551	-0.1691795681237774	-0.06025553550331512	-0.1072192383640649	-0.02924330416254682	-0.06722629135695024	-0.06369499213189683	-1.198108941275394	0.03954469974014879	0.3020339519126585	-0.9211880023557508	4.723076687863552e-15	-0.8792484760034762	0.4263548544720115	0.4805166730202128	-0.6441962614773407	0.1677201959710354	0.2412499126995873	-0.4000781582718226	-2.549556267133526	3.467004198607563e-15	-3.769388679089063	-0.6727625994288426	1.71413873428933	-0.8663321835210147	0.06642245366722033	0.05256518012878922	0.3407847426826252	2.270393658218141	-0.03841569341251699	0.0226028289855843	4.325907763260886	3.698317039974915e-14	0	0	-2.655152037494508	-0.2219224260780104	-0.128988414074042	-1.36386353958379	3.698317039974915e-14	0	0
0.4888312594138309	-0.1814600585654628	-0.03323809111306899	-0.1297770247292914	-0.009937933226520906	-0.07737088640503391	-0.08603145158665851	-1.053278075116343	-0.005116672599985474	0.2654204509695633	-0.6070525285262305	7.088196181230105e-16	-0.5000607803810165	0.4695238666265892	0.430249363216001	-0.2915468259571396	0.2276959753723509	0.3145870316696409	-0.8607670655835203	-1.430740512653445	-1.053328027930968e-15	-2.587240933099672	-0.7348540055767501	1.047393973698409	-0.6303451572088424	0.1513060211102221	0.05930192230686185	0.3424513402726049	2.308257538105389	0.002919603315655999	0.06336737485391999	4.05721039385999	2.145860517229128e-14	0	0	-2.690078572130001	-0.2609937978553059	0.01017197147028704	-0.6385163121938563	2.145860517229128e-14	0	0
0.4928	-0.1898188016982264	-0.02539287275668044	-0.1408529116376572	-0.005077611034363964	-0.0804688838439479	-0.09115525941049767	-1.003408923335231	-0.01706758993164732	0.2593366230632474	-0.5110046933886123	-2.033638314084817e-15	-0.394697551251283	0.5007209188168753	0.4203588267984647	-0.2242507209575117	0.2453991636124153	0.3299531389208765	-0.9470889257724537	-1.139613648214954	4.1976357282972e-16	-2.255033913593879	-0.7296578258384487	0.9507722849466588	-0.5660763206517982	0.1774138194555065	0.05825799690217252	0.3428097408674672	2.332467806868382	0.01147245771205493	0.08911233035146675	4.030145170752025	-7.06429873372746e-15	0	0	-2.679707904098986	-0.2698651313944002	0.04436351173149022	-0.4999498535393188	-7.06429873372746e-15	0	0
0.502312856113114	-0.2318124031527716	0.005027875544694775	-0.1810745376321856	0.007658409707913282	-0.08971208175173992	-0.1010618524100332	-0.8586165842992941	-0.05681739508244504	0.2738232367576677	-0.2760320148338102	-3.355020949733855e-15	-0.1468528326669483	0.5776482665467956	0.3724004992528674	-0.1098684509388981	0.291985561817411	0.3651339826864319	-1.137575449798271	-0.4805438041336079	-1.874724648690209e-15	-1.474260626542336	-0.4417536143658252	0.8444920945347184	-0.443174465722207	0.2620710493672841	0.03140601114761195	0.3464766100360098	2.3801506862732	0.03681824744892034	0.1496446000843629	3.96029596780396	-6.168285170877749e-14	0	0	-2.677550295863295	-0.2972105209536172	0.1199288195982313	-0.1462917552622841	-6.168285170877749e-14	0	0
0.519255884473055	-0.3370267309458307	0.09402136812269632	-0.2445983921653245	0.02987708821780614	-0.105886341213703	-0.118870729086424	-0.5655187320515366	-0.1708823954279899	0.2738332354072809	0.1554228449549024	1.299703283175404e-15	0.2587494964436318	0.7115221749199787	0.2887821510027119	0.3397055556228772	0.352110866692544	0.4709793007343127	-1.549703900932162	0.5195219260038488	-1.91665369299584e-15	-0.2280776647262242	0.1501192348776713	0.1697279379892663	-0.1041735457540851	0.4380875640306551	-0.07138880637088896	0.3518974007941748	2.377471639168748	0.09309620667883284	0.2092788616235177	3.513581982430185	-3.852987966261986e-15	0	0	-2.642440460519444	-0.3393660171333552	0.3156067962333447	0.5825732521709815	-3.852987966261986e-15	0	0
0.5336312594138308	-0.394177013188127	0.1691300322370045	-0.2940291344700748	0.04667936533848907	-0.1154191804814433	-0.1298289423597544	-0.3821741585695063	-0.264354631588526	0.2345929193202339	0.4583990598757504	-2.633420356917664e-15	0.5483186616994857	0.7832548163211163	0.2844223312333848	0.5473744239853559	0.3224943116239604	0.5213167128223728	-1.43477343371878	1.089484842498522	-7.894911427499615e-17	0.590139977241392	-0.09306829774919589	-0.2383445752180544	0.2413026540668338	0.529811195675665	-0.1688372466341682	0.3570852774116069	2.369402658582633	0.1269145332585726	0.2199583807356582	3.27067651003595	-5.378123627543314e-14	0	0	-2.490910416955425	-0.3505492811390893	0.4378816970365135	0.841529188807826	-5.378123627543314e-14	0	0
0.5376	-0.4055271538473476	0.1801965744613027	-0.3071729692872995	0.05073798297566348	-0.1179331021616841	-0.1327035107021494	-0.3402570833955142	-0.2797051865729935	0.2245003808593438	0.5316427552425468	-2.549443928204267e-15	0.6181997495295698	0.8138337689295319	0.2917546453670555	0.5911797220152721	0.3047988783698855	0.521651190377586	-1.373379310992336	1.209549889109965	-1.749180424547717e-15	0.7695038410903844	-0.2036776352309467	-0.2531171058816363	0.302727551290088	0.5483049058437475	-0.182156385890799	0.3584342883091445	2.394690981110965	0.1339173762738672	0.2375045691390532	3.246692145044908	-3.922944532224963e-14	0	0	-2.438422893777451	-0.3539686498655675	0.4674083191742152	0.9009881450770951	-3.922944532224963e-14	0	0
0.547112856113114	-0.440806497405721	0.2151676285343873	-0.3509672429705121	0.06162072484626534	-0.1246556871089519	-0.1374538338132893	-0.2402190229966751	-0.3244291781392889	0.2337479381672802	0.6900428257584073	8.135052589734825e-16	0.7684864816144061	0.8892675921977722	0.2911478670731261	0.6447338465038572	0.2529270862070702	0.5214603149317542	-1.160352301865965	1.442731783457915	1.786231799033837e-15	1.115185876288448	-0.4805287835804553	-0.1589466080815873	0.3599047533805469	0.5997912709785028	-0.2313520800037036	0.3674292576653804	2.455258661800643	0.155455543721587	0.2925865923486768	3.184540646969906	6.073589169871122e-14	0	0	-2.329259384734385	-0.366345215630119	0.5321411361215721	1.041537826216556	6.073589169871122e-14	0	0
0.5640558844730551	-0.4931919632293624	0.3452223663029242	-0.4571881803680231	0.08606931128378917	-0.1326105141827027	-0.1373386803034374	-0.1080045146693338	-0.468162961952698	0.3009893400470083	0.9196569052747545	-8.65325430258595e-16	0.9870262079649768	0.9578833360866725	0.2714039436338115	0.474346498370073	0.09292165710463186	0.5533419008845345	-0.3048986134937419	1.593013749556904	-4.776048160023411e-15	1.459618107667897	-1.558397163051937	-0.03710687837330675	0.3934417429694947	0.6696673014183092	-0.4352789802035039	0.4044736562411765	2.38666838726261	0.20543306709947	0.310490224131579	2.932124340211529	-4.833224802555518e-14	0	0	-2.108695903533706	-0.3688917132609256	0.6120572115617749	0.9010998346506807	-4.833224802555518e-14	0	0
0.5784312594138308	-0.4701886831966892	0.400010381559438	-0.5660934584657633	0.1166178654487417	-0.135947201878299	-0.1388710947452266	-0.1224796567680331	-0.5378278671316046	0.3220126421164613	1.011554588466859	-4.019127675578772e-15	1.149062128374436	0.9275128112266935	0.3517303426522318	0.1175296400968177	-0.2261987550929783	0.523589669373397	0.6744157379315439	1.089159567626447	-4.279922268445669e-15	1.541265513376402	-0.7437652661778706	0.2003134341606878	0.3262271885127951	0.667735916651765	-0.5208055323698403	0.4434484932104981	2.261528284387278	0.2338347215725346	0.3142667133246565	2.921364718282941	-6.225862665985921e-14	0	0	-2.117075727851424	-0.3540533851135773	0.6224445084800461	0.431740473503095	-6.225862665985921e-14	0	0
0.5823999999999999	-0.46980848782287	0.3998183290988467	-0.5842762636770575	0.123601109981708	-0.1374076962240231	-0.1419620069747632	-0.1182734654354457	-0.5450204721292696	0.31548807108875	1.035171206755768	-2.631813671122001e-15	1.194883798894883	0.9228550852907104	0.3790688947252757	0.06315570889903099	-0.3091198312055337	0.5152876191425071	0.8012711013665423	0.8748889538954732	-2.896587696075126e-16	1.540611111405201	-0.4801430993591596	0.1088547631944185	0.3188411938893984	0.6770280563595104	-0.5161655966055879	0.4495685024927384	2.251520089513146	0.2387998005735495	0.3179779625942107	2.9407149688984	-3.174933525071471e-14	0	0	-2.104780255289846	-0.3526603806118896	0.6315074442703693	0.3556006495170333	-3.174933525071471e-14	0	0
0.5919128561131139	-0.4775876874616843	0.3969068288779105	-0.584184911758865	0.1335150674073425	-0.1380588306272051	-0.1537985922401174	-0.07996577389261542	-0.5593127645003314	0.2716426475604329	1.117390443462909	2.641874696033885e-15	1.314394317356814	0.9057609371277399	0.4057130740026733	-0.06256801507176722	-0.3765085879483735	0.5077480276083259	0.7014121482840813	0.6364859239264496	7.682528115161734e-15	1.512710513270522	-0.2991490355393771	-0.4529903636957399	0.2294293522874802	0.7054377806770196	-0.4934137200482943	0.4581255265257635	2.126943025217323	0.2509370157916255	0.2928366579182698	2.902046039319216	6.869580775452972e-14	0	0	-1.953701019940567	-0.3441328890790177	0.6566851894961907	0.260333123728797	6.869580775452972e-14	0	0
0.6088558844730551	-0.4124627921381408	0.4089206508927231	-0.4999537902911315	0.1407694147018729	-0.1181268808860547	-0.1786168824185792	-0.05240756577125837	-0.5837038291902797	0.1342028589444396	1.328074429185629	4.602379371324162e-15	1.590476246350237	0.6980618977542218	0.3610095080545893	-0.714993423626946	-0.2548178083887575	0.4982238823762172	0.2594387933397358	0.9952584495724059	8.400643520379744e-15	1.410472251812943	-0.2518307160740317	-1.809160348863675	-0.2943161928319017	0.6429746323763434	-0.4742331793681496	0.4795586239709313	1.271922709742125	0.2713452022066579	0.07536640392808888	2.59765652852825	1.543053668395326e-13	0	0	-1.467331975255299	-0.2705293580923444	0.6190923395376651	-0.3097562702947578	1.543053668395326e-13	0	0
0.6232312594138308	-0.3688121942694564	0.4357573874236078	-0.3706026039762097	0.1283463847826767	-0.08859293469487783	-0.2072219805985886	0.07753789683428955	-0.6329670768351876	-0.1665859447491192	1.672649179082833	-3.415102900233489e-15	1.921702736491298	0.538731810634435	0.3783725346698048	-0.7619275492522934	-0.1829752031963541	0.5247367735136295	-0.08382719772798919	1.080709855209226	-6.532021521977315e-15	1.295165180746824	-0.7019109726956745	-1.876752659125796	-0.5161981349676754	0.5814791409864373	-0.4407561714377561	0.4717831968328693	0.6103455188579738	0.2793366786761471	-0.0317622605101371	2.325574939738311	-2.627368864532214e-13	0	0	-0.6965531336959909	-0.2107326121267682	0.5830753534863804	-0.3087771583313119	-2.627368864532214e-13	0	0
0.6272	-0.3631895149815657	0.4418769677362747	-0.3526129190500378	0.1260432159267493	-0.08186311661496523	-0.2139107173030467	0.1299543343684524	-0.6458159199834292	-0.223106815347441	1.784769803540952	-3.847931878911231e-15	2.032042842433723	0.5044765087593024	0.3773920856251564	-0.7650310087683853	-0.1735276642654038	0.5245775645496699	-0.1646454815115324	1.106713556842171	-6.931450178391537e-15	1.258337426065734	-0.6604911174715413	-1.795907650109123	-0.5041216756573189	0.5727271976651913	-0.4287647290752618	0.4693408196833531	0.4898400954870502	0.2809933053352467	-0.04533866626726079	2.288762413782775	-2.213097208688065e-13	0	0	-0.559530889610986	-0.2025982559645177	0.585597631989527	-0.2996195344493094	-2.213097208688065e-13	0	0
0.636712856113114	-0.350188883887271	0.4597403446552879	-0.319816049188174	0.1216828830687063	-0.06550553916046192	-0.2284693088650133	0.2688993598564507	-0.6776236532464887	-0.3069096325932386	2.071743958956958	-3.524630498310879e-16	2.331412248735118	0.3935410237747575	0.3294141946460769	-0.878264173274243	-0.1374679757498979	0.5393820340505707	-0.2939815833681858	1.261519505652424	-2.569295304937426e-18	1.157335082642153	-0.1341173855953186	-1.631080610830349	-0.4488786365660702	0.5524371162477419	-0.4089646467218941	0.4619512798365486	0.1657542498322634	0.2857371521157428	-0.0965812263006238	2.192170069546551	6.944329477926455e-14	0	0	-0.3165832241802383	-0.1849940066895094	0.5943667909250939	-0.3270223429447005	6.944329477926455e-14	0	0
0.6536558844730551	-0.2793826951275403	0.5207383548410991	-0.1666537436811537	0.1008374218582081	-0.01834750004080055	-0.2582602954842165	0.5340294813902857	-0.7617890472602502	-0.525616346174288	2.692538723615642	1.960761592993689e-15	2.979469931085272	0.04892051003968566	0.1792409065734137	-1.044034540028839	-0.09806377906243893	0.6723492278603965	-0.09875944744744757	1.574738459888767	1.238275611263972e-15	0.9171008524069963	1.442038368078642	-0.5801925136442132	-0.3787264762132225	0.4486572432752137	-0.4113385783563827	0.4182823005259869	-0.7926800414151713	0.2891207038737046	-0.2592529517315849	1.842569926353065	6.770369303675022e-14	0	0	0.5162151587338238	-0.1157630598342839	0.5339226338055781	-0.185297988994198	6.770369303675022e-14	0	0
0.6680312594138309	-0.1868930047043882	0.5364491010190526	-0.1320160975968763	0.1007520719729278	0.02082907864346183	-0.2750891389367533	0.7198961734233379	-0.8152915572922802	-0.6982518356855179	3.21783297533584	-1.722270898163853e-15	3.616893009504742	-0.2067244125202289	0.1518620623580615	-0.7495780185704397	-0.3577878991227442	0.7478510682110617	-0.01086110239939753	1.256973545266178	-3.284950767581235e-15	0.6436522076854592	1.363244538512211	-0.691201549590877	-0.3464998773443566	0.3716339015110279	-0.3661938269264082	0.3638832288747188	-1.307865248732647	0.2894827063296541	-0.322939331999314	1.707969171226122	-7.644997337981332e-14	0	0	0.6561950301827328	-0.1073983329836196	0.4948437876915261	-0.1096934598020867	-7.644997337981332e-14	0	0
0.672	-0.1718246174615813	0.534752254132884	-0.1316336744755017	0.101264014468378	0.02859191215317346	-0.2781303898577616	0.7950989244686517	-0.8248104691057263	-0.7167957304373287	3.383577377633593	-1.502299928100539e-15	3.80082214264526	-0.2682082119671614	0.1370137225035996	-0.6653750855390277	-0.4742536062475547	0.7577842498188316	-0.007599129474943627	1.05455622941521	-2.117259321434098e-15	0.5582426784736029	1.214013215825645	-0.6904089928941842	-0.3001703012010795	0.3640386065001108	-0.3487887192120742	0.3502145952674265	-1.398924178175275	0.2904938926640804	-0.3348480466235613	1.705877246004508	-3.610718672528177e-14	0	0	0.7042263106051015	-0.1117929248934077	0.4958527047176476	-0.07107274171159696	-3.610718672528177e-14	0	0
0.6815128561131141	-0.138235453254591	0.5351047283105302	-0.1236525811360523	0.1003143163820708	0.04417825569354956	-0.2825941802781561	0.9932914161823787	-0.8483463323150929	-0.7103228945594098	3.793705456339436	-4.042355715416409e-16	4.244542526953706	-0.4529899390517569	0.04809288604737598	-0.5119272315325138	-0.7539644654290529	0.7830973540382664	0.0262803095811018	0.5993013323811499	3.726106727586578e-16	0.341811249453586	1.177818718425568	-0.4696250396098964	-0.2021896924705292	0.3415052415525609	-0.3254025375904498	0.3174902185104859	-1.658630168801869	0.2958186205851065	-0.3672556253396064	1.645753963300093	5.654913604712656e-14	0	0	0.8908405909484378	-0.1233240222489535	0.4977666604736405	0.08624402322040553	5.654913604712656e-14	0	0
0.6984558844730551	0.001586906340060174	0.5556785004345772	-0.1015748795472326	0.09990930848574496	0.07612555232927089	-0.2832765773805935	1.232528578594686	-0.9047883356211353	-0.6809484317136658	4.443031235252349	-9.32530747814697e-16	4.997332516981174	-0.8511094722359002	-0.1340057298328853	0.09869405745014195	-1.282543615946181	0.8561705062882897	0.12100850762018	-0.1242568927705488	-1.95390269765963e-15	-0.05235216908830536	1.029020338925891	-0.4982346294165373	-0.2958772071368643	0.2078612960805963	-0.3320490945165591	0.2287351417512652	-2.2511608562387	0.3060992595375999	-0.3853730663500761	1.281700091840682	-3.554245824858614e-14	0	0	0.9934609563757525	-0.1559240630598726	0.4429253387216682	0.577600922006049	-3.554245824858614e-14	0	0
0.712831259413831	0.06062818752343744	0.5655843148659384	-0.1071158758633878	0.0892747014229324	0.0888214714153571	-0.281156246047985	1.44080235157087	-0.9923993281713016	-0.7021816444803228	4.787214168611881	1.901098857267175e-15	5.534705728079212	-1.35060196664135	-0.1840257223639548	0.724347518055334	-1.573156597517426	0.9082520323446479	0.2291039690519148	-0.6012347535788108	4.926733459745833e-15	-0.3487032205527658	0.8482040941878435	-0.5630107245912062	-0.335874685087215	0.1395040059140364	-0.3261372122382428	0.1781661323524811	-2.443420968312868	0.3173504269104089	-0.3288928827792317	0.9508750168844209	-4.077905774138992e-14	0	0	1.103375559462049	-0.1882853292644788	0.4262559457240732	1.051496735005195	-4.077905774138992e-14	0	0
0.7168000000000001	0.07072392805557855	0.5622660089106659	-0.1124204921325364	0.08540065971867168	0.09068261735256099	-0.2795948436630922	1.51851430877279	-1.007795449490817	-0.6835847562560281	4.917750860318769	1.235474289388494e-15	5.658528946909573	-1.386509594862091	-0.1757028123832565	0.8627615580456784	-1.628017714728594	0.9114981974884424	0.2525903269921026	-0.6979647782628913	5.787359133004744e-15	-0.418562311451331	0.8321909663906695	-0.5792984490174375	-0.3215401059677759	0.1251391471678607	-0.3188151355009502	0.1658617239802503	-2.503760231687653	0.3201757872241717	-0.3235236664141671	0.9004204553718873	-2.989833909730289e-15	0	0	1.120285445053798	-0.1955945216028833	0.4340129031488655	1.132657050241057	-2.989833909730289e-15	0	0
0.7263128561131141	0.1018709817666893	0.5583424675684284	-0.1174215892048858	0.07300563417290258	0.09371342848015585	-0.2736726536993651	1.737223676079039	-1.032814214687354	-0.5713360400875542	5.345377979762538	6.310449390519197e-16	5.902755953917267	-1.277281633051085	-0.1664997522615671	1.229156491373917	-1.745944188863314	0.9133712034601272	0.2903907730084495	-0.8919578308197271	1.000469192754943e-15	-0.5595140001854102	0.8358750931179061	-0.5638478720420166	-0.2790832699705494	0.0734180252895766	-0.3125211338995886	0.1297661608608148	-2.705278939665365	0.3277610809549317	-0.3423325005371565	0.7567138582103523	5.885306954922722e-14	0	0	1.18782131564032	-0.2162629702660617	0.4454297440003021	1.318424886165203	5.885306954922722e-14	0	0
0.7432558844730551	0.165160244754805	0.5879241257339158	-0.1124609703863189	0.03537416359396258	0.09150222101014335	-0.2568158272503608	2.104408812621225	-1.096053597180139	-0.31521784539785	6.040347831898143	-2.527739161082683e-15	6.128548234979108	-0.9793267108460699	-0.0866029099411717	2.339938320768695	-1.846427465064959	0.9309252159581106	0.3167457178941696	-1.067918508084762	-7.041464860067248e-15	-0.7109886357035288	0.6754076888377342	-0.5404788797387058	-0.3270601880261997	-0.0709546794628694	-0.3573874381105971	0.0541619333840851	-2.882976035674494	0.3461847792692546	-0.3494662022150736	0.1742099600601661	-1.725007803737203e-14	0	0	1.386505970223852	-0.283130823026223	0.3980495445260623	1.904725435759145	-1.725007803737203e-14	0	0
0.757631259413831	0.2013310252095615	0.5669097958364958	-0.09739780443494085	0.00964323258550121	0.08101544121417344	-0.2407226134116877	2.20920583497128	-1.122471020182449	-0.2084077186030291	6.044179341708538	-1.771834584787169e-16	6.091366142981314	-1.392329330932402	-0.01803485089838794	2.757101974376082	-1.873088684606992	0.8653871389653904	0.2504450084375145	-1.12836637964997	2.857768761335314e-15	-0.7483271740888958	0.5702837129258163	-0.3438151789916444	-0.3032535456047996	-0.141751805606835	-0.3426291083540849	0.01028079618590662	-2.886648677502042	0.3633894200686519	-0.3235752525173198	-0.2864967096443926	3.812941750692505e-14	0	0	1.639108117230058	-0.3504192689618449	0.3500753564287622	2.113661072212935	3.812941750692505e-14	0	0
0.7616000000000002	0.2065642029884307	0.5533446631141667	-0.09490475878324674	0.003439229681975776	0.0779635233809622	-0.2357588293180537	2.219631055325256	-1.117470888435479	-0.1654076607425697	5.96661939671653	1.904159691809392e-15	6.043733223986846	-1.398864953552951	0.1094797297582625	2.766830908182151	-1.862326457497838	0.8368349150877852	0.2280978942300589	-1.116080878119427	4.147357150257223e-15	-0.7472379840052591	0.5730489574553878	-0.2802879006490917	-0.2858551894142885	-0.1549886446961004	-0.3313622282259705	0.002170538357286066	-2.922677166797132	0.3681103206907667	-0.3092338880463765	-0.3860394514320773	1.280055550603639e-14	0	0	1.693391399384647	-0.3639253483661517	0.3504581989046393	2.143910388299691	1.280055550603639e-14	0	0
0.7711128561131142	0.2221782214474585	0.516344600632421	-0.08879868128845061	-0.01363541997817749	0.07391741425005233	-0.2210229716918561	2.251172616376165	-1.067386922926171	0.004062097857836077	5.721720251091524	2.864273847118903e-15	5.86614178775733	-1.102366541881336	0.5060939421559753	2.68993074881851	-1.817995297264534	0.7594923463354437	0.1704123871651205	-1.047736855611924	5.232201193683404e-15	-0.7310822990745581	0.6057111702827934	-0.1216916369044824	-0.2490579407785958	-0.2008287784912943	-0.3084843183277989	-0.01631946326042411	-3.079516382968839	0.3814523442339549	-0.268158108331106	-0.7169411561468673	3.828350847425529e-14	0	0	1.842103950273363	-0.4000373219058198	0.3428582789511485	2.204510770528019	3.828350847425529e-14	0	0
0.7880558844730552	0.2659929819874821	0.4211387893152345	-0.07395215290288962	-0.05088915197406847	0.07492065955272383	-0.1870207323296817	2.291377163728426	-0.8820871761803827	0.2629374170368964	5.031406552182974	-1.212783141185519e-15	5.346620164707161	-1.097489803433413	0.9146211576938768	2.223497043773383	-1.729099904692397	0.5660293990893783	0.005482283131098219	-0.8930246595944813	-4.310820274215358e-15	-0.681639126027726	0.6102187854784522	0.2501615917995108	-0.2178029151041216	-0.3139146071255097	-0.2498526150394732	-0.04125822884740328	-3.240961145106902	0.4158308836967698	-0.1348946167348274	-1.81898073669265	-1.159732189284254e-13	0	0	2.317382239025741	-0.5257605655727824	0.2117143595896791	2.108567463273176	-1.159732189284254e-13	0	0
0.802431259413831	0.2816454804819899	0.3463830338713189	-0.09161014491021749	-0.07393995649528946	0.07882301315346468	-0.1597980047170563	2.299116049877544	-0.7311757677421815	0.3607174835720653	4.27885997852326	-2.232537651865977e-15	4.73518436148007	-0.8898997492746917	0.4529191871182104	1.651246157227588	-1.678874309397813	0.4157826333635989	-0.1425233616862936	-0.8422108105360693	-2.695842055526644e-15	-0.6509417195778333	0.4855785740523183	0.4717742866125288	-0.1078971210912263	-0.3754414388245778	-0.2015475738303744	-0.05519432603971898	-3.230219905996138	0.4275094565701371	-0.09979325874440709	-2.56367650031023	-5.389384197413461e-14	0	0	2.553309090104021	-0.5865753613638418	0.1504676894677497	1.869134571213584	-5.389384197413461e-14	0	0
0.8064000000000002	0.2827978520565744	0.3291250926034695	-0.09749648237631649	-0.07959585988272412	0.08018712384481211	-0.1531091521311201	2.304794297387751	-0.6997288850327026	0.3766066020061783	4.071165890446828	-2.458492387726915e-16	4.544199256840965	-0.8833561067240319	0.4109862205320354	1.542977375128846	-1.658954821609409	0.3808511300392324	-0.1794664681512871	-0.8175230567363635	4.183052530516081e-15	-0.6476973594148295	0.4818279437558962	0.5267633807723385	-0.07686126677752608	-0.3906768558525718	-0.1901629504399732	-0.05872842419715258	-3.245730502925492	0.4298089819420701	-0.09208834906015717	-2.695900824808065	8.765036713041118e-14	0	0	2.588311122453872	-0.5967664313035208	0.1504357381102933	1.819867037458938	8.765036713041118e-14	0	0
0.8159128561131141	0.2949703730030152	0.290815395987562	-0.1123615740246353	-0.09453844158773742	0.08566174001444284	-0.1361525214495946	2.327961637004941	-0.6228541476707576	0.4314911699106808	3.608443158891915	2.626126675236355e-15	4.055164449895374	-0.8396742032969831	0.4920696205100425	1.283747163489956	-1.611499032091676	0.2995753796054381	-0.2677431180055109	-0.7360257346514896	8.834596100003384e-15	-0.6519075794634444	0.5261106193543518	0.6696868814320883	-0.02251945422564634	-0.4448722090406975	-0.1687549912696799	-0.06500168951306494	-3.302340555740069	0.4370181919032082	-0.05854019188750315	-3.088587819170403	1.536015520384178e-13	0	0	2.686300454851019	-0.6281777023516132	0.1393308959631899	1.722288442030881	1.536015520384178e-13	0	0
0.8328558844730553	0.345166536454341	0.2147310988441885	-0.1711330475785268	-0.1178020923732091	0.1002234778618867	-0.1023171525621508	2.30398861284292	-0.4612097446450311	0.4559524616622987	2.703681364401133	-9.849414971085486e-16	3.103165599408705	-0.5246374343113848	0.09034936718146577	0.3510879746046152	-1.610720353566526	0.1344926227416609	-0.4630851589851153	-0.6880735716265132	-4.033338558448664e-15	-0.704084036501933	0.5075796412443864	0.9326724156299762	0.08821901641412885	-0.5600247595143699	-0.1230520739890195	-0.05195977261154056	-3.107632120326305	0.4456237927322909	0.02985284678169702	-4.283378921369315	-6.692774961856761e-14	0	0	2.929695698797752	-0.7082129328873011	0.02811083074218016	1.344574105322524	-6.692774961856761e-14	0	0
0.8472312594138312	0.3571404995307991	0.1632631290732388	-0.2235485436782019	-0.1288535705892036	0.1087226337540172	-0.08198767707946028	2.26243249204648	-0.3959840094456552	0.3978445552893923	1.863075701105868	2.637369455132952e-16	2.247463122850059	-0.6426471083415652	0.1492627408975021	9.168381729077429e-05	-1.627897981472044	0.04209130835853349	-0.5766240317684063	-0.7376445942641874	1.756321857698945e-15	-0.7880379935525104	0.3770350801636774	1.0215089660874	0.1940631332259335	-0.6061062787836256	-0.07999046056350972	-0.03532337224241915	-2.858019830524643	0.4420901603026715	0.08455795896452814	-5.044349597246583	2.174825736847025e-14	0	0	2.976692623440815	-0.7433531304176128	-0.01807469917970934	1.194449998615337	2.174825736847025e-14	0	0
0.8512000000000002	0.3559826251895011	0.1509591852797368	-0.2364177419584323	-0.1315287102236527	0.1101526913251476	-0.07731184282623134	2.253822985967913	-0.3834157082776632	0.3786231351219194	1.638925830702843	-1.779062556796823e-16	2.007304873633447	-0.639030972032776	0.1523721148001436	-0.05316510248642854	-1.624928337084942	0.02264152301557582	-0.5994215790407451	-0.7420958734995233	4.326010018980328e-16	-0.8159411632262323	0.3688631084793174	1.038113631350308	0.2293516817744988	-0.6150605774596636	-0.0674808864661998	-0.03033495231610915	-2.806840515630439	0.4421207567389109	0.1084457018714167	-5.175277200606995	-5.493573445056828e-16	0	0	2.978306569994096	-0.7499177709327652	-0.01645571931442777	1.169934712931122	-5.493573445056828e-16	0	0
0.8607128561131143	0.3606094427403784	0.1214462052350241	-0.2711023050925903	-0.1387871516300062	0.1136347219961444	-0.06539062716301772	2.231654294761949	-0.3438659299580317	0.3505338317653706	1.13189357524298	6.423392010691244e-16	1.428834570848191	-0.5335144371344426	0.114007657392274	-0.2145423811832738	-1.61953344914652	-0.02436226896525376	-0.6531701359457622	-0.7368309371992632	-8.526376398235401e-16	-0.8879619987751242	0.398901383311071	1.086050719552311	0.2989933286260065	-0.6479310454352343	-0.03757487628614754	-0.01325175814615775	-2.670053872208326	0.4439052249672964	0.1851625651432842	-5.563759451316356	-3.8967408739439e-14	0	0	2.9943404500249	-0.7733887804682611	-0.03116263902940415	1.14644157566434	-3.8967408739439e-14	0	0
0.8776558844730553	0.3815918418934606	0.07376648443505612	-0.3613466994233332	-0.1458131079786538	0.1182785565597232	-0.04536342013471296	2.105186103326319	-0.2805176595136011	0.2747096659946258	0.1397024043491702	1.290592878563934e-15	0.3995594627461353	-0.3594590779266085	0.01489557636404568	-0.4256805963124924	-1.679554525371641	-0.09220852842386193	-0.7421809607881146	-0.8325483508698883	5.245579646003843e-16	-1.02097123693374	0.3130919641309154	1.101713931986928	0.3642561617346874	-0.6977439927048023	0.01460049646432679	0.04063816095668801	-2.109596588522006	0.4327198297657515	0.2894226937972436	-6.660684268995931	4.722919567186805e-14	0	0	2.947647630846588	-0.8168838646935096	-0.1511299894979204	1.307108582644084	4.722919567186805e-14	0	0
0.8920312594138311	0.3582018475250257	0.03679567664413098	-0.4116119906980428	-0.148197746516083	0.1133083094655406	-0.03647848130008795	2.009774259249047	-0.2551191549266554	0.2059136866248016	-0.6602433704272681	-2.805978318320376e-15	-0.4633566081093784	-0.4564011593510124	0.09690344178896371	-0.2117655264028154	-1.686780118475271	-0.1070558121836573	-0.720388252781622	-0.9220059063430517	-3.467086747046506e-15	-1.121572501834059	0.1796308143145242	0.9731377100875256	0.3221418090464179	-0.6895403870211826	0.07048239148123857	0.07551189782844264	-1.687699084377037	0.4176397815835913	0.3190045678786829	-7.258403058205212	-2.943497269058095e-14	0	0	2.809933892065583	-0.8283669232226261	-0.2177455113723573	1.595766726944094	-2.943497269058095e-14	0	0
0.8960000000000002	0.3503358742337456	0.02675168671246382	-0.4218635906616833	-0.1488428550577755	0.1109332813666323	-0.03417071236312911	1.978443158752982	-0.2455788071109212	0.1897301500310016	-0.8754628322699737	-1.670460344240677e-15	-0.699182446742238	-0.4436160541526634	0.1157697053902596	-0.1728278617437379	-1.683220628862009	-0.1102118336158985	-0.7105887342426429	-0.9368569996419405	-2.544262485565295e-16	-1.1452951392091	0.1657784503777038	0.9408941853155488	0.3323766245126643	-0.68682636088944	0.08660042430304862	0.08400728514893069	-1.588560640552476	0.4159509105001599	0.3401361913864077	-7.348111848934932	-1.157898154479137e-14	0	0	2.785807558173929	-0.8315272508502045	-0.2219994689034916	1.655478022742364	-1.157898154479137e-14	0	0
0.9055128561131143	0.3357713288277459	0.003886916146630576	-0.4449066246096939	-0.1511831452849156	0.1044987226658211	-0.02775407706945202	1.892308510239136	-0.2101196492066717	0.1674956632227908	-1.377768233560018	1.470366532685103e-15	-1.259653761160355	-0.2963460513817167	0.08272085243208357	-0.1750312691304328	-1.672109484374243	-0.1214619866801001	-0.6977635587485964	-0.9547528928957996	3.562133350340701e-15	-1.192795328382456	0.1715666908189475	0.8926965206143206	0.3610117872249735	-0.6882708844193887	0.1212826001861751	0.1048294741285052	-1.340130631110225	0.4106675862677988	0.3762893317460462	-7.61103997286023	1.426555584356162e-14	0	0	2.738540374337957	-0.8411484709633448	-0.252513928519742	1.835030577319902	1.426555584356162e-14	0	0
0.9224558844730553	0.2816725908071951	-0.02478748566883524	-0.4715464616406503	-0.1532520310166229	0.08639330964602054	-0.0219751541145435	1.728430627573391	-0.1640373657747748	0.1479725396838455	-2.262803996548635	-2.178175350327004e-15	-2.23908547626043	-0.1485295833703218	-0.009228062735943381	0.04413466728410628	-1.621460455566561	-0.1113972038648802	-0.6347640712570918	-0.9911480454217609	-5.520728201197288e-15	-1.239209303937773	0.0920103862495778	0.7444015950166931	0.2172929453629424	-0.6557343156414188	0.1733190079694356	0.1358749161956949	-0.8124217207272353	0.3720047433504488	0.2087990967290372	-8.274874821584124	4.119367708597241e-14	0	0	2.475485151706038	-0.8280075273273082	-0.4146303106655433	2.577100940836943	4.119367708597241e-14	0	0
0.9368312594138312	0.2102160270541849	-0.0336381536624372	-0.461095112662537	-0.1520387087857479	0.06409356582423131	-0.01958301005259989	1.595310940076664	-0.1323903833652776	0.1859525371496169	-2.956792005885008	-1.777488667743704e-15	-3.045837346064244	-0.2811263233452466	0.09660641361195033	0.2566866661718553	-1.530411446993039	-0.08301924574088887	-0.5419506734383612	-0.972730525722675	-1.852697097012159e-15	-1.237061229842345	0.08099197814899732	0.609732043445661	0.08721571063173839	-0.6013956869695477	0.2030303506672359	0.1375250219177143	-0.5790419506780243	0.3378646510187865	-0.008792972373213376	-8.443838186929076	-1.803402528913133e-13	0	0	2.244339190123827	-0.7945177281632589	-0.4948485237596417	3.054453054103074	-1.803402528913133e-13	0	0
0.9408000000000003	0.1937164882338341	-0.03624003399233432	-0.4579687062647836	-0.1518454944391527	0.0576272536508833	-0.0181679002213863	1.550234290362243	-0.1171248396803391	0.2069002782801946	-3.142896963505049	-1.290453589732132e-15	-3.263235194278112	-0.2849389009036417	0.1229119061162325	0.2932436155278912	-1.506642027445935	-0.07753143177781026	-0.5193683469455372	-0.9635474167288702	-9.038534283269336e-16	-1.229857157780796	0.08225177972732212	0.5750157261728784	0.08128208221764459	-0.5907135657738753	0.2106301569086734	0.1379394503736659	-0.5216095763171378	0.3321029885861966	-0.04871245994893151	-8.4520403623275	-1.760288709218407e-13	0	0	2.205878973309431	-0.7884109798837398	-0.500129690664084	3.14554210615063	-1.760288709218407e-13	0	0
0.9503128561131143	0.157063682704809	-0.03253082996985055	-0.4450547329555696	-0.1514822058599248	0.04175957424813825	-0.01435155271702888	1.428472911279334	-0.08485302930281266	0.2688840869880089	-3.587197262383291	4.218405965814203e-16	-3.7716222806461	-0.2096793032393309	0.1202381218269458	0.2990975903924144	-1.449792619444068	-0.05729911627992612	-0.4662478863965253	-0.9358805716785008	2.550258428390129e-15	-1.201721435201602	0.08276168931510973	0.4973235938965687	0.07426588160238359	-0.5692987183452463	0.2146790056753365	0.1346580341620663	-0.3918615792991597	0.3144457589860733	-0.1875907973367218	-8.48511431958975	5.052322204313333e-14	0	0	2.121648059365957	-0.769708614652448	-0.5287383080063544	3.393258516157072	5.052322204313333e-14	0	0
0.9672558844730554	0.04945519589854657	0.03118665131667074	-0.3666664904148915	-0.1458162766682027	0.007103023082367486	-0.01436123565148515	1.226904541580965	-0.1160142520975053	0.3921787402591648	-4.344963617875417	4.539209096650482e-15	-4.613431443044556	-0.2686853514921148	0.1368142523217853	0.2518764388914119	-1.288171634318067	0.04972589981063631	-0.2897200661055617	-0.8506319903463909	5.760209546145065e-15	-1.118122651640239	0.08427060245425047	0.3130182817860525	-0.09978987562257867	-0.4790051181714071	0.1567864790516498	0.08446017350302425	-0.3920834568838771	0.2432108203567415	-0.809414827056167	-8.320667147366397	1.761030868894683e-13	0	0	1.822442141955313	-0.6720333450593194	-0.6619466529522409	4.034405326135216	1.761030868894683e-13	0	0
0.9816312594138312	-0.02889240645777629	0.08327346354125287	-0.3017171655988596	-0.1368859914675628	-0.02252226013637957	-0.008298964333669164	1.015867504685451	-0.1182556004800923	0.5612697136709922	-4.968468965851264	-2.865887976325839e-15	-5.228436000375488	-0.5418129326410184	0.2859828519354473	0.2062396956773674	-1.157342267265755	0.114254780767668	-0.1765881580705183	-0.7470618797619155	-2.10175921893727e-15	-1.020253300255487	0.1390051410740195	0.2226757663944521	-0.141139679106641	-0.4043952527691538	0.1004039085551774	0.03252179051752013	-0.5324116009897127	0.1942732280417353	-1.195852506947583	-7.872906937042792	-1.006422713178705e-13	0	0	1.65567462425124	-0.5874072922675172	-0.6810926341393518	4.244331365338203	-1.006422713178705e-13	0	0
0.9856000000000004	-0.04606520224482197	0.09107789414068365	-0.2877472313066643	-0.1345749615678831	-0.03055123882071274	-0.005244478774804976	0.9508892664557009	-0.1064130476739564	0.6166018932730287	-5.124927851375621	-3.018150006764754e-15	-5.376081588300701	-0.5616985084076299	0.3216568702799573	0.1952748858377338	-1.125825251065552	0.1229157588701275	-0.1492074342172651	-0.7194718544494972	-3.733139788573421e-15	-0.9897573344135764	0.150668586611233	0.1925769038644634	-0.1291768533558831	-0.3871827750833308	0.08991248031437263	0.02183298768238642	-0.5434046908172516	0.1848831654021887	-1.276291245060202	-7.764188801464509	-1.424306165798977e-13	0	0	1.63410457401766	-0.5710350517969031	-0.6708043471906132	4.289700350809517	-1.424306165798977e-13	0	0
0.9951128561131144	-0.08386203487222127	0.1183519653023396	-0.2458019952360627	-0.127813840964967	-0.04997420866598914	0.002056861130839591	0.792063816528346	-0.09309661771345681	0.7459989067806454	-5.439452124755065	3.612568673462353e-16	-5.681393696090331	-0.4991221800281903	0.3355869270675387	0.106562910264841	-1.052537440551806	0.1533951133860449	-0.06337101075053886	-0.6503631513944598	-3.703717141317712e-15	-0.9115116125421635	0.1699739128661416	0.09735210325995666	-0.1053192393458564	-0.3426487039294867	0.05232864412430412	-0.0094773152066868	-0.5728169381288809	0.1582260932896487	-1.505165593347061	-7.476903782942887	-5.50349504490327e-14	0	0	1.590588835729945	-0.5251673773548927	-0.6630574473085069	4.4287934161242	-5.50349504490327e-14	0	0
1.012055884473055	-0.1524947651440564	0.235409364472775	-0.1206175111919152	-0.1048958110369581	-0.08550040486147782	0.01193533961041897	0.5325888000377152	-0.1915266032018406	0.9408182168028827	-5.761227191829157	-6.982151329912144e-17	-6.01850054071059	-0.5867196423761046	0.3104097488493014	-0.2572652557458748	-0.9032866995041653	0.2755007890313789	0.1547403140171111	-0.4629460008916474	1.912440361932806e-15	-0.7565832691193909	0.2722265863932075	-0.07449954223604796	-0.1050167395464821	-0.2275974978243326	-0.0948674250220185	-0.1172337700241311	-0.962931574735912	0.08439773316357496	-2.02478596161946	-6.368344751469697	1.233590682845407e-14	0	0	1.46929007800131	-0.3742312546316076	-0.6866797230344622	4.469894839187925	1.233590682845407e-14	0	0
1.026431259413831	-0.164523928067575	0.2662115449862735	-0.04150178484526808	-0.07866417573645675	-0.1116906101037376	0.03111971674790522	0.3340614887789017	-0.1851814608683966	1.060343736526248	-5.651260419936419	-7.928256107641975e-17	-6.053636267835526	-0.8667458856857961	0.3688787020403985	-0.3746526751938575	-0.8298220084498481	0.2711103485408229	0.2143966866186305	-0.2746160981883762	1.720410368006654e-15	-0.6111091975455035	0.4354290179697065	-0.04700982958346615	-0.05279236110037862	-0.142166395339547	-0.1644040541583039	-0.1855540301303955	-1.219532516336197	0.04335867221590407	-2.069655889936872	-5.390233205982179	-3.151988317036028e-16	0	0	1.448871939669053	-0.2730038330748936	-0.6330723466516341	4.301937013487367	-3.151988317036028e-16	0	0
1.0304	-0.1649599668034485	0.2678327120078751	-0.0261156102655459	-0.07170020024010568	-0.1186627580474197	0.03772676262687871	0.2934362693344331	-0.1739591210875795	1.077921944632208	-5.553923289328093	-8.05681434296616e-16	-6.01841382444503	-0.8843407296966219	0.3901107444514355	-0.3947285458913913	-0.8113057334754915	0.2613942337488075	0.2247085378389368	-0.22169267223415	4.333771071356005e-16	-0.5686960236255488	0.4744554010789679	-0.04755184317870301	-0.02387782302311091	-0.1191591200883201	-0.1794651730940947	-0.1990505086895901	-1.234175329906556	0.03475777365381579	-2.083120116633305	-5.172401778068231	-7.772367864846349e-15	0	0	1.459641990736633	-0.2538132787072533	-0.6102744305804988	4.287377825704573	-7.772367864846349e-15	0	0
1.039912856113114	-0.171817110059699	0.2783505784604153	0.01593770532640761	-0.05436810208764	-0.1353648087787504	0.05309317371209098	0.2314416591053048	-0.1626114778632774	1.033998878491629	-5.199389592641604	-1.42485369411177e-15	-5.852246569124693	-0.7863335839378705	0.3844566195600127	-0.4988519309874762	-0.7587864308095793	0.2487939758005117	0.2728538284583157	-0.09355915368559711	-1.712846225772127e-15	-0.4629193400379871	0.5530072395615939	-0.08638532425225709	0.03247709974394043	-0.05231843056374256	-0.2258486410046205	-0.2350815074462768	-1.274120094035725	0.01056737577507509	-2.134599314614583	-4.604269834102714	6.064277838548645e-15	0	0	1.493565757394923	-0.2016205897712932	-0.5723587705563643	4.284258646538333	6.064277838548645e-15	0	0
1.056855884473055	-0.1814999989779503	0.2907669612023491	0.1206603862641524	-0.01350259303552523	-0.1613682267872348	0.08056290571655245	0.186488749492578	-0.1534034565006921	0.6688271923058263	-4.214283346013866	6.482647390825405e-16	-5.2776464642271	-0.6916778199484258	0.2865965243738421	-0.7447509989638759	-0.6750568033232847	0.2030320338909286	0.3230119124428684	0.1642981963459451	-3.310530634191699e-15	-0.2589491481013632	0.7861984793609589	-0.0146919562606041	0.05627189976130974	0.09907843747828157	-0.3063787525533483	-0.3205314762585103	-1.663205991481245	-0.03688393770493908	-1.835036540831807	-3.040603461671592	-3.180332611584743e-14	0	0	1.581273593081938	-0.06295350394739165	-0.5250537741228123	3.940923415358599	-3.180332611584743e-14	0	0
1.071231259413831	-0.1816508681165455	0.2246693558911978	0.1604623714359106	0.02170395511094738	-0.1782414864123419	0.1109037290462038	0.2023045686039073	-0.01836217925571288	0.1362845215783289	-3.137954212832669	4.857803785944256e-16	-4.542400753923165	-0.7847107603819163	0.223008583682129	-0.6815147450864717	-0.6457453998552688	0.07229885810756401	0.2735674583610961	0.3141178525240595	2.062087419546187e-15	-0.06876737685564201	0.8795674501962708	0.09265604761987159	0.01336963156314388	0.2314960079405454	-0.3018250878037315	-0.3515775977281508	-1.762126005810322	-0.0577400508541878	-1.327921329987901	-1.952932950662323	5.377173471497546e-14	0	0	1.709609951591813	0.01206089799516679	-0.4680637747825738	3.724576631550782	5.377173471497546e-14	0	0
1.075200000000001	-0.1814225114617026	0.2093120010916643	0.1681523451912856	0.03072817638350735	-0.1820035488530739	0.1191610405767169	0.2058626959254777	0.02212803565623456	0.02227045417763738	-2.853528810994843	-3.258102581266503e-16	-4.306892003328969	-0.7743043403148213	0.2179504421730844	-0.6704252510447501	-0.6344566386757371	0.04031261072819768	0.2620113883841393	0.3595396037827978	1.517917161465862e-15	-0.01317755775881974	0.9017560775189203	0.1091516208159653	0.01427440529995333	0.2650155258079539	-0.3031827671311221	-0.3584290630369072	-1.748132870018333	-0.06274245106497256	-1.237223778906217	-1.718357563718477	3.370884543115338e-14	0	0	1.749914112525176	0.02594122076468577	-0.4457373217161106	3.708774873249147	3.370884543115338e-14	0	0
1.084712856113115	-0.1948778807292299	0.1828817582492943	0.2018396910374949	0.05369004742731381	-0.1911504166633303	0.1364177023288758	0.2135294369728703	0.09993785639270958	-0.2313333125492004	-2.206632120663663	-6.481615732139668e-16	-3.698545047406331	-0.5891797018775164	0.1801774638267764	-0.7272579673788599	-0.5844020060971078	-0.02254660187731373	0.2574562770838311	0.4868334420544743	1.410071270677574e-15	0.1258803239033796	0.9715863377520011	0.1351373802367531	-0.01097057374382759	0.362067582309136	-0.3138680966820611	-0.3814128071842304	-1.775329898261786	-0.07924797381543086	-1.046880216791008	-1.12460615235375	-4.950365478340973e-15	0	0	1.841208432799837	0.06815551118221684	-0.4060123309974683	3.690275005843142	-4.950365478340973e-15	0	0
1.101655884473056	-0.2508048286736981	0.06011852838344814	0.2759226327565218	0.1065177660864965	-0.2080308159849336	0.1672731414253354	0.2299570488510147	0.3024070544663942	-0.9544441792753079	-0.9958538032314346	1.250552231915924e-15	-2.520253023769723	-0.2684627213780581	-0.03315323863967362	-0.7103295881282857	-0.5028780052817227	-0.2283379649871329	0.1961458915249334	0.6629641450830679	2.618996115524328e-15	0.3973157850294057	1.077049589112046	0.3133796821198896	-0.2635501161084837	0.6074095628224506	-0.2471572399864995	-0.4040553181848723	-2.061741023814947	-0.1023609663726699	-0.1875873763779455	0.0993344778569874	3.802547067682794e-14	0	0	1.971805528694512	0.164347788227565	-0.3936608231899275	3.469490847533078	3.802547067682794e-14	0	0
1.116031259413831	-0.2502640739789869	-0.03028360279687351	0.316645021845675	0.1568680391556028	-0.2153392708505532	0.1905785772879849	0.1217552510352114	0.4701160453183653	-1.13835746320938	-0.2718574986456668	-2.270757506129439e-15	-1.502554598673397	-0.1599943198046003	-0.2756476960367332	-0.5032721807081959	-0.5348324782597347	-0.3867838219101277	0.09749696133989047	0.7209769701494444	-4.576626523670701e-15	0.656599468453868	1.108908318196845	0.483290559537239	-0.2412766673495272	0.7609236900586909	-0.1863174099358986	-0.4160224425199437	-2.200425668441478	-0.1123623161306394	0.3144486140342894	0.7237338800788412	-8.36631265941663e-14	0	0	1.972484161883709	0.2219094182868598	-0.3610949332153416	3.333121562641578	-8.36631265941663e-14	0	0
1.12	-0.2405989437926657	-0.05500068356740982	0.3210879315098568	0.170851521996467	-0.216195597675135	0.1970034794891663	0.07264341130104342	0.5209218188709791	-1.110330981526342	-0.1192511824682539	-2.573780320662067e-15	-1.223565671499346	-0.1609215939308395	-0.34516265375918	-0.4061565505445375	-0.5620200197894942	-0.429383446930611	0.0654276955007618	0.7177570893765008	-5.471648735180289e-15	0.7309946268679718	1.09398179023772	0.5215340985659539	-0.1878485394669669	0.7910068383068737	-0.1672434136887686	-0.4164361357629548	-2.194718710525642	-0.1120583325870765	0.4118225291924256	0.8117871080807421	-7.997673530400637e-14	0	0	1.963815845276266	0.2300289595395819	-0.3453572930373798	3.314942787357608	-7.997673530400637e-14	0	0
