DataType=double
version=3
OpenSimVersion=4.5
endheader
time	pelvis_tilt_moment	pelvis_list_moment	pelvis_rotation_moment	pelvis_tx_force	pelvis_ty_force	pelvis_tz_force	hip_flexion_r_moment	hip_adduction_r_moment	hip_rotation_r_moment	hip_flexion_l_moment	hip_adduction_l_moment	hip_rotation_l_moment	lumbar_extension_moment	lumbar_bending_moment	lumbar_rotation_moment	knee_angle_r_moment	knee_adduction_r_moment	knee_angle_r_beta_force	knee_angle_l_moment	knee_adduction_l_moment	knee_angle_l_beta_force	arm_flex_r_moment	arm_add_r_moment	arm_rot_r_moment	arm_flex_l_moment	arm_add_l_moment	arm_rot_l_moment	ankle_angle_r_moment	ankle_angle_l_moment	elbow_flex_r_moment	elbow_flex_l_moment	pro_sup_r_moment	pro_sup_l_moment	subtalar_angle_r_moment	subtalar_angle_l_moment	wrist_flex_r_moment	wrist_dev_r_moment	wrist_flex_l_moment	wrist_dev_l_moment	mtp_angle_r_moment	mtp_angle_l_moment
0	5.458992377804428	38.78273649409054	-0.9227365207941781	5.343977785500591	8.512612215732361	-32.82242276452764	-29.96186869883907	-2.095994357002713	3.688787209809732	5.148006635699157	-84.04650749569625	-1.721748258420806	52.29429356369222	9.325091802269434	14.47715708055877	22.51731220619033	3.45775685036571	-0.01957520201497005	11.23800393996148	-48.71341339275515	-0.04448205902858379	14.2595010691832	-1.737204422341326	0.5320080498277719	7.57583227613515	-3.790838784077693	-2.352958400023006	-0.1038176299912013	-80.07094782880762	6.147484990175778	4.81772297732568	-0.0526681423885712	-0.1663854122231359	-0.2701795235072716	10.11721862446693	0.3851354103743706	-0.7425766313675009	-0.1299776280377009	-0.5502437553816593	0.001601684066439551	11.97578873538438
0.009512856113114032	9.286133054892133	27.36149138073503	1.456858032218743	9.23091712809882	9.716534513225383	-29.93941802692245	-21.8570510859205	-1.339155516921761	3.276340898968447	6.573972298373098	-83.39295217728265	-2.332054714680886	39.31226708787336	0.4594017187415531	11.53465943456945	19.92909848131892	3.178211849604226	-0.01895209717950715	11.73980393991022	-48.41161287171671	-0.0474814504906197	-2.666975115794679	-1.268587457101797	0.1629968999374643	-7.213007439062106	-2.803985544263472	-0.2303105160571648	-0.04751586211118444	-84.99182208978358	0.2303439114708099	0.315959073366123	0.04039323613117219	-0.01904443664583087	-0.3176022219870993	10.28439592532634	0.07233934021646371	-0.05441237201717183	0.02390358151350187	0.1235516228022239	0.004487705499705583	12.83187427723734
0.02645588447305514	9.298159721911002	18.61989490979759	1.296488880732565	9.222612698831533	9.751037106916044	-21.17806331552458	-16.61540031329544	-6.360320759871686	4.220824177995327	10.3148870229462	-72.84575490175622	-2.841022200977656	28.08648039863916	6.643778107042442	12.56413456153729	15.60980784501182	0.6870187088847879	-0.02088324282168807	12.40225105642132	-42.33492017911835	-0.04966321562147883	-3.66821568722577	0.9827538596058907	0.313147622491615	-11.49674349768398	-2.376165360544364	0.3403778296993849	0.4826607791066833	-91.73094637067183	-0.8668438947824723	-2.015498876649887	0.07368000246868567	0.0398996063039081	-0.4110789281520918	10.65413884811016	0.1192256094199082	0.1559547491931906	0.0127106216811842	0.4648686576884594	1.441584984953302e-05	13.87939321568961
0.04083125941383081	8.154214646215703	0.5921730386346317	2.051346080244458	8.08997233051039	9.545032830868934	4.606485473937198	-15.03048260564373	-12.9847323738185	5.060883418825416	12.0817366837148	-54.83013501843276	-4.503572397415704	27.08648720938364	9.320484119346656	12.61563041086326	10.58214509692999	-1.75080663301902	-0.02131767693541645	11.70244860909316	-31.97445917363902	-0.04432499766482813	5.057974425511519	-1.686914560454967	-0.05606667075889438	-1.271115752319871	-1.847721331438996	-0.2462176887481445	1.076377508630221	-94.55159964472428	2.186164690000568	1.858705467448728	-0.05970257454635439	-0.04662824111107752	-0.4410741576700729	10.78039390882725	0.107536938056102	-0.2224549387179514	0.04929784135566671	-0.1129180564202846	-0.06510568035436837	14.51543448586451
0.04479999999999995	4.232245931250041	8.612493233786418	0.483381718620135	3.839294242461143	8.473412076915565	0.8034593097804787	-15.76066025013667	-7.419598996601129	2.022235276302264	12.71722051786318	-52.57795821498732	-4.497358739856195	28.97795743032641	10.75911453135815	11.9598484389012	4.597164771586319	0.4407704841416158	-0.0131673524413875	11.23142433074523	-30.36149455794472	-0.04154970401423769	7.494991264028916	-2.32689738065893	0.09328392216487558	7.304572939643252	-2.748240009554744	-1.758322558033787	1.930129953732166	-95.78236756422602	3.483706478493818	3.970908365708588	-0.05911276359116679	-0.1299522830882833	-0.6344758339409652	11.00250994617529	0.1622328905674984	-0.4150269121487487	-0.09095013924837012	-0.4490590536056956	-0.1506034880288858	14.71289863959659
0.05431285611311398	8.720349812173637	1.381658095818448	1.007890416520917	8.600453212977838	9.675335663774888	6.814689740385752	-12.7131510175828	-7.471544949161022	2.203567284196861	14.80304350162082	-47.69271195356108	-4.067688819360749	21.6289970604522	4.452635670452085	10.14389247924433	4.110809636662833	-1.640648664854772	-0.03537767461118086	10.4364150532132	-27.96171041042295	-0.04239082664841907	19.09942856844582	-0.3337157715747363	0.31641002233108	-9.004735085154953	0.9488993322844861	2.049411598332907	3.000864749630828	-95.96608858167475	7.429516469427338	-1.562292038963943	-0.146955142320129	0.07192949489069209	-0.7594218666672662	11.01494134921026	0.4136208835064376	-0.8581738027692077	0.212356933466486	0.4227872642042549	-0.1173440422291676	14.91464929441823
0.07125588447305514	8.759248214980925	26.11595667994225	-1.395607562863705	8.287652011813289	9.682913403425573	-18.78161054596055	-20.00355455040289	10.23465487694924	-4.701263442123508	19.10088140489382	-40.97229809264984	-2.597487196369566	23.59892681782981	2.272970083239655	4.880436220598942	0.6049569284625993	2.838833152595015	-0.06820284279891782	6.908895519736136	-23.89863476213953	-0.04863651175211512	26.38456231276192	1.575310496128711	0.5197627314081021	-7.518657033044658	1.59027800380694	2.306150943527618	-2.663925243547769	-92.49413942436831	10.02824881875147	-2.281747588256452	-0.1953944228520714	0.08451213003135055	0.720547407882784	11.30110600018189	0.5829820960450058	-1.153177756487867	0.1981888946008323	0.544045838343402	0.04947882271055315	14.649951145436
0.08563125941383082	7.701862558952133	-4.756105440057813	-6.821819484929357	5.296222606619022	9.37760563832893	6.994517966763038	-32.10502442651133	-17.7574584246999	2.5773383493969	21.95891157985551	-36.7926483477279	-2.431818795737008	26.93658727149483	-9.136617959451744	4.328962013918195	-2.904901552757415	-15.50095963535594	-0.06856001782944364	3.025325781069117	-20.45780438910834	-0.0514907940380383	6.514318700828406	-1.451231007783121	-0.1464279029280762	-1.93450659089869	-1.549623732162009	0.1766294024739973	-8.585057544360128	-84.77335279610757	3.475628142449711	0.486437246686075	-0.1028693922081721	-0.01733813190881042	2.349982835540541	10.63286852130522	0.1346659466570875	-0.4421352592032474	0.04286374738592302	0.1026585302411703	0.423185212553755	13.74257300305077
0.08960000000000001	3.541377001065577	2.823631875016178	-4.472019093858806	1.043628214270669	7.502857974835479	-3.213312306265445	-34.32287045452578	-17.74672314650257	3.593642909659188	22.12030808402599	-35.70938095998286	-1.980978326563689	24.96674289106499	-5.570773217345334	5.658399430587006	-5.024935634558052	-18.43981787047858	-0.06412352679118931	1.783675840039923	-19.18662633520304	-0.04879605595008411	-6.592237495607097	-2.047115768165957	-0.3360458142834362	1.349674579253095	-3.690842957531814	-1.584065630445994	-9.074932956182129	-85.15248910410682	-1.603133903187848	1.463792269771426	0.00124985203601985	-0.07959826479901716	2.540260083786514	10.85760724950523	-0.1076999831243857	0.1978387520140129	-0.1431884571485178	-0.07363920867066916	0.4258263768030703	13.77048521904113
0.0991128561131141	8.163406437326337	16.94806757265614	1.53793416353827	3.432279059200482	9.548535129967604	-20.52170453598183	-40.93265115163025	-9.492510227374499	-0.6425992965723317	24.25047150717073	-33.0268892257186	-0.8718263667544632	33.28368918300425	-10.57300842589381	15.79526946542366	-10.94298390608237	-13.70879533569813	-0.05084430319244129	-0.5141249641887313	-17.57358065880535	-0.05412572711819211	2.112195609373334	-4.23648054826968	-0.4811528113075624	-3.033124723904076	-4.149250247280212	-1.462730781706812	-9.612260444323383	-75.50264437463225	1.605660155817028	0.4650877906914149	-0.09233842308523318	-0.05761765762765995	2.856993408033281	9.783696592001556	-0.07360010813703466	-0.2098787408185383	-0.1496738068589866	0.07741430380253918	0.4994949961180986	12.55237229839081
0.1160558844730551	8.158727567462137	-3.805241255245672	-0.9708415325056949	-3.044399837038455	9.590625273347769	-4.736504121263376	-41.79011497986239	-33.18954300970779	7.091015163843289	26.47162028025998	-24.95858083260025	0.04500740586676977	31.86131512449496	-7.840615253146927	19.13125719197439	-21.53678884751449	-28.63417457534208	-0.03236375708155972	-6.166286881800504	-12.57742004960464	-0.05048359423655767	-0.9391361119524715	-4.513789105334032	-0.5166837522253978	-1.578410672689207	-5.628263251247147	-2.554558829081567	-11.3853302246957	-64.03151767429694	0.3460235900856379	0.3907538033581158	-0.06650480018839469	-0.08017793766105423	4.251031892066097	9.034449872117314	-0.1366284855230287	-0.05385188126875276	-0.2825510496951538	0.06648087909699643	0.5979542345598077	10.75450573798238
0.1304312594138309	6.51754215878827	-18.03440073904774	1.916410865596354	-4.651167681069509	9.196788505412201	11.92872626969189	-38.43035905489265	-50.33893724172491	12.83507423243607	29.27716651629178	-18.64331269632883	-0.2982442337264661	20.01462716165811	-7.615527169742012	21.95342799866676	-24.53381284185942	-38.39201063659623	-0.03608063002802667	-8.492071383663921	-7.890287225977512	-0.05809753921172138	0.4958686059068903	-3.658783441199756	-0.1564498463081758	-4.423716520493291	-5.555624826605771	-1.993774796253198	-16.2612128628028	-47.57294737617829	1.375682106403626	-0.4550809109344819	-0.03134836223416518	-0.04015410141786181	7.045640726316315	7.366617815070214	-0.02469649157625587	-0.2300072298103661	-0.217060371836909	0.1941805332652258	0.9630705878265478	8.559556866906926
0.1344	2.281123721625498	-5.203596261681392	9.367350807495402	-0.8468757791032715	7.313116568530745	-2.110476058999396	-37.15080327586009	-53.40291380212572	14.51976190972491	21.56774002866296	-27.92260994669593	1.216627429773597	36.9341301925839	3.269111286295541	25.99581118035811	-23.70110605195079	-40.92269291765732	-0.04311519775553233	-19.67858747152158	-11.45238406863752	-0.01567430969152196	25.94530492576224	-1.169360089061704	0.4816191710259536	5.87913270852863	-5.310968196534558	-2.764216780920634	-17.64900247476443	-48.61812570909196	10.19708586592268	2.359317011724248	-0.1628013877887893	-0.1172715021845216	7.618167164031953	8.034871912869548	0.4787738272718318	-1.228265045129201	-0.2522819156951202	-0.2245906442588513	1.096014664867407	8.963803721830418
0.1439128561131141	7.249278895164004	-24.79420895237444	-0.1805768185963809	-6.976483309460455	9.430637994272217	15.54026851350615	-36.52699533114538	-53.04691775578058	13.5202905135271	30.89014700436681	-8.356929558375061	-0.6239230321291105	14.36814263837844	-7.579418099974813	18.17655023052014	-25.08125109088799	-41.78103658405785	-0.04427432563550207	-9.097379624742384	-2.899744848562387	-0.06356822739835395	1.992166172332293	-2.899579512430259	0.009014246151406391	-6.079182016501896	-4.619405751679092	-1.303959488441424	-20.84735213254905	-35.85531841377345	2.179645024694544	-2.239874097754582	-0.02545181003729458	0.01122364227513087	8.642614451561037	6.244005888980812	0.04919433412345279	-0.3525300243357557	-0.1933294684454209	0.4649596143770781	1.454442679205276	6.391855233566453
0.1608558844730551	6.014024418204809	-18.48557455535157	2.238477838746847	-8.340768939814357	9.482991439000841	10.65427562070454	-34.62739190045257	-64.23831340281004	15.86874550378345	30.76754579897928	-14.28921770320681	1.447231418578703	13.65733822802898	-8.111158494301392	21.43140322048928	-26.43714648143678	-49.14661982627194	-0.04270765825597236	-11.72958665280266	-3.109337103979864	-0.04270664563940348	13.90896733701245	-4.036973029403638	0.1210273545750997	-5.866522391504952	-3.81888430038975	-0.906242356757377	-24.76386085297102	-17.62141356662273	6.74557097328265	-3.482960095157206	-0.1122498667234494	0.045379881722027	9.996491398758934	4.233554052216726	0.196708392417417	-0.9376965061243907	-0.1902702931120514	0.6463623797932823	1.825295154572335	3.897404101917868
0.1752312594138309	3.035551214295104	-20.17758628728711	-3.17601925731564	-7.676288885937463	8.849383158742853	8.040249597626044	-32.35463643110917	-61.86291631119	13.87390387165684	31.38388391446923	-10.61726611619076	-3.309364544161185	7.85026727674116	-17.46415969971116	6.497661083879763	-26.15711042376946	-48.00235451706965	-0.0398317105959	-16.30887228688838	1.774460989445349	-0.02594473369730908	4.349834910526376	-4.931763389231415	-0.2268759325093858	-4.797942759899052	-1.022473576719554	0.8687041577601744	-27.54898596738782	-0.3961714545857868	3.59823530733299	-2.052397853194665	-0.08569504389705518	0.0615932347989028	11.20945354281059	0.04860625425708494	0.008541818599811069	-0.5934264235172312	0.06941420816616137	0.4623520558807496	2.108761313550456	-0.001089481546028531
0.1792	1.273253676807883	-24.74417601306867	5.273765363366736	-4.073430564471071	5.075266045742296	19.62522436527524	-32.17117392457398	-68.24516971305056	15.4228371553771	29.57570355855022	-7.504967905301242	-2.234900924407245	10.99946673817177	-9.987515474580983	14.67165181269212	-25.2303966844657	-51.28693785967115	-0.04074884105550009	-19.27245712296794	3.346779591891398	-0.01770939993470286	4.879277920637574	-2.760112529045133	0.01521731411155525	-2.550067746261053	-3.133759165768772	-0.747299489283324	-28.17628865147805	-2.907805423739326	2.939979467702851	-0.4030046146131244	-0.04362276608037652	-0.008401317686617372	11.41708889819507	2.093212631823	0.07772206208557891	-0.4167148702955215	-0.07121059260957413	0.1976680712082594	2.160795406541596	0.3283983517144837
0.1887128561131141	0.779215733490858	-40.07283205175806	2.067714220884792	-8.714697602983156	9.197901564788651	35.09654670761864	-29.75045273029424	-76.12192852722447	16.86738665935837	32.50460802360749	-1.56295866994004	-3.938076424137437	3.786288608439728	-14.72800247256769	9.526734443227783	-25.11279220808387	-56.48542156104697	-0.04105555741695898	-18.45646655040794	6.000841081087526	-0.02225864165827449	4.405936861104538	-6.113445586646662	-0.3213659661618049	-2.633086958343865	-1.547685815121229	0.2081160164464652	-29.8744544313981	-1.19790206661785	3.537604135538774	-1.438655230069446	-0.08909825963921236	0.0323571904970312	11.79956866932285	1.833334645313165	-0.0351202489372302	-0.5790890746135827	0.0005297003257465141	0.3671707392068309	2.331527583142615	0.1389260779460922
0.2056558844730552	-3.345671257014985	-42.75324366158635	0.04652836975042624	-9.051773757178793	9.165701135238862	43.32068035501231	-26.95210996805174	-90.39411227552539	19.5703986004654	34.93002769446406	-7.713115824339224	-1.306741657679437	-6.640204083891321	-15.43653455214333	8.764948845846293	-23.60515953710194	-65.28818655010824	-0.04098869282801088	-15.74628050624271	1.404249716958685	-0.0303678937013877	-0.3508045208799825	-6.684021187345469	-0.4959259108761663	-5.013814485122441	-1.439070543334558	0.3421230928743788	-33.28456147568521	1.593672404197725	1.874887941976911	-2.578216069059378	-0.06030490652224318	0.06003220063769923	12.67243297356092	-0.106309087515924	-0.1110231277131337	-0.3748978031453877	-0.01202806526714835	0.539802828197208	2.661367960922127	-0.04341383748262485
0.2200312594138309	-3.674143656493257	-63.82205288395363	0.07632268383443042	-8.530199481431925	8.138350252731584	66.9612039069477	-24.70460894894588	-105.717104412672	22.44014240561695	34.32927459375502	-2.526968288900124	-3.686193025138881	-10.48613493826909	-14.51552833378089	5.555239381935324	-21.50321630800073	-73.81874256839554	-0.04188188321381745	-13.76786531457263	3.994768123325927	-0.02994657673720155	-8.041206959720691	-2.208120585882866	-0.2239615826546069	-6.026263899121194	-2.175705641215909	-0.009299795365690366	-36.85349280017218	2.028249914509628	-1.726321017436663	-0.7576996545881282	0.04001537098312494	0.02146483996518159	13.55778401107829	-0.1796698542757103	-0.06594906413836385	0.1832242863854221	0.02597305884944843	0.2672659393943423	3.072707616465795	-0.1832852018969219
0.224	-1.081534725715144	-59.04020181746994	2.714838874850523	-5.454773805323956	4.332428227397202	66.39714195452154	-25.76336063759751	-110.7662141254418	23.3667375941078	29.51373602475765	-8.88758899352761	-0.9920433954395889	0.1194422151083764	-10.50378826417806	9.208374748408023	-20.20782787897726	-76.23006624112428	-0.04151388907064816	-14.87836700632056	0.7428570036116705	-0.02293390512659558	-1.499852531149492	-1.32834374256367	0.03973250649844931	-6.457249622973372	-1.997659430828271	0.2076876299086896	-37.66438235429893	1.304023570303742	0.8144951371892308	-0.6025159447427606	0.0119627170588234	0.02605578436412567	13.67470509891514	-0.01649205742914157	0.08547430146306574	-0.1241254923060293	0.06121689014367193	0.2630947512304807	3.161888751809073	-0.07163608985978516
0.2335128561131141	-6.750489777795707	-70.79801748149075	1.501473832183051	-9.088443715950021	8.491792864266472	77.85865333914687	-22.57542803103282	-118.1466033050006	24.35097011624853	33.09697668274365	-5.348777562313618	-2.676946081759826	-13.40852789678029	-14.49079496106006	4.847027702239933	-19.83495001149537	-80.82170193909676	-0.04119012735684063	-12.46654615245079	2.479592710776436	-0.02938108986684285	-6.174549081723837	-3.298462013338498	-0.3841910813915366	-5.269094177773079	-1.524304437993732	0.2442461031175064	-39.30160372662336	2.477953409651033	-0.9841296936022375	-0.643022436278532	0.01103448563827711	0.02496760703492412	13.90576255611471	-0.5875769497087803	-0.08032087046245072	0.09203450159109151	0.05619004396030549	0.2624631484197385	3.375565572735891	-0.2089619762909904
0.2504558844730551	-8.157413069033836	-83.81226004897087	6.370871274978258	-9.286881191851828	8.157652147678789	96.85947312752158	-20.22093396260336	-133.9241143737665	27.27076617417768	29.5822953533408	-7.444086127540185	-1.584818861608754	-11.58205345824228	-16.50753696138796	5.173306299723896	-18.05977401013624	-89.92388083492679	-0.03844934974701023	-11.14927016074892	1.537613284043528	-0.02735507552017139	-2.702272521382149	-5.342226794214473	-0.7658585030204719	-4.049947000774848	-0.9369888673155193	0.3962127451206442	-42.79381918308975	1.550092369023263	0.3546317019089046	-0.2407708272150391	-0.04852305789488848	0.02095159704740562	14.53543552279424	-0.1841056792280789	-0.1305285127447277	-0.07873891212002333	0.08525773501037005	0.219682919439683	3.796887974479672	-0.1500916680669558
0.2648312594138309	-6.628564075754241	-87.56955354169708	4.381533944313022	-8.789507025685044	5.91481304429675	100.6368064283654	-18.97229028297123	-138.2604499589077	27.00330754381703	26.16927848466186	-10.42283917517745	-0.8420087730478021	-8.494476202395431	-14.91525806462229	1.61686725402328	-16.08558956905295	-91.12608013195258	-0.04068699421127839	-9.518921102417432	0.4250248855241042	-0.02337573546784425	-6.049582432346143	-1.584114357369033	-0.2844755990856418	-3.547829513702196	-1.357455178948623	0.2575232656253549	-45.74324647720351	1.20167946409729	-1.088813643421388	1.652566193098411	0.01259036382054093	-0.0127961589240756	15.29274321587447	0.03475191918805982	-0.02797867682565542	0.1625741221865763	0.1520451092112579	-0.06355568757104492	4.244305916892367	-0.1013772121745525
0.2688	-3.013086169784543	-89.63915221915383	8.548905892201665	-6.171124876393091	3.247439711369907	105.5075408835635	-19.65475039466068	-141.3552280465643	27.2451117068095	22.79361538749544	-10.25584598305407	0.1016872332031404	-0.5968404546167229	-14.06094012858276	5.717347408009379	-15.16170287810663	-92.46395035977565	-0.0390110716560501	-9.135439704001765	-0.4640958810374797	-0.01935086838560657	-1.15421497388601	-1.390760883546538	-0.08518310240245297	-6.116935235684511	-0.8690962417321825	0.7264551933360424	-46.38042147718868	1.088997522861699	0.9612559919511001	0.8541402999297376	-0.009792345719654733	0.0175158280489263	15.39764479962665	-0.02519007184799894	0.07164732112516885	-0.09941264376939349	0.1923103925468848	0.06584367973172194	4.347266296983374	-0.08498291045642192
0.2783128561131141	-8.233800434112275	-87.15377701033808	8.46277008796946	-9.205416215857902	5.578347819029432	100.9715740602827	-17.68448167136342	-141.6523563078573	26.47890418651759	22.49128516622527	-13.30197181765257	0.7612630933521136	-4.630287997646117	-14.94163204929855	3.459389827553281	-14.67558489275105	-92.48255884553095	-0.03966111606092319	-8.625947978031016	-1.63994708334878	-0.01845146020544967	0.3231135618234235	-2.27775828128455	-0.3728399714110767	-0.7646621288391189	-1.541592061236608	-0.07559155704194764	-47.67660845432065	1.711671964037595	1.407905344845607	2.345432063497684	-0.0480587129779953	-0.03569552745857946	15.62117559946732	-0.3980020161887692	0.01732116727023392	-0.1544455733511716	0.1274859717061056	-0.1598948865889368	4.591920720993852	-0.1350281453467122
0.2952558844730552	-8.680993462464759	-76.48837492762513	11.97556844128363	-9.327402454974772	3.61478921749017	93.89511331888646	-16.58124803208144	-134.6553380322567	23.76454684978611	18.00778395920791	-15.82682555444247	2.539057843498711	1.361086220884127	-15.98322424993603	4.412190665237425	-13.02889976595212	-88.4623419029929	-0.03794752903737586	-6.89052291501741	-3.585940744790383	-0.01483785622164605	3.1943462909624	-3.567425730088384	-0.7308217496457169	0.7393359224462007	-2.168096464312808	-0.5434230887562	-50.3281058609934	1.356251482532393	2.628152757285301	2.685566947914321	-0.09907717616793194	-0.05698286486357977	16.32735677692238	-0.3728567718853457	-0.02531907489052213	-0.3201477539194887	0.07571547862120745	-0.2162693716153761	5.062382273586568	-0.09466726314704403
0.3096312594138309	-6.886985772908435	-65.10477146459971	8.537006650539986	-8.77270197430788	2.090746789590014	77.78829474523116	-15.84440149385049	-122.2973340516675	19.50106099157083	15.3126928673906	-16.63621040258669	3.502620457123798	5.311172759438604	-14.61033760924437	2.658390427291752	-11.4030751807791	-80.42409870955753	-0.04060303201868404	-4.888613641324755	-4.737024339195605	-0.01330926998328378	2.068860688972932	-0.413063310561673	-0.02081975343080639	0.2534263374219779	-2.277336339405744	-0.4046423794133773	-52.0746557727965	1.132784486294054	2.518860668560925	3.320888589852277	-0.05213807236814311	-0.059378661193495	16.88843097708467	-0.2981821955490799	0.1257950528712988	-0.2805857107831106	0.132253474532749	-0.3247605282072472	5.474046257326252	-0.02990895163272432
0.3136000000000001	-3.313134635587417	-66.96530644733241	12.29167663670541	-6.134739819025981	1.757789447919095	81.6097782418785	-15.84641244066559	-121.3694614997001	18.84926411359659	12.56658070216561	-14.38779049358973	3.32094618936693	11.70625271829155	-16.05539598203022	5.658945322824947	-10.79131085540817	-79.72228156860282	-0.03926315801717385	-4.14048817620569	-4.369172528044432	-0.01066671361766484	6.655826792502945	-1.093167472649812	-0.06291254056884066	-1.189262055464219	-1.225066621810928	0.1429209519906787	-52.37119940618043	1.12055558064024	4.285720585138908	2.839206483550893	-0.08725878323832764	-0.03202608035008504	16.92658073633872	-0.3512799563783849	0.1589879186010404	-0.5045738819751937	0.193045648395557	-0.2424585550379976	5.563534180466959	-0.04654835191679423
0.3231128561131141	-7.906257681983732	-52.28884406258666	10.88715009390709	-9.125860232746589	1.008887687866547	63.73504177795615	-14.48239940552678	-112.2662090297628	16.0067745946444	13.30015130149108	-16.09603580488145	4.011459360450822	8.479751729196805	-12.4339510617312	5.921626299727931	-10.52161497234917	-74.65149813430533	-0.03957990499224315	-3.909461869531011	-5.483361431129753	-0.010816377305213	6.573139156879677	0.01398901038717848	0.104368183083924	1.227689852231373	-3.955653132064058	-1.152991664268052	-53.25885632250523	1.954884887581633	4.437772068810848	3.290887050388041	-0.08968795063159557	-0.08457955752757526	17.15267633450355	-0.7543896446566258	0.1983044959359927	-0.5225308004178124	0.02300876918628739	-0.3462355409210255	5.791325445406221	-0.09945780790891601
0.3400558844730551	-7.664102915070487	-20.58619644617928	8.179874663565563	-9.178227070873554	0.9147307566088898	35.55599174229125	-12.82896876302736	-84.3585785832061	8.747311937079511	11.84734926029244	-14.23035992938375	4.179807273194434	11.60411391402073	-9.722451257571935	6.634331452903725	-9.14708244089346	-59.25032773108021	-0.03969811234117856	-2.194041744726051	-5.603182215880428	-0.01199198969377958	4.480290515809947	0.2017964947034109	0.08794946756125999	-1.468667019737771	-6.020575139181182	-1.697025807753195	-54.92821906062171	1.615687497065263	4.014603288253793	2.070595338146359	-0.0850361347296969	-0.08525095061218727	17.76302958083001	-0.7629795190846159	0.1860418227708805	-0.4742781887939926	-0.09920791204125397	-0.220362337733017	6.246835218005699	-0.05480320327949297
0.3544312594138309	-5.164769848448501	-11.71588095649875	3.176661125593703	-8.474161006096379	1.459759131458952	19.41279214780877	-10.70669354954095	-69.05098679650619	4.01714377413315	11.30674700520176	-9.677410823565307	3.355790769584639	12.26913104950657	-11.11342886804439	4.907484891381428	-7.880277335719396	-50.20342441696308	-0.04099490062507351	-0.3257025879167194	-3.983180621681385	-0.01496510280858963	3.31733105533889	1.669043993278903	0.6592033671802651	-2.283869088499349	-4.254523734112008	-0.8469822174293821	-56.00578543438375	1.54771932013829	3.749419563632274	2.087807590921896	-0.04450058065330076	-0.05271240851089952	17.93394446213566	-0.530047909645915	0.2744946299034404	-0.4114600886146086	0.03289218532062927	-0.2276962156338221	6.612270029593629	-0.03808154335110157
0.3584000000000001	-2.801984077180393	-12.06309684852511	6.286791287134183	-5.623778356606941	0.5659275658922525	20.75132949641605	-10.78197369063061	-66.45133805359062	3.215418566293898	7.191010112687599	-8.192513102043847	3.130256975662177	20.45567612589541	-12.93094971068443	7.308444899292141	-7.2278462606887	-48.78280652997645	-0.04052333189922405	0.6617210365821685	-3.622827334228706	-0.01214175005044842	10.58718216604558	0.5969425379138811	0.4421725405167489	0.4096960006605237	-3.491175371184247	-0.7170594143699716	-56.11628693028261	1.484677420569414	6.427915265620557	2.768085107641892	-0.1117302960699756	-0.06196826280934797	17.83521643369115	-0.5628841328476447	0.2971112259570563	-0.755603460196692	0.06090283593351568	-0.2987466071206546	6.683998901029584	-0.04133955129980842
0.3679128561131141	-4.725026582477945	2.213454579658904	2.171074811851361	-8.819274294681906	3.549902247608031	5.825101597112898	-7.828282504016206	-56.46802298940979	0.6556135090611007	9.418864818500797	-7.925369334669324	2.920184353294506	13.53204981836159	-9.327592096857458	5.63025083948679	-6.969137169389358	-43.45541006519774	-0.04025957413116216	1.488966891755537	-3.434064476196932	-0.01596722506926114	2.941024843881762	1.926182278420648	0.7337320046885702	-4.283430231998494	-5.57423838740842	-1.090338488313451	-56.69076532472607	2.229364771208819	3.843700157805346	1.243258721685801	-0.04811452207628991	-0.05092529591956142	17.89456817450372	-0.8225520589483505	0.283273837580553	-0.4204454300103133	-0.03745390342440577	-0.157265680324347	6.845819940315898	-0.1012743720155224
0.3848558844730551	0.04349223177552375	13.39541906696269	-2.279291342243146	-8.845886949718036	5.306736912480005	-5.96961073323893	-3.301888252664667	-41.3828298966141	-3.184429539042636	3.335735747169569	-4.044736205394909	2.179779798291356	19.17241963965462	-9.575390999783053	2.982029090351091	-5.58624269000626	-35.01958608015007	-0.04027181335254135	5.346879507964626	-1.873450513188222	-0.01711166228385175	-0.3956124702119967	1.571774122829275	0.5470406936217075	-4.897546609086238	-6.253530699435832	-1.12318237548603	-57.35548408036806	1.804658414569359	2.87592811153386	0.9367071501458455	-0.0400014017027373	-0.05563475650522492	17.81275006837675	-0.7317362875971386	0.2207796455639968	-0.3012524331940115	-0.06681922833667148	-0.1627023117354133	7.01951094422474	-0.06538162269546671
0.3992312594138309	2.880388122047687	0.5767631943369718	-2.441614443565851	-7.927055238305345	4.289436361963396	-5.423376513719184	1.088652477364483	-45.71019569683569	-3.415427261768004	-3.212266684230855	-1.19766227317008	1.415959278723241	23.18123569188715	-14.03258773566632	0.3795627021586134	-4.343464532780807	-37.21598112763881	-0.03974892031760161	8.889579432867581	0.1305824671102227	-0.02143338318551634	3.450736658853849	0.9094513707563578	0.5490194103724128	0.9889793257455446	-2.542874577338428	-0.3127076992820258	-57.93935257546321	1.861606257038232	4.150365644154407	2.899752315489169	-0.05991550373080506	-0.05196338023022606	17.41396851222146	-0.6409047265442943	0.2424085339332592	-0.446120225712751	0.1271344149914303	-0.3907254534316459	7.09412993691581	-0.05047529633400623
0.4032	0.1020397443667882	1.156085105110127	-1.116801252005942	-4.518250246072906	1.835877782628245	-3.890686631474061	1.530790394615527	-44.57238146913463	-3.449912835859681	-8.050006284965612	0.409255862544831	0.9498672075035867	26.97890870031939	-12.29895724171863	0.8492659664103036	-3.640497980916178	-37.03731058021944	-0.04001347013117568	10.93707352573545	1.02268386344948	-0.02321732958719564	8.296498354481752	0.2524996984667772	0.3553161455979161	5.40308957622906	-3.120681567952396	-0.5671439732751337	-58.00614742767863	1.943851216996588	6.094408663126517	3.961814701467294	-0.110256636769726	-0.09176303478888638	17.2931198856821	-0.7256419118467755	0.2597769245866815	-0.7107661707416109	0.07654109767503811	-0.5144540386257481	7.099339515007022	-0.03468700927829393
0.4127128561131141	6.19446615486223	-9.813545372690328	-3.177534830017906	-8.344835020497232	5.918258471190541	-0.8419567892267636	5.468900948709749	-47.65985731394004	-3.707002858522633	-10.41568842367049	4.713147467920956	-0.08423679745278889	26.0075997024721	-14.11527652671019	-0.5207270700772121	-3.221884823098973	-38.2579659996769	-0.03967600165901233	12.46977682580824	3.304372353031412	-0.02782373843027899	2.920979181247429	0.3794639716384775	0.2604431374804161	-0.757759236588762	-3.059549016724749	-0.3278892082791436	-57.99234708315075	2.605002211318753	4.107207151758121	2.283054208411179	-0.07413543024876459	-0.04287537748079508	16.89609522412506	-0.8149636462680976	0.1928391044773241	-0.4430032191714209	0.1029209158081713	-0.3568989547213521	7.06126368295619	-0.05771951068704237
0.4296558844730551	6.950899027716819	-19.23926480036797	-3.646245730863881	-8.390580359745332	6.319902947604248	8.754782371848812	11.46824769262257	-56.54019441031569	-2.664798270218696	-18.96305022402679	4.741538695513947	-0.3278146532178958	25.42713828611898	-10.68649632968484	-4.684644605028605	-1.566862916566439	-43.11405883335846	-0.03961803543030442	16.71309940876996	3.60837787234087	-0.02950560663782086	-3.505149895507597	0.1543651680241154	0.03432916678215947	-1.731615952683128	-3.13009031939849	-0.2754303314718508	-57.75502171401716	2.610071105905126	1.719269409318982	1.975276055141637	-0.03375489029265819	-0.0374210469932524	16.12574560820182	-1.002570355349832	0.09831809713942333	-0.1277854462073283	0.09576282784394932	-0.36565922806944	6.78256919720488	-0.03837934985688637
0.4440312594138309	5.003440445792684	-13.45553295716775	1.275076629701672	-7.113319174287739	5.00880621789895	7.452611629437797	16.08455150800901	-59.82055158536233	-2.450676790961514	-25.81187126514577	0.5566792805848699	-0.2707008932939612	29.13353202970384	-5.522209516280082	-4.806202766933586	-0.02415948120673583	-45.3112565038424	-0.03952433585907703	19.84813947897398	2.501149913241929	-0.02573719832672096	0.3727218135607401	-0.5979133600624242	-0.07977269815447989	3.407440678271283	-1.458495592522449	-0.07027391708954056	-57.79124141360123	1.534129909626635	2.936428261960004	3.211068647812652	-0.05967284958268261	-0.048715369865172	15.57428103047994	-0.8362322871206471	0.1106407836619678	-0.2872540328123494	0.1401336089282882	-0.4771992045735703	6.634130086290714	-0.007991656296970445
0.448	0.9743828780504487	-13.56862480391573	1.064453968480035	-3.280624680979827	2.97138077070008	2.695859629079671	16.42942814446963	-58.28095147461426	-2.506502617950212	-26.32795214155397	-1.101520089407552	0.1025603953190251	27.28550361381116	-7.923950225011219	-6.100446290175926	0.7392299739093282	-44.75734994372876	-0.04008777869650709	20.05146328774234	1.581168759153657	-0.02540698162892127	3.726174616153469	-1.025756171497865	-0.2510479979617536	7.817866921481079	-2.317581431032057	-0.2665379829768592	-57.76444958213641	1.39170805965585	4.425996986693638	4.395367209010851	-0.09615799161883745	-0.09575304865680599	15.39245303621275	-0.8742838606356118	0.1252616348637429	-0.4973427574590242	0.08998008619912716	-0.6223897567118902	6.59504520711006	-0.023858018458114
0.457512856113114	6.580352099195956	-10.86712681171705	3.061504173927173	-7.776650721255908	6.17314967149872	9.557386656760098	19.54688405671227	-55.73350019789924	-3.045607163699405	-30.38292501845895	2.557655727534813	-0.7187772730372188	32.50793811441059	-4.546460055885534	-3.767687108591997	1.343191144463625	-43.31924802612222	-0.03911389314208824	21.80660298595302	3.006398037198761	-0.02097347538498671	1.911203447865391	-1.026255997016877	-0.3583206669548897	2.399190077675751	-2.031564616315453	-0.1049991151885924	-57.93246586876657	1.524236796325884	3.25970304954365	2.944070419393262	-0.07935682818435981	-0.04802742855334685	15.23673117385819	-0.859216238056952	0.07121119809415373	-0.3277480698794068	0.1104316927773745	-0.483470506907948	6.537002499891536	-0.08703567626461547
0.4744558844730551	6.922455366550651	-13.46607174729808	0.530801876338179	-7.87996406908025	6.38427383888677	9.930958497859322	23.63654396049958	-56.47110011698495	-2.936518568191463	-33.45933064538595	2.935502609790612	-0.9513513894028689	31.12460711974497	-3.53297397724731	-8.043452716799839	3.216841838363747	-43.76375392416298	-0.04056862367279798	23.02786145065285	2.652941135372547	-0.01900872300295757	-1.405052298808398	-1.29477073533462	-0.6524457286908375	6.190915954269814	-2.05991112626335	-0.1147462170792579	-59.35358399381276	0.4394531983179404	1.636224828798859	4.426472371854138	-0.05697300819733753	-0.08407679211025221	15.25677471543902	-0.784114959832959	-0.01612436935356137	-0.1055126244355432	0.1200887235727044	-0.7064491337416099	6.641897174603777	-0.008205223922340996
0.4888312594138309	4.581534392269504	-5.292726921584618	0.491386667735051	-6.350330520333365	4.504665544247871	11.82735874052928	25.03678806163581	-51.89621643140639	-4.194574550674119	-33.33948546352724	2.598685840471913	0.09746698692532085	29.93412944671672	-0.9236921296333738	-6.760505341873338	5.093421315263163	-40.93673552002436	-0.04226083068974775	22.46489341752712	2.325600573936722	-0.01849694721806527	1.816916482201357	-1.284942470975829	-0.3771700690896789	6.612036507852558	-2.131037767973382	-0.1308083143627743	-61.55886171849365	-0.3155549252924779	2.933561931665389	3.719647291202266	-0.07132474331899735	-0.07745188571754714	15.45504669127523	-0.3775000718597196	0.05709025290977719	-0.2777669387396087	0.06010944324318224	-0.5500292123864652	7.057866372928794	0.05519567240598483
0.4928	1.173876653937164	-11.71606130828969	-1.292505655164355	-2.491275970753932	2.562887949287983	2.974902809521389	24.77719261230301	-51.64617224464396	-4.328051505060625	-32.56668156688167	1.385102376684551	0.5170147899102107	26.30506506651231	-7.693367190709299	-9.026820333430956	5.418460788449321	-40.64492882312305	-0.04139451950223369	21.79532593656058	1.854555463157881	-0.01831293600588025	4.340705397221579	-1.907144477179108	-0.7058777236241482	8.27962588622489	-2.43351477382716	-0.1711177305345747	-62.17134833607018	-0.134498430504203	4.202564436650635	4.238517035553433	-0.1049425316847557	-0.09401454916323139	15.44515133576577	-0.3130166201274243	0.05064632148477324	-0.4631861297502183	0.05429074001770573	-0.6191385180562454	7.175722846538778	0.02603080258275082
0.502312856113114	5.491591132475609	-3.691892955261787	0.4550617992126591	-7.31787163733868	4.726331460771746	7.408876840334713	26.17287576351844	-49.07098997897356	-4.659274626027654	-32.1199288331073	0.6242774235854736	0.4200301358222278	29.93284126000469	-5.517148073298166	-7.647418055493085	6.380184054346694	-39.15993431127718	-0.04124571167594888	21.20760181815496	1.367132272335819	-0.01850140680356626	2.954743150493464	-1.882933323136611	-0.7317334772410923	6.234951550396836	-1.956269415545309	-0.09250639820870321	-64.06720924438245	0.5749998718444875	2.996207087646895	3.646945871819961	-0.08307625206487756	-0.07188396227795661	15.78365471180154	-0.5451965752173786	0.008164878385467967	-0.2834125523224887	0.07050352941654553	-0.5483661588307959	7.52834020817242	-0.0322851354782255
0.519255884473055	5.238820409416668	-0.04021681757210829	-3.615510322192638	-7.55098069345792	3.559698483556303	1.450056281971442	26.8833223538378	-45.2023425665684	-5.328440078244171	-28.06351100554318	-1.558960066058955	0.6721066377266984	26.76264153133057	-9.279776979967387	-12.02114931855258	7.349385165790437	-36.6043429180197	-0.04039396752021403	18.61622915278426	0.335907295339577	-0.02147233218642943	0.75637446645715	-2.351129451011294	-1.099140307908689	11.33620130020809	-0.8984586620702164	-0.04098639965294448	-68.2316515394283	0.2136065983370435	1.648866945033222	5.544956928219796	-0.06576354577184144	-0.1081046495031684	16.57117837431729	-0.5227122370798876	-0.07723904777464347	-0.09586513405285527	0.1343893110010664	-0.7839017718929771	8.460684429053368	0.01222119128203853
0.5336312594138308	2.690020304691572	8.045851662995391	-1.474252556977323	-5.857920988244736	1.821284995545625	0.5253265453511666	26.02749325492621	-43.32820990908738	-6.332522792968327	-24.96187966372437	-8.202798538175051	2.993621732469565	24.33116199971966	-10.4946673121367	-10.13156014120688	8.075472761870385	-34.12928388953399	-0.04047640723161251	16.38005168884173	-2.544692050386591	-0.02313846081717598	5.402321394287019	-2.819242175468343	-1.260055862863965	8.575593846352751	-1.326328244110177	-0.1168127686733276	-72.40507356972674	-0.1134434532639421	3.836473172762791	3.870332097730307	-0.1119524989254184	-0.08571621966812382	17.38882828470215	-0.1514038877133173	-0.03469564953820206	-0.4168767393085651	0.0608157123003238	-0.5159332981429305	9.482883964919665	0.03234647350005999
0.5376	0.7570790341470293	1.767263707495137	-0.1361265774972548	-2.193296133480253	1.376382808687424	-0.2138048552026675	25.0437522506526	-43.72693342449053	-6.46053975026059	-23.28542789365306	-6.303394753029382	2.155450156133585	22.24889940722351	-13.50790155005708	-8.350326020679187	7.935010046400096	-34.01890572788496	-0.03846527438352679	14.75758847146023	-1.92850936399136	-0.02193387217927424	8.906140259154105	-2.822092864690092	-1.269529795140846	7.333416745289874	-1.695813837094944	-0.1164446137585198	-73.54437001593061	0.786516351337601	4.954695449024529	3.661655299251298	-0.1356030923879811	-0.07783506876980113	17.54211122629018	-0.4147018773844457	-0.01373115705951872	-0.5769579788875556	0.06029934556895962	-0.5159347305466624	9.778323468135062	-0.04831540988827623
0.547112856113114	3.840696861603476	7.380369152840601	-4.754185319671138	-6.854361375314703	1.038045407842731	-1.560374805394773	25.66380605061003	-40.07490363567922	-6.59432727735024	-22.34344046472182	-7.82581641987723	3.541998953039534	23.84179856348252	-14.95732782393928	-11.36755416141719	8.263933496775243	-31.77735441653008	-0.03990498899940364	14.84355980282972	-1.947696570886435	-0.02849958566422919	6.419900123939252	-2.964019002013929	-1.289672006585022	9.670343410132642	-1.292009146546023	-0.1517654238465814	-76.19231988640679	-1.031549059116178	4.032285240686227	4.102816124260393	-0.1149903372141888	-0.09518087913380958	18.20058916526332	0.2560140913959829	-0.03274859895510266	-0.4348902344284028	0.05383834362767557	-0.5305598362022492	10.44669399860467	0.1507821362177505
0.5640558844730551	4.824905191958912	-13.92602463784356	-14.05475691228443	-6.761134140730512	-3.071754225916436	23.74385847920779	24.73954826396739	-35.93594677432952	-6.540547170804123	-18.06991777505423	14.39368546556703	-1.16489370558075	14.88767489042816	-14.99290343676996	-12.48971601482378	8.362684201089664	-28.29682550064049	-0.03962990288368521	11.3268238494236	10.21519972458395	-0.03163213345422213	0.646633392612186	-2.813404644624117	-1.210354966006341	2.225879887245103	-1.231809040765558	-0.0602028953855173	-80.33405570351113	2.266151721123237	1.976581841143786	1.191568617729117	-0.06773151522503607	-0.02416554943891121	19.31049446870432	0.06565851035462844	-0.06664544911430739	-0.1374348211492316	0.02807538278518564	-0.1287045051874744	11.44657763921808	-0.06419579451683734
0.5784312594138308	3.745998421101021	-18.22467083529463	-15.69541088173126	-4.463724259513896	-2.726553892021229	22.57819622467702	24.09243996914339	-33.62206949039128	-6.603455857766479	-18.60104996313173	18.74569041469998	-3.598944231444126	15.09708683954859	-7.653499303243273	-11.42965089766644	8.156983008864755	-25.30237409390273	-0.043596731723042	5.493426557358231	12.22920473406672	-0.02503706925505539	5.07637728316796	-3.037207546992104	-1.464412187916122	-1.799112601866676	-4.158395949990625	-0.3708784337602903	-82.43784113665939	3.031546834301873	4.22823330104967	-0.6753976413864181	-0.1219581797589214	-0.01612085773466266	19.91926196041203	0.05909008238186553	-0.0410746324012638	-0.482597861845985	-0.1335430569653185	0.1074011935965806	11.97034080495641	-0.05280773459858605
0.5823999999999999	2.917508316212217	-18.93712196509396	-11.6726488699837	-0.3209723595933269	-1.425281609480692	22.32130301685531	22.5657172370604	-35.92679295710415	-6.112647613206511	-22.03217064769502	16.6135039943895	-2.686104179849603	18.82075681895654	-7.871763008922004	-7.552921899710388	7.921016171358628	-26.11438320798706	-0.04087308413568071	9.12526618648889	8.794044794940609	-0.03648226449986997	7.418158745716368	-2.761154001302654	-1.461508411881304	-1.495889500904046	-3.690569263113738	-0.3033984585181063	-82.64053069107247	5.833536524205473	4.450970673194608	0.03454902939263167	-0.1301048072423568	-0.02082892694850325	19.94192503706049	-0.1943059547904255	-0.05049992758309703	-0.5223205868903223	-0.0826320200761122	-0.02833935808085326	12.05712773678391	-0.1949967070477477
0.5919128561131139	4.68021316422616	-6.139904694447639	-10.55868515845455	-5.310448668992729	-5.411421002307009	14.433805214416	24.28021244462198	-35.11057851696484	-5.315249532113377	-18.17025428584033	11.68133532654724	-3.512929216471377	10.21244549677392	1.61472797563191	-7.366050941058995	7.854818988574499	-25.20055437262862	-0.04544601557526688	10.06607261428303	6.832921355049965	-0.05178571641791285	-6.84603492109102	-0.757647385479349	-0.06930742136104229	-0.6499229089352514	-2.328793901956498	-0.2758118794863825	-83.39587308886175	4.873809370122596	-0.4124847936336632	0.1954656749876393	0.003884625174238723	-0.0319673141010994	20.19285136056382	0.1559870118570298	0.004374243190685176	0.2211314438447105	-0.05507906399661632	-0.01402541845810533	12.1955610356743	-0.08026271935552937
0.6088558844730551	4.558669963474934	0.9068228463484928	-4.121252800170736	-5.569169788869903	-6.249461032772729	0.9921037665571895	25.08125983422687	-35.42667218031338	-3.014367351526029	-24.78587999057156	-3.144382886356123	-1.28364746287585	15.0967637029394	3.956697500055562	-8.658052791367147	7.478740708508991	-24.36639710368907	-0.05095142404147565	6.080691332372081	-1.922178653133187	-0.05945371332680632	-11.50869179933944	0.06018372261850735	0.338180887351017	11.56988026782681	-0.5794861084468788	-0.4147165616473812	-81.90669482257979	5.678840317296409	-2.981377946382299	4.753545361593538	0.05805191154280059	-0.1511478148909305	20.07593651714135	0.3269808085600439	-0.03588923191437695	0.6057081256389442	0.00573599167609179	-0.5996561492405431	11.78104823388425	-0.05143877438982561
0.6232312594138308	1.926921430349164	-10.80571792714497	-0.1711381160476909	-3.808918655863001	-4.867762111111176	17.35244833392488	25.16205746401396	-32.36916768053072	-2.467544692531563	-34.00129513001718	5.53137171606338	-4.712110345003656	21.65088559567086	8.835529880985336	-4.978744825861089	6.617618903611997	-21.86565995890115	-0.05287018327803314	-1.589132182728541	3.306488705697909	-0.0502708598917757	-3.502767774221017	-0.3231238280077041	0.2964956234479093	8.378379430740186	-0.9767211153819435	-0.3664602862501829	-78.50785081572414	6.711820114133554	-0.3590814195487015	4.335810817207667	0.001872519150709837	-0.1308191560248922	19.13267412486843	0.4143143845817676	0.02041905226887795	0.2112539497260616	0.01656646235584518	-0.6150580403342834	11.31609324042274	-0.1823020687270583
0.6272	-0.9478057775152067	-39.77258526113189	-1.537221641800664	-2.214517406161546	-1.254324882473497	41.70333536896343	23.73871912224179	-30.78167646152816	-1.885578468000241	-34.39249324928677	26.35489018944224	-11.02036845009214	17.23256868413244	5.717036754288181	-0.2643812845938718	5.932812719411324	-21.13621791941593	-0.05086386852765212	-4.226654440678967	13.66416331062109	-0.04749386985260359	3.508433941282319	-1.923310290572698	-1.074725777456188	-8.804838955666808	-2.621831338327379	-0.1185075174751198	-77.16731564437582	5.404274215548377	1.610224991633402	-2.040664654793473	-0.07291005294252115	0.03641816633322649	18.78283744915238	0.2975055507460018	-0.1089318452237533	-0.1232641543765867	-0.04679198191262261	0.2169047298968559	11.13550003169891	-0.3321945154010639
0.636712856113114	2.819131081258796	-83.2731936460209	-15.49123982953552	-4.829143153579189	-5.344010748411335	88.31311920822777	26.07551803520683	-28.37280886861496	-1.060169027839163	-35.59453648533901	64.30726473955322	-25.20766014221176	10.13601956311935	12.70452022924312	-7.083783515983244	4.413120410092095	-19.33899805008344	-0.05741028063563356	-7.801840235998162	34.62351282803156	-0.05422923231014376	-11.64345086256508	-0.02623939401252473	0.6830668167845402	3.485827392667402	-1.176138767454905	-0.278946640842045	-73.49336111743376	0.186708054895523	-2.70610378090533	2.608643128722638	0.06006879051500436	-0.08499929012559734	18.07980876328632	0.1552309989846929	0.01880943426194865	0.5910460101031082	0.01327440571995833	-0.3896695890347501	10.59513672636397	-0.2007843090890488
0.6536558844730551	4.19729230139847	-31.94749874538251	-0.6319185633949562	-4.132288346623135	-6.269972778463625	33.87004351263949	26.46974700078875	-23.06139196955986	0.569721012938659	-47.82800695707736	8.893048858499883	-7.08834999628357	26.38287642446488	7.591512110668662	-7.664517726153901	1.175108505649148	-15.57959506078419	-0.0540113099919175	-8.283176886487093	1.919619669947086	-0.04172753073912325	-7.464285219002214	-1.37075887484372	-0.4353255005507157	3.527282568119597	-0.4266790559271502	-0.2119714736484934	-64.92041368141355	-6.460315634695996	-1.685728017963867	2.669052832655303	0.01047719099899674	-0.08126096896141713	16.42786227672018	1.933960888921875	-0.1051310973274557	0.4173787217410717	0.03941639980917799	-0.3964155359485974	9.236865672731607	0.3456262346474234
0.6680312594138309	2.868230510430124	20.01049667652964	0.2702092484326909	-1.797420284161092	-4.446942620464313	-26.16790639677563	27.04959087940948	-15.0070272708082	-0.1772793598580198	-57.26545952647373	-40.85995917205325	11.48669694927587	41.90803382271771	7.081844961530304	-16.29185588037858	-1.32229086148755	-9.843934518801555	-0.05254286830570573	-17.03451041419739	-28.41138708657578	-0.02050129980033226	3.179172902382078	-3.340684125834086	-1.746108128275957	5.785631037870746	-4.945722659299307	-0.6487793185873567	-56.58272938839595	-6.10932142268432	2.67628932342336	2.894107590754764	-0.106774666117552	-0.1199457374455209	14.76470559683802	2.950948396373046	-0.1497980414818228	-0.2694129770738748	-0.1601214411685169	-0.4633496601914137	8.119440587444796	0.2545623980071112
0.672	1.481135518866971	14.21176507578319	9.228646257236887	-0.330996977587807	-1.559208514011289	-18.52526890104178	24.73361655384889	-14.6050802103205	0.5569995074483347	-54.76464073237148	-39.96150863501832	9.667113042983162	40.95114010007846	2.99294270731218	-8.223370275967993	-2.403903057674605	-9.741938784484738	-0.04890017601366732	-17.81618938135628	-27.19427086112612	-0.02469688891055139	8.930016177570772	-3.659552315694798	-2.267310453968418	-0.8950062922759932	-3.503483318738534	-0.3380226360185772	-54.17838328677471	-8.427329947087426	3.77747553417419	0.8172465244823639	-0.144746633158061	-0.04366724952700614	14.28769527368484	3.06475708376504	-0.2066067836449729	-0.4705720125388164	-0.08062811559001329	-0.1889881261558373	7.786394566502777	0.5142538366450352
0.6815128561131141	3.433159537696348	30.15398308224745	4.136612458605066	-2.840926518729866	-5.669871723732001	-40.96020149042723	27.38726820162554	-12.32460257246376	0.415028287331332	-57.173640534796	-58.69701840679332	16.81849306479101	38.49785226914642	3.376704820088436	-16.55915521592219	-3.277808004967475	-7.120980620347624	-0.05376988187874526	-19.49508187427667	-38.95098681091138	-0.02541931979572835	-2.746605503927893	-2.557516526905232	-0.9618347717343887	5.950355254489819	-3.492250470288179	-0.4856640302803025	-48.75142262844513	-10.40163174533206	0.5773209861338028	3.334815702312184	-0.04164972442706272	-0.112165536861744	13.34048705839328	3.865178344102652	-0.09730037125454545	0.08232695169396073	-0.07675591230788786	-0.5305197038298464	7.081516276377394	0.6737491299326971
0.6984558844730551	2.884398397631728	54.20143562407996	8.35332816867704	-3.608238855788578	-5.414262631777603	-69.62263652767065	26.58630321870033	-6.510294502337162	0.2922407547353312	-56.72297482410992	-86.43003652109724	25.26597361211313	37.76540591462244	-0.3264425153677109	-15.2309807346049	-7.094046036502468	-2.863451517695625	-0.04950409291600898	-22.02233767426881	-55.35387009487052	-0.03537873656520368	-3.788043863784608	-2.557595613805361	-0.9460544828879752	5.974639220986426	-1.712167233226742	-0.3070934209975376	-38.21928814052162	-14.28790707379388	-0.3142456760304029	3.777473832394574	-0.02211420159451936	-0.1029184377115383	11.6648768631678	5.174212714148736	-0.1207982190383178	0.2239297582822942	0.01807170711430722	-0.5939252422649102	5.875543728396962	0.9508218923829632
0.712831259413831	1.077858198842716	59.47752257266519	7.686438327085447	-2.337377028178196	-4.297817375527814	-78.22444514463298	26.82556288424698	-6.303781451468952	-0.7984801691796619	-56.70024957995561	-96.68108907023952	27.41388589047636	34.80377117592695	3.619551372087981	-13.25127762486514	-8.590162998859622	-0.4520072994195713	-0.05089073308135598	-24.0194184776621	-61.27459787060328	-0.03989299963934369	-2.007559190026099	-2.178664199025973	-0.6080189572368009	0.9604735558168589	-3.083878703781518	-0.3020223520464306	-29.24350437669027	-17.02431810012422	1.047600289728651	1.733636273321044	-0.04189818524122377	-0.05277278052740955	9.891180517335702	6.324943423847397	-0.04010302000177628	0.02925100280323146	-0.03487821621920961	-0.3195916848874682	4.815904563852674	1.14487074863103
0.7168000000000001	0.9190666926786122	61.31742375317538	11.64666830476193	-0.1752800662079039	-1.933513551888097	-74.045282736941	23.75292549262629	-4.821263430985331	-0.2940541767442637	-56.44933903023282	-100.0593394761803	27.72895871049677	39.16964301925042	0.6643365761616886	-10.03279463170166	-9.43056330446252	-0.3105823702717871	-0.04596309330218896	-24.17580479501433	-62.79107820999404	-0.04067030402198558	3.446025328586241	-3.330828905062927	-1.701468780741612	-3.121489074168111	-2.341911944337938	-0.107191618475838	-26.96809391982307	-17.12482468686346	2.656792418345717	0.2436728017579873	-0.102453502345903	-0.002363824938401836	9.383720478759621	6.477051423112478	-0.1485686652041727	-0.2555184407973845	-4.968036249939495e-05	-0.1030067037676057	4.497616375512271	1.14496007268137
0.7263128561131141	6.894802251861449	55.66968825405312	6.353922665402136	4.263520420188058	-1.685570119656518	-71.42749532877207	27.5892993299936	-6.260764298028599	-0.0671724438658452	-55.54029100052475	-100.2418721419485	26.90116392815845	35.03087157061167	3.906098494186654	-15.89727143611182	-7.385092839241874	0.5753791614339937	-0.05518193892048073	-25.05935336687449	-62.5807943312229	-0.0422371556856391	-5.588507487989679	-2.275427618577071	-0.7338490052823039	4.110108927909445	-2.570704515773975	-0.3671813686881083	-19.09841185041173	-18.04858574698653	-0.1181025535655765	2.899109473816917	-0.02040265142119528	-0.08330731663408017	7.472119185474911	7.073957323273916	-0.08108192257177212	0.2156682654685234	-0.02103164083083134	-0.468622854546474	3.42889229809004	1.191012962875362
0.7432558844730551	1.9763807712767	59.92730807980347	7.914807190970337	-2.481349374261804	-5.80842041429662	-75.87154433841715	24.51355443681309	-2.177527801835939	-0.7060175452421094	-53.68050559563047	-110.5947412147482	28.12635063868414	34.30170220603237	-0.532424304113023	-13.58625552708042	-7.146368801184236	3.232188594916235	-0.0431358147833406	-26.07993482362653	-67.2128682659266	-0.0432581964778088	-0.4743185931727627	-2.999158941090812	-1.460483562192296	8.296931563350581	-1.607375918029512	-0.4520518209605578	-6.990852034474497	-19.22642936178227	0.1707128241378795	4.489914798901031	-0.04484308917528985	-0.1238505080935552	4.153020689567203	8.175640027758941	-0.1822376059396572	0.1260452586255109	0.008117943475715504	-0.6679361795683545	1.455227627502459	1.179402820793977
0.757631259413831	0.9673109773699036	59.65692267433487	9.576921422155861	-0.6704274568462694	-2.896108223022622	-77.87928384370946	24.35822653988095	-3.854411300949536	-2.245116924383824	-52.11209406364614	-115.199563196953	27.39355097615748	32.74329561590911	2.915081694264621	-7.650216127062417	-7.680029071068074	4.449839805335428	-0.03334994727151115	-25.69198352373437	-68.89956540407108	-0.04126069506262457	0.8375175689168317	-1.852258185322359	-0.5036713368507338	3.02746196460473	-3.475094690990893	-0.5764023896018058	0.1651817182569849	-20.77470202126118	1.327651469202502	2.079551790239781	-0.04537935055267142	-0.08041336510240818	2.024889532139932	8.87424302436634	-0.02872199009124501	-0.02789506430790495	-0.08302429152544651	-0.3229938775719665	0.08210541772231604	1.261127467173365
0.7616000000000002	0.8554341092908722	54.63837505487788	12.96145269072827	0.04028670242647081	-1.59520345423573	-62.06044119857626	22.58691971553686	-7.891859772565404	-0.09455344553011313	-50.38565522248528	-115.7120625507175	27.20636025467402	34.11691440795818	0.4822847603745557	-5.295752327700567	-10.60084341966899	1.168531985054015	-0.02342059539460342	-25.65007044710627	-69.32516282214073	-0.04185919962861692	3.155992853236024	-2.529813171595179	-0.9865460508376007	-0.9111327250602194	-1.653001858622625	-0.1498023912300762	1.403793625624002	-20.83522817822324	2.008820831153673	1.099760035918456	-0.07025810927994411	-0.02320227700242189	1.257889110625419	8.889187872258685	-0.0734063387365293	-0.1438484601423199	0.0293554039996363	-0.1814835280795894	-0.095771642727298	1.25666744157356
0.7711128561131142	0.4032998459330148	50.47020692301365	6.863552418748925	-1.501506451406343	-1.677527091085778	-63.29435358664549	28.42438463722398	-8.927118038004718	-0.801756984486532	-49.7621675579924	-113.3117260850572	25.55014306628964	26.23977851324085	3.686272209839349	-10.95304928973214	-9.386113730558758	0.5714718169421587	-0.03374976065103811	-24.96711536925743	-67.77997937816767	-0.04380059769334859	-4.390462989849556	-1.270849420672333	0.04453237674341248	7.82386525192374	-4.545125419749136	-0.9970331361479242	1.695555553314313	-21.83627951313713	-1.176354494648422	3.542686713416123	0.0201288263227086	-0.1416968894865354	0.006789623667363756	9.240372159136049	-0.01654790449164491	0.3809792903922558	-0.1533760444326833	-0.5086069199274043	-0.1423096372290066	1.32909687267912
0.7880558844730552	0.5284076794057793	34.62204104151868	9.994763231527353	-1.18985302267161	-1.330093256697637	-36.79129085028777	29.79100443136027	-12.80180114130169	1.660394787478934	-47.63830215718023	-105.4967798764423	21.91214834163546	22.69273149525991	2.530119163780851	-8.908581868289499	-9.927143032723821	-2.973968540515795	-0.03449970924251262	-24.33876660838868	-63.36322465419406	-0.04196463253657745	-4.106574587766042	-1.908578397559209	-0.5127121804181185	3.747788763860101	-5.382886016860544	-1.057755195355688	2.069223204942141	-23.11825410259108	-2.096324188396312	2.031702168283957	0.02735053269199988	-0.1112219489973117	-0.8787529200161184	9.485787250923007	-0.1093560016008614	0.5039973066689712	-0.1778840275931139	-0.2969840840805909	-0.1448959766151625	1.408098866571586
0.802431259413831	0.2272646430505372	24.05487243742326	4.405793395179201	-0.4947193177226126	-0.1749752801467253	-30.34528216477749	30.4005907844503	-6.248597080181373	-2.479910155449109	-45.67797432245664	-88.29545523823826	16.72628735878124	20.00055824359106	3.096839876162429	-7.003174684267457	-9.977770470424273	1.52844881675293	-0.03299678319740879	-22.88284023755557	-53.693837599856	-0.04104704339044783	-2.094240130579903	-2.359245598165737	-1.00946972015087	-3.929933501447944	-3.756508003143307	-0.3748597045606707	1.427189197391825	-25.09700822652972	1.132597176239652	-0.4600416793673299	-0.04622918090747953	-0.006112882296322439	-0.2069795494043093	9.903143649763882	-0.06897550546539574	0.01656364926539834	-0.05413505918266312	0.07633478468279573	-0.1138642707789678	1.594479290384739
0.8064000000000002	0.3499701728272147	17.37919243922697	8.363871665588574	-0.03478883024762069	-0.03309976601178732	-12.40716868590246	27.09214567955381	-11.66528403263858	0.5751917711538876	-43.96355152813285	-87.62328119122064	16.11542295212929	21.92443018806972	2.426499570418699	-4.459126541855438	-10.88713867262108	-1.891733225572165	-0.02723226438758987	-22.35700753257129	-53.23394854070553	-0.04230347664895837	-0.9733443301769529	-2.400142226543496	-0.9473006021114572	-6.103042461048689	-2.862570852986706	-0.1055784480581266	1.721899344186952	-25.44558523761513	1.642371165781223	-0.835001696996686	-0.0545577316032273	0.02050286992114659	-0.487778376192032	9.860604314291379	-0.04568758333633356	-0.05549867114609102	0.011167640339805	0.1206192328366326	-0.126695661217701	1.63223630438938
0.8159128561131141	-0.0695688388534208	6.055019603855109	2.919403931109628	-1.042271345887702	-0.09830593490272577	-7.557333555467618	30.65999683292152	-9.641827313940766	-0.955583597581791	-43.18758363058492	-75.71199385881413	12.7292106253999	16.07485569883482	4.082352572090572	-7.316098680696688	-10.05736611639748	-0.3610611603225829	-0.03099086983461804	-21.16232773646532	-46.73982157853101	-0.0425792743392989	-4.645590321994463	-1.924315524315467	-0.7132462014775112	-2.331169524544454	-4.569637674684937	-0.6387908947507207	1.956055160940533	-26.90028464877111	-0.4648969310960515	-0.001929702664699939	-0.005381513716106956	-0.0336821190296713	-0.6115505680642938	10.1087503583951	-0.06984988302569808	0.2626614686645238	-0.100773662022567	0.01300762226865622	-0.1559218602937147	1.804652765177912
0.8328558844730553	-0.5943896242532389	-11.75386270945641	4.842632381826684	-1.391271635527126	0.8924740197491019	17.41517373727991	28.9501910987153	-10.44040387504872	-0.2969348092866229	-40.80159741934094	-60.02508842697194	7.786290287769849	15.43766184910863	4.535272160305222	-3.889729650370036	-10.04380351795708	-0.8678047063313354	-0.02765174146620923	-19.58604677948372	-37.9496435096678	-0.0409599743086352	-3.309147411081484	-2.092094110556654	-0.9413016908077905	-4.34039771560879	-5.331781747259027	-0.7266214440646774	1.541413574253756	-28.9435129934114	-1.05169453492613	-0.7629429149636747	0.001507841245132341	-0.02536640356359023	-0.3909779299338867	10.13839801252989	-0.1163137276690043	0.334239070550116	-0.1313577207802039	0.1128331940154295	-0.1334757527170501	2.090819370636734
0.8472312594138312	-0.650700278305802	-24.19613789830899	1.630274232061822	-0.8629406524134069	1.32835556329195	22.74444901754579	27.24758903170747	-11.79169579586704	-0.7265779386126443	-38.35110372308478	-48.2224085474546	4.711161525513909	15.26226252743416	5.434325762033295	-3.41917813096582	-9.216175281539929	-0.6613092794501145	-0.02445182080158725	-17.41647600424353	-31.49046352347303	-0.04068336942454898	-2.971142608770073	-1.46585659365556	-0.5302849496210786	-5.315916540026865	-2.857787770203231	-0.1157881020693294	1.349533019891944	-31.18964005906444	2.006298930607195	-0.4540042279229639	-0.0453076361273253	0.01040872493442748	-0.3220437174936953	10.24478820950318	0.04250539030107038	-0.1057236085303988	0.02392521198642701	0.0860553332126682	-0.0858022789021715	2.450044088988891
0.8512000000000002	-0.2502474414225908	-21.84496437068159	2.35856983747202	-0.240743524889794	0.7214879239471088	28.63041624962	24.59321142043562	-12.07279823362727	0.3485066338538974	-36.70486169700992	-49.22653555784113	4.464671241422884	17.02160611512624	6.530707633861856	-3.128847713249179	-8.649536056257199	-1.511195865037329	-0.02197672573412278	-16.66744303454236	-31.96565949019181	-0.04166996188565433	-3.77417774715481	-1.085223316119456	-0.1543680351671545	-4.921887751537797	-3.129043249682101	-0.1991870572027583	1.458836592990068	-31.71848477718007	1.929359032989719	-0.3953493677196942	-0.03281877193562943	0.004411431955978859	-0.3751766823257036	10.12691637158759	0.09372569838336864	-0.0811756621052139	0.004443810814894606	0.07826227679576218	-0.1062569168344758	2.562211232786443
0.8607128561131143	-1.727968478159159	-27.86146269824278	0.8685344839102821	-1.557983697586064	2.800185794515812	27.93860084521945	24.83944136157764	-13.23325223476842	0.4403951227883258	-35.65628801267782	-44.60573322244294	3.336721117341172	15.25947463072326	7.08640467571305	-2.745784751875967	-8.487252731907345	-1.798717756707437	-0.02051123319475008	-15.18306441952114	-29.64473499292241	-0.04105946302064493	-3.033922418843683	-1.031434216975777	-0.2444812944812903	-2.501126041171615	-3.389292868896397	-0.4247534333160726	1.64501747727824	-33.21325115263112	1.146339258870287	0.6384107886731126	-0.02101620306008879	-0.0319281772327305	-0.539157956594196	10.22291566526071	0.0510584592244524	0.02426040332067389	-0.01130060407478126	-0.07821913152469108	-0.1110408443161674	2.869104504379882
0.8776558844730553	-3.357116183340075	-27.86882536748814	2.286802436855115	-2.544539686435511	4.079394080789825	31.10802992240086	21.52056647163363	-13.4080401691487	1.34101890827744	-32.43474478092193	-42.50197834940763	2.169053879525077	15.87741105547646	7.805939418882925	-0.4569121975279786	-7.089070344293448	-2.467023460596737	-0.01656346458857752	-12.62860491830039	-28.42981235583774	-0.039852615620399	-1.594690209904816	-1.417432360597362	-0.6068909079235651	-2.664738765616182	-3.12106083094548	-0.3991100516663123	1.488970191771406	-35.53467314825028	0.9201047254486472	0.8809387344725612	-0.02659442432815383	-0.03716380041170828	-0.5257949768115429	10.15587904608035	-0.003800620433765603	0.04749544602609038	0.01105375114183444	-0.1213261009095398	-0.09421465761178571	3.379930268398357
0.8920312594138311	-2.479312752124699	-28.37327360097499	0.9402787864712555	-1.777138305742223	2.984727563923514	25.28027144156012	19.10677022670251	-14.87129623625688	2.34105212296465	-29.22167104304132	-41.92538801556605	2.052602526140313	17.19437108050892	7.903605529077815	-0.0138636406193029	-5.513869924085676	-3.39349156429214	-0.01418160163340335	-9.82280343324728	-28.3141740266089	-0.03956272878598664	-0.7477288726446725	-0.5609751219454776	0.01169792186210739	-1.834210043624331	-1.65145107839327	-0.0710425902687154	1.3073982153155	-37.70547529990181	3.731577237609266	1.4784118474067	-0.06136965334491068	-0.02593413305907083	-0.5231814358062857	10.23359519342521	0.177784262389775	-0.3571897694359029	0.09742750769452184	-0.1852210250243309	-0.05363382043181764	3.831050360598163
0.8960000000000002	-1.261398945164874	-22.93289619502908	-0.5251859111762424	-0.8124429766135421	1.429496817999791	25.70913663997552	17.29332458075834	-13.71916055992338	2.444415410221915	-27.82473996901042	-44.35107264464069	2.040677970597058	19.03515477181481	9.063122135772325	-1.517225015986507	-4.53973870668196	-3.276139538313978	-0.01269022578736515	-9.064623712950155	-29.45005687009991	-0.03990436017553478	-2.595479672283032	0.05141597087703575	0.4779713646253806	0.3822308436292231	-2.295810084903518	-0.3620422527850666	1.536529172597914	-38.12332368281962	3.117116065924476	1.932028071009949	-0.03282276549086757	-0.0507039254439545	-0.6039786673751579	10.15418552441807	0.2284124269296145	-0.2573426687535546	0.04184267919767098	-0.2395422129175099	-0.09284065691613477	3.96832484463999
0.9055128561131143	-3.891452901821403	-21.61939227720979	0.9229473791507909	-2.797760862981706	3.819377089457817	18.7163164489209	17.00827849027263	-14.96049778242752	3.32960349082083	-26.14372304815329	-46.90256311772715	2.294222348990171	16.9797409149028	7.649384603579595	0.4576135433483596	-4.474161932864654	-4.324456818029077	-0.01095829379880828	-7.252005269326771	-30.68778845359637	-0.03991783933027727	0.7771169110215019	-1.484815127539468	-0.601047079343244	0.2753478764519815	-1.215014293385835	-0.1656884916177972	1.847125859640762	-39.76271829331915	3.573667696381154	2.590431413744451	-0.07849161032435109	-0.05703877150358616	-0.8772433424123762	10.2829561152302	0.08885530078597544	-0.3470128034229402	0.114465098150924	-0.3485862420416322	-0.1022459997310343	4.363606850922986
0.9224558844730553	-4.512901495849507	-15.79389067303809	0.2817444358818944	-3.489092478334673	2.600777781675845	14.97038209237412	14.9633025417704	-13.75477072160333	3.858953453190904	-22.40123313910922	-49.29711321942964	1.928266559349127	15.69520363654964	6.708586636645204	-0.2291671429668183	-3.058009554733098	-4.595694628056897	-0.009233226970489856	-4.046576219006954	-31.49478883782926	-0.03938107500035229	-0.8118790435009926	-3.127826772970688	-1.55555281368936	-0.3341523827459987	-0.1557730591546306	0.0834009924809562	1.690798317316565	-42.06638545011962	2.650644898414537	2.919963242214154	-0.09346502358055911	-0.05326729443937173	-0.8657032317455965	10.39593591523563	-0.05902393416395607	-0.2465584542583215	0.1818831217888874	-0.3958393128875036	-0.08558588094981737	4.953593478487562
0.9368312594138312	-2.451365410995678	-10.90659638309795	1.190229089937717	-1.948134692610759	0.248246542034849	7.929400848404551	13.47061897897905	-12.73130484367179	4.177646840815233	-19.34008789591277	-52.45571365067747	2.031267570032472	16.26642293047807	4.972959418485313	1.104129533856038	-1.702751080668023	-4.591371960992834	-0.008543036862419029	-1.309296531388177	-33.08171082201153	-0.03847308215680827	0.04445377081616941	-2.075985402851558	-0.7582321587482772	-1.835206118996315	0.1328039596362715	0.3659084794954085	1.523382172500019	-44.02119336631829	4.404649892320192	1.968957448422314	-0.1002717293647316	-0.014940519150906	-0.7654570152944776	10.46819707912914	0.1215868388215801	-0.507997549718712	0.1964425881728795	-0.2250608187267074	-0.06936077106256824	5.387794665517509
0.9408000000000003	-1.454169751899791	-7.045359234229454	-1.820250661241057	-0.9297308102741226	0.08059546992632249	6.478824754921817	11.43540263212689	-11.93060211588187	4.096101503802775	-18.36454797625312	-53.95157654990746	1.937264004188217	18.90088842974226	6.375946891937117	-0.8992184446210394	-0.6796513326014086	-4.343350954435495	-0.00724153721218642	-0.7489621709260064	-33.90688037606873	-0.03827398802731496	-0.890454074439343	-1.387167382757224	-0.3844949411662679	2.315628170898419	-0.465726633548987	-0.08572786562204282	1.732836764337013	-44.28683677044814	3.634002047108312	3.279159947519235	-0.07129190775985933	-0.06188873032334474	-0.8578948181840758	10.38241841776131	0.1504387594894841	-0.3844768164905371	0.1435353514459919	-0.4043862309407794	-0.09670229901541622	5.485686499469996
0.9503128561131143	-2.544596608698185	-5.332445006172419	0.6938142988030344	-2.257628233134126	-2.354060592661256	4.162674474570863	12.31372468208452	-11.16716472029859	3.998899484069894	-16.5890203807028	-55.79437586148948	1.772376110639877	15.33331259540545	2.482292119123349	0.1639787713623105	-1.13511735218813	-4.387233305276072	-0.006547568447934381	1.010179939716806	-34.34193892181658	-0.03880115506374012	-0.7117365903264812	-4.180973059202594	-1.654469821569256	-1.462621111277091	1.184313073831879	0.5617461522431884	1.980223591914872	-46.04466253381104	3.790793397749876	2.515227469034047	-0.1277834036449296	-0.02370236959842653	-1.018565669515037	10.58926688002559	-0.02568280072148483	-0.4668243173280486	0.2435809095797705	-0.2971854694059012	-0.1176524460396121	5.858559457023309
0.9672558844730554	-1.840349725086742	2.916658800612258	-1.984238799837208	-1.995966552945745	-5.548592676946441	-3.575493896902351	10.55249329113727	-6.599037599287575	2.581703310953814	-13.48712473383337	-59.78113118649659	1.527335299299154	13.94814282540624	-1.042861270074511	-3.358358492380106	0.04746005505029804	-2.297799959194598	-0.006908371352924374	3.930516865399788	-36.03253413642253	-0.03869233986704777	-6.99435464580886	-5.556980528116547	-2.045246673256957	-2.090772168619725	2.292429245798027	0.9087106000296825	1.338238257174496	-48.60222939040227	1.392313025667529	2.68652808342138	-0.1058240149335266	-0.01915381753073614	-0.5781454912081655	10.80680569711118	-0.1465010402629833	-0.2010065620428222	0.2975270343118879	-0.3099139929860061	-0.0740512096728573	6.328584205529296
0.9816312594138312	-0.7763224295122839	8.572871244100989	-0.4380158923265565	-1.333938311352837	-5.209172342476677	-7.945575780190275	8.222687882810249	-3.798258020788519	1.639343809179287	-11.17800240698898	-63.40943410957095	1.202994492264138	15.39036395864893	-2.011639814957152	-0.3352527850252115	1.789180082655348	-0.4640469636005263	-0.007170476060691279	6.415046667541489	-38.14653549904816	-0.03803232581182981	-3.3856966823385	-2.07792180717641	-0.423887265049725	-3.472719412815124	1.651005146289867	1.064469185237293	1.34967121481085	-50.8686178335748	2.780172184827606	1.328647065103628	-0.05658259521660683	0.02104360049726237	-0.4560564838249408	10.87983303400067	0.1664720527007706	-0.3620416622298042	0.2648274018487424	-0.08148908528074271	-0.07230567329513918	6.726765150705546
0.9856000000000004	-1.70134347808262	9.55334065308424	-1.54015812672156	-1.126025459125884	-2.473043895719172	-12.62519007267347	3.177146887210957	-3.116582127013117	1.628705386845515	-10.7854687149731	-63.34493607214594	0.8868453031075544	21.29539887903691	-1.346334392955109	0.5869265234382885	5.130299165765616	0.08492435429110387	-0.007760049360415138	6.588449910463291	-38.31968727245293	-0.03680614567804389	1.601370041092339	-2.387078277657838	-0.4722617853066807	1.973281152406608	1.185418871568061	0.4558858449445321	1.499468379415609	-51.39046622210188	3.921562778649167	3.511064703508925	-0.09195432636735854	-0.04705739099608985	-0.6069207816302014	10.79941371365334	0.1683695709727198	-0.4818865987943028	0.2273646560325105	-0.3980521789137512	-0.08695916324281139	6.829647099680191
0.9951128561131144	-1.139643310175313	9.082308030464864	-2.088699307562841	-2.517415808263525	-7.319599944327877	-9.074903990845783	1.333877152791537	-1.825436024516924	1.144967112283226	-8.729607588675641	-63.35634007173532	0.4357474365066354	19.93676499717993	-4.648554198982069	-0.8709046523714992	6.449930866437587	0.9069012688864523	-0.006994851398293945	8.574235586331096	-37.85647306824999	-0.03844450620142534	-3.267368938682916	-3.50426306664058	-0.7397828480978039	-1.681644710717264	2.091889263310664	0.979007470539898	1.720514724587747	-53.7746421813693	2.679164200731459	2.126244581456957	-0.0743416164440707	-0.008586568616569451	-0.7694342167002943	11.20542597289987	0.1081481675231465	-0.3991069129326333	0.2567513763324408	-0.1881334553217408	-0.1104925113981199	7.248792479316823
1.012055884473055	-0.9358532344973121	15.05727777822495	-4.363667405346837	-3.356743262313342	-8.286476059915572	-17.95327206018364	-9.72852161495665	1.899754391282132	0.3500724684340777	-5.548059010445712	-68.3652231982321	0.05786761275513284	27.33090818049214	-8.669732591469481	-1.196553630427248	14.17820207120883	3.915840041841018	-0.01081448196419744	11.40599811712922	-40.21936090796433	-0.04020870114512991	-3.500861462529121	-4.886956614220371	-0.8530287501377105	-1.275976900263691	2.275247822567892	0.9614810220685585	1.169653833513536	-57.67545731117499	2.49935348483237	2.171993564346951	-0.07986649703860284	-0.02001451131422924	-0.6009811895913877	11.77542931389717	0.0612596152712067	-0.4390277802977027	0.2324547865354666	-0.1859028813471124	-0.07432955225436814	7.909540645813153
1.026431259413831	-0.7283673289687584	18.16357630378463	-3.003454755355734	-2.196988672502377	-7.422977569853629	-18.6553186689942	-19.61594980317049	4.229753636966056	-0.04524920484816297	-3.74238936883763	-72.1119550714856	-0.6181845898964533	36.99934461334468	-8.737235306108722	3.580644474281284	20.84048041335557	6.882342272701135	-0.01822480506117933	13.25361767960424	-42.61593874358453	-0.03865070730040744	5.631782725581842	-2.443463754074218	0.1361211574773185	0.1759389730826245	0.9330279427463612	0.6090086366152073	0.7549062537020511	-60.75610134822583	5.068653034922615	2.227939365853894	-0.05822490908778666	-0.02503243325766398	-0.4149554398143473	12.1056648305006	0.3160456704283302	-0.7043731731919731	0.1819176663586192	-0.1839651076262604	-0.03979563956986119	8.429653871246575
1.0304	-1.512191060213631	20.37489960045218	-0.3146443499888468	-1.439254630752099	-4.704230891730845	-25.34727091903805	-24.38175043752901	4.207358950999712	0.04817662354603325	-3.103881932243862	-73.29438253385969	-0.8833754855100233	42.91360973047765	-9.230570526479418	8.002440745864462	23.51577105252167	7.386048423756327	-0.0205996210254147	12.86715819101349	-43.25651369422556	-0.0383642143284199	14.85310405971119	-4.327590903473137	-0.09304831442342887	3.278751116321743	0.8280514674762046	0.254763333389022	0.7200013082968554	-61.58902653296725	8.041580788458234	3.891006927083252	-0.1595463576786191	-0.07113114033106457	-0.4393941551129861	12.01973180993189	0.3272150935115979	-1.062252964632839	0.1815018470671317	-0.4310485182083773	-0.04513904557472678	8.581049172251975
1.039912856113114	-0.8563594372354757	20.14206985911065	-5.584693566375683	-2.976682445061988	-8.244304253964515	-23.40965308484135	-27.58725787930742	7.15893867946399	-1.031776992814936	-1.670357963505636	-72.90013214082634	-1.217530897659521	43.3657446339062	-10.35438839488265	2.110946136873892	25.51033857811607	9.374842691181231	-0.02207177067968228	14.53113177002711	-42.93541202957748	-0.03952843973131522	4.410129931167584	-4.262294363005437	-0.07006764399521326	3.187481182731864	0.4623447703096532	0.02955940218700182	0.8275776336985712	-64.18015106141783	4.771388061295377	3.271128546303571	-0.06387715340093147	-0.07240350110992477	-0.5604135866522595	12.57912487741146	0.227225367694592	-0.729387461999122	0.1188220247851935	-0.3330293737394231	-0.06153490869991887	9.026902468855276
1.056855884473055	-0.8850227527032501	29.65541712492229	-5.844847528814594	-2.832407592569426	-8.207409249819761	-34.12953157946054	-35.39400318061691	7.453198528189258	-0.8258298681773848	-0.4452813270733367	-82.69704283741197	-1.470749087931122	51.02786730661246	-11.90011359839651	3.198304511488737	29.66464186334609	10.29804775232258	-0.02416902316307634	15.0382580391659	-47.72396983383217	-0.03972866898431524	6.101580284005779	-7.033086337970312	-0.1732104107236271	4.80382275464666	-0.2958654893326816	-0.5267580380123649	-0.03022572378005768	-67.93776625717003	5.685185918191944	3.561969364236041	-0.09197175332736385	-0.1015473530860525	-0.3580616590097379	12.95021287215437	0.1375867282800869	-0.9132382077065878	0.04062814302191056	-0.3711487991284723	0.0002872319306327902	9.654941595215343
1.071231259413831	-1.251906539619334	36.18997807023955	-5.354879560579009	-1.365484817621066	-6.180751701846759	-42.41223615661714	-37.55717887753161	8.64166198408585	-0.6387248806042782	0.6328523984628156	-87.16117512704506	-1.682940605323264	54.410235862345	-8.040992461282574	6.028991991683487	29.80130804339788	10.91547181262045	-0.02520131307524096	15.12053408353388	-50.52893669293808	-0.03852276389817144	11.79606654407034	-5.158972059881501	0.2307790429074768	7.105332173467724	-1.53760439462144	-0.9866959668055655	-0.5243591786660781	-71.04351899721433	6.780214024608951	4.839800399652417	-0.08459994889266353	-0.129045635814965	-0.1423320215225209	13.11607416151417	0.2685509657916068	-0.9600619132847553	0.0396902397877104	-0.5522786927846191	0.04719362050095328	10.10781491788715
1.075200000000001	-1.690311601201174	39.86554383481668	-0.7430725847802727	-1.301956975789217	-3.730472741065057	-48.59117959031079	-36.73602376476786	5.671852770489199	0.4271536577254906	1.622163150416118	-90.50766186797757	-1.851782789812086	54.49770588506146	-7.644132338781233	11.73120317709444	27.64746531939911	8.834580825352173	-0.02279725128671514	14.51670635256519	-51.81779798771242	-0.04067947934588705	19.73328810435287	-7.091471468566717	0.09467019312468805	7.496434754452514	-1.378374817185189	-0.9857666365220799	-0.1521350279008898	-72.36411740536508	9.589348407678008	5.388784636337792	-0.1766648445657008	-0.1408384720203272	-0.2814175964245664	13.07386124564727	0.3194364683917487	-1.301997477206447	0.05701757550948849	-0.6302001111256051	0.004095170586193381	10.29221312881659
1.084712856113115	-1.635755696190543	43.21218527308974	-7.088654605153738	-1.510612120107176	-5.857468388914185	-50.93168516103432	-39.35192598504052	7.270483719754963	0.0783098540543774	2.047068952671724	-92.67685169598691	-1.662322342269464	56.11920118585883	-5.530657016086121	5.82226920784196	29.57323419209438	9.798192445180767	-0.02256296011536661	14.95232557771416	-53.04050162856581	-0.03928208743183925	8.014175026913032	-6.229309567380619	0.121717952313283	9.97952426393169	-2.472534969520183	-1.878422577029907	-0.1303194758625	-73.79347873777074	5.611113779649052	5.873191432677212	-0.06944006523193436	-0.1795050525352987	-0.3309620419544317	13.26242794310224	0.1566456157433547	-0.8528977717230052	-0.05002890265523934	-0.7062058095053001	-0.003911178586696184	10.55530160034577
1.101655884473056	-2.801605622389602	55.6718296425782	-6.234553657567957	-1.522342227873189	-2.788245032600571	-66.1223769878509	-38.29169885423017	7.065891753400164	0.3780639317640446	3.043844894097772	-102.8463857804053	-1.326872643885852	54.31074795550784	-3.829184070354406	7.59557210390104	27.47809728647115	8.890108416003377	-0.01874851432280387	14.14298779265845	-57.92936195540614	-0.03816545298207501	5.694011135756374	-6.136233676101361	0.1706192205239182	8.416243490941685	-3.143477755105819	-2.130197161006039	-0.4352498468708773	-77.22437573314969	4.763854724560172	5.113625116340391	-0.04186256445769843	-0.1728340006903368	-0.268935113955671	13.21346537999264	0.1185787465112044	-0.7523249987401618	-0.1015700979436978	-0.5906904639313751	0.02667417096476065	10.88394641031001
1.116031259413831	-1.797961066908343	63.17965698205867	-11.65947943556961	-0.5828647141649057	-0.8535097037909054	-71.05875469566197	-34.67392142226073	0.1194948370966566	3.524045306309733	3.000799758040578	-109.0109604409273	-0.7719215269843631	52.47000092977476	4.52928316362928	5.987337462378867	24.63185828336314	4.494566925371317	-0.01614495411941927	13.18507070982189	-60.97310594430031	-0.03672234777559268	4.37229699099976	-3.288334211935573	0.1315035787222381	9.925338917422341	-3.293058310957907	-2.105680786463961	-0.3019960487141909	-78.01746177840249	3.158919883144319	6.065539001938046	-0.03069636517706359	-0.1796833237606597	-0.2006568688702847	12.6581340950354	0.1377249496887419	-0.4509964790832364	-0.0511038982316349	-0.7160791343767954	0.01621387499327907	11.07204630544789
1.12	-25.01142570488937	288.8200906937474	-0.8853295559314103	-19.06470362079665	10.86430171402174	-312.5117212826937	-29.67474654906531	1.524869292371746	3.118433019477672	-15.9497510292592	-313.865963700582	-22.89890394599442	52.11846121661265	5.085847690119902	8.028232464182226	22.00011306668194	4.727551815541078	-0.01540876099148818	5.078280855557318	-170.2997901207615	-0.03600495539102768	7.355366855377058	-3.149849753784681	0.2122129540522777	9.8984007506086	-3.303879428627354	-2.111357442925367	-0.1518890151763852	-66.44527415792044	4.140722056824483	6.077991407325489	-0.04424953904898099	-0.1793820324539857	-0.1290959674876883	-17.78321658676317	0.2007934247842843	-0.5577896954154243	-0.04965282995893087	-0.7178173623165026	0.002141757883369403	10.03502008419347
