DataType=double
version=3
OpenSimVersion=4.5
endheader
time	ground_force_2_vx	ground_force_2_vy	ground_force_2_vz	ground_force_2_px	ground_force_2_py	ground_force_2_pz	ground_moment_2_mx	ground_moment_2_my	ground_moment_2_mz	ground_force_1_vx	ground_force_1_vy	ground_force_1_vz	ground_force_1_px	ground_force_1_py	ground_force_1_pz	ground_moment_1_mx	ground_moment_1_my	ground_moment_1_mz
0	-0.4013746878963086	0.4735424042781477	0.1868738067166226	1.31475409539079	0.019297	0.5847601128036632	0	0.04324773971823716	0	83.98054152672185	673.4132076095835	84.88284640299264	0.9275950510385105	0.019297	0.3401977819809992	0	3.049234046833777	0
0.009512856113114032	-3.440600090146147	4.885558809509597	2.993476379559697	1.313388751700728	0.019297	0.5828052284452191	0	0.4963662363417336	0	43.90762156928775	751.9971179223894	88.92201297286445	0.924549422860966	0.019297	0.3392165999916072	0	0.6838339936148037	0
0.02645588447305514	-5.330029250230032	25.51455514043864	23.18986307686613	1.194075498550975	0.019297	0.537366181011834	0	0.007871615647980779	0	57.92066459788047	780.2312127859171	83.22774838013144	0.9175815948872893	0.019297	0.3382461904757215	0	-0.06424113176760926	0
0.04083125941383081	32.95810774831168	69.61392565892017	55.28796231801533	1.19147619358544	0.019297	0.5394072398907684	0	0.07653327141823052	0	52.32909134590767	749.1717896081259	79.26760404064677	0.9128629424304849	0.019297	0.337844251364971	0	-0.5285679614423264	0
0.04479999999999995	57.12228678619671	93.89174243016186	61.21110022672067	1.201544329295912	0.019297	0.5414239585007007	0	0.4493279552514879	0	71.7161171857023	738.5772299228815	73.70017426305138	0.9111689216193914	0.019297	0.3377461370509334	0	-0.4115751081247963	0
0.05431285611311398	-3.911664282722001	198.7829647933657	18.02732264403815	1.229152283425688	0.019297	0.549159872992372	0	2.018368272849455	0	64.20622211788356	722.147475428173	78.16264727172292	0.9072251276539469	0.019297	0.3378478425332274	0	-0.2685032694496119	0
0.07125588447305514	-28.21776647530236	396.7654834111095	-23.59611698065506	1.233469267743393	0.019297	0.5594242178890103	0	4.212869539628683	0	66.47207928829467	654.3167042275553	71.84073374831171	0.8989876108700221	0.019297	0.3390111642037474	0	0.185997175946957	0
0.08563125941383082	-22.86411814656329	428.8367396448796	-18.47668428852225	1.22337884082325	0.019297	0.5610280893084563	0	4.002304329455044	0	61.4457837906816	567.5423071020972	63.48162829844517	0.8926589590190037	0.019297	0.3410655317311266	0	0.3331859550947449	0
0.08960000000000001	-32.59981177693857	427.5272409965158	-19.87028906125069	1.221886342237206	0.019297	0.5613173243885019	0	3.841257031480482	0	64.68921054077533	543.3801993763291	58.23192819228675	0.8908926159164934	0.019297	0.3417136943452385	0	0.3805758786597124	0
0.0991128561131141	-42.40088623112094	413.9091367000731	-22.47349546959242	1.215561832627789	0.019297	0.5613214409476859	0	3.691492044938364	0	59.9817380272829	491.4290368368336	56.06149449168208	0.8864652694429398	0.019297	0.3432325142100876	0	0.4791790576086301	0
0.1160558844730551	-58.89087484243448	429.338595118832	-34.12777540267928	1.204895949370586	0.019297	0.5620322733411305	0	2.35965894109058	0	51.44732397629159	401.9086752249875	46.20249399741492	0.8776443071016334	0.019297	0.345487092430421	0	0.5284711329345799	0
0.1304312594138309	-60.74890121001498	520.705028017214	-43.98749140703504	1.198023104316982	0.019297	0.5647738005110099	0	1.963065256246793	0	38.46836737684348	318.315876475665	36.37804350673507	0.8702736925441882	0.019297	0.3468177949050958	0	0.232268827497526	0
0.1344	-58.88682684998211	554.5015370684002	-48.31112537780717	1.196170689136375	0.019297	0.565776164318426	0	1.968851411758072	0	18.09856340687282	292.1096616740084	35.17896802050137	0.8683290292040002	0.019297	0.3469909210929817	0	0.2670344647897709	0
0.1439128561131141	-59.65601379331945	619.0371553249403	-53.91637246964554	1.189181885594354	0.019297	0.5674939024911375	0	3.573564762054803	0	22.26964640413271	236.336446909036	28.12352435301962	0.8631742011543472	0.019297	0.34771032357975	0	0.07147326083715355	0
0.1608558844730551	-50.0019005806894	679.5236058888312	-60.80821817497719	1.173143250286788	0.019297	0.5686371213080487	0	3.661457453621269	0	-0.09516505200536587	132.1945496007237	8.526950999521377	0.8528166505200377	0.019297	0.3497634845508437	0	-0.1867040487385114	0
0.1752312594138309	-44.14600509633365	712.7365761428267	-63.93427970906092	1.161139398574744	0.019297	0.5691734842305881	0	2.208002431842353	0	-34.33033146879546	37.21406357820677	4.313121637160624	0.8464425281503014	0.019297	0.353768339085281	0	-0.01491787363335359	0
0.1792	-44.29783513128774	725.3290537779636	-67.4120357480203	1.158566333862311	0.019297	0.5694938621886176	0	2.004891952296914	0	-20.97265219903533	22.74896807446861	2.924049422427176	0.8460355807310308	0.019297	0.3524003650846847	0	-0.00699432390810352	0
0.1887128561131141	-42.02661910855996	738.8648973821842	-69.53868044237872	1.151481311967717	0.019297	0.5699522185861244	0	2.247417448707867	0	-1.594094753829757	1.727641430051253	-0.2392064326324699	0.8046134776183183	0.019297	0.3713565128518465	0	0.05889610263594591	0
0.2056558844730552	-37.15825515049897	752.8034584892207	-75.548742614745	1.140367673463401	0.019297	0.5707933222962182	0	1.254683977175418	0	0.1513829475820128	-0.1654126968723992	0.03002292499863546	0.8094669427973427	0.019297	0.3746522834143157	0	0.001830012996490024	0
0.2200312594138309	-36.17576463688215	765.1485000206503	-80.04694010663555	1.133123961389908	0.019297	0.5718645909763765	0	0.5061205999697402	0	0.1912321358565327	-0.2065169141230346	0.02384447408082186	0.8175275399725868	0.019297	0.3770326976841873	0	0.00162809636198929	0
0.224	-35.98928061524169	767.0488961166881	-82.17799791888872	1.13129761539455	0.019297	0.5721915004942679	0	0.2721546921686719	0	0.2026560035654853	-0.2185668802961983	0.02303053407202455	0.8203302708274246	0.019297	0.3776283525404835	0	0.001553807574268288	0
0.2335128561131141	-35.98040499479046	764.0653960758517	-83.32167059635751	1.126559553994849	0.019297	0.5728379356774603	0	0.1894371063711811	0	0.2267332169237443	-0.2438460492056651	0.01904791671771152	0.8281249316487673	0.019297	0.3788916137701348	0	0.001424184896039649	0
0.2504558844730551	-35.78750639745282	761.873002469121	-83.42168273898639	1.118740680154947	0.019297	0.5740384289807482	0	-0.3165272368212111	0	0.2573905007731225	-0.276146756864259	0.01101959615610376	0.8455643939531098	0.019297	0.3806825581032519	0	0.0009335759019723619	0
0.2648312594138309	-36.03120342679959	765.7488289754447	-80.91411946474707	1.112612952984742	0.019297	0.5752337430100815	0	-0.4368611284416295	0	0.2767564991322339	-0.2967461021261076	0.008530598017868526	0.8636443668505608	0.019297	0.3817609080751317	0	0.0004695027492768117	0
0.2688	-36.30530948017785	765.0716802332336	-80.32916052257195	1.110817281137281	0.019297	0.5755334647449254	0	-0.4524327024725459	0	0.2794655522238979	-0.2996132005211051	0.007898290333002267	0.8690981515696833	0.019297	0.3819959437465889	0	0.0003704235945613779	0
0.2783128561131141	-35.48034703499618	760.3929656237574	-78.60647341462757	1.106126497173167	0.019297	0.576152511169682	0	-0.3037168707180063	0	0.2826604581391351	-0.3029618046007502	0.005272671930942489	0.8829985680581788	0.019297	0.382361331430609	0	0.0001666588222288489	0
0.2952558844730552	-33.72048090774946	760.1176343650857	-73.72863132812299	1.097402953845964	0.019297	0.577237278759785	0	0.04984377150751748	0	0.272721627200524	-0.2922576107984601	-0.001197221885262978	0.9104691031152559	0.019297	0.3822847110076523	0	-0.0002805392986350724	0
0.3096312594138309	-31.53705835531391	765.9831160973092	-69.19546637060394	1.089309680295012	0.019297	0.5781834387241993	0	0.7881394808361201	0	0.2513957557808236	-0.2694345389039683	-0.005088445537799613	0.9362681222542317	0.019297	0.3813642962458474	0	-0.0007102215204880806	0
0.3136000000000001	-30.26354489693606	766.0093181447592	-67.86041716692266	1.086829638381985	0.019297	0.5783956024255869	0	1.029034483735614	0	0.2429077995074516	-0.2603581832058243	-0.00595500141369706	0.9437529229735583	0.019297	0.3809603696127339	0	-0.0007772751941305892	0
0.3231128561131141	-28.41820932408558	766.5182362425677	-66.35790751128317	1.080627830282819	0.019297	0.5788682346064109	0	1.427232291383053	0	0.217001408867771	-0.2326847367520923	-0.008208637650050086	0.9623222166758955	0.019297	0.3796875973226185	0	-0.0007729526195700454	0
0.3400558844730551	-23.43926672320082	777.8735769461023	-62.02977359775669	1.069205052067569	0.019297	0.5798131006323926	0	2.303619182080384	0	0.0365172850643208	-0.03916389389816245	-0.001733235037508258	0.9974341050686788	0.019297	0.3763448732264157	0	0.003204169392701256	0
0.3544312594138309	-18.70541948677486	791.4234410566661	-59.31976390666384	1.059045614967361	0.019297	0.5807125813882341	0	3.244676839931295	0	-0.1760229152709853	0.1891102600900895	0.01297014150535997	1.029097417767965	0.019297	0.3724701332958275	0	0.006649961965542756	0
0.3584000000000001	-16.81449683822138	792.9069886113084	-58.06666714822326	1.056083807011666	0.019297	0.5809188327639816	0	3.529013304075524	0	-0.3397438414824822	0.3649082764846555	0.02388606552412711	1.038135544298564	0.019297	0.3712468534298878	0	0.00892168740044596	0
0.3679128561131141	-13.94987711136389	794.6842220732365	-56.9519673475308	1.048883469091153	0.019297	0.5813554179176648	0	3.819822704733992	0	-0.6884527447726116	0.7395190862594645	0.04935643727749153	1.060246604372519	0.019297	0.3680591071795044	0	0.007089207708436623	0
0.3848558844730551	-8.243328384518403	794.2492178232758	-53.06682124381797	1.036250890864891	0.019297	0.582066187288139	0	4.135854652732144	0	-0.6600612770464406	0.7088659601810895	0.04570908671287045	1.101105003980125	0.019297	0.3615669084878653	0	-0.003403751364202182	0
0.3992312594138309	-4.417956504156562	787.3045049783684	-52.66860861990308	1.02586230240916	0.019297	0.5826694255443119	0	4.241850812568855	0	-0.4856055504114377	0.5211583820823567	0.02885769064857899	1.137021949885807	0.019297	0.3554441901817851	0	-0.004591945481686325	0
0.4032	-2.741801400513554	783.5037738305349	-51.852008960829	1.023016250779771	0.019297	0.5828265095642777	0	4.254633341478883	0	-0.6220316135909905	0.667460363927217	0.03463860130308862	1.14710227014272	0.019297	0.3537006368086114	0	-0.005926200051942217	0
0.4127128561131141	-1.353397704520867	772.7507068359502	-52.92011920548173	1.016308294159944	0.019297	0.5831915371053065	0	3.9731112596929	0	-0.747354088754609	0.8016721730254296	0.03588274618016538	1.171168796912036	0.019297	0.3495864376840042	0	-0.008293538652648856	0
0.4296558844730551	-0.03067598880904399	746.3262040496049	-54.03979967206126	1.005089835463489	0.019297	0.5838498762442288	0	3.230810853339842	0	-0.1880669090208135	0.2025868748987344	0.01508203513394161	1.212675046843458	0.019297	0.3428372867169063	0	-0.004668628280734392	0
0.4440312594138309	0.103077579473819	722.5258785014366	-58.84162476445992	0.9962711924458956	0.019297	0.5845448248041458	0	2.577691574258328	0	-0.723656963319774	0.7858645300911105	0.119244458056314	1.244903198007127	0.019297	0.3382870655106147	0	-0.02653598271730187	0
0.448	1.284673596035427	716.7288794791136	-57.65583703433634	0.9938521720848927	0.019297	0.584772386005376	0	2.740321480107514	0	-0.8087017580905205	0.8772947055402939	0.1279774062810695	1.253079125421461	0.019297	0.3372986480212882	0	-0.02969429918099863	0
0.457512856113114	1.905930368862894	703.5671510540502	-61.57172727276833	0.9880297830377579	0.019297	0.5853079081391912	0	2.100629887046237	0	-0.5522028689579005	0.5969558868280319	0.07425430795709129	1.271258382263631	0.019297	0.3354288100270079	0	-0.02127523216222549	0
0.4744558844730551	6.63814246069767	686.9653036562286	-63.92497795822082	0.9779868653590685	0.019297	0.5864144546213312	0	1.350590169268686	0	-0.07057401489718143	0.07575856986787102	0.0053775719077952	1.297758842740096	0.019297	0.3338868406573635	0	-0.004626555627705633	0
0.4888312594138309	10.40901398237528	684.7321232496178	-69.74829382569634	0.9700273906667904	0.019297	0.5877021811999998	0	0.8464994291102554	0	0.01211762162367487	-0.01303248543465824	0.001200113837262122	1.314230400170791	0.019297	0.3341456415129501	0	-0.001896767599439493	0
0.4928	12.69186422378739	684.8915561377147	-66.57286311242356	0.9678021392070554	0.019297	0.5881215394014379	0	1.660937545426895	0	0.02056797550750941	-0.02212408392923829	0.00183358337991772	1.317914470067327	0.019297	0.3344516571050538	0	-0.001706876794049957	0
0.502312856113114	15.40795626438032	686.2282455197453	-71.55634378744246	0.9624672573869267	0.019297	0.5890646834698585	0	0.9438535491424802	0	0.02964856328091159	-0.0319758783322744	0.00339077353227556	1.325128901474352	0.019297	0.3355043070181987	0	-0.001618451385545047	0
0.519255884473055	22.75260020374598	693.4353611503076	-73.37173623181089	0.95271062327481	0.019297	0.5908018719874153	0	1.044162083521381	0	0.02102273566209665	-0.02212402781276245	0.0003289989081718199	1.332376758642827	0.019297	0.3383819261723759	0	-0.003041290025292158	0
0.5336312594138308	28.51451780832459	707.0561033118049	-77.44068164922314	0.9444586732718968	0.019297	0.5924492560679353	0	1.220819973685715	0	-0.2291578768595588	0.2777337424927568	-0.1237849968804346	1.333904835156797	0.019297	0.3416729599749519	0	-0.03070675568140476	0
0.5376	30.55611165547718	709.8272707055771	-75.80821972144351	0.9421697096470076	0.019297	0.5929458765147338	0	2.014703827404141	0	-0.5024774290063277	0.6212262298625341	-0.2911891731889515	1.333856077627118	0.019297	0.3426904134185572	0	-0.06385017395421426	0
0.547112856113114	35.25541278376359	716.0260625390465	-78.55401993980162	0.9367760126527043	0.019297	0.5940635197503412	0	1.836688086658316	0	-1.991574299347409	2.659215540084313	-1.481353466569254	1.332889368608816	0.019297	0.3453116166201004	0	-0.2730122343899983	0
0.5640558844730551	44.97390945375808	722.3258496499086	-80.73724364006512	0.9274042890241895	0.019297	0.5959626890140598	0	2.022319903264419	0	-6.502181970934934	12.62604033088318	-9.80907924479734	1.219217774711916	0.019297	0.4007127963777378	0	0.003584817166129683	0
0.5784312594138308	50.87044239506198	722.9969154320095	-83.0670818759348	0.9200694393765501	0.019297	0.5975658878280907	0	2.348575509526428	0	-0.2138466690102334	34.15646051235715	-20.84386503636199	1.211787675344359	0.019297	0.3967642065149471	0	0.1606690109966102	0
0.5823999999999999	52.72608746480519	720.6976446305678	-84.35844716422883	0.9181346155581703	0.019297	0.5980292755969235	0	2.210124633223177	0	0.3534981026190505	46.25160249748259	-4.875505512796139	1.211270719341661	0.019297	0.3947269907176227	0	0.3974649042013338	0
0.5919128561131139	58.22743303946162	713.4208791594431	-84.03902703441616	0.9135383016629418	0.019297	0.5990166834202203	0	2.098828324250484	0	4.12710036952883	105.1102406586306	-11.56486716745362	1.227789440844494	0.019297	0.3888594711467699	0	2.382162029719613	0
0.6088558844730551	65.19275296020146	678.3192790341692	-82.61221384131801	0.9055890275900571	0.019297	0.6001790577070553	0	0.796230372060494	0	-44.90390772900007	372.3021679957589	13.54500354193648	1.283106622477609	0.019297	0.3729728502343797	0	-1.566214399409478	0
0.6232312594138308	68.98811328068736	624.0804921495161	-74.74611713029228	0.8983797042865275	0.019297	0.6000630146825959	0	0.5390021857130503	0	-42.02692297306864	364.9243498257564	17.53255917448099	1.262759806056934	0.019297	0.3749737880461424	0	-2.096801964114448	0
0.6272	68.8133443794338	605.904732617427	-73.06082811067873	0.8964389705828938	0.019297	0.5998830694081099	0	0.3099297671159862	0	-49.87752307828688	353.5409845315006	14.17243632964848	1.259203182212786	0.019297	0.3756970153005993	0	-2.031507576484381	0
0.636712856113114	68.19396403170697	562.4722947328636	-66.07025171160785	0.8919159171561003	0.019297	0.5992709130640678	0	0.04351698995960618	0	-46.73261095758006	319.0428431231156	14.15029080563893	1.248802597289919	0.019297	0.3776448549961411	0	-1.481243742285939	0
0.6536558844730551	65.74495274817778	486.7370678581813	-54.90372251206913	0.8837597658664581	0.019297	0.5982762928863371	0	-0.7687265865792443	0	-42.24192848512685	303.8140892683115	13.29624089456435	1.243495196373919	0.019297	0.3781804903170436	0	1.475148281218127	0
0.6680312594138309	63.71637039155139	422.5277826781277	-44.33024356835082	0.8766584128930741	0.019297	0.5975626229668778	0	-0.7844281002223612	0	-78.02083672115218	363.4818077707088	32.47593334762993	1.242674358741967	0.019297	0.3753706323877802	0	2.01415739661083	0
0.672	62.99098799104662	404.6121593437739	-41.49887730394282	0.8747149629084665	0.019297	0.5972930635260898	0	-0.8722480716241243	0	-72.67490946085063	386.1548183281226	38.65654002588274	1.238762180995612	0.019297	0.374740585863328	0	1.90925442860561	0
0.6815128561131141	59.32238904029397	364.656812771655	-34.83538413745007	0.8694861110735598	0.019297	0.5968362423883788	0	-0.7622863960236823	0	-68.46145225010574	460.1950770972632	52.58947893532399	1.228667080302012	0.019297	0.372906549438056	0	2.314067363732834	0
0.6984558844730551	51.40854671750311	291.8193946560395	-23.09529004286829	0.860818777965854	0.019297	0.5969487516489973	0	-0.7029113465591332	0	-63.77674505556239	602.638106228829	69.29105585130412	1.208376561740016	0.019297	0.3700242628598304	0	1.147222801826865	0
0.712831259413831	37.30957371801875	231.9721587069334	-15.99938515898979	0.8536725139783726	0.019297	0.5974142613237917	0	-0.5061263508508034	0	-55.89856515263074	679.8237491686168	72.55447515646306	1.191285874169941	0.019297	0.3690481002331746	0	0.8067405910938112	0
0.7168000000000001	40.15371500404444	215.6583029499748	-12.84129831371436	0.8514777334037584	0.019297	0.5974681680334144	0	-0.4734451276735492	0	-59.39947415653629	695.1809785616796	69.63241757978025	1.187136602459554	0.019297	0.3689233627101499	0	0.6843748458569987	0
0.7263128561131141	13.59017858698795	169.6294790776904	-9.736447556265556	0.8457235373022224	0.019297	0.5973294918822913	0	-0.2339011138710385	0	-53.20819512140458	718.3096582604571	69.37088168179976	1.176811327919155	0.019297	0.3687912947088108	0	0.6338271659873378	0
0.7432558844730551	-0.01410243471440752	74.89512832833444	2.908874023388617	0.8361350821786611	0.019297	0.5971831889197805	0	0.05633189673031179	0	-47.47534989792769	740.6851518081406	65.75492878407459	1.159952196766047	0.019297	0.3686995887096	0	0.5249487685579877	0
0.757631259413831	-5.733779828991993	24.20044399513511	7.962309495068741	0.8297331819617919	0.019297	0.5992316564281964	0	0.03350944089712765	0	-40.07319739614242	762.35123123499	66.78666149568446	1.147788187686071	0.019297	0.3681861910549926	0	0.1738923991856272	0
0.7616000000000002	-10.5053563384044	16.05708876767175	6.616522292726155	0.8289622850084463	0.019297	0.6020395658729847	0	0.004935898386713045	0	-41.63782051145417	768.889718927574	65.52936900688171	1.1447150421643	0.019297	0.3679712181843569	0	-0.2018477313758762	0
0.7711128561131142	-1.310985473079257	1.529056251227016	0.5760211354030951	0.7963829656854617	0.019297	0.5831197042863965	0	-0.03993136502804345	0	-35.21265666043089	779.043132999578	67.94308150693784	1.13732021748394	0.019297	0.3674018937942535	0	-0.2959198717831875	0
0.7880558844730552	0.1542883064055324	-0.1658009277498179	0.00442254573869428	0.8016671114129338	0.019297	0.582930498026538	0	0.001482067015093182	0	-30.8785349621239	787.4610302246186	68.52638873152227	1.124611905637276	0.019297	0.3662176547025187	0	-0.9194007150400654	0
0.802431259413831	0.2019637987828911	-0.2169367730125367	0.01109691375200367	0.8093835086309282	0.019297	0.5829199819929797	0	0.002161750183289147	0	-24.86802076542865	793.6831883716061	69.62408457049673	1.114978453765894	0.019297	0.3648674118387988	0	-1.012749409353922	0
0.8064000000000002	0.2162973590740679	-0.2323337700071515	0.01094943377917611	0.8119960063942162	0.019297	0.5829574136746231	0	0.002356325790353288	0	-28.17441740527286	796.0709420816394	67.963471452151	1.112656941617204	0.019297	0.3644201947914544	0	-1.473113570882261	0
0.8159128561131141	0.2507786907143378	-0.2693217526963771	0.01438034422320731	0.8191277753008243	0.019297	0.5830919848705853	0	0.00278030701299502	0	-22.05910289866044	792.9007105174808	69.5596040769978	1.106536865935468	0.019297	0.3634002133437818	0	-1.152205409274276	0
0.8328558844730553	0.3077873928579766	-0.3305247791423189	0.01921685234077773	0.8349307244106963	0.019297	0.5835461413962791	0	0.003626128313524902	0	-19.73120238963594	781.6521231089279	68.67517734059102	1.095682121889445	0.019297	0.3614505336298906	0	-1.438538438601903	0
0.8472312594138312	0.3516338876780436	-0.3774729990329164	0.02038156465368338	0.8513034244696256	0.019297	0.5840899697578208	0	0.004259147354066139	0	-13.3224660250755	773.9689930388849	69.87964107326026	1.087208030097407	0.019297	0.359394067385098	0	-1.47826596845755	0
0.8512000000000002	0.3612359828375361	-0.3877588543716896	0.02064262649738493	0.8562512635818871	0.019297	0.5842558368777945	0	0.004430590821054255	0	-17.53570180043603	772.4133404591105	67.47717723737543	1.085096865826945	0.019297	0.3587805401414894	0	-1.985519669375981	0
0.8607128561131143	0.3817926414328945	-0.4097657923296757	0.02130118906386702	0.8689063227878118	0.019297	0.5847489718840009	0	0.004733304673210289	0	-11.6050216076968	761.7879145738852	69.04354557000016	1.079440294168692	0.019297	0.3573720920424826	0	-1.575163022276554	0
0.8776558844730553	0.4025924940564123	-0.4321131668818925	0.02329932229264089	0.8941593812755553	0.019297	0.5859935453648152	0	0.005223987563508711	0	-9.020132894903922	741.2623309993013	67.2150116773187	1.069310600501434	0.019297	0.3549616047623675	0	-1.74928174497179	0
0.8920312594138311	0.4020369538601742	-0.4315974511826347	0.02460270948926607	0.9181656014431206	0.019297	0.5874871832213868	0	0.005532339689166174	0	-3.478502646506043	727.7135086671584	66.80684157788085	1.06128340987406	0.019297	0.3528816837447922	0	-1.67459658160283	0
0.8960000000000002	0.3985575217563129	-0.4279120372476022	0.02514602572890835	0.9251642769206355	0.019297	0.58798094938338	0	0.005597546587480939	0	-6.138270664143175	724.7897750334225	65.81274500790315	1.059195888549977	0.019297	0.3523146640633963	0	-1.93305444860994	0
0.9055128561131143	0.3859152165535102	-0.4144782343803892	0.02640295650921779	0.9426533125970735	0.019297	0.5893584511326142	0	0.00561503238339374	0	-2.692592811216976	715.5051940709227	65.77097864953092	1.054025466222463	0.019297	0.3509898422980987	0	-1.572765261387683	0
0.9224558844730553	0.3495205958716205	-0.3757722100473787	0.02867079908842529	0.9762319442810763	0.019297	0.59257752442028	0	0.005501691102888898	0	-0.04913971060457634	701.4918732549235	64.52870623917607	1.045196074708613	0.019297	0.3487528981095126	0	-1.408861586288812	0
0.9368312594138312	0.3045606403570392	-0.3277373214533436	0.02822893699631222	1.006934762546595	0.019297	0.5960535776477465	0	0.005276179189597132	0	0.2540961233742562	693.1782511236469	63.92747778646672	1.038005328450732	0.019297	0.3470414945738911	0	-1.251822910328236	0
0.9408000000000003	0.2804999383536651	-0.3019011988839715	0.02656675277432877	1.015714909434378	0.019297	0.5971083569944226	0	0.005055010817702664	0	0.1992455871084911	689.0310137875852	63.32084256065154	1.035773579488768	0.019297	0.3466459818502127	0	-1.414268431329669	0
0.9503128561131143	0.1218117958068509	-0.1310987659789749	0.01150595025616936	1.037272855167938	0.019297	0.5998006773980595	0	0.003141304866762244	0	2.871621360616215	683.2709465348801	62.84022119314336	1.030647874779264	0.019297	0.3456983766691375	0	-1.095642807674122	0
0.9672558844730554	-0.0358655710882165	0.03844699782502464	-0.001991593824298123	1.077257735974573	0.019297	0.6049411752391705	0	0.001056032365544271	0	5.723911018206863	679.2797530100793	61.23047202011075	1.021249432937033	0.019297	0.3443310645517174	0	-1.069935588351915	0
0.9816312594138312	0.08431296316686364	-0.09105935131011401	0.01122141662238207	1.11260528957719	0.019297	0.6092833929808913	0	0.00292661956051985	0	12.03155830589191	683.2290827279899	60.83669045274807	1.013074482282107	0.019297	0.3434665930627512	0	-0.9156580551337283	0
0.9856000000000004	0.08431560042605755	-0.09102902030993648	0.01100270100389058	1.122571948946224	0.019297	0.610424522771298	0	0.003176203015452678	0	6.217985901376265	687.7237307591772	62.47037084574151	1.011008794969515	0.019297	0.3432137258613407	0	-1.144355896782902	0
0.9951128561131144	0.1054982442750137	-0.1136279101021037	0.01080893850228542	1.146672905850301	0.019297	0.6130483959944295	0	0.003321810739656219	0	14.47659996490813	697.0986429768336	60.15930137328006	1.005656678501538	0.019297	0.34277786647157	0	-0.9681110307179592	0
1.012055884473055	0.08831430214302524	-0.09492144627774551	0.006719437368456784	1.189555415168285	0.019297	0.6170400775865996	0	0.00248593193891256	0	18.33392704490092	715.1879216878338	60.91345292094424	0.9960070071498122	0.019297	0.3423006458255737	0	-0.5079952729416939	0
1.026431259413831	0.07143412429740509	-0.07663679176975752	0.003085286280699944	1.224356097975181	0.019297	0.6192004631268518	0	0.002165554670960655	0	26.45653208618602	726.1825612550166	58.86323447495286	0.9874942541788632	0.019297	0.3421086495835746	0	-0.5041342776038396	0
1.0304	0.06879903192028582	-0.07377790444355417	0.00210212970036779	1.233444911190506	0.019297	0.619521267654611	0	0.002118152271601882	0	21.22405931094625	731.5373206576445	68.03306799648912	0.9852966582410563	0.019297	0.3420186083700806	0	0.2838882914567966	0
1.039912856113114	0.06522506491523944	-0.06991101879935256	-0.0001681065067998086	1.253966704836846	0.019297	0.6197868629189388	0	0.002042291278123834	0	27.8445610491904	739.667364446163	59.18708366318213	0.9797811958683876	0.019297	0.3418966578882023	0	-0.5412395717209073	0
1.056855884473055	0.06801522445928988	-0.07305443606483003	-0.004669470189515925	1.284971881520041	0.019297	0.6184904376064273	0	0.002115887608710957	0	30.68348620326374	741.4224420114034	64.81473485260537	0.9701173061443676	0.019297	0.3416635685808748	0	0.2452115424784544	0
1.071231259413831	0.07682378413482185	-0.08305522855006695	-0.01028246697189905	1.305126818469806	0.019297	0.6158831194959256	0	0.002404197036222094	0	33.52527499763437	733.2900837117974	58.2131761783122	0.9625388973615463	0.019297	0.3412687313691159	0	-1.084042607359813	0
1.075200000000001	0.07916068662408746	-0.08583266912263593	-0.01221091272039528	1.309717420863359	0.019297	0.6149334638969404	0	0.002499945294784152	0	32.55922806672431	732.3226768250356	82.4068821782586	0.9606633246003735	0.019297	0.3410989615475499	0	2.429955876992116	0
1.084712856113115	0.08178084118618266	-0.08940447763502141	-0.01641296985056503	1.319050622710827	0.019297	0.6124357443839555	0	0.002624748244031839	0	34.05702745426078	724.3928980316668	61.66601982651518	0.9562504847452922	0.019297	0.3406677913337905	0	-0.8746898973097144	0
1.101655884473056	0.08141807897886497	-0.09151056824455903	-0.02522848612780073	1.329750149033718	0.019297	0.6072262775728233	0	0.002780830495162105	0	34.72510583290516	705.2418219762596	72.60537903375001	0.9486262924237208	0.019297	0.3398254038908636	0	0.5836760540886108	0
1.116031259413831	0.07331059853480681	-0.08553672247464833	-0.03120099987327849	1.333703560739131	0.019297	0.602180955411135	0	0.00304270927784423	0	35.81332395583848	680.4997215634478	55.1118405852486	0.9413585070063533	0.019297	0.3391672500182853	0	-2.87989396439599	0
1.12	0.06870811329562726	-0.08154524445032603	-0.03249819135527554	1.33418236001504	0.019297	0.6007460394460536	0	0.003134670216291332	0	82.29905536195585	678.0058627286477	83.9872265154365	0.9393696641492504	0.019297	0.3389840229440393	0	2.187782053652263	0
