DataType=double
version=3
OpenSimVersion=4.5
endheader
time	ground_force_2_vx	ground_force_2_vy	ground_force_2_vz	ground_force_2_px	ground_force_2_py	ground_force_2_pz	ground_moment_2_mx	ground_moment_2_my	ground_moment_2_mz	ground_force_1_vx	ground_force_1_vy	ground_force_1_vz	ground_force_1_px	ground_force_1_py	ground_force_1_pz	ground_moment_1_mx	ground_moment_1_my	ground_moment_1_mz
0	-0.4013746878963086	0.4735424042781477	0.1868738067166226	1.31475409539079	0.019297	0.5847601128036632	0.02413975612871216	0.04324773971823716	-0.06083444675448348	83.98054152672185	673.4132076095835	84.88284640299264	0.8888441986340601	0.019297	0.3476113627273261	4.992403190256631	-0.8626451315268349	26.09533581528653
0.009512856113114032	-3.440600090146147	4.885558809509597	2.993476379559697	1.313388751700728	0.019297	0.5828052284452191	0.2231115526837154	0.4963662363417336	-0.5554277937354882	43.90762156928775	751.9971179223894	88.92201297286445	0.8817891067595059	0.019297	0.3476219016152688	6.320762596261885	-3.487556192350463	32.15563446974828
0.02645588447305514	-5.330029250230032	25.51455514043864	23.18986307686613	1.305441911649031	0.019297	0.5788651724716726	1.058828305874643	2.811634325089613	-2.841464487783238	57.92066459788047	780.2312127859171	83.22774838013144	0.8695777577350292	0.019297	0.3481608539195499	7.735729883142491	-4.633756307487572	37.45409207968558
0.04083125941383081	32.95810774831168	69.61392565892017	55.28796231801533	1.295119533729848	0.019297	0.576032580322503	2.549633726047419	4.599660439567796	-7.215019775854985	52.32909134590767	749.1717896081259	79.26760404064677	0.859031008139278	0.019297	0.3489905859340291	8.350519416672174	-5.378973973416121	40.32936655101051
0.04479999999999995	57.12228678619671	93.89174243016186	61.21110022672067	1.29222160826677	0.019297	0.5755468581965871	3.203858509216417	4.050605904217971	-8.513847721399783	71.7161171857023	738.5772299228815	73.70017426305138	0.8563612157568921	0.019297	0.3492614202867588	8.504925994093337	-5.276743983116072	40.47972357435288
0.05431285611311398	-3.911664282722001	198.7829647933657	18.02732264403815	1.285556374386931	0.019297	0.5751583288290584	5.168050131265899	3.136880250153748	-11.21217242775052	64.20622211788356	722.147475428173	78.16264727172292	0.8497624320755497	0.019297	0.3499805336403026	8.761592253124231	-5.538933935334811	41.49654054323721
0.07125588447305514	-28.21776647530236	396.7654834111095	-23.59611698065506	1.272666963705175	0.019297	0.5757038877387175	6.459211077692343	3.747332042456368	-15.55229278687832	66.47207928829467	654.3167042275553	71.84073374831171	0.8388097479379032	0.019297	0.3515432080661721	8.199925637296872	-4.970255665769273	39.37538094120163
0.08563125941383082	-22.86411814656329	428.8367396448796	-18.47668428852225	1.260869255795822	0.019297	0.5759433132087501	6.39619598847542	3.650629209599917	-16.07726732477112	61.4457837906816	567.5423071020972	63.48162829844517	0.8303755512607712	0.019297	0.3531235838747409	6.843454732744191	-4.361582650327151	35.34846893328791
0.08960000000000001	-32.59981177693857	427.5272409965158	-19.87028906125069	1.257892258423478	0.019297	0.5759627406246424	6.261314396682704	3.603246881637209	-15.39351000666828	64.68921054077533	543.3801993763291	58.23192819228675	0.8282526350876298	0.019297	0.3535800639180913	6.44795026436999	-4.034697066585819	34.03732527171732
0.0991128561131141	-42.40088623112094	413.9091367000731	-22.47349546959242	1.250517600090605	0.019297	0.5760862177228369	6.111276008572052	3.53195338349773	-14.46851153322238	59.9817380272829	491.4290368368336	56.06149449168208	0.8234565971486194	0.019297	0.3547267898319492	5.648620797988535	-3.742627906311498	30.96429113796553
0.1160558844730551	-58.89087484243448	429.338595118832	-34.12777540267928	1.237375137116068	0.019297	0.5764796552858087	6.202818667273299	2.102035478356218	-13.94456883724591	51.44732397629159	401.9086752249875	46.20249399741492	0.816238361885387	0.019297	0.3570353937599198	4.641362488437826	-2.902765882199199	24.67958209279974
0.1304312594138309	-60.74890121001498	520.705028017214	-43.98749140703504	1.226216902285079	0.019297	0.5769171245761451	6.32308989755835	1.460584404387536	-14.68065236088971	38.46836737684348	318.315876475665	36.37804350673507	0.8114624620102034	0.019297	0.3593505953817838	3.989389368431561	-2.389285048550309	18.72054839403776
0.1344	-58.88682684998211	554.5015370684002	-48.31112537780717	1.223118607704173	0.019297	0.5770455801875691	6.248908421302886	1.330587280144889	-14.94266226663839	18.09856340687282	292.1096616740084	35.17896802050137	0.8103682080734511	0.019297	0.3600473453658689	3.813907677025377	-2.008269930773699	16.93091585079241
0.1439128561131141	-59.65601379331945	619.0371553249403	-53.91637246964554	1.215553419431197	0.019297	0.5773697011099017	6.113486283521753	2.740858099732753	-16.32495928791478	22.26964640413271	236.336446909036	28.12352435301962	0.8080788662110601	0.019297	0.361866696139634	3.345666791923543	-1.793259144451937	13.02103570175972
0.1608558844730551	-50.0019005806894	679.5236058888312	-60.80821817497719	1.20172703337601	0.019297	0.5778404171972927	6.253856808720995	2.383510821334274	-19.42335535473237	-0.09516505200536587	132.1945496007237	8.526950999521377	0.8051510145960448	0.019297	0.3655207241763053	2.083021195238569	-0.5916470520950072	6.301137272404318
0.1752312594138309	-44.14600509633365	712.7365761428267	-63.93427970906092	1.190106486726822	0.019297	0.5780457221075757	6.323568447168784	0.7476863741037183	-20.64590323033986	-34.33033146879546	37.21406357820677	4.313121637160624	0.804011977618847	0.019297	0.3685935373446416	0.551705870583364	0.3110279711272511	1.579013205135857
0.1792	-44.29783513128774	725.3290537779636	-67.4120357480203	1.186990984019939	0.019297	0.5780858521768384	6.232019968225918	0.4693349756938339	-20.61722460280168	-20.97265219903533	22.74896807446861	2.924049422427176	0.8039847054479194	0.019297	0.3694033140169777	0.3867995424325532	0.2266437728226973	0.9566140193189603
0.1887128561131141	-42.02661910855996	738.8648973821842	-69.53868044237872	1.179486999003629	0.019297	0.5782184940828827	6.107660796645193	0.6473425390970438	-20.69241907790615	-1.594094753829757	1.727641430051253	-0.2392064326324699	0.8046134776183183	0.019297	0.3713565128518465	0.04913410046596334	0.05889610263594591	0.08735401683841204
0.2056558844730552	-37.15825515049897	752.8034584892207	-75.548742614745	1.166268740912366	0.019297	0.5784994033769549	5.801164488976986	-0.4157645739651405	-19.49841315414347	0.1513829475820128	-0.1654126968723992	0.03002292499863546	0.8094669427973427	0.019297	0.3746522834143157	-0.0008673925662340094	0.001830012996490024	0.01490850839699076
0.2200312594138309	-36.17576463688215	765.1485000206503	-80.04694010663555	1.155324575147704	0.019297	0.5787540666720008	5.271471994435586	-1.021738548594658	-16.98676631631517	0.1912321358565327	-0.2065169141230346	0.02384447408082186	0.8175275399725868	0.019297	0.3770326976841873	-0.0006954195532905187	0.00162809636198929	0.01916695212390764
0.224	-35.98928061524169	767.0488961166881	-82.17799791888872	1.152336936298993	0.019297	0.5788251511674583	5.088334426094333	-1.218074261750474	-16.13818787479709	0.2026560035654853	-0.2185668802961983	0.02303053407202455	0.8203302708274246	0.019297	0.3776283525404835	-0.0006995474324726246	0.001553807574268288	0.02033695644236724
0.2335128561131141	-35.98040499479046	764.0653960758517	-83.32167059635751	1.14516062596376	0.019297	0.5790040777829852	4.711335810117868	-1.138574994749356	-14.21243542136149	0.2267332169237443	-0.2438460492056651	0.01904791671771152	0.8281249316487673	0.019297	0.3788916137701348	-0.000566700145050501	0.001424184896039649	0.02296359611937009
0.2504558844730551	-35.78750639745282	761.873002469121	-83.42168273898639	1.132392790957992	0.019297	0.5793009502089268	4.009372848669923	-1.267076780830162	-10.4011746475571	0.2573905007731225	-0.276146756864259	0.01101959615610376	0.8455643939531098	0.019297	0.3806825581032519	-0.0004356006113386997	0.0009335759019723619	0.0261679245585899
0.2648312594138309	-36.03120342679959	765.7488289754447	-80.91411946474707	1.121597521447993	0.019297	0.5794823486377105	3.253364784135463	-1.010757200766955	-6.879922779583996	0.2767564991322339	-0.2967461021261076	0.008530598017868526	0.8636443668505608	0.019297	0.3817609080751317	-0.0006145861718182539	0.0004695027492768117	0.02779068898322255
0.2688	-36.30530948017785	765.0716802332336	-80.32916052257195	1.118608920832705	0.019297	0.5795155656980573	3.046592667070967	-0.9337571708155628	-5.961162873550215	0.2794655522238979	-0.2996132005211051	0.007898290333002267	0.8690981515696833	0.019297	0.3819959437465889	-0.000623536622847825	0.0003704235945613779	0.02801877891731265
0.2783128561131141	-35.48034703499618	760.3929656237574	-78.60647341462757	1.111403186171354	0.019297	0.5796018713160702	2.622869191216552	-0.5961142891286431	-4.012357196005023	0.2826604581391351	-0.3029618046007502	0.005272671930942489	0.8829985680581788	0.019297	0.382361331430609	-0.0005617078043616266	0.0001666588222288489	0.02825270907281054
0.2952558844730552	-33.72048090774946	760.1176343650857	-73.72863132812299	1.098468214232103	0.019297	0.5797550502059829	1.913802475555934	0.05620404521104994	-0.809723204694393	0.272721627200524	-0.2922576107984601	-0.001197221885262978	0.9104691031152559	0.019297	0.3822847110076523	-0.0003868424792920159	-0.0002805392986350724	0.02696519124868754
0.3096312594138309	-31.53705835531391	765.9831160973092	-69.19546637060394	1.087414550507991	0.019297	0.5798970222169422	1.312576023464097	0.9733152528892035	1.451637419671339	0.2513957557808236	-0.2694345389039683	-0.005088445537799613	0.9362681222542317	0.019297	0.3813642962458474	-0.0003675090427158918	-0.0007102215204880806	0.0243382378745454
0.3136000000000001	-30.26354489693606	766.0093181447592	-67.86041716692266	1.08433493442838	0.019297	0.5799427811183511	1.185153295492395	1.245149246567255	1.910966474473717	0.2429077995074516	-0.2603581832058243	-0.00595500141369706	0.9437529229735583	0.019297	0.3809603696127339	-0.0003215257470095649	-0.0007772751941305892	0.02345004883514792
0.3231128561131141	-28.41820932408558	766.5182362425677	-66.35790751128317	1.076903999974364	0.019297	0.5800807798985689	0.9294380787091399	1.708796244506734	2.854383840103921	0.217001408867771	-0.2326847367520923	-0.008208637650050086	0.9623222166758955	0.019297	0.3796875973226185	-5.221804392560071e-05	-0.0007729526195700454	0.02125198391418791
0.3400558844730551	-23.43926672320082	777.8735769461023	-62.02977359775669	1.063578725287954	0.019297	0.5804050275125204	0.4604442795356585	2.666493290430823	4.376570937126488	0.0365172850643208	-0.03916389389816245	-0.001733235037508258	0.9974341050686788	0.019297	0.3763448732264157	0.005155571370806793	0.003204169392701256	0.0251700921796929
0.3544312594138309	-18.70541948677486	791.4234410566661	-59.31976390666384	1.05221383200025	0.019297	0.5807459624175316	0.02641852907264752	3.650560998757808	5.406833184383519	-0.1760229152709853	0.1891102600900895	0.01297014150535997	1.029097417767965	0.019297	0.3724701332958275	0.01000869677503115	0.006649961965542756	0.03447866384864899
0.3584000000000001	-16.81449683822138	792.9069886113084	-58.06666714822326	1.049055788419721	0.019297	0.5808536546719608	-0.0516801646676246	3.936010983543322	5.572565057643484	-0.3397438414824822	0.3649082764846555	0.02388606552412711	1.038135544298564	0.019297	0.3712468534298878	0.01320805168587841	0.00892168740044596	0.04504034769715241
0.3679128561131141	-13.94987711136389	794.6842220732365	-56.9519673475308	1.04145597558635	0.019297	0.5811224025706787	-0.1851736197507021	4.239582536838017	5.902511897818489	-0.6884527447726116	0.7395190862594645	0.04935643727749153	1.060246604372519	0.019297	0.3680591071795044	0.01294129381787776	0.007089207708436623	0.06712878322350235
0.3848558844730551	-8.243328384518403	794.2492178232758	-53.06682124381797	1.027909999546651	0.019297	0.5816406922257498	-0.3379491204902623	4.574971745806076	6.624746405461728	-0.6600612770464406	0.7088659601810895	0.04570908671287045	1.101105003980125	0.019297	0.3615669084878653	0.001020207201745309	-0.003403751364202182	0.06062431461097471
0.3992312594138309	-4.417956504156562	787.3045049783684	-52.66860861990308	1.016453924354928	0.019297	0.5821278771993379	-0.4263634516616213	4.734984457022305	7.407258426636666	-0.4856055504114377	0.5211583820823567	0.02885769064857899	1.137021949885807	0.019297	0.3554441901817851	-0.001901833510445217	-0.004591945481686325	0.04524715010140498
0.4032	-2.741801400513554	783.5037738305349	-51.852008960829	1.013290170185735	0.019297	0.5822844751933476	-0.4246859751696457	4.757464008997252	7.620420850007402	-0.6220316135909905	0.667460363927217	0.03463860130308862	1.14710227014272	0.019297	0.3537006368086114	-0.002927673478650658	-0.005926200051942217	0.05659869948114123
0.4127128561131141	-1.353397704520867	772.7507068359502	-52.92011920548173	1.005712130529027	0.019297	0.5826575344132836	-0.4126509577129616	4.533138784144207	8.188192935540297	-0.747354088754609	0.8016721730254296	0.03588274618016538	1.171168796912036	0.019297	0.3495864376840042	-0.005570245203613424	-0.008293538652648856	0.06684221887796708
0.4296558844730551	-0.03067598880904399	746.3262040496049	-54.03979967206126	0.9922775784166573	0.019297	0.5833532327466343	-0.3706580563256372	3.923167422467193	9.56212316706945	-0.1880669090208135	0.2025868748987344	0.01508203513394161	1.212675046843458	0.019297	0.3428372867169063	-0.005901821440117059	-0.004668628280734392	0.003959333509334265
0.4440312594138309	0.103077579473819	722.5258785014366	-58.84162476445992	0.9809502921957659	0.019297	0.5839930875782232	-0.3986444238617048	3.479255109567931	11.06974691265785	-0.723656963319774	0.7858645300911105	0.119244458056314	1.244903198007127	0.019297	0.3382870655106147	-0.04374228246238588	-0.02653598271730187	-0.09049025040420239
0.448	1.284673596035427	716.7288794791136	-57.65583703433634	0.9778246514596427	0.019297	0.5841930145149036	-0.4152522791684028	3.6651459005975	11.48738689856387	-0.8087017580905205	0.8772947055402939	0.1279774062810695	1.253079125421461	0.019297	0.3372986480212882	-0.04822589776486042	-0.02969429918099863	-0.1014914225093959
0.457512856113114	1.905930368862894	703.5671510540502	-61.57172727276833	0.9703260349667217	0.019297	0.5846533167035901	-0.4605490314502596	3.191927840678189	12.45577559331763	-0.5522028689579005	0.5969558868280319	0.07425430795709129	1.271258382263631	0.019297	0.3354288100270079	-0.03224632603962105	-0.02127523216222549	-0.07001191610229272
0.4744558844730551	6.63814246069767	686.9653036562286	-63.92497795822082	0.9569928292261666	0.019297	0.5854464163289694	-0.6650087194631951	2.699059442410644	14.42217440700884	-0.07057401489718143	0.07575856986787102	0.0053775719077952	1.297758842740096	0.019297	0.3338868406573635	-0.005529854885980312	-0.004626555627705633	-0.01175077712879605
0.4888312594138309	10.40901398237528	684.7321232496178	-69.74829382569634	0.9457409624821278	0.019297	0.5860643002894956	-1.1215096734796	2.557485083409683	16.62969753703345	0.01211762162367487	-0.01303248543465824	0.001200113837262122	1.314230400170791	0.019297	0.3341456415129501	-0.001867763546235239	-0.001896767599439493	-0.003508037047123583
0.4928	12.69186422378739	684.8915561377147	-66.57286311242356	0.9426436952095223	0.019297	0.5862433476711395	-1.286357656889006	3.359644948223426	17.23080585947397	0.02056797550750941	-0.02212408392923829	0.00183358337991772	1.317914470067327	0.019297	0.3344516571050538	-0.001615833151117263	-0.001706876794049957	-0.002956526669816602
0.502312856113114	15.40795626438032	686.2282455197453	-71.55634378744246	0.9351960453435193	0.019297	0.5866221547572384	-1.676132193092906	2.932916149199327	18.7142759937444	0.02964856328091159	-0.0319758783322744	0.00339077353227556	1.325128901474352	0.019297	0.3355043070181987	-0.001429614733538258	-0.001618451385545047	-0.002640521158522095
0.519255884473055	22.75260020374598	693.4353611503076	-73.37173623181089	0.9219176578678631	0.019297	0.5872060025723964	-2.493503006452943	3.385310798339974	21.35293108785524	0.02102273566209665	-0.02212402781276245	0.0003289989081718199	1.332376758642827	0.019297	0.3383819261723759	-0.002333457348467762	-0.003041290025292158	-0.004764433782479833
0.5336312594138308	28.51451780832459	707.0561033118049	-77.44068164922314	0.9106640854412735	0.019297	0.5875971333313331	-3.430722994932569	3.976251831524742	23.89466958454906	-0.2291578768595588	0.2777337424927568	-0.1237849968804346	1.333904835156797	0.019297	0.3416729599749519	-0.01906063304474301	-0.03070675568140476	-0.03703775287831325
0.5376	30.55611165547718	709.8272707055771	-75.80821972144351	0.9075727742235224	0.019297	0.5877032268221839	-3.721375722528133	4.797630899052407	24.55784824642962	-0.5024774290063277	0.6212262298625341	-0.2911891731889515	1.333856077627118	0.019297	0.3426904134185572	-0.0382415780267184	-0.06385017395421426	-0.07287089121483427
0.547112856113114	35.25541278376359	716.0260625390465	-78.55401993980162	0.900138483938873	0.019297	0.5879293426078535	-4.392230706252521	4.930976195036808	26.23342542612588	-1.991574299347409	2.659215540084313	-1.481353466569254	1.332889368608816	0.019297	0.3453116166201004	-0.1531971686718273	-0.2730122343899983	-0.2853705462009369
0.5640558844730551	44.97390945375808	722.3258496499086	-80.73724364006512	0.8869612498892266	0.019297	0.588270668186371	-5.55614547988514	5.633519655669501	29.2130526055865	-6.502181970934934	12.62604033088318	-9.80907924479734	1.328871358215977	0.019297	0.3503310390351023	-0.6361221001488858	-1.399607227158509	-1.384490567748139
0.5784312594138308	50.87044239506198	722.9969154320095	-83.0670818759348	0.8759102552816824	0.019297	0.5884978767048561	-6.556144071201814	6.478043807791565	31.92695388858353	-0.2138466690102334	34.15646051235715	-20.84386503636199	1.323635210840946	0.019297	0.3543044673995202	-1.450274402461066	-2.179745797320831	-3.820315929593635
0.5823999999999999	52.72608746480519	720.6976446305678	-84.35844716422883	0.8728979344635708	0.019297	0.5885615121987193	-6.823394781005299	6.525418926256819	32.60196951578206	0.3534981026190505	46.25160249748259	-4.875505512796139	1.321966324346789	0.019297	0.355213057107174	-1.82758275046239	-0.1282640276851607	-5.1198491209155
0.5919128561131139	58.22743303946162	713.4208791594431	-84.03902703441616	0.8657013590697519	0.019297	0.5886914207769958	-7.366257952481381	6.720211975256598	34.12787364113338	4.12710036952883	105.1102406586306	-11.56486716745362	1.317309371922539	0.019297	0.3570478694488164	-3.343725110208392	1.478165591085342	-9.409461499357386
0.6088558844730551	65.19275296020146	678.3192790341692	-82.61221384131801	0.8532198612806311	0.019297	0.5887585723188703	-7.746735414733922	5.867096020503874	35.52301513463037	-44.90390772900007	372.3021679957589	13.54500354193648	1.305809379219158	0.019297	0.3592718993723383	-5.100893709541388	-1.873931712242141	-8.452285554359207
0.6232312594138308	68.98811328068736	624.0804921495161	-74.74611713029228	0.8431774711144235	0.019297	0.5886256556152351	-7.137832675649279	5.454196595219826	34.450636845799	-42.02692297306864	364.9243498257564	17.53255917448099	1.294123639105117	0.019297	0.3605979275222294	-5.246101554874718	-2.151086888168694	-11.44542638315201
0.6272	68.8133443794338	605.904732617427	-73.06082811067873	0.8405154217001968	0.019297	0.5885639868167687	-6.858285710981167	5.174654487791067	33.88434293278813	-49.87752307828688	353.5409845315006	14.17243632964848	1.291016107721921	0.019297	0.3609990856927455	-5.196320504135306	-2.31373723846508	-11.24717300532683
0.636712856113114	68.19396403170697	562.4722947328636	-66.07025171160785	0.8343326649167084	0.019297	0.5883994765676828	-6.114881833164275	4.589423309196698	32.38898402527207	-46.73261095758006	319.0428431231156	14.15029080563893	1.283588325307755	0.019297	0.3617898948832448	-5.058411552022049	-1.729959257651643	-11.09813756691759
0.6536558844730551	65.74495274817778	486.7370678581813	-54.90372251206913	0.8241472294285214	0.019297	0.5879677422630292	-5.01755370425654	3.181958745881423	29.01563119339034	-42.24192848512685	303.8140892683115	13.29624089456435	1.270895430729531	0.019297	0.3626696564736657	-4.712409857917977	1.184260863821212	-8.324577246488749
0.6680312594138309	63.71637039155139	422.5277826781277	-44.33024356835082	0.8164472794833459	0.019297	0.5874621702387428	-4.267721895264127	2.528310296505558	25.44087669214937	-78.02083672115218	363.4818077707088	32.47593334762993	1.260327032592903	0.019297	0.3626754664357649	-4.614461870187682	1.596956986111173	-6.416425803325058
0.672	62.99098799104662	404.6121593437739	-41.49887730394282	0.8144780145578943	0.019297	0.5873009688248354	-4.04292301344202	2.256929574472331	24.37260174440441	-72.67490946085063	386.1548183281226	38.65654002588274	1.257229528256987	0.019297	0.3625263176890581	-4.71659850784615	1.735467343491209	-7.131255126718534
0.6815128561131141	59.32238904029397	364.656812771655	-34.83538413745007	0.8100957361085407	0.019297	0.586896322400552	-3.624659541966219	1.896259930497213	21.65710484405736	-68.46145225010574	460.1950770972632	52.58947893532399	1.249505771578516	0.019297	0.3621077646811291	-4.969547583770721	2.670662792662748	-9.589863138596916
0.6984558844730551	51.40854671750311	291.8193946560395	-23.09529004286829	0.8036034760881606	0.019297	0.5860799948201646	-3.171714038453651	1.17723963839269	16.69653475901105	-63.77674505556239	602.638106228829	69.29105585130412	1.235252687136534	0.019297	0.3613734966749114	-5.213281351107968	2.4577801982328	-16.19657731172626
0.712831259413831	37.30957371801875	231.9721587069334	-15.99938515898979	0.799666980428595	0.019297	0.585342365272155	-2.800343786783869	0.8083262767836342	12.52778019966165	-55.89856515263074	679.8237491686168	72.55447515646306	1.223002991837374	0.019297	0.3610483291749268	-5.43843435330863	2.660783693224623	-21.56204984549673
0.7168000000000001	40.15371500404444	215.6583029499748	-12.84129831371436	0.7988497073920113	0.019297	0.5851371521360024	-2.659285962085038	0.6975031520602384	11.3496707773005	-59.39947415653629	695.1809785616796	69.63241757978025	1.219644163338564	0.019297	0.3610169691237954	-5.496374430255638	2.478319277980285	-22.59863798252353
0.7263128561131141	13.59017858698795	169.6294790776904	-9.736447556265556	0.7972267786458915	0.019297	0.5846796616623252	-2.145784110634074	0.4101984852196112	8.226479907829876	-53.20819512140458	718.3096582604571	69.37088168179976	1.211679085229599	0.019297	0.3609783174974469	-5.612136990691549	2.636919816938541	-25.04584683797378
0.7432558844730551	-0.01410243471440752	74.89512832833444	2.908874023388617	0.7952551354209948	0.019297	0.583928440966527	-0.9927160489186534	-0.06276964268824001	3.061708858470894	-47.47534989792769	740.6851518081406	65.75492878407459	1.197653071356258	0.019297	0.3608510687277334	-5.813282214238031	2.631355860014633	-27.92447801915
0.757631259413831	-5.733779828991993	24.20044399513511	7.962309495068741	0.7948912588723729	0.019297	0.5834029908222302	-0.3830607355149068	-0.3346708177155565	0.8431900084082907	-40.07319739614242	762.35123123499	66.78666149568446	1.185985843517988	0.019297	0.3604997011513393	-5.859805041925391	2.416964081967944	-29.12002995375194
0.7616000000000002	-10.5053563384044	16.05708876767175	6.616522292726155	0.7951240290920338	0.019297	0.5832866993755674	-0.3011164419973262	-0.4159612211530964	0.5433438789930278	-41.63782051145417	768.889718927574	65.52936900688171	1.182766559570474	0.019297	0.3603415825658811	-5.86634838620964	1.973962795555202	-29.25742052320102
0.7711128561131142	-1.310985473079257	1.529056251227016	0.5760211354030951	0.7963829656854617	0.019297	0.5831197042863965	-0.02929996702125445	-0.03993136502804345	0.05327345378286532	-35.21265666043089	779.043132999578	67.94308150693784	1.175111399754079	0.019297	0.3598819529312065	-5.858358289919724	2.006932409723184	-29.44096103548718
0.7880558844730552	0.1542883064055324	-0.1658009277498179	0.00442254573869428	0.8016671114129338	0.019297	0.582930498026538	0.0006663155525472165	0.001482067015093182	0.01506668852621851	-30.8785349621239	787.4610302246186	68.52638873152227	1.161514064596587	0.019297	0.358713347393725	-5.909349564504831	1.377648959237048	-29.05901211161227
0.802431259413831	0.2019637987828911	-0.2169367730125367	0.01109691375200367	0.8093835086309282	0.019297	0.5829199819929797	0.0008232290122062752	0.002161750183289147	0.02006294108209787	-24.86802076542865	793.6831883716061	69.62408457049673	1.150083857364802	0.019297	0.3574415299102285	-5.893797645538763	1.2467651936965	-27.86256865745261
0.8064000000000002	0.2162973590740679	-0.2323337700071515	0.01094943377917611	0.8119960063942162	0.019297	0.5829574136746231	0.0009694189439399249	0.002356325790353288	0.0214842907131894	-28.17441740527286	796.0709420816394	67.963471452151	1.146939539231665	0.019297	0.3570629107066273	-5.856920072570547	0.6495635806186764	-27.29137977995011
0.8159128561131141	0.2507786907143378	-0.2693217526963771	0.01438034422320731	0.8191277753008243	0.019297	0.5830919848705853	0.001145450747409673	0.00278030701299502	0.02518180828184576	-22.05910289866044	792.9007105174808	69.5596040769978	1.139427537972383	0.019297	0.3561134328821858	-5.777693405384305	0.9749168754376121	-26.07903722746731
0.8328558844730553	0.3077873928579766	-0.3305247791423189	0.01921685234077773	0.8349307244106963	0.019297	0.5835461413962791	0.001634829996182407	0.003626128313524902	0.03123577646602174	-19.73120238963594	781.6521231089279	68.67517734059102	1.126015996370225	0.019297	0.3542700334120473	-5.612653240261354	0.5029658677358124	-23.7105373900216
0.8472312594138312	0.3516338876780436	-0.3774729990329164	0.02038156465368338	0.8513034244696256	0.019297	0.5840899697578208	0.002216257194502839	0.004259147354066139	0.03580536691066015	-13.3224660250755	773.9689930388849	69.87964107326026	1.114658094776798	0.019297	0.3526179605804282	-5.244496560334234	0.34966024608857	-21.24549891876052
0.8512000000000002	0.3612359828375361	-0.3877588543716896	0.02064262649738493	0.8562512635818871	0.019297	0.5842558368777945	0.002371185498054347	0.004430590821054255	0.03681885088178776	-17.53570180043603	772.4133404591105	67.47717723737543	1.111511803354978	0.019297	0.3521707004992322	-5.105528317974921	-0.319022424998042	-20.40325013404639
0.8607128561131143	0.3817926414328945	-0.4097657923296757	0.02130118906386702	0.8689063227878118	0.019297	0.5847489718840009	0.002677643255555698	0.004733304673210289	0.03908996046681724	-11.6050216076968	761.7879145738852	69.04354557000016	1.104000722691427	0.019297	0.3511220071986265	-4.761239099110977	0.0480436739887582	-18.70983762537534
0.8776558844730553	0.4025924940564123	-0.4321131668818925	0.02329932229264089	0.8941593812755553	0.019297	0.5859935453648152	0.003081304117767051	0.005223987563508711	0.04153676470268833	-9.020132894903922	741.2623309993013	67.2150116773187	1.090577038715419	0.019297	0.3493377804751919	-4.168729100242316	-0.3705854945317621	-15.76400956255076
0.8920312594138311	0.4020369538601742	-0.4315974511826347	0.02460270948926607	0.9181656014431206	0.019297	0.5874871832213868	0.003288358769021135	0.005532339689166174	0.04168729774745186	-3.478502646506043	727.7135086671584	66.80684157788085	1.079249485781117	0.019297	0.3479468870803151	-3.591118195265639	-0.4915054979612576	-13.07415613530477
0.8960000000000002	0.3985575217563129	-0.4279120372476022	0.02514602572890835	0.9251642769206355	0.019297	0.58798094938338	0.003298292568964915	0.005597546587480939	0.04141549355954922	-6.138270664143175	724.7897750334225	65.81274500790315	1.076113574479146	0.019297	0.3475985698698403	-3.418176849583897	-0.8486037610674138	-12.26176577868819
0.9055128561131143	0.3859152165535102	-0.4144782343803892	0.02640295650921779	0.9426533125970735	0.019297	0.5893584511326142	0.003218425380265811	0.00561503238339374	0.04040736353873724	-2.692592811216976	715.5051940709227	65.77097864953092	1.068650292734978	0.019297	0.3468058787117394	-2.99364767784369	-0.6221418193549417	-10.46413933209119
0.9224558844730553	0.3495205958716205	-0.3757722100473787	0.02867079908842529	0.9762319442810763	0.019297	0.59257752442028	0.002937093014790122	0.005501691102888898	0.03698600948016664	-0.04913971060457634	701.4918732549235	64.52870623917607	1.055372109938111	0.019297	0.3455800595158421	-2.225720488609387	-0.7523711106553057	-7.138406015448787
0.9368312594138312	0.3045606403570392	-0.3277373214533436	0.02822893699631222	1.006934762546595	0.019297	0.5960535776477465	0.002696633204378534	0.005276179189597132	0.03264583642843694	0.2540961233742562	693.1782511236469	63.92747778646672	1.044185928207627	0.019297	0.34473892677832	-1.596089917627551	-0.856127683111678	-4.284257330379162
0.9408000000000003	0.2804999383536651	-0.3019011988839715	0.02656675277432877	1.015714909434378	0.019297	0.5971083569944226	0.002447828197739952	0.005055010817702664	0.03176002028928129	0.1992455871084911	689.0310137875852	63.32084256065154	1.041087139455733	0.019297	0.3445400375712089	-1.451060921542151	-1.077389737120642	-3.661207610858725
0.9503128561131143	0.1218117958068509	-0.1310987659789749	0.01150595025616936	1.037272855167938	0.019297	0.5998006773980595	-0.0001448239034885857	0.003141304866762244	0.03489099781510478	2.871621360616215	683.2709465348801	62.84022119314336	1.03366304069077	0.019297	0.3441025365967969	-1.090391156746446	-0.9015864664212498	-2.060175266313788
0.9672558844730554	-0.0358655710882165	0.03844699782502464	-0.001991593824298123	1.077257735974573	0.019297	0.6049411752391705	-0.002656013720409166	0.001056032365544271	0.03682892126929009	5.723911018206863	679.2797530100793	61.23047202011075	1.020449750777671	0.019297	0.3434897935434009	-0.571458362743746	-1.114085144041918	0.5432078996979932
0.9816312594138312	0.08431296316686364	-0.09105935131011401	0.01122141662238207	1.11260528957719	0.019297	0.6092833929808913	0.001088140991811182	0.00292661956051985	0.02115708064813502	12.03155830589191	683.2290827279899	60.83669045274807	1.009243414773153	0.019297	0.3431534836772079	-0.2139254382782596	-1.144960329451278	2.617496740011898
0.9856000000000004	0.08431560042605755	-0.09102902030993648	0.01100270100389058	1.122571948946224	0.019297	0.610424522771298	0.001617297897879491	0.003176203015452678	0.01882206870297246	6.217985901376265	687.7237307591772	62.47037084574151	1.006149483520142	0.019297	0.3430840878894332	-0.089155109688277	-1.447112797998622	3.34186379888401
0.9951128561131144	0.1054982442750137	-0.1136279101021037	0.01080893850228542	1.146672905850301	0.019297	0.6130483959944295	0.002358223474599403	0.003321810739656219	0.01218083501630368	14.47659996490813	697.0986429768336	60.15930137328006	0.9987641486778809	0.019297	0.3429833807539852	0.143263727383995	-1.385735957657279	4.804773186748914
1.012055884473055	0.08831430214302524	-0.09492144627774551	0.006719437368456784	1.189555415168285	0.019297	0.6170400775865996	0.00207407227469129	0.00248593193891256	0.006340513445601425	18.33392704490092	715.1879216878338	60.91345292094424	0.9856156595132617	0.019297	0.3430397082344701	0.5285685082162574	-1.154518054272212	7.431766319720332
1.026431259413831	0.07143412429740509	-0.07663679176975752	0.003085286280699944	1.224356097975181	0.019297	0.6192004631268518	0.002047110396764148	0.002165554670960655	0.003452930295116906	26.45653208618602	726.1825612550166	58.86323447495286	0.9744813937335848	0.019297	0.3432872049714714	0.8558463701637953	-1.301293821619339	9.449712327406392
1.0304	0.06879903192028582	-0.07377790444355417	0.00210212970036779	1.233444911190506	0.019297	0.619521267654611	0.002054044756083525	0.002118152271601882	0.002834855587597868	21.22405931094625	731.5373206576445	68.03306799648912	0.9713833704405529	0.019297	0.3433666954731224	0.9861760273722693	-0.6912872441608522	10.17808927911893
1.039912856113114	0.06522506491523944	-0.06991101879935256	-0.0001681065067998086	1.253966704836846	0.019297	0.6197868629189388	0.002072083200626089	0.002042291278123834	0.00159631364178237	27.8445610491904	739.667364446163	59.18708366318213	0.964043279510544	0.019297	0.3435943795120748	1.255749279093083	-1.519993257277209	11.64082311428033
1.056855884473055	0.06801522445928988	-0.07305443606483003	-0.004669470189515925	1.284971881520041	0.019297	0.6184904376064273	0.002213476472069945	0.002115887608710957	-0.0001051670198966234	30.68348620326374	741.4224420114034	64.81473485260537	0.9509427791250211	0.019297	0.3440619687693023	1.778227724624521	-1.071171621296129	14.21642464709751
1.071231259413831	0.07682378413482185	-0.08305522855006695	-0.01028246697189905	1.305126818469806	0.019297	0.6158831194959256	0.002461353647961986	0.002404197036222094	-0.001371447404398448	33.52527499763437	733.2900837117974	58.2131761783122	0.9398600305875104	0.019297	0.344416311340538	2.308089180733669	-2.509774958520204	16.63018811522148
1.075200000000001	0.07916068662408746	-0.08583266912263593	-0.01221091272039528	1.309717420863359	0.019297	0.6149334638969404	0.002523543912985582	0.002499945294784152	-0.001666401518293288	32.55922806672431	732.3226768250356	82.4068821782586	0.9367968629192946	0.019297	0.3445051959545187	2.494462698804947	0.3522908183223059	17.47795110462982
1.084712856113115	0.08178084118618266	-0.08940447763502141	-0.01641296985056503	1.319050622710827	0.019297	0.6124357443839555	0.00257268926393868	0.002624748244031839	-0.002156059978942888	34.05702745426078	724.3928980316668	61.66601982651518	0.9295069980838886	0.019297	0.344672508359232	2.900988571856281	-2.660243033683976	19.37279180612533
1.101655884473056	0.08141807897886497	-0.09151056824455903	-0.02522848612780073	1.329750149033718	0.019297	0.6072262775728233	0.002583719038251859	0.002780830495162105	-0.002846615921482738	34.72510583290516	705.2418219762596	72.60537903375001	0.916503262657612	0.019297	0.3448897424655837	3.571583363540255	-1.924488390772974	22.65450403964822
1.116031259413831	0.07331059853480681	-0.08553672247464833	-0.03120099987327849	1.333703560739131	0.019297	0.602180955411135	0.002495735013175581	0.00304270927784423	-0.003181860811543019	35.81332395583848	680.4997215634478	55.1118405852486	0.9053506987367316	0.019297	0.344934927224106	3.924902732628797	-5.070910245820337	24.50330350158757
1.12	0.06870811329562726	-0.08154524445032603	-0.03249819135527554	1.33418236001504	0.019297	0.6007460394460536	0.00243915122200654	0.003134670216291332	-0.003184778170800441	82.29905536195585	678.0058627286477	83.9872265154365	0.90222362910538	0.019297	0.3449665135139763	4.05616368013615	-1.424363728345248	25.18522953686792
