DataType=double
version=3
OpenSimVersion=4.5
endheader
time	pelvis_tilt	pelvis_list	pelvis_rotation	pelvis_tx	pelvis_ty	pelvis_tz	hip_flexion_r	hip_adduction_r	hip_rotation_r	knee_angle_r	knee_adduction_r	knee_angle_r_beta	ankle_angle_r	subtalar_angle_r	mtp_angle_r	hip_flexion_l	hip_adduction_l	hip_rotation_l	knee_angle_l	knee_adduction_l	knee_angle_l_beta	ankle_angle_l	subtalar_angle_l	mtp_angle_l	lumbar_extension	lumbar_bending	lumbar_rotation	arm_flex_r	arm_add_r	arm_rot_r	elbow_flex_r	pro_sup_r	wrist_flex_r	wrist_dev_r	arm_flex_l	arm_add_l	arm_rot_l	elbow_flex_l	pro_sup_l	wrist_flex_l	wrist_dev_l
0	-0.08750806758203393	0.06889816034589062	0.02848082316852593	1.057368434410948	0.9447094814064945	0.4329063907334258	0.6241022705844882	-0.2393231426237938	0.1318800125447317	0.3543476738961416	0.03879643001440361	0.3484251164524865	-0.05556951259095903	-0.3689969288722588	-0.04237228992711711	-0.04669100597792031	0.05854572980295385	-0.09286432548207808	0.1901128179562134	0.09396746454545898	0.1563783269951611	0.2760323611668632	-0.07603083470257627	-0.03539987579571073	-0.1897024786424504	-0.01671153675623751	0.06247601866307928	-0.2003423313571915	-0.1661225742003514	-0.4759779960058643	0.2351362584450197	1.570796326969429	0	0	0.4952392306633611	-0.3314988015297102	-0.0451534638809673	1.407580708390527	1.570796326969429	0	0
0.009512856113114032	-0.09077868464179317	0.06724594103249493	0.0308743173490704	1.059253385790643	0.9425806771407165	0.4347447877741678	0.6243047840286504	-0.2349448064256405	0.1201840111199794	0.3560987663178822	0.03879643001440362	0.3352255525811831	-0.0553714862533392	-0.3727120245770574	-0.04634331927269814	-0.05094761121430275	0.05335017971750673	-0.09335557583439309	0.1976603043590665	0.09396746454545901	0.1608688073584538	0.286358419243821	-0.07056951087369796	-0.03746291171731608	-0.1828059291110499	-0.01801004894179473	0.05792216554847969	-0.2211648449785942	-0.1665055387112713	-0.4705375401984395	0.2440561544647475	1.570796326969429	0	0	0.5147926105985305	-0.3294850617022925	-0.04875499314366957	1.438542162346714	1.570796326969429	0	0
0.02645588447305514	-0.09587949461592747	0.06303899498704048	0.03594047599724359	1.063360988334653	0.9388208529421961	0.4382782144470613	0.622664990145769	-0.2249582664171645	0.1013965925365635	0.3688080062283037	0.03879643001440363	0.3279258688304888	-0.0542378039710819	-0.3811453465497616	-0.05238566893293951	-0.05756476553881047	0.04200547248006194	-0.09379269462219583	0.2156061931868573	0.09396746454545903	0.1763614874309315	0.3027912437746831	-0.06299288513363788	-0.04213271197690689	-0.1695843144362484	-0.01887813344659088	0.04943155400420304	-0.2619173108823456	-0.1670612612536131	-0.4540615399716006	0.2603975748384152	1.570796326969429	0	0	0.5432444931718033	-0.3250112002260271	-0.05549114376304769	1.489661121145935	1.570796326969429	0	0
0.04083125941383081	-0.09879676649625743	0.05841729265030268	0.04102790440266202	1.067568908278784	0.9357830799560074	0.4414398653601774	0.6181719207749726	-0.2148719929170548	0.09334531539459978	0.3864041849706957	0.03879643001440364	0.3361017332090347	-0.05879043511011765	-0.3871087856349266	-0.05646273905475752	-0.06264446562346682	0.03079424468601933	-0.09218123100547451	0.2357420856705021	0.09396746454545905	0.1983482882394517	0.3149216624413013	-0.06068420540424618	-0.04696804833355158	-0.1584642584343876	-0.01793785162896261	0.04176331494949612	-0.2988346569865922	-0.1674013359134776	-0.4355681879814428	0.2700941136221369	1.570796326969431	0	0	0.5582998733849862	-0.3201640828286477	-0.06173671470477896	1.528248109056023	1.570796326969431	0	0
0.04479999999999995	-0.09932412735276032	0.05701790171528004	0.04254272496623161	1.068809418858938	0.934980436140544	0.4423334235925124	0.6162750601452233	-0.2119357587059998	0.09349403079982525	0.3916222486428312	0.03879643001440364	0.3403153175072408	-0.06160247146425651	-0.3879194410550481	-0.05744236013205152	-0.06387016775483423	0.02753203502280887	-0.09139523594532756	0.2422090990630058	0.09396746454545905	0.2060214459245196	0.3176723584194922	-0.06120508838014928	-0.04801575938399611	-0.1555572415609393	-0.01745911731552091	0.03956762685844821	-0.3084657303901568	-0.1674966614994454	-0.4306918010792005	0.2717122012296501	1.570796326969431	0	0	0.561454766113469	-0.318704631914578	-0.06340130923740012	1.538653724282568	1.570796326969431	0	0
0.05431285611311398	-0.1004421558930312	0.05335342401345976	0.04637350912156658	1.071898890844326	0.9330941785207777	0.4445308944375572	0.6105231809590079	-0.20467269487758	0.09556780100458767	0.402823209584455	0.03879643001440364	0.3532275253426	-0.06418114380629174	-0.3911656826174963	-0.06066245682305707	-0.06603988794038536	0.01929094380562326	-0.08884390817211597	0.2595080279230706	0.09396746454545908	0.2274597179529609	0.3236982480397614	-0.06387152314181822	-0.05090698023569233	-0.1485642439169227	-0.01595383384683135	0.03417737656873677	-0.3308245868593718	-0.1677511271310516	-0.4187882134258066	0.2751856152602383	1.570796326969431	0	0	0.567905227686923	-0.3150099051357155	-0.06727259909922317	1.563229867025054	1.570796326969431	0	0
0.07125588447305514	-0.1016693372616177	0.04564281141619385	0.05168908295035149	1.077337923021932	0.9302152844530444	0.448832795842981	0.5985998473248392	-0.1894172965340283	0.1007139578136195	0.422224306283246	0.03879643001440362	0.3833153567823613	-0.05379446002121987	-0.4085090717127555	-0.06932545969442583	-0.06566718471508931	0.003266136961226157	-0.08352292297832484	0.2991797880041539	0.09396746454545898	0.2769414838037667	0.3311066747744675	-0.07632739889342247	-0.06029835259098396	-0.1372731901479604	-0.01194509442016221	0.0239742387326032	-0.354226167461771	-0.1678732695300385	-0.4000542901069851	0.2776071040609037	1.570796326969429	0	0	0.5718889389053913	-0.307457584111656	-0.07459208221635961	1.602402962726247	1.570796326969429	0	0
0.08563125941383082	-0.1025091459710381	0.03728441835397029	0.05349005296246017	1.081405499032569	0.9285311732172262	0.452992017696015	0.5913059051722021	-0.1728946015996951	0.1036852486613625	0.4435438805559814	0.03879643001440364	0.412026053934314	-0.03346593276014323	-0.4296942620795948	-0.07526433228505505	-0.05851898845949232	-0.0124791284152824	-0.08022544912361081	0.3445125949022306	0.09396746454545904	0.330806436310489	0.332420281837265	-0.09412360214190835	-0.0740929431126565	-0.1291495688708725	-0.006718681416625874	0.01489311862012086	-0.3508657843413187	-0.1673444852287478	-0.3879530177557243	0.2757068657472811	1.570796326969429	0	0	0.5672148174565718	-0.3001102567674593	-0.08155477059745732	1.629275721025686	1.570796326969429	0	0
0.08960000000000001	-0.1028955428691242	0.03460889648740362	0.05363636747225019	1.082398235442074	0.9282012883997454	0.4542173473849059	0.5902456762307651	-0.1677355172271671	0.1046846261187168	0.4504326326673724	0.03879643001440364	0.419914939427209	-0.02623005046404044	-0.4336702163592087	-0.07555515633112402	-0.0550281173770863	-0.01733103935056063	-0.0798888973024643	0.3592167789236277	0.09396746454545905	0.3476083824678752	0.3317293957510681	-0.09956845490837507	-0.07838089341491886	-0.1269870446767843	-0.004954203294121906	0.01241332613625202	-0.346845169093992	-0.1671138028179417	-0.3851887576999746	0.2749789799393383	1.570796326969429	0	0	0.565307388558417	-0.2980216231737601	-0.08347901835759135	1.636036119659544	1.570796326969429	0	0
0.0991128561131141	-0.1037625974874586	0.02792801084241735	0.05389127238295648	1.08472412009682	0.9276389528974218	0.4572047528111055	0.5877606008911415	-0.15485244574723	0.1070079725636376	0.4673440725691896	0.03879643001440362	0.4380457699112437	-0.006622496946556245	-0.4449183385138162	-0.0775755904292372	-0.04488709398660408	-0.02936172177805018	-0.07890681196411117	0.3973643880795569	0.09396746454545903	0.3911827230090197	0.327581278137109	-0.1147313112219953	-0.08825963481291842	-0.1219190449916806	-0.0004731855366027909	0.006681445783113965	-0.3362364186836209	-0.1665399569405995	-0.3789842793037206	0.2716059779802792	1.570796326969429	0	0	0.5586824289363156	-0.2929561348341594	-0.08822471522987947	1.651326779326539	1.570796326969429	0	0
0.1160558844730551	-0.1054456349685454	0.01502971707798242	0.05402394162666908	1.08872465409777	0.9274034799623936	0.4626115146844468	0.5803030304187914	-0.1306253808719285	0.1110221882312611	0.4904903409092442	0.03879643001440363	0.4653720532456865	0.02393672995160774	-0.4658638713439753	-0.08130783426589248	-0.02023270449411746	-0.05215422520796056	-0.07661346127563429	0.4752977438543677	0.09396746454545905	0.4794281241452034	0.3103723654312873	-0.1486429434289131	-0.1043224656255186	-0.1125277179830625	0.008513291163959026	-0.002348534894366105	-0.3120749523924842	-0.1657781813438205	-0.3720554573458141	0.2603525584842871	1.570796326969429	0	0	0.5407624138750636	-0.2834881777401652	-0.09729611888666556	1.674810169678147	1.570796326969429	0	0
0.1304312594138309	-0.1065998480996367	0.003401954260194005	0.05428522852784351	1.092091616416348	0.9278839556068849	0.4670826721269353	0.5671954379180763	-0.1100635566366988	0.1132573483662467	0.4968113731624537	0.03879643001440364	0.4814445210910061	0.03860386236727281	-0.4831250133841298	-0.08546535434053498	0.006192843795444822	-0.07220153604207134	-0.07289629066705226	0.5499356768083165	0.09396746454545905	0.5630340137569341	0.286260947639253	-0.1839139088197478	-0.113236442388175	-0.1043795222689375	0.01718580982501251	-0.008357172213889711	-0.2893590896811384	-0.1657199328965036	-0.3701562930641836	0.2472051431359213	1.57079632696943	0	0	0.5197225778986363	-0.2749728906337555	-0.1053594998251813	1.689598249507785	1.57079632696943	0	0
0.1344	-0.1068047893072642	0.0001379918966408586	0.05449262380348777	1.093009758496384	0.9281049074187235	0.4682707291550591	0.5623957709150199	-0.1046017893532403	0.1134803993635977	0.4964832689016866	0.03879643001440364	0.4845776293842117	0.04093408468347354	-0.4875858841489539	-0.08678180787286323	0.01422742337946417	-0.07779084735474102	-0.07163945561874212	0.5717118797930179	0.09396746454545905	0.5871566515903595	0.2784999727129867	-0.1943881745758329	-0.114205054223462	-0.1022308083252684	0.01973582353851731	-0.009729296359397782	-0.2835062169490469	-0.165824669256964	-0.3697266506888706	0.2438816541663216	1.57079632696943	0	0	0.5132693250891782	-0.272595309537398	-0.1074610145415218	1.692763089072836	1.57079632696943	0	0
0.1439128561131141	-0.1073204801869509	-0.007997937974814273	0.05498518587273262	1.095072932823926	0.92875952660114	0.4710504530046584	0.550280088930046	-0.09138915474819892	0.1138319840987654	0.4941008003813783	0.03879643001440363	0.489776957653244	0.04711867664174974	-0.4975085259092912	-0.09051348404645398	0.03505798812298067	-0.09132453353353612	-0.06787125036257363	0.6255495979606968	0.09396746454545904	0.6461754949386566	0.2577681978078913	-0.2218131855047563	-0.1141692305456654	-0.09722775951331127	0.02639344091950171	-0.01267210963140938	-0.2682893341186085	-0.1660840789274762	-0.3682825730829409	0.2365327514836081	1.570796326969429	0	0	0.4966625185169843	-0.2668656183985318	-0.1124392030811824	1.698743239591263	1.570796326969429	0	0
0.1608558844730551	-0.1074477327781997	-0.02353848097890605	0.05644475767299655	1.098195330907488	0.9302999430260617	0.4756385387921551	0.5260436690934081	-0.06765768422313376	0.11389118602438	0.4850039403364045	0.03879643001440364	0.4915658001752485	0.05840178656754733	-0.513494618981951	-0.1014797777002123	0.07750765031031161	-0.1157094678816964	-0.05678832914114054	0.7289384895670329	0.09396746454545908	0.7527490485008803	0.2133466216684952	-0.2768042684893626	-0.09831745608743593	-0.09006997092825139	0.04034379377645768	-0.01646092828306648	-0.2407248333961387	-0.1673858200522658	-0.3631536134738064	0.2304313822922992	1.570796326969429	0	0	0.4641869076192915	-0.2561344757405428	-0.120067482786302	1.6986065880679	1.570796326969429	0	0
0.1752312594138309	-0.1063119682949613	-0.03735348097404749	0.05805622456972535	1.10019995329702	0.9318584330772745	0.479159440537502	0.5031843958411778	-0.04755018189555414	0.113790038746617	0.4734801933364796	0.03879643001440365	0.4870073248711306	0.06597912373765895	-0.5257165008219802	-0.1145279784753007	0.1166445562769464	-0.1366737979928695	-0.04476183947264589	0.819982838995952	0.093967464545459	0.8407928562247765	0.192125456569126	-0.3185361508187523	-0.07988628792870496	-0.0864955216864244	0.05371558597437767	-0.01836114229286857	-0.2163890857585684	-0.1698590848684203	-0.3559755490711742	0.2365571096698905	1.570796326969428	0	0	0.4343458627944301	-0.2461965423899831	-0.1243663081788167	1.68434947879307	1.570796326969428	0	0
0.1792	-0.1058631834992778	-0.0410803305480966	0.05848469063138476	1.100673043410175	0.9322971275216854	0.4800825028344045	0.4966335785401852	-0.04217541281981155	0.1137761730679902	0.4697805718778737	0.03879643001440365	0.485015409086006	0.06756414579840936	-0.5288534720502517	-0.1180305450244969	0.1268919604950843	-0.1424812563941242	-0.04226284012092218	0.8431400741448636	0.093967464545459	0.8641866533942431	0.1958602367948627	-0.3261277516624652	-0.07820549706855889	-0.08576899790510244	0.05736722397975723	-0.01881763041895974	-0.2091711905449445	-0.1707737521239652	-0.3536638202613683	0.2404237398032135	1.570796326969428	0	0	0.4260051816875852	-0.2433162737660568	-0.1250495654196414	1.678484855620018	1.570796326969428	0	0
0.1887128561131141	-0.104781835885714	-0.04995993611438736	0.05980153073066015	1.101657332091203	0.9333595231534826	0.4821795395070151	0.4809937071450127	-0.02967994090435901	0.1134486475603823	0.4606606958046632	0.03879643001440364	0.4793092799431573	0.07115390537080608	-0.535623026245266	-0.1266532193085241	0.1513121942935834	-0.1564260903497522	-0.03651374607916796	0.8954587442993525	0.09396746454545898	0.9179741706970707	0.1940226130262331	-0.342676754312475	-0.06532539877292555	-0.08431677468267121	0.06620495811534324	-0.01975518706196384	-0.1922622864469932	-0.1732144185140334	-0.3474898807314604	0.2513132851836141	1.570796326969428	0	0	0.4056356843661348	-0.2362675152834803	-0.1261215386341593	1.662160540586133	1.570796326969428	0	0
0.2056558844730552	-0.1023800715154796	-0.06413851414793939	0.06316722830572806	1.102821692255384	0.93537799956553	0.485455812239363	0.4530213099377652	-0.01024682202820524	0.1121003047614132	0.443706971076981	0.03879643001440364	0.4671223122749249	0.07620485642035298	-0.5451855376953936	-0.1414093322261594	0.1933406194132999	-0.1788398461888509	-0.02674564522964532	0.9708079692820512	0.09396746454545901	1.003582163257851	0.1774099561933939	-0.3566489440979997	-0.02268732623636025	-0.08345378604441892	0.08062146053086192	-0.02121905822105303	-0.1625648522785651	-0.1794809685970664	-0.3345522529702781	0.2823987847996998	1.570796326969429	0	0	0.3705780204856606	-0.2226476405214529	-0.1250067026084507	1.620976643898588	1.570796326969429	0	0
0.2200312594138309	-0.09975294216964381	-0.07367579398313139	0.0673119821244076	1.103146719396942	0.9372282300858811	0.487732338597922	0.4295147416107645	0.002486790022564395	0.1100332857094278	0.4293991741833786	0.0387964300144036	0.4560561479351946	0.07803820324715058	-0.5514178824640119	-0.1513237820005168	0.2286546406207542	-0.193534558442721	-0.01786757944658076	1.019052401405408	0.09396746454545904	1.063668698373304	0.1635558664839603	-0.3632090928401164	0.02305695701453435	-0.08492076960016465	0.09058257427197554	-0.02229132900974838	-0.1383764065106729	-0.186896562747903	-0.3222999494921945	0.3196589151839547	1.570796326969429	0	0	0.3425136287629021	-0.2100540612044476	-0.1211471180903397	1.572542231008635	1.570796326969429	0	0
0.224	-0.09901796785901294	-0.07592579763906396	0.06864588466041459	1.103136585742848	0.9377483488083536	0.4882904894985735	0.4231950281592961	0.005461182776298663	0.1093451493970381	0.4255827757029133	0.0387964300144036	0.4530077597625574	0.07826097952805151	-0.5529499243261827	-0.1532290862291437	0.2385290129759905	-0.196906293838409	-0.015561039268924	1.030391702829468	0.09396746454545904	1.078003530531132	0.1619318118203603	-0.3662144647346514	0.03408963309572948	-0.0855736687065429	0.09296443384850001	-0.0225436262229687	-0.1318088098122613	-0.189119180695123	-0.3188373431194189	0.3305925410020202	1.570796326969429	0	0	0.3348295046803715	-0.2065320624417467	-0.1198083174625155	1.557739438403309	1.570796326969429	0	0
0.2335128561131141	-0.09721349281533169	-0.0809927790790595	0.0721193565156527	1.102961574514759	0.9390177457883121	0.4895135582853044	0.4083107173958369	0.01207190253517271	0.1075863590446131	0.4166525623541819	0.03879643001440359	0.4458022787441964	0.07875780549690026	-0.5563825671294166	-0.1573370985882089	0.2621023578917122	-0.204309931897092	-0.01027498234180617	1.053245105437708	0.09396746454545903	1.108215278784868	0.1595628886963443	-0.3719642172677431	0.06115607445887147	-0.0875687811664637	0.09846454159676549	-0.02308024868278967	-0.1160387524511575	-0.1946987893039114	-0.3100974933052718	0.3580037939329102	1.570796326969429	0	0	0.3163154278218942	-0.1979953935534021	-0.1161069465268565	1.520017368629414	1.570796326969429	0	0
0.2504558844730551	-0.09352958114883091	-0.08723940719621399	0.07986777632690541	1.10207052576033	0.9413474255022414	0.4912397803596171	0.3822719017580608	0.02013397590445695	0.1037708558954901	0.401744802403909	0.03879643001440362	0.4333847925262553	0.07947087174980848	-0.5613817978317214	-0.1608985259612499	0.3038818535280734	-0.2126166648365529	-0.001739830475220893	1.080885018568425	0.09396746454545901	1.147292291014472	0.1637469376307624	-0.3864641252492402	0.09656447215815973	-0.09317413563751664	0.1055221871727817	-0.02432943094624474	-0.08805446942512818	-0.2059540614211555	-0.2950920971136853	0.4097309007911329	1.570796326969429	0	0	0.2855224714973339	-0.1823091140421003	-0.1077615432479941	1.443213662372283	1.570796326969429	0	0
0.2648312594138309	-0.08985566540552828	-0.08941616037485868	0.0880903293331336	1.100772199165629	0.9433784932813761	0.4923017188284101	0.3602994518821023	0.0230866080021301	0.1000198211848929	0.3897218995858456	0.03879643001440362	0.4230557844559663	0.07917107770358238	-0.5653800766227929	-0.1596698103185663	0.3386945009467782	-0.2146014520777055	0.004282118036976183	1.091584594845882	0.09396746454545897	1.165782531971648	0.1703476927162563	-0.3990354408871939	0.1104724667461357	-0.1000696969526125	0.1081834414098293	-0.02594123200624875	-0.06438330854377712	-0.2168409481369361	-0.2845885969885447	0.4552405152374319	1.570796326969429	0	0	0.262586107542287	-0.1685909628042288	-0.09918595201662828	1.368360677014091	1.570796326969429	0	0
0.2688	-0.08883592632014028	-0.08976745649312598	0.09051615066708403	1.100351448841294	0.9439399964540681	0.4925574004986831	0.3542613969245329	0.02363016735042091	0.09901573331226912	0.3863303785754837	0.03879643001440362	0.4201772814753991	0.07902556675952141	-0.566727676594191	-0.1587971791182652	0.3481341581461564	-0.2148204456822947	0.005477717124483038	1.092385891122216	0.09396746454545897	1.168576321574191	0.1711050684812583	-0.400910764497476	0.1127157865518726	-0.1021461703121687	0.1086347039728189	-0.02643904693979806	-0.05777572326914281	-0.2199213554126943	-0.2820572961362008	0.4676755690459703	1.570796326969429	0	0	0.2565508184404971	-0.1648260177671867	-0.09670656950611381	1.34687429846205	1.570796326969429	0	0
0.2783128561131141	-0.08636812533243222	-0.09027767853058025	0.09654971601998633	1.099238429682196	0.9452698603278749	0.4930978595138952	0.3398755589353096	0.02452094312602405	0.09654282158351511	0.3782908197756904	0.03879643001440363	0.4131188954103553	0.07884460241382193	-0.5696247753113106	-0.1560786905163652	0.3703812044625054	-0.2147569121350058	0.007747581274642642	1.090839962841593	0.09396746454545903	1.171311945166582	0.175319669441118	-0.4038102922712218	0.1163582343262941	-0.1074557639421404	0.1093834628143864	-0.02770512198655391	-0.0416398210799911	-0.2274456828991742	-0.2760653733936351	0.4978304001309166	1.570796326969429	0	0	0.2424286574006735	-0.1557951892402707	-0.09043674616292971	1.293864125244162	1.570796326969429	0	0
0.2952558844730552	-0.08170826307447485	-0.08973941159677194	0.1080933682995161	1.096939539596159	0.9476030983433211	0.4938569306123198	0.3138101757073908	0.02443565242413414	0.09184948155889615	0.3633971658945508	0.03879643001440364	0.3995195937683618	0.07892545939971141	-0.5741303575722706	-0.1488818162755044	0.4074415482777561	-0.212548447991863	0.009147667517408354	1.074773311943231	0.093967464545459	1.16273899049728	0.1843090172744546	-0.4044426624434531	0.1137918127116643	-0.118144800081936	0.1090598832202947	-0.03040108418953763	-0.01167358354191675	-0.241204250351496	-0.2678476236338944	0.5518040011231283	1.570796326969429	0	0	0.2203836430604346	-0.1399869913794769	-0.07903385661558873	1.19394059807	1.570796326969429	0	0
0.3096312594138309	-0.0775846453969796	-0.08806549685866305	0.1184081432301546	1.094745556565281	0.9495232550677916	0.494361958951288	0.2910285155225035	0.02305371178843009	0.08764360122079622	0.3496064789553474	0.03879643001440364	0.3863096194200767	0.07907560220238337	-0.5773903476299559	-0.1409516984678385	0.4356079370930909	-0.2089934880049483	0.008000593419826549	1.047770698311289	0.09396746454545907	1.142369676288503	0.191038257516131	-0.398962318978187	0.1052725734926263	-0.1281971443437916	0.1072450938027967	-0.0330153088466217	0.01475155871910036	-0.2530029746487867	-0.2643324300854397	0.5981476328964581	1.57079632696943	0	0	0.2050030356614594	-0.1271525656410371	-0.06982674076996413	1.104010048775376	1.57079632696943	0	0
0.3136000000000001	-0.07651278310009561	-0.08763348181017055	0.1212231320770235	1.094119011404669	0.9500342173609857	0.4944946339171973	0.2846915971988104	0.02273830609526644	0.08651937274284642	0.3455144857928534	0.03879643001440363	0.3823091029723429	0.07925247523311053	-0.5781754747110136	-0.13867019553581	0.4428682777992585	-0.208067076971109	0.007341350696340027	1.038222553103735	0.09396746454545907	1.134663178843068	0.1919433796649596	-0.396004656656757	0.1034287069222189	-0.1309646236115391	0.1067391003738997	-0.03371208097850881	0.0221714475111599	-0.2561968410812964	-0.2637031524377607	0.611175677825846	1.57079632696943	0	0	0.2009684543885677	-0.1237488580228251	-0.06739879643923061	1.078853859761157	1.57079632696943	0	0
0.3231128561131141	-0.07400686287188003	-0.08660882420443597	0.1279329462180337	1.092575528751936	0.9512154555852	0.4947840021127033	0.2694471930275178	0.02198950048952678	0.08377037429821595	0.335453099432963	0.0387964300144036	0.3719993034195552	0.08003912249062893	-0.5795033384843044	-0.1328351833676229	0.4592516847288491	-0.2056929541232548	0.005413647603045042	1.011801184812139	0.09396746454545903	1.112542646389564	0.1949393337981439	-0.3872229630087748	0.09863466412425714	-0.1376452464018742	0.1055036142003328	-0.03537982991856103	0.0404242959495647	-0.2638022739488757	-0.2623368170852172	0.6430750983772098	1.57079632696943	0	0	0.1918203437100111	-0.115744637856984	-0.06157215285948767	1.017967794946835	1.57079632696943	0	0
0.3400558844730551	-0.06992881125446072	-0.0851303731259751	0.1391228661334769	1.089752870835478	0.9531678422557889	0.4952524518717217	0.2418109242796609	0.02105613629659675	0.0788372692008158	0.3156428663625596	0.03879643001440361	0.3508486545037596	0.08187466150118626	-0.5796828577132572	-0.122335756960035	0.4842754317795609	-0.2013287320293008	0.0009240583167309765	0.9519269996184775	0.09396746454545903	1.060437309502603	0.1993699411771293	-0.3691307118148819	0.09064767465854444	-0.1494772491043508	0.1035943070630016	-0.03779286498685366	0.07378812314624748	-0.2765950203192459	-0.2616963785248443	0.703340839248615	1.570796326969429	0	0	0.1764589482136402	-0.1028473375604196	-0.05287888304252053	0.9077512060776664	1.570796326969429	0	0
0.3544312594138309	-0.0670414603536072	-0.08433205680579441	0.1474415026558529	1.08734589444677	0.9546459292350662	0.4956198663823411	0.2179970351536828	0.02073586023473456	0.07470687208557379	0.296812687891554	0.03879643001440364	0.3299271837989142	0.08380533000303438	-0.5770674230637777	-0.114352769802133	0.5011993944545552	-0.1973724602310361	-0.002856691555581678	0.888825474312799	0.09396746454545904	1.003629078277924	0.1995138749315125	-0.3518973964591895	0.08543561420896971	-0.1592071261065978	0.1023606426217825	-0.03888529117360073	0.102193137506302	-0.2863573419111719	-0.2632816806884322	0.7584966952477605	1.570796326969429	0	0	0.1630108939602185	-0.09371361270456316	-0.0480233720570244	0.8133968711539792	1.570796326969429	0	0
0.3584000000000001	-0.06638656942172613	-0.08424628963188135	0.1495324391833606	1.086686682982757	0.9550183435444032	0.4957136373764899	0.2114369322800494	0.0207731501418746	0.07358267522074652	0.2913573773878654	0.03879643001440364	0.3236760643051148	0.08458568047153067	-0.5757778858278408	-0.1123911720565399	0.5052339706174137	-0.1962680589805251	-0.003665380224247242	0.8695801065368468	0.09396746454545905	0.9859666055758773	0.1982210069810902	-0.3465587645324232	0.08460663046422601	-0.1617670262250549	0.102145636511058	-0.03901591600036284	0.1100478353745779	-0.2888752133120089	-0.2637772500371375	0.7743148533450233	1.570796326969429	0	0	0.1589907532113816	-0.09144934628240858	-0.04696988402352246	0.7875966680244849	1.570796326969429	0	0
0.3679128561131141	-0.06498397101796229	-0.08425821328500199	0.1542336276213823	1.085102301062156	0.9558437001750891	0.4959118025078043	0.1956957240030814	0.02106384378169337	0.07097380218362662	0.2778747937722923	0.03879643001440364	0.3079120413827464	0.0869061345021758	-0.5719437559804667	-0.1078829721207206	0.5137344493203806	-0.1934952022275089	-0.004955313700739331	0.8205345326971173	0.09396746454545907	0.9403100741581609	0.1950337659116525	-0.3324190732178968	0.08280851743048247	-0.167785178633645	0.1018638794047331	-0.03912069519048269	0.1293157790389211	-0.2946797673607296	-0.2647276840560708	0.813257126619109	1.570796326969429	0	0	0.1491750275706287	-0.0863619216878522	-0.04475635193276355	0.725929180972826	1.570796326969429	0	0
0.3848558844730551	-0.06325164566488685	-0.08506691910263545	0.1609347087958128	1.082375833968682	0.9570463577105772	0.496222464839902	0.1677387992550484	0.02238023585706495	0.06709995902871566	0.2524282566292365	0.03879643001440363	0.2775176601602136	0.09170985864997362	-0.5625754378644363	-0.1033447667669621	0.524820138149558	-0.1885406289983462	-0.004850352177915392	0.7243665451131249	0.09396746454545903	0.8484775010881738	0.1857762278905447	-0.3055529698335371	0.07871421355158614	-0.1778067729683749	0.1020881774195847	-0.03801174879473133	0.1637755277606558	-0.3036024938688566	-0.2666621098725546	0.8864879111958353	1.570796326969429	0	0	0.1285280859428696	-0.0793180039604736	-0.04336261920096656	0.620021527470939	1.570796326969429	0	0
0.3992312594138309	-0.06261620545062162	-0.08633154199662539	0.1648090932143319	1.080240508600816	0.9577588754238139	0.4964475544535272	0.1443283352523403	0.02408185508753132	0.06490038744427572	0.2298869146959092	0.03879643001440363	0.2502072575514788	0.09613523807220042	-0.5524228943286179	-0.1043635617089845	0.5305772787080033	-0.1844571623920137	-0.001688953644464824	0.6369351680531199	0.09396746454545905	0.762212092564987	0.1723877439865714	-0.2806515678202929	0.07315860720255993	-0.1853588562303536	0.1026569122351264	-0.03566211171826458	0.1925989661809924	-0.309556128611971	-0.268892993439338	0.9517964049968344	1.570796326969429	0	0	0.1067513709254862	-0.07560229699239077	-0.04499873955274317	0.5369164006973388	1.570796326969429	0	0
0.4032	-0.06257097081678313	-0.08675014075970999	0.1656641445030627	1.079685022314134	0.9579015143613454	0.4964916446414659	0.1379437311773607	0.0246002099184747	0.06443733664117275	0.2236238576285022	0.03879643001440363	0.2425657756580658	0.09748797321596268	-0.5493264813340729	-0.1052271485938689	0.5316567896317431	-0.1833467201342996	-0.0001834287816720523	0.6123690081360711	0.09396746454545907	0.737464653864881	0.1672519542370168	-0.2731670874904861	0.0714350994507551	-0.1872384822715458	0.1028539540595795	-0.03486900471854591	0.2006850788551416	-0.3110102642559057	-0.2693637001558706	0.9700887575085895	1.570796326969429	0	0	0.1002792186490764	-0.07482367772824926	-0.04563587972434179	0.5152766317284244	1.570796326969429	0	0
0.4127128561131141	-0.06261495849944915	-0.0878832821664895	0.1673536965646847	1.078401133410408	0.9581469420794579	0.4965559716504385	0.1227864418453203	0.02597135466840217	0.0637262674767555	0.2086162307454534	0.03879643001440362	0.2243070517100584	0.1009057859888799	-0.5418331566061135	-0.1079772501541844	0.5335620865276542	-0.1807943655777121	0.004359214596007325	0.5537677610672921	0.09396746454545907	0.6772355510101514	0.1541255824550338	-0.2543447953851776	0.06697921331246463	-0.1914586199374216	0.1034753519474293	-0.03277548489578086	0.2206132983267576	-0.3142298543155286	-0.2700975169821526	1.014704977609925	1.570796326969429	0	0	0.08441322273311444	-0.07332119419234795	-0.04741397915917316	0.465063571256126	1.570796326969429	0	0
0.4296558844730551	-0.06333560223836227	-0.09009110317280661	0.1689496504980663	1.076414054624556	0.9582307906392025	0.4965349599545824	0.09655668748186252	0.02858350877738654	0.06417461290965987	0.1825430693521767	0.03879643001440363	0.1929725391427548	0.1073589169528106	-0.5286291273671209	-0.1172188921106035	0.5351066209243092	-0.1768752496197308	0.01437104109369866	0.4537719559911889	0.093967464545459	0.570019538902821	0.1288714394569318	-0.2191557952057633	0.05526113770721223	-0.1975421523286841	0.1046843074419853	-0.02824231084903893	0.2570090436376259	-0.3186895808762136	-0.2708754154802042	1.094929817442927	1.57079632696943	0	0	0.05231701126593084	-0.07232980173173192	-0.05180082434379965	0.3873027732749953	1.57079632696943	0	0
0.4440312594138309	-0.06453040489893606	-0.09189648311436793	0.1690674722424373	1.075111279125734	0.9579601727719297	0.4963398421530407	0.07525078558070712	0.03064799822735017	0.06615704501941347	0.16182533939028	0.03879643001440364	0.1689269967082805	0.1128446701664378	-0.5179457758600402	-0.1287608186647021	0.5355474401071927	-0.1741379236092312	0.02258373080266554	0.3781312541699922	0.09396746454545905	0.4838277634280166	0.1074286421396212	-0.1893448840235368	0.04181570262732361	-0.2010654942417882	0.1055954336286925	-0.02370417196260637	0.2879354587324623	-0.3211739152829715	-0.271618974734443	1.162141138772434	1.57079632696943	0	0	0.02021636935796079	-0.07315866655985931	-0.05632526121017237	0.3357553976400567	1.57079632696943	0	0
0.448	-0.06491256443398134	-0.09236999652898849	0.1690022896118173	1.074812800350447	0.9578367182960377	0.4962382718886624	0.06952449956014249	0.03114876144532546	0.06681369951278884	0.1564580746119522	0.03879643001440364	0.162880112389575	0.1144214510955194	-0.5150567984043897	-0.1319209234610572	0.5356576251638033	-0.1734207445243136	0.02440419556912775	0.3594162690188356	0.09396746454545905	0.46147412280912	0.101515967278114	-0.1814141591963032	0.03819864961735586	-0.2017788240307743	0.1058735601149689	-0.02242243767005169	0.29657290832128	-0.3217377595700582	-0.2717336676719054	1.180479245926911	1.57079632696943	0	0	0.01095926458893462	-0.07353031199384748	-0.05743631681535953	0.3234304975488467	1.57079632696943	0	0
0.457512856113114	-0.06595333230429982	-0.09343759068421199	0.1686118227215121	1.0741814966909	0.9574560200525922	0.4959245752517821	0.05626352793458534	0.03225381021008847	0.0687748095002093	0.1444079877991095	0.03879643001440361	0.1496515960188401	0.1183645007768702	-0.5086578508742609	-0.1396927784223571	0.536196718055964	-0.1717339805163834	0.02772679365999096	0.3190262687621577	0.09396746454545903	0.4113097752077458	0.08756653875529608	-0.1626174577873352	0.02947054476599397	-0.2030300663574778	0.1065466121796154	-0.01928956291708448	0.3177915316032887	-0.3228897371114733	-0.2717337028717651	1.224601053772945	1.570796326969429	0	0	-0.01149142713873481	-0.07468197754133898	-0.05995126722085924	0.2965571526783344	1.570796326969429	0	0
0.4744558844730551	-0.06836138115067984	-0.09488566827165718	0.1672369828025418	1.073432080344608	0.9564992939290415	0.4950597966072914	0.03455405382731713	0.0335247370416854	0.07319996427696115	0.1264014905576661	0.03879643001440362	0.1311917636176944	0.125692247006951	-0.499053334187473	-0.1521949556938552	0.5382394125910028	-0.1682238274359835	0.02653119265661193	0.2643747459253464	0.09396746454545903	0.3367150710806209	0.0703064419891189	-0.1322975099381539	0.01434543123478968	-0.2033287093689941	0.1076200611102913	-0.01358946527328587	0.3563676527711899	-0.3241041296695929	-0.2712983527343978	1.30062814071679	1.570796326969429	0	0	-0.05411949405611935	-0.07773984568459164	-0.06320058974070251	0.2627255253970223	1.570796326969429	0	0
0.4888312594138309	-0.07091153528043721	-0.09554643433590027	0.1655447130925657	1.073168713542977	0.9554630282602491	0.4939911723037075	0.01836177168650716	0.03376745433915627	0.07729476242241114	0.1153699482017976	0.03879643001440367	0.1212637197729959	0.1320342371593097	-0.4924165134363198	-0.1591672898880628	0.5410499775942073	-0.1642170131523711	0.01708433114370433	0.2358823971430302	0.09396746454545905	0.2909460492754369	0.06142963247108585	-0.1129062895988245	0.003186596963693543	-0.2017478858428128	0.1083434061548045	-0.008685689910808444	0.3893226641131374	-0.3242850967734836	-0.2708202899883628	1.360749649251158	1.570796326969429	0	0	-0.09285804851319228	-0.08126825667464588	-0.06416651315813379	0.2491119342321632	1.570796326969429	0	0
0.4928	-0.07163791767804328	-0.09567688888382041	0.1650234168781804	1.073140312502455	0.9551534694819072	0.493640113748226	0.01426942097631096	0.03373698198640897	0.07827911899018955	0.1131612890708615	0.03879643001440367	0.1194883791194223	0.1339859470146477	-0.4906489698642689	-0.1601736488244801	0.5419454431784998	-0.1629386197306689	0.01347326498577438	0.2307611436891717	0.09396746454545905	0.2813375882835044	0.05851021941053948	-0.1091407924951323	0.0008435280028833325	-0.2011301983438467	0.1085844302229382	-0.007330798294936155	0.398540905219792	-0.3242474545586685	-0.2705159980739623	1.376769516983104	1.570796326969429	0	0	-0.1035037975465941	-0.08232004371187218	-0.06406462596705023	0.2468669493490377	1.570796326969429	0	0
0.502312856113114	-0.07360512119820578	-0.09581735363105062	0.1635239601362425	1.073158645511057	0.9543500461675755	0.4927280009069546	0.005370341369211882	0.03343163072123337	0.08070917559249347	0.109433324143163	0.03879643001440364	0.1169197482865424	0.1391652530290765	-0.4866851016893726	-0.1618619368442143	0.5444282116673964	-0.1596512012556685	0.003536491899666057	0.2230385703676005	0.09396746454545907	0.2636256312833622	0.05285306859278871	-0.1007590951587076	-0.004027631502704132	-0.1990934690729205	0.1090425151865229	-0.004064336012122366	0.4210866206610958	-0.3239972583977662	-0.2693611060148576	1.414850427286166	1.570796326969429	0	0	-0.128960003838152	-0.08502158063226306	-0.0633283162996915	0.2438335997604553	1.570796326969429	0	0
0.519255884473055	-0.07826114219360959	-0.09515252542014935	0.1599952591860065	1.073488495470288	0.9527037628087395	0.4908613297381114	-0.00686768791010822	0.03167471812768714	0.08506181596396618	0.108435823767939	0.03879643001440363	0.1179505756808617	0.1501360902983376	-0.4806683680772342	-0.1599253861060259	0.5497368495472829	-0.1526539560971714	-0.01929643130001338	0.2235924480229889	0.09396746454545894	0.2495528774285527	0.05053485515551386	-0.09241223968100142	-0.008656620166637641	-0.1933477692752262	0.1089213601232524	0.001840064296457618	0.4616490290662266	-0.322865113585765	-0.2661348100974986	1.478190251203934	1.570796326969429	0	0	-0.1739548327193111	-0.09042132981158844	-0.05966697701742328	0.2474454525666297	1.570796326969429	0	0
0.5336312594138308	-0.08353439975400334	-0.09330413922053278	0.1561676729393985	1.074053841786308	0.9511044321382468	0.4890718846550323	-0.01362670944563915	0.02857828817746643	0.08861327733638456	0.1129537902138561	0.03879643001440363	0.1238190352243616	0.1610230379711468	-0.4763317610555454	-0.1532972346097188	0.5545467317981019	-0.1454822700034135	-0.04146403081191921	0.2353373575725114	0.09396746454545901	0.252461656630431	0.05212346611857162	-0.09282031945226374	-0.007709485249323861	-0.1863729604965039	0.1072194726915209	0.006919569012166776	0.4957197381702048	-0.3212151860706327	-0.2630133388135801	1.526458957639847	1.570796326969428	0	0	-0.21102635154587	-0.09543150323762702	-0.05418150545744056	0.2584121529675223	1.570796326969428	0	0
0.5376	-0.08510043725612169	-0.09263783285425249	0.1549899783644547	1.074248644734199	0.9506418777070932	0.4885509238681869	-0.0150859077295386	0.02752263759141431	0.08946772574979589	0.1149240661252271	0.03879643001440362	0.1261352837335508	0.1642114955902338	-0.4750831913050382	-0.1510368444276692	0.5557249092089388	-0.1434312208099164	-0.04701343611749009	0.2398582601002217	0.093967464545459	0.2551665650610491	0.05148790818808063	-0.09371218453742132	-0.006622480390093368	-0.1842736694150491	0.1065524871945336	0.008335868021088188	0.5051602684875068	-0.3206883156206811	-0.262090646789306	1.539342195322575	1.570796326969428	0	0	-0.2207977574202905	-0.09683132064090837	-0.05238238085881681	0.261870642133571	1.570796326969428	0	0
0.547112856113114	-0.08907731528948795	-0.09085217269391009	0.1519093019768993	1.074789679775976	0.9494835800023382	0.4872610338999905	-0.01789788704801493	0.02473500700291283	0.09152017468974087	0.1207528171207783	0.03879643001440362	0.1327495981902987	0.172414004103056	-0.4720633030100557	-0.1450277814534435	0.558256664767845	-0.1385286481110906	-0.05929173503677938	0.2523902852188725	0.093967464545459	0.2642244020052789	0.04845009037307674	-0.0952313942540291	-0.003437595640510395	-0.1788733434474419	0.1047127868435524	0.01176900170728843	0.5283721211234016	-0.3192933020431338	-0.2595032422856922	1.569863780888977	1.570796326969428	0	0	-0.2434314788017274	-0.1002744919074553	-0.04759943367947702	0.2713335129502008	1.570796326969428	0	0
0.5640558844730551	-0.0969037705722961	-0.08626272400573992	0.1451259129911798	1.076048200899322	0.9472857238484351	0.4849250756536714	-0.02091870336793861	0.01814649499279506	0.09584045862760507	0.1344491098049578	0.03879643001440363	0.1476937686854823	0.1881877808512174	-0.4669618002189879	-0.1352517268931681	0.5610799027197505	-0.1295468674653552	-0.07188580536057003	0.2785837175941426	0.09396746454545898	0.2864881169461991	0.031226219060285	-0.09618348313873556	0.00320833560098909	-0.1682361182435511	0.09928895157923576	0.01827772291352494	0.5697980127151649	-0.316210119266755	-0.254186071583607	1.621633916072549	1.570796326969429	0	0	-0.2807446520192036	-0.1065381775787256	-0.03784078209065726	0.28810133654848	1.570796326969429	0	0
0.5784312594138308	-0.1038682110573417	-0.08084039061824645	0.1377706312532353	1.07750126469086	0.9453290044867141	0.4829491566414761	-0.02247317035211545	0.01084719202368902	0.100401485720735	0.1484895436885788	0.03879643001440358	0.1630514314319747	0.202079426208812	-0.4623938027497138	-0.1308612258960593	0.560231979650583	-0.1217981310980352	-0.06928191086628799	0.2988360148979443	0.09396746454545891	0.3082391550004854	0.01303542941866348	-0.09431348204094862	0.008381493744421056	-0.1586460321728457	0.09229528678034049	0.02435574868042248	0.6032988947880573	-0.3130011354855038	-0.2496822532985	1.6632942411844	1.570796326969428	0	0	-0.3106989565057874	-0.1117756173400722	-0.02887822699226802	0.2980880074549516	1.570796326969428	0	0
0.5823999999999999	-0.1057230414225543	-0.07926678543081073	0.1354782316138629	1.07797693919583	0.9447812702514448	0.482392788984292	-0.02297056436292041	0.008708729418430853	0.101674921153425	0.1525300385271667	0.03879643001440358	0.1677021664318246	0.2057963946575888	-0.4609045325866799	-0.1305311404431156	0.5591154324121459	-0.1197631430351576	-0.06626212490537366	0.3027284555237865	0.09396746454545891	0.3143573308438609	0.01071536989990958	-0.09368349301988099	0.009652233470377978	-0.1560156305323548	0.09025745597181432	0.02612454916972513	0.6122609066367042	-0.3120587117401908	-0.2484158734632024	1.674942941292582	1.570796326969428	0	0	-0.3190350596757903	-0.1131828930744488	-0.02638711688713297	0.2996075986653879	1.570796326969428	0	0
0.5919128561131139	-0.1102479791963034	-0.07551210368819031	0.1298671667676329	1.079203875862509	0.943447398684806	0.4809883038639267	-0.02387480656104779	0.003475018569483338	0.1045529628529021	0.1628099957662967	0.03879643001440358	0.1796237741446835	0.2146543346355458	-0.4570628969008354	-0.1303616475810555	0.5556499233346408	-0.1149434905753786	-0.05886957789425586	0.3093750223350029	0.09396746454545894	0.3289052280320409	0.006799575770428057	-0.09509897858701563	0.01241870449780373	-0.1494603333401494	0.08550958961783581	0.0304251962177766	0.6334212158481753	-0.3097188829839721	-0.2454344631244977	1.70286748994011	1.570796326969427	0	0	-0.3382775980849219	-0.1165363262299276	-0.02020704966402099	0.3026565389624972	1.570796326969427	0	0
0.6088558844730551	-0.1178023064343898	-0.06875972104364994	0.1205064231795464	1.081537707625499	0.9412276568845966	0.4781832993337217	-0.02506976047790582	-0.006164343439030033	0.1081617948341318	0.1833311876231266	0.03879643001440364	0.2040883399802861	0.2284114374022209	-0.4504963992875987	-0.136957782793567	0.5500734208173802	-0.1065972379240859	-0.05029787538503335	0.3226743250752048	0.09396746454545905	0.3537331437803737	0.00255440096258855	-0.1142000018327293	0.0121160032803663	-0.1381162745668651	0.07741209981724789	0.03836531143307666	0.6628629181383319	-0.3052857949162749	-0.242119042375243	1.749935170294906	1.57079632696943	0	0	-0.3674628205705226	-0.1218081978502887	-0.009330942853964797	0.302019957332618	1.57079632696943	0	0
0.6232312594138308	-0.1234134975112851	-0.06269304846941684	0.1142071975475684	1.083470242775635	0.9397208144936535	0.4754173849017614	-0.02487447818976058	-0.01489254767151951	0.1082701235960924	0.2048937089661959	0.03879643001440365	0.2292090763027965	0.2373956086359063	-0.4454078045357816	-0.1482851552232584	0.5470962414133005	-0.09927688187429076	-0.04929524775410662	0.3379615841276837	0.0939674645454591	0.3732100950133991	-0.004567284427498238	-0.1422919786271472	0.005720208069342401	-0.1294436529012954	0.07080268743302819	0.04520027840662656	0.6759208067476505	-0.301319095300959	-0.2420909673827415	1.785298124044219	1.570796326969429	0	0	-0.3830156798065876	-0.1252458828785227	-0.0006951001274375852	0.2967668593426913	1.570796326969429	0	0
0.6272	-0.1248660495702855	-0.06094844576522004	0.112766894373074	1.083971642556321	0.9393808719247025	0.4745817307681175	-0.02442413178698776	-0.01743748239389402	0.1075130566876178	0.2118397573558802	0.03879643001440364	0.2370519514787202	0.2395003182344894	-0.4438483172493779	-0.1512867812915071	0.5464169754688784	-0.09720325089131185	-0.04978176392584464	0.3423274673770547	0.09396746454545908	0.3782780743745431	-0.007287096031255625	-0.149312107919097	0.003675791631411511	-0.1271864061831229	0.06907845634847197	0.04705961325803965	0.6780946907342243	-0.3002096319536141	-0.242255377122781	1.794490368902605	1.570796326969429	0	0	-0.3854199126538441	-0.1260659187214911	0.00162453630819821	0.2955321675405918	1.570796326969429	0	0
0.636712856113114	-0.1282776435608677	-0.05666292613545044	0.1095063496449625	1.085145964502832	0.9386723263514301	0.4724811403111722	-0.02244825219133079	-0.02373782390439813	0.1051319919496057	0.2302795804354337	0.03879643001440363	0.2577674331595385	0.2439081311908613	-0.440460103764566	-0.1590922180857388	0.5450580327802176	-0.09220772886717073	-0.05215478037548014	0.353801939434062	0.09396746454545905	0.3897838600223452	-0.01102641458529308	-0.1657030776167375	-0.0008707002083974684	-0.1218655068649378	0.06510215025145762	0.05148051422564117	0.6813372117103007	-0.2975180732744053	-0.2429610961581667	1.815971005847597	1.570796326969428	0	0	-0.389626605200933	-0.1279258822109267	0.007276504818185672	0.2923682219127252	1.570796326969428	0	0
0.6536558844730551	-0.133682026839731	-0.04834094132875769	0.1053509704496687	1.087001507142443	0.9379662464472498	0.4683522953357321	-0.01544595797423376	-0.03597988478239424	0.09796475078729033	0.2708126473785908	0.03879643001440364	0.302565945346418	0.2476884531657298	-0.4362745814713253	-0.1753521778386903	0.5435647197743192	-0.08206614035927803	-0.05607172854791843	0.3786843522237949	0.09396746454545904	0.4074801564838444	0.001129844670846842	-0.1840794991899538	-0.007816401504431424	-0.1134346472694936	0.05817095032329934	0.05894657691595229	0.6762280526324949	-0.2926588957718899	-0.2459011796431523	1.850341679351871	1.570796326969429	0	0	-0.3877512464123442	-0.1304799899144923	0.01689531867511395	0.2880378333786152	1.570796326969429	0	0
0.6680312594138309	-0.1370495242456021	-0.04062755278446447	0.1033682623087887	1.08840384116737	0.9380149921413428	0.4645118329148235	-0.00616781332683793	-0.04740545076747636	0.08931461213051674	0.3137183772364592	0.03879643001440364	0.3499088199633063	0.2463577394283001	-0.4342764570734602	-0.1889502715794573	0.5409798584672315	-0.07179231813727231	-0.05679691226580778	0.4005721161971971	0.09396746454545904	0.4187719948108923	0.02474001510544235	-0.1913448082074258	-0.01305222415117819	-0.1076712460212844	0.05241173869864376	0.06455173921591255	0.660230677306532	-0.2885147854011124	-0.2503778657631117	1.87554713241941	1.570796326969429	0	0	-0.3786390957765717	-0.131977949122194	0.0242432977953715	0.2860158157835725	1.570796326969429	0	0
0.672	-0.137761132353137	-0.03849032418142318	0.1028468315064747	1.088800297706695	0.9381180367497248	0.4634147158316295	-0.003117909589094837	-0.05067575564388788	0.08651714962359641	0.3268818207958276	0.03879643001440364	0.3646276863178333	0.2454136012354226	-0.4337025849961251	-0.1917415436615206	0.5393987632996387	-0.0688051804955957	-0.05683808193298652	0.4052662654391235	0.09396746454545904	0.4211581826533685	0.02965651205598446	-0.1943507826514006	-0.01437567296892897	-0.1062265683773241	0.05097706846749033	0.06596280571339623	0.6548258711913157	-0.2873679016904524	-0.2516970843000084	1.882312694544604	1.570796326969429	0	0	-0.3759828495295351	-0.1324086314788731	0.02620835849198158	0.285691263029591	1.570796326969429	0	0
0.6815128561131141	-0.1392752186253394	-0.03338267741193478	0.1016455564802055	1.08974549740099	0.9384717164164146	0.4607461532674177	0.005610350365378042	-0.05865929943968366	0.07980866994621975	0.3613320864410359	0.03879643001440364	0.4028959056930165	0.2419293000300418	-0.43291288535607	-0.1974994995622534	0.5336240718018967	-0.06145880953192077	-0.05672045248974027	0.4131086942196175	0.09396746454545904	0.4254497303673687	0.04069821205726928	-0.1998019719136613	-0.01665637882412893	-0.1028727022155818	0.0477479386828003	0.06913685838138889	0.6401996704470017	-0.2845875483373643	-0.2551112900724857	1.898311176512396	1.570796326969429	0	0	-0.3683488719518019	-0.1335079576993309	0.03096015501802329	0.2857535094632617	1.570796326969429	0	0
0.6984558844730551	-0.1404669891569797	-0.02415609017297324	0.09968080097991575	1.091440952128426	0.9395016440988503	0.4559459198375814	0.02473409797983583	-0.07353581902118307	0.06781664394431515	0.4315448800208764	0.03879643001440361	0.4813079678361906	0.2305489169427454	-0.4340393743763576	-0.2012012823954992	0.5164067812324129	-0.04756502298628926	-0.05537396598615675	0.4170901812702351	0.09396746454545901	0.4278802123822255	0.05917188222177201	-0.2082190902109456	-0.02079472377470272	-0.09818917772223937	0.04222841311355251	0.07379401905266525	0.6071560576868134	-0.2794951350450657	-0.2614255959979346	1.923282659497232	1.570796326969429	0	0	-0.3527835261293185	-0.1358737046637399	0.03896543720784602	0.2911129309909424	1.570796326969429	0	0
0.712831259413831	-0.1399188437583693	-0.01604520618573068	0.09824486627696161	1.092810950327598	0.9406990656455821	0.4518891875500956	0.04412682140121452	-0.08716919811851458	0.05810049723006034	0.4984388450206669	0.03879643001440364	0.5571596762683767	0.214446875032774	-0.437008084005847	-0.1954542445701731	0.4955321672040436	-0.034775009760772	-0.05274121387236881	0.4114796806998647	0.09396746454545905	0.4249269192105249	0.07283614305883639	-0.2157095219942958	-0.02540807024157369	-0.09581496255912207	0.03740552203941162	0.07667015468497856	0.5727260027651675	-0.2750171452557699	-0.266720647318725	1.939087136851676	1.570796326969429	0	0	-0.3377810747374276	-0.1383316626388719	0.0451330493321567	0.3029909141180667	1.570796326969429	0	0
0.7168000000000001	-0.1396633998604773	-0.01380556095328012	0.09780122374439683	1.093157392783766	0.9410503072028432	0.4507769534835684	0.05003123298911483	-0.09115157702162958	0.05534508723170834	0.5177341669184459	0.03879643001440364	0.5793751852913059	0.2088992793208458	-0.4376851024492614	-0.1922930625426429	0.4891871890526207	-0.03114853975733026	-0.05173774858530726	0.408898734071709	0.09396746454545905	0.423402369946461	0.07616343853324707	-0.218092593972167	-0.02672456558651571	-0.09529474035292314	0.0361238424631781	0.07735699461644813	0.5628901490185263	-0.2737508007819232	-0.2680052064499319	1.942738436129853	1.570796326969429	0	0	-0.3334419921021851	-0.1390945481196119	0.04683900243259426	0.3073351738221278	1.570796326969429	0	0
0.7263128561131141	-0.1388467250686948	-0.008488120108873965	0.09669147744406599	1.093918787067185	0.9419198069524198	0.4481455196523303	0.06560909265725301	-0.1008611690474825	0.04941685813291245	0.5666661195812046	0.03879643001440363	0.6344272298679992	0.1960459131775278	-0.4394264622412802	-0.1825328725680131	0.4730737741300642	-0.02244446641971585	-0.04905876398654134	0.4012130127515375	0.09396746454545907	0.4187193099294069	0.08410537515692595	-0.2236706562251151	-0.02954213785092738	-0.0943427985751922	0.03313340589219806	0.07876924148339678	0.5379554826422637	-0.2706685996693118	-0.2712033305914512	1.950715006770616	1.570796326969429	0	0	-0.3226574501369985	-0.1410393574348604	0.05105084377273966	0.3188930241508012	1.570796326969429	0	0
0.7432558844730551	-0.1366227726921471	0.001184031270083392	0.09464102116590448	1.094862451037147	0.9434700798793051	0.4436393831295918	0.09830031504545966	-0.119009228656866	0.04159171435948551	0.6633379273669737	0.03879643001440364	0.7367499582527371	0.1762433052149272	-0.4421101714713991	-0.1522314947108425	0.4425321717970325	-0.006757321470796616	-0.04364587075878913	0.3843912068470886	0.09396746454545898	0.4077763738244888	0.09713379627218877	-0.2334254782825757	-0.03458320265578424	-0.09421494236598471	0.02755972953670036	0.08038570745149122	0.4907084115220114	-0.2649474824941667	-0.2769404989266498	1.958886974678812	1.570796326969429	0	0	-0.3012920328126428	-0.1452603713801774	0.05826614249636676	0.3460680853062952	1.570796326969429	0	0
0.757631259413831	-0.1339485977699825	0.009554765125936516	0.09311402983934364	1.095182083993119	0.9447029028961463	0.4400634494984316	0.129677990850852	-0.1350074996384298	0.03816785431265983	0.7510814351484858	0.03879643001440361	0.8248386576224216	0.1598264734684471	-0.4432791852460959	-0.1146385854508353	0.4157340080951669	0.006305470601416596	-0.03936479916474965	0.3685540437526774	0.09396746454545898	0.3972006992092783	0.1061349239843715	-0.240285275541903	-0.03924267028097159	-0.09582696997469212	0.02243802102285268	0.08081135869216081	0.4488936173926595	-0.2598384162995828	-0.2819314982913749	1.957853005421968	1.570796326969429	0	0	-0.2797473249066975	-0.1498093621222954	0.06361170023027045	0.3754204672465319	1.570796326969429	0	0
0.7616000000000002	-0.1331468740641733	0.01176661669592757	0.09272419014013883	1.095211214269586	0.9450140385734104	0.4391166405297686	0.1384665145418406	-0.1394617898093344	0.03740540260429795	0.7748517325273196	0.03879643001440361	0.8489244530262845	0.1541422074509254	-0.4431431722775361	-0.1037077703360912	0.4083370060700534	0.009685288192774219	-0.03838346470868946	0.3641024173282179	0.09396746454545898	0.3942316126114629	0.1083199448162081	-0.2415538899101649	-0.04041753009901791	-0.09639869536737038	0.02111931331716214	0.08084456289962362	0.4373533963151721	-0.2583819718281233	-0.2831812450137061	1.956496971396707	1.570796326969429	0	0	-0.2731733331211632	-0.1512290215990206	0.06500037587764522	0.3838561180137551	1.570796326969429	0	0
0.7711128561131142	-0.1311255745389387	0.01684206843741731	0.09183012849338512	1.095173667348473	0.9457256393191795	0.4369388663654278	0.1597578336827349	-0.1499009692249882	0.03667324266633853	0.8305251314544732	0.03879643001440362	0.9056425424713708	0.1422539293316782	-0.4401296136049048	-0.07764985402174558	0.3908907394681722	0.01730545745398874	-0.03639458580759017	0.3538989821669051	0.093967464545459	0.3871873781589625	0.1139890211843789	-0.2437033250388291	-0.04297243741718407	-0.09803170157471162	0.01810603469802918	0.08078663121095626	0.4087356862201721	-0.2548098788646891	-0.2859643372656662	1.951403874761143	1.570796326969429	0	0	-0.2565172479492074	-0.1548378303146712	0.06835031930647016	0.4046164756319576	1.570796326969429	0	0
0.7880558844730552	-0.1270724371216104	0.02474135518531757	0.09040560759502216	1.094652178772641	0.946959027199318	0.4334636589796834	0.1980990403231972	-0.1665948811200221	0.03875960292654673	0.9212900968361517	0.03879643001440364	1.000975382329629	0.1235409977931199	-0.4273764895980846	-0.0356202315709182	0.3610046020245228	0.02856714333688977	-0.03470865470795452	0.3376469471589482	0.09396746454545905	0.3752098103886794	0.1245061877307045	-0.2428714111610515	-0.04685985526633366	-0.1021723412892467	0.01349822875297457	0.08035303304624247	0.3554534994558541	-0.2480312500818267	-0.2893121363791213	1.930419276039233	1.57079632696943	0	0	-0.2214492727566617	-0.162655661462484	0.07313153964053912	0.4412772840890543	1.57079632696943	0	0
0.802431259413831	-0.1231524271490767	0.03019627806974692	0.08924146654741748	1.093741036943706	0.9480623135939663	0.4309754405427051	0.2312728423118553	-0.1781049698055854	0.04359723517093999	0.9883655506204951	0.03879643001440362	1.073603152602344	0.1092953058785473	-0.4161068019694207	-0.007723376966934944	0.3367346390033237	0.03557802702082062	-0.03562056696198281	0.3255155092716402	0.09396746454545897	0.3656613958967751	0.1324836315904916	-0.2377237098188004	-0.0493629443889218	-0.1071006015705065	0.01031790494728042	0.07965729974274449	0.3086096808873374	-0.2419226680401929	-0.2909340348057988	1.898282560685504	1.570796326969428	0	0	-0.1861305470985229	-0.1707346328044289	0.07560715987668236	0.4700495447501892	1.570796326969428	0	0
0.8064000000000002	-0.1220545517794931	0.03152334334782046	0.08885912128336426	1.093437857873387	0.948378079235502	0.4303528773350299	0.2404200098334437	-0.1809463472713422	0.04505653830863914	1.004836369413053	0.03879643001440362	1.092019685078008	0.1057470152356216	-0.4143723553902925	-0.001404029828534322	0.3301715723325747	0.03715726549495057	-0.03623384911372009	0.322281276647833	0.09396746454545898	0.3630853206338518	0.1343478295028022	-0.2358784330883296	-0.04973096301290708	-0.1085765792092968	0.009564579807311799	0.07943818066800748	0.295776970850045	-0.2402159117672011	-0.2913173819966272	1.887844957522925	1.570796326969428	0	0	-0.1759365382416927	-0.173081736007607	0.07620368102439687	0.477357297785976	1.570796326969428	0	0
0.8159128561131141	-0.1193698102709871	0.03444305052005296	0.08786355696306024	1.092612247750862	0.9491651483271472	0.4289724348540386	0.2625245667434226	-0.1872410221883702	0.04895978634424601	1.041252289796612	0.03879643001440363	1.132954209585384	0.09739902569918121	-0.4096344757904153	0.01221507395436106	0.3147724020993853	0.04039601571234412	-0.03828946641033635	0.3150521647476724	0.09396746454545904	0.356917844311412	0.139177062803695	-0.2303751497030598	-0.05023421632890633	-0.11244270680507	0.007909233742168658	0.07885089691853438	0.2645510659845505	-0.2360759371328018	-0.2920517571889216	1.860504128259583	1.570796326969429	0	0	-0.1508466151972377	-0.1788994276067446	0.07761715335296429	0.4942900805230179	1.570796326969429	0	0
0.8328558844730553	-0.1141071889789766	0.03869111331272081	0.08545465155270296	1.090820054897997	0.9507352047338954	0.4269404968448308	0.3017997835215086	-0.1964724814737347	0.05643611689564262	1.09424420606883	0.03879643001440364	1.193714004995972	0.08637100655734035	-0.4047259120601399	0.02631078854306964	0.2877925135496812	0.04410132559349243	-0.04430205511238651	0.3032483617369257	0.09396746454545901	0.3455104078176766	0.147902913252802	-0.21696557107105	-0.04960249485750835	-0.1207037445548149	0.00552681273484153	0.07786790145270081	0.2102581528521393	-0.2285742674159321	-0.2923400938795638	1.798659349292494	1.570796326969429	0	0	-0.103306856140226	-0.1901800747483559	0.07912718713562532	0.5203099609094491	1.570796326969429	0	0
0.8472312594138312	-0.1091084169714875	0.04137048469446014	0.0826162676567623	1.089035481227421	0.9522510662836497	0.4256247556415268	0.3347631424978185	-0.2025202841144455	0.062788688347167	1.127029586420902	0.03879643001440364	1.232206534643965	0.07819757517964369	-0.4030098588410079	0.02803373739255679	0.264712585675192	0.04531513143610867	-0.05179654183621819	0.2932467164091466	0.09396746454545904	0.3348220880644299	0.1543174628434671	-0.2029133881897194	-0.04765666466077483	-0.1290367038146155	0.004101298218961116	0.0772311144802714	0.1672265955498515	-0.2221602157790047	-0.2915003279981844	1.730884145910916	1.570796326969429	0	0	-0.06051907730223378	-0.2006748767170072	0.07906868255334613	0.5383071597314014	1.570796326969429	0	0
0.8512000000000002	-0.1077269853511432	0.04199391936796906	0.0817025036774022	1.088521548992493	0.952687701186048	0.4253062785238382	0.3437397038621482	-0.2040783430932303	0.06433133702097457	1.133885089616634	0.03879643001440364	1.240649920793513	0.07563623688817371	-0.4023749435469827	0.02794314488617823	0.2583078157034026	0.04545665830619285	-0.05410329978732444	0.2903270107715831	0.09396746454545904	0.3316397296344429	0.1557095425741382	-0.1989640233410337	-0.04681861044975438	-0.1314037943401553	0.003818107669172377	0.07710008386955114	0.1560187918998401	-0.2204019241741623	-0.2911226188969063	1.710617846062481	1.570796326969429	0	0	-0.04869374502005112	-0.2036331328728014	0.07900166258637721	0.5430062034872979	1.570796326969429	0	0
0.8607128561131143	-0.1044038589367746	0.04328911126230606	0.07930321523057624	1.08723742303296	0.9537550902692602	0.4246242719188437	0.3651532766786543	-0.2075424481896918	0.06784648043468294	1.146952798908073	0.03879643001440363	1.256995632324599	0.07007498951791732	-0.4010318718148597	0.0266153712259006	0.2430087075484869	0.04546732456189254	-0.06002005542874909	0.2833670809503035	0.09396746454545903	0.3235397914466266	0.1593626713339365	-0.1889604377956669	-0.04429666387754707	-0.1373009125860401	0.003333124066011244	0.07687642972562311	0.1298345343031031	-0.2161715113558491	-0.2897280312419976	1.659701960070733	1.570796326969429	0	0	-0.02021103413138732	-0.210869250496364	0.07881512288081757	0.5539505405552707	1.570796326969429	0	0
0.8776558844730553	-0.09828152339156797	0.04497080746162604	0.0739585533369783	1.084833708498621	0.9557274420368602	0.423677572125605	0.4019898555060942	-0.2129213690887861	0.07312416544072128	1.157382438610084	0.03879643001440367	1.272473733852829	0.06255480956473509	-0.3996090552016989	0.02120550036789851	0.215278691766872	0.04454421247101946	-0.07173908531445697	0.2701574197915755	0.09396746454545904	0.3073627189847795	0.165334626298351	-0.1703842757915864	-0.03851687894352019	-0.1484806519421206	0.003141541144691814	0.07707808644755758	0.0891109931928934	-0.2087224916519136	-0.2856559359306911	1.556639262369653	1.570796326969429	0	0	0.03019399313367475	-0.2243079833044601	0.07737784432849266	0.5745702639096383	1.570796326969429	0	0
0.8920312594138311	-0.09300406862068585	0.0458155580572915	0.06837226719815116	1.082725325804097	0.9574105554247645	0.423098589015474	0.4315811990249955	-0.2167517909127712	0.0767048088651847	1.15346192840612	0.03879643001440363	1.271999892941949	0.05705008323962668	-0.399037985469126	0.0160060591217637	0.1911038515831489	0.0431315345566804	-0.08235341147685847	0.2575347238494596	0.09396746454545901	0.2919392047234118	0.1689019325536461	-0.1553654803366368	-0.03352143075428195	-0.1583883589679127	0.003679367718144747	0.07789854917666747	0.06185137520553959	-0.2026017416199357	-0.2812310095150996	1.455744379671426	1.570796326969429	0	0	0.07176997814889539	-0.2361584482044635	0.07460992403021885	0.5953327344029752	1.570796326969429	0	0
0.8960000000000002	-0.09162845158296608	0.04595907763077669	0.06672345815351127	1.082141050150506	0.9578580655476052	0.422957090476109	0.4394982041834099	-0.217760373247591	0.07750862805561434	1.150359686121838	0.03879643001440362	1.269692611959782	0.05525023205329935	-0.3985991433482254	0.01526779107340531	0.1844309833081398	0.04272684679054308	-0.08517181354120734	0.2538112049970442	0.09396746454545901	0.2874402049593636	0.1695274826195945	-0.151661220973014	-0.03222625497035039	-0.1610680160593764	0.003974390435891581	0.07820422846081296	0.05535621555979459	-0.2009471690957048	-0.2799245190758766	1.426759400014658	1.570796326969429	0	0	0.08288985679591818	-0.2394442278691614	0.07373762160070617	0.6018038813632475	1.570796326969429	0	0
0.9055128561131143	-0.08841859109742374	0.04614473429683442	0.06260926934948105	1.080721997676185	0.9588873957990233	0.422663895172682	0.4579083729548418	-0.2199417081019404	0.0792649213313432	1.139550218822186	0.03879643001440363	1.260370023063516	0.05175548326633564	-0.3976095402510372	0.0134998671152083	0.1684932813790272	0.04166985964916994	-0.09185840008618318	0.2447668328249709	0.09396746454545903	0.2763081340576268	0.1711461964574403	-0.1429239505336694	-0.02884448263954061	-0.1675227004174455	0.004917015730580974	0.07907632930000184	0.04130615699394076	-0.1970019156075577	-0.2764251655953822	1.355640648354845	1.570796326969429	0	0	0.1092749253289733	-0.2473960565733627	0.07152410462481942	0.6182563365338214	1.570796326969429	0	0
0.9224558844730553	-0.08327693503849933	0.04603699915339279	0.05484616783784796	1.078159123802806	0.9605135941821823	0.4222432009704006	0.4885838527683227	-0.2231728353018879	0.08195393510245505	1.108540597133567	0.03879643001440363	1.230693520263177	0.04794125852480655	-0.3968153509805447	0.01244023977708782	0.1405973641140673	0.03979405664656642	-0.1030574936387636	0.2281422156456684	0.09396746454545898	0.255632176550097	0.1733038271392288	-0.1289777536578592	-0.0237674930288186	-0.1787541118305063	0.007339873137241423	0.08107389379736379	0.0228797552614724	-0.1903475664568373	-0.2711772299199727	1.221250620767082	1.570796326969429	0	0	0.1535933580389998	-0.2615304539581698	0.06596392137081392	0.65539998460829	1.570796326969429	0	0
0.9368312594138312	-0.07976617596919328	0.04568915316555025	0.048121292158923	1.075977190837071	0.9616050243792781	0.4219501714793406	0.512421484249494	-0.225308564378334	0.08442301140798671	1.070929927193	0.03879643001440361	1.192674910283138	0.04503084120186666	-0.3964872179827096	0.01447186382646265	0.1178570141506947	0.03846738626375205	-0.111552774955636	0.2138422217779452	0.09396746454545898	0.2377877741603824	0.1744988113594196	-0.1192323824306969	-0.0216514861113111	-0.1877200027974373	0.009942421579180943	0.08301383028890454	0.01307431440397038	-0.1852644917723837	-0.2697060255166097	1.1002144295484	1.570796326969429	0	0	0.187537658076817	-0.2731933094321168	0.05925201234632605	0.6962618576525474	1.570796326969429	0	0
0.9408000000000003	-0.07898042168101062	0.04557335223947612	0.04630357353041749	1.075379518326806	0.961847235452299	0.4218759463930157	0.5186558030217026	-0.2258082993023812	0.08523638803501553	1.058824440704849	0.03879643001440361	1.180154472712768	0.04382875047551526	-0.3960374580710767	0.01557530610518327	0.1118121235149115	0.03817407638411997	-0.113646827476079	0.2099380544262566	0.09396746454545897	0.2328915795917145	0.1747678322541348	-0.116861318959182	-0.02132794902132227	-0.1900508175185429	0.01073394519023451	0.08354399897180928	0.01088265220824592	-0.1839379954041759	-0.2698109698569408	1.066681474431764	1.570796326969428	0	0	0.1963892937735096	-0.276326895224258	0.05727093195246048	0.7085680986972632	1.570796326969428	0	0
0.9503128561131143	-0.07732287930786863	0.0452767077076997	0.04199789379168484	1.073944787768605	0.9623205272514954	0.4217271069676793	0.5327870162299847	-0.2267348446077865	0.08758638938286087	1.026845202443425	0.0387964300144036	1.146678000285357	0.0413909629870592	-0.3948630450051714	0.0184236010558155	0.09769379524590124	0.03755842201865614	-0.1183537892301821	0.2007998091321263	0.09396746454545897	0.2213141524241893	0.17557800892147	-0.1116603764384369	-0.02054200173368172	-0.1955237751710039	0.01271062122986775	0.08482041181939724	0.006573311500815076	-0.1808541722200749	-0.2707613190564275	0.9859605613887015	1.570796326969428	0	0	0.2170713559962109	-0.2837495203469361	0.05239191484094616	0.7396047593211827	1.570796326969428	0	0
0.9672558844730554	-0.07560008469123036	0.04529628941105231	0.03508665621638456	1.07143274541529	0.9627325586298491	0.4214909647498393	0.5552838714936023	-0.2283635404127122	0.09329881753134948	0.9597425673040361	0.03879643001440364	1.075504380959868	0.03726927804133186	-0.3926230630980239	0.02328417639345411	0.07441024783158971	0.03753587967168197	-0.1247498990022566	0.1854522738429404	0.093967464545459	0.2016062582937704	0.1769250209528547	-0.1047059838673156	-0.0206818006510065	-0.2043446666419835	0.01581639220824885	0.08665398362316251	0.0001180380164867733	-0.176111876094164	-0.2788093037477642	0.8434498178424248	1.570796326969429	0	0	0.2506547505614344	-0.2959962775704639	0.04232355828964581	0.8023753149833818	1.570796326969429	0	0
0.9816312594138312	-0.07551011389977197	0.04621414424882737	0.03029718542125583	1.069398736270797	0.9626139959336288	0.4213248281365101	0.5714641982174242	-0.230081618459901	0.1002262786810817	0.892963645102241	0.03879643001440364	1.004627728990982	0.0318914855124627	-0.3900561975663832	0.02651769017083528	0.05680908451511425	0.03884162156568415	-0.1280404943817147	0.1737950297724773	0.09396746454545905	0.1862109172814108	0.1784937451822894	-0.1009222896323076	-0.02265912590304848	-0.2106476632065443	0.0175495660790109	0.08744258295262083	-0.006237294406996679	-0.1730271813488451	-0.2935442556870917	0.7266145802833652	1.57079632696943	0	0	0.2755845633837811	-0.3050114698775185	0.03242271300968103	0.8624378879101974	1.57079632696943	0	0
0.9856000000000004	-0.0756687635257248	0.04657407104077251	0.02912424274914993	1.068859420508715	0.9625066218104653	0.4213001932772424	0.5753730270390797	-0.2305134209582014	0.1026036878453777	0.8729976639070531	0.03879643001440364	0.9835808195940687	0.02977062763819212	-0.3889757068386605	0.02731413171178452	0.05226782376924197	0.03932465084527917	-0.1286876975769941	0.1708459665964979	0.09396746454545905	0.1822218645842423	0.179055565185291	-0.1000102525241765	-0.02320362819909981	-0.2122097046712873	0.01790635191953256	0.08753818139213977	-0.008301232232742633	-0.1722817782587754	-0.2984329783217695	0.6956197342065866	1.57079632696943	0	0	0.2821516603402544	-0.3073063998027969	0.02972711833142679	0.8793495575607424	1.57079632696943	0	0
0.9951128561131144	-0.07630757476505394	0.04757288476886328	0.02655682649241211	1.067604062498621	0.9621196427774074	0.4212917723514634	0.5836799182389804	-0.231380567849526	0.1091789260008105	0.8228600379980859	0.03879643001440364	0.9309289469079557	0.02499238542285431	-0.3861715145253872	0.02882831175659776	0.04189300057079075	0.04063885769561231	-0.1297325196684751	0.1642547468451889	0.09396746454545903	0.1731731384401618	0.180621586926111	-0.09854410021242005	-0.02432467926675595	-0.2156803538380057	0.01856722458731376	0.08759125726953328	-0.01329980343288653	-0.170659374703211	-0.3116089641210605	0.6229241433505049	1.570796326969429	0	0	0.2975794489499323	-0.3125406323667976	0.02336355406585318	0.9208941459924065	1.570796326969429	0	0
1.012055884473055	-0.07838096989504779	0.0505550092733696	0.02339997126686724	1.065607205599735	0.9609644076873539	0.4214195776413772	0.5949012300368249	-0.2336176076595643	0.1236632127679552	0.7277910558335969	0.03879643001440364	0.8314015585006146	0.01605917366779723	-0.3810196968178031	0.02770215114787739	0.02532346161007611	0.04426564858617655	-0.1289540964747024	0.1545913767937095	0.09396746454545898	0.1590155841446903	0.1841870534210223	-0.09843427453582347	-0.02603552810116366	-0.2205458816842363	0.01821608502091714	0.08652466815864784	-0.025824994598342	-0.1686207383904739	-0.3414048068432404	0.5053810868204702	1.570796326969429	0	0	0.3236904675424737	-0.3202093612141269	0.01189495353235059	0.9963200915043386	1.570796326969429	0	0
1.026431259413831	-0.08078404423193576	0.05430252143854807	0.0222965597252181	1.064265203941379	0.9595374237913281	0.4217180724452049	0.6011807992659636	-0.2364491328209327	0.1381640486962783	0.6455630780900352	0.03879643001440364	0.7443320890384558	0.005948268125098469	-0.3764076169731793	0.02279457522587507	0.01297037532870736	0.04839359031464792	-0.1260736791900013	0.1491518514317398	0.09396746454545903	0.1491699088366374	0.1891912057415837	-0.09957312968811716	-0.02727647422849523	-0.2232225118370439	0.01620457233201054	0.0842817561122385	-0.04164570202943851	-0.1678049614432043	-0.3714801040006917	0.4211477807411877	1.570796326969429	0	0	0.3445535528520908	-0.3247803030728835	0.00221041132506051	1.059608850400866	1.570796326969429	0	0
1.0304	-0.08145355579714732	0.05536024386917648	0.02216397875521458	1.063961275324593	0.9590793339691752	0.4218567041198416	0.6024534048531154	-0.2371415107546831	0.1424134437135121	0.6234256703472379	0.03879643001440364	0.7203700719591936	0.002486750136936354	-0.3748801392147558	0.02127751503627684	0.009723114020740083	0.04944599220899723	-0.1251930342016385	0.1481450772242844	0.09396746454545903	0.146828408894505	0.1909949847714393	-0.09965314652450279	-0.02742782800446904	-0.2237582473363779	0.01551925099008217	0.08351878262826681	-0.04650594912324277	-0.1676656713765565	-0.3797024245020145	0.4002475011641247	1.570796326969429	0	0	0.3503351565937878	-0.3258238094147919	-0.0002682692805899098	1.076627902099793	1.570796326969429	0	0
1.039912856113114	-0.08310190136902297	0.05796351689748971	0.02211431848107306	1.063344229473332	0.9578717015846878	0.4222915586593552	0.6049607474044516	-0.2387065772814955	0.1525695026967632	0.5722922745022294	0.03879643001440363	0.6638165295100444	-0.005358029156749284	-0.3711723061178895	0.01704171784630557	0.00230359666141766	0.05188413928565728	-0.1227928366723542	0.1465978840429882	0.09396746454545903	0.1419169351228956	0.1958733614783972	-0.1003375544714198	-0.0273594391133845	-0.224618921331724	0.01357767044876573	0.0814628394066379	-0.05824174583473141	-0.1674933625116814	-0.3999561330661454	0.3536485092211027	1.570796326969429	0	0	0.3643968765187537	-0.3280004691804898	-0.005915728036453611	1.117522866191592	1.570796326969429	0	0
1.056855884473055	-0.08617241558839189	0.06275331875420077	0.02328617183779587	1.06273838998521	0.9553597509625645	0.4234293300848255	0.6084061976925379	-0.24130024926055	0.16729840529937	0.4923144358645554	0.03879643001440364	0.5690426014778317	-0.01799051862066573	-0.3656687605467103	0.00656477808048468	-0.009797767888584351	0.05568925955560857	-0.117586642969502	0.1470080972273217	0.093967464545459	0.1357720275154593	0.2069638695831595	-0.1013882240554129	-0.02648346787754302	-0.2243137825340821	0.00909758888491582	0.07680624518547874	-0.0827662679770091	-0.1677975522670072	-0.4338194885870576	0.2886350222927463	1.570796326969429	0	0	0.3904930413393041	-0.330274083383964	-0.01520860919439267	1.187315650375354	1.570796326969429	0	0
1.071231259413831	-0.08888068157475432	0.06655679819823612	0.02546900992184213	1.062789202621847	0.9529202570706397	0.4247899161308272	0.6111554114149017	-0.2427356692489146	0.1730718041204866	0.4394190284043845	0.03879643001440364	0.4982183860502797	-0.02858445815216806	-0.3624485423413053	-0.004143419901207894	-0.01921005643701901	0.05779202853929772	-0.1130659840475316	0.1503864540757155	0.09396746454545897	0.1333966318787045	0.2190407709923449	-0.100794945385299	-0.02601300859171775	-0.2219438172853119	0.004635752333280414	0.07195062109601479	-0.1079544375609281	-0.1686303481914485	-0.4569012265343729	0.2533299919514265	1.570796326969429	0	0	0.414014012478169	-0.3305197633774801	-0.02241692200433094	1.242235967064174	1.570796326969429	0	0
1.075200000000001	-0.08962039375355663	0.06740529356877827	0.02614111761239662	1.062890756892399	0.9522084224849646	0.425245330557087	0.6119535695953812	-0.2427178899450846	0.1733323503037818	0.4275472571139037	0.03879643001440363	0.4806540979456614	-0.0318505256796231	-0.3616413795975729	-0.006806741750809631	-0.0217433809726043	0.05800136880236357	-0.111969314576587	0.1516873750482069	0.09396746454545897	0.1332335462958228	0.2225469478297653	-0.1003657297651266	-0.0259815200151309	-0.2209606482589704	0.00345228077533507	0.07056147982091228	-0.1149790420139964	-0.1689019113158166	-0.4619820721027414	0.2460135364923511	1.570796326969429	0	0	0.4208562351744958	-0.3304374102357557	-0.02422833488297379	1.256982520597731	1.570796326969429	0	0
1.084712856113115	-0.09144377702861804	0.06928486767306327	0.02795497615654587	1.063285636184797	0.9504429076595643	0.4264549206045539	0.6138639427625117	-0.2421658761946053	0.1723487995702587	0.4034128212470043	0.03879643001440362	0.4425326366608184	-0.03869192915600039	-0.3599710369570113	-0.01347539927425979	-0.02754562884105201	0.05811007588224096	-0.1094090084340863	0.1556098673733745	0.09396746454545898	0.1337630868912836	0.2314174875143297	-0.09922932618330117	-0.02589143043448171	-0.2180012072615469	0.0005175280452913941	0.06708160545079817	-0.1316965318741189	-0.1696657498526754	-0.4731045556057125	0.2322968073156864	1.570796326969429	0	0	0.4378942003334815	-0.3299742513134685	-0.02824381308298316	1.292241188544138	1.570796326969429	0	0
1.101655884473056	-0.09531412445995545	0.07132564611138328	0.03210218619125307	1.064630413405397	0.9470737993825922	0.4290165355136422	0.6175212966766831	-0.2387564540379641	0.1620880700746091	0.3762869027484785	0.03879643001440364	0.3897446357837213	-0.04658979218793163	-0.358955266587237	-0.0257215938299909	-0.03677039129858094	0.05599470593042061	-0.1052831172170032	0.1650489505894729	0.09396746454545904	0.1381463777315065	0.2484637979605334	-0.09553267142609449	-0.0280458835818773	-0.209768800904739	-0.00418212854418555	0.06054175407706474	-0.1640189026220254	-0.1713812084530039	-0.4838488192268787	0.222971511769263	1.57079632696943	0	0	0.4702585648593304	-0.3279819799230748	-0.03490008792828339	1.353145850065006	1.57079632696943	0	0
1.116031259413831	-0.0991134591375443	0.07152747234710718	0.03653387940187629	1.066538592619696	0.944031616901891	0.4315689517629294	0.6200861390783119	-0.2332867800878766	0.1461349762978947	0.3674769894912252	0.03879643001440363	0.3608457915977787	-0.0498706579162847	-0.361294541562006	-0.03483987332266453	-0.04413785526030267	0.05157030392537783	-0.1029729187700609	0.1748119363035999	0.09396746454545903	0.1456927549941687	0.2642740499912475	-0.08957703452083096	-0.03213407617031699	-0.1997088628549606	-0.00724726369472056	0.05473068692503447	-0.1954247157906408	-0.173152148378361	-0.4826642095969148	0.2286723337567906	1.570796326969429	0	0	0.4985908217237984	-0.3250439762757111	-0.04025833015555529	1.402000765952777	1.570796326969429	0	0
1.12	-0.1001243677101098	0.07136014319646011	0.03782537104964619	1.067193626838669	0.943179368758965	0.4323323545149347	0.6204250343457092	-0.2313353270931325	0.1416454912048577	0.36666020109723	0.03879643001440362	0.3554362130447108	-0.05053847901362167	-0.3624926383919911	-0.03667119464776093	-0.04632546386623638	0.0499550902244198	-0.1025992725884229	0.1775732421120015	0.093967464545459	0.1484462017454991	0.2685772074585873	-0.08753478952774255	-0.03308969094615009	-0.1965871015455707	-0.007933350989656822	0.05310741542761764	-0.2042694194561455	-0.1736579574027629	-0.4812668882517007	0.2313804556776057	1.570796326969429	0	0	0.5063909608926744	-0.3241151888776884	-0.04161208686354689	1.415252095120905	1.570796326969429	0	0
