DataType=double
version=3
OpenSimVersion=4.5-2024-01-10-34fd6af
endheader
time	pelvis_tilt	pelvis_list	pelvis_rotation	pelvis_tx	pelvis_ty	pelvis_tz	hip_flexion_r	hip_adduction_r	hip_rotation_r	knee_angle_r	knee_adduction_r	knee_angle_r_beta	ankle_angle_r	subtalar_angle_r	mtp_angle_r	hip_flexion_l	hip_adduction_l	hip_rotation_l	knee_angle_l	knee_adduction_l	knee_angle_l_beta	ankle_angle_l	subtalar_angle_l	mtp_angle_l	lumbar_extension	lumbar_bending	lumbar_rotation	arm_flex_r	arm_add_r	arm_rot_r	elbow_flex_r	pro_sup_r	wrist_flex_r	wrist_dev_r	arm_flex_l	arm_add_l	arm_rot_l	elbow_flex_l	pro_sup_l	wrist_flex_l	wrist_dev_l
0	1.307803555631235	-5.652803280204736	3.223198620963686	2.23745805413033	-0.1702439475065884	1.333343200845147	-8.054807046443946	10.53640775077819	7.285918872624508	44.43029413426631	2.512657127188725e-13	74.7257901311319	16.19608640495216	5.699385736807907	6.291674091433198	3.725852161518955	-9.635595003067326	-1.876612263638774	-0.9668325583497472	-1.140600133795222e-13	31.4073209881029	-101.7799481572944	-29.56582168996378	-0.3260002231525977	7.442816228057008	5.549571525349652	-1.566070547986941	31.65793026323501	0.4573046112974959	26.86775530267491	7.508664739118873	9.097922977115988e-12	0	0	4.705975414461611	3.256948844318363	0.09164542413936383	-12.54212403509699	9.097922977115988e-12	0	0
0.009512856113114032	3.923710687739108	-5.675620132975078	3.393361897437476	3.2288040547284	0.7596735252717207	1.264115482578345	-12.70658555017219	10.25254859634597	7.370185913070366	38.01812988243615	1.541713083588347e-13	73.8546280888566	16.28188629256296	-9.349117604234564	5.494055712158001	2.558650811616122	-9.561392811896415	-0.3080601021316881	20.41536774982858	-1.166247080301655e-13	32.17969159083218	9.012662535292414	0.2321019021899353	-2.239233410087651	4.846643037133457	5.932153922623815	-1.614570158798984	10.21578487930277	0.5047851157828148	28.73078519899517	5.592623517664716	6.178028807346909e-12	0	0	-37.90079938228315	3.558396206808776	-0.5816974796340277	-14.93066935837542	6.178028807346909e-12	0	0
0.02645588447305514	8.813968841919515	-4.780233789231928	3.737760988444926	3.268486145415486	1.749941261660199	0.6474722381682009	-22.42875483929167	7.01545966143168	33.38798527582072	16.78246414512554	-2.340277279284687e-13	63.42599325792921	-19.96900800408626	-1.606676504356471	3.806743807887927	1.496087717565697	-7.096626241026502	10.78269839620847	25.55253167780882	-5.001801976351185e-14	39.94623260663251	-5.246496615000755	-21.12451865475814	-7.077830675713689	-1.686188907324006	8.044994139924755	-2.12223438324931	6.888506963916043	0.6932453199495741	24.13568766947655	-20.47973025937008	-2.134401930755797e-12	0	0	-45.71132981235493	5.155639489879579	-3.505355825860383	-25.36172478286367	-2.134401930755797e-12	0	0
0.04083125941383081	5.684959831637658	-3.413225195569465	3.46669050251294	2.017599204244382	1.087716050343674	0.5795995094306062	-22.13876329182157	3.11463296069181	63.93270819145953	-32.86196653215133	2.829944226410011e-13	50.4015670086437	0.3378130776645776	1.434629208545853	-0.01129428865341509	6.222636417793162	-4.580567574211293	9.510852218454369	24.02595452342148	2.416628187771853e-13	45.27898507234818	-8.270868060041714	-25.90846236065833	8.968133687116906	-1.57515586673443	5.434065360735492	-2.068657959544954	17.57551997918884	-0.3797258294932585	-9.702411012902054	-24.92638571190752	9.149636257153693e-12	0	0	-19.38713975445389	2.770869117644323	3.040452919042203	-1.551922168249288	9.149636257153693e-12	0	0
0.04479999999999995	0.1314681194090991	-4.687317676002548	4.926774029363561	1.479287208679843	0.5831572510393424	0.6822083361524236	-23.78563309455539	2.263871719816049	32.38853625374782	-59.20080457058374	-2.244387040727489e-13	45.99865966599285	32.73480181561887	-14.74039057124593	-13.64664782492924	14.20844491361555	-6.535918124773566	11.98664264251814	26.69540064629344	1.828217991167295e-13	46.88267116023037	-7.19731291379744	-7.495149729954353	-2.725244806641233	3.414987987962599	5.572959251517352	-1.84398850009658	11.89441282361136	-0.7130741213360599	5.19872317798196	-6.420661971009878	-1.738488141361145e-11	0	0	1.117173442189023	2.834645581387804	2.472904516629693	-3.097857155379779	-1.738488141361145e-11	0	0
0.05431285611311398	5.616419631189351	-5.044530468267345	-5.615302481805289	0.7290094886590675	1.763453855546607	1.655589596203588	-9.543786996716788	9.423139623987353	11.78413637418773	-4.207912826714306	-3.788378514821488e-13	34.84408492191351	65.8388163952161	-50.20117631138401	-10.63478973716087	7.988450028479412	-5.941664721708433	3.13889941518807	24.33575330205968	-1.106710825387856e-12	49.88574893864686	-17.72652932294991	-36.18878151973023	-16.37888065209101	-4.462759781705958	5.598221700935148	-2.6924027817196	43.49868357923062	1.148516387328036	-10.51510367397048	-13.90064330549007	-2.443632216186871e-11	0	0	-39.10785791117915	4.106638915798154	-0.9527793428108997	-17.32435975098407	-2.443632216186871e-11	0	0
0.07125588447305514	2.312820356621981	-8.105275877970382	-12.564851798303	-2.0230805767512	3.134130681238436	2.29026332280421	20.71189409381639	16.20500371877809	-13.18266693154403	37.39671524752237	4.903400326252798e-13	12.99818594767666	43.05907969784391	1.361673778672128	-0.5638863983125031	22.63033642127856	-9.280433703581723	-3.260782196828684	41.53229526120497	1.16922439315982e-12	53.16492693390302	-17.79498594174125	-24.3815179843241	-29.40519773642429	-5.736472481787436	8.317316138853979	-2.07084296196906	76.63521807033797	3.02915030920329	-15.42410471574607	-20.02439299206847	2.10112211017545e-11	0	0	-33.92665693438459	4.572569456762833	-4.422574391889105	-31.59123726729567	2.10112211017545e-11	0	0
0.08563125941383082	0.8176533738671261	-9.156563235396584	-7.300541317434146	-1.562610799962912	3.231534462923169	1.809403794595354	15.04912078110858	14.7679798849884	8.353018458146305	21.05480672792831	-5.393773103087394e-13	-5.390508099525595	14.04097284180213	13.22034625593292	31.18949129888062	26.50002436798919	-13.04915913366027	-14.26968551377564	46.13453817505482	-4.983791341953141e-13	52.76202292256221	-27.22353039601509	-17.47706533380638	-5.175564578169184	-2.303832084403798	7.814634328346979	1.762254115013791	37.85240276551622	1.835358316713111	-13.63207228985859	-7.251424014988437	-3.30897250724838e-12	0	0	-21.39793239974934	0.8173072482953756	0.4881265207176628	-14.08520772481666	-3.30897250724838e-12	0	0
0.08960000000000001	0.08371637300128246	-4.495484514973232	-1.962393456071346	-0.7964557599573636	3.005409817049228	0.9085448865592771	10.62060060373791	9.004357311769072	-0.4593903765367979	21.46042486744078	-4.912392548189072e-13	-10.10413958021312	19.74980419357638	-9.375809273372125	-21.78447294114321	22.71211387969558	-6.611822350758563	2.250231393331867	22.02260328560963	-1.333065247451099e-12	52.01552822087918	-44.43868469893678	-16.42886517222161	5.597120999178028	-0.1223652301125338	4.206935162033688	2.884992412074916	12.51733346083571	0.7539784702598418	-4.922012757139467	-25.12283670565694	-1.073454104395527e-11	0	0	-13.56621800106699	0.7270891350980888	-1.943347831276284	-13.98137257374356	-1.073454104395527e-11	0	0
0.0991128561131141	1.595857463731375	-4.484458320142656	-1.366334932921992	-0.2470147305763129	2.963435936092704	0.5195779938703903	-8.577282076718515	6.028271470755225	-0.3258512690323184	-16.91763738126095	3.46461886794922e-13	-20.23669676441391	-8.527212890589052	-3.59316717930618	2.204498217019708	25.35156648144402	-6.762194401087486	-0.05853526628655459	50.14306406335977	4.389729098222044e-13	48.90980206611009	-27.03822114499778	-28.56013706191496	5.752553081789687	0.8952889460726433	4.140026897122253	4.911119387815072	24.96864926841161	-1.128201391264709	-17.33479731609361	-21.36928627647514	-3.240627536630766e-12	0	0	-25.06533640718549	1.813733143721187	-2.102293113576926	-15.51718830691673	-3.240627536630766e-12	0	0
0.1160558844730551	4.398509055614857	-2.90255412642947	0.5517361245155644	0.6066306372427713	2.535484745107149	-0.5978449966491723	-33.39384350263528	0.2017138283597253	-5.42013422255856	-58.34886359605329	-8.293362116601324e-14	-32.6529334059982	-59.75474538601495	5.817859872531624	-11.76918967223239	15.70961373889782	-2.276719606442359	11.56795875301669	25.25648633059888	-4.004079746548089e-13	38.55577839399867	-38.05450868321701	-21.70552217011188	20.49600984218073	-0.6545202440610509	4.822560112722756	7.543660294901557	9.64868387553982	-2.502980267012602	-18.87138269766076	-21.74082628863119	4.322129976732427e-12	0	0	-18.8202689356811	2.384298336868668	-2.934755315803485	-23.61966725566539	4.322129976732427e-12	0	0
0.1304312594138309	3.707577810124328	-2.071678036547523	3.311057735225508	-1.069648508238976	1.637199703113756	-1.300582296585324	-23.42012050462237	-5.234183675645626	-10.01991723066085	-42.05941448241359	-2.777609651312616e-13	-36.3839484013078	-34.35528486541412	14.27987971798602	-1.872161238564301	28.60970348757201	-1.801519962095512	5.608728486496157	68.32700707320355	-3.121486401088965e-13	25.14985143560341	5.499742761531927	-23.40910170090539	43.48598826030506	-5.114229670375783	5.109303805232629	7.34141942526959	5.073708702230885	-2.572297590189704	2.268340799346818	14.10812315803315	-1.315114007299679e-11	0	0	-18.98463508119752	0.2126599284018207	4.002261084283177	-24.07441494273879	-1.315114007299679e-11	0	0
0.1344	-1.808970757560615	-4.859246390005421	-0.3216510363969038	-0.4882703242054065	1.597730610887072	-0.9767490654643107	-12.38554840507375	1.737936182623975	-3.452391191061796	-29.46536328352812	6.492406627009934e-14	-36.31855189737697	14.78363013185454	7.936376225646386	-6.891050518327836	-15.89667341382495	-2.403633164624082	10.90908665030997	-134.9440629086067	2.836981181366146e-13	20.82518086385643	211.2547607658202	-41.33011086534479	35.62897950989094	4.270779734338573	8.316599742341733	5.460190327065729	46.64318896358905	0.3790580688540621	5.390596026781407	5.704337661972452	5.635065234096975e-12	0	0	0.8319000393639248	0.1095090461066016	0.1791075864766833	-21.20380361614579	5.635065234096975e-12	0	0
0.1439128561131141	5.023162617714982	-4.241660654115008	2.443330017376763	-2.14924894364267	1.150246358085342	-1.568045797267836	-13.7980230151219	0.3313551026187278	-2.644237823414017	-19.95177882487652	3.172124533823711e-13	-34.46223708466773	12.99484701629395	14.79972058542132	-17.0858629754357	32.16891397381492	-0.9244696268690132	15.74945587177732	86.12207549337428	1.035093814892806e-12	9.646244390746064	-157.8393417929005	-21.41057758157172	54.8690309203669	-9.192565561543685	8.647067074752576	6.035150819222352	2.806024300493497	-3.445330266832381	10.67719979376686	30.11979913616463	1.369183953909615e-11	0	0	-14.92668785745139	2.13673759400394	5.484268017671829	-44.17375715712148	1.369183953909615e-11	0	0
0.1608558844730551	7.186157715430164	-3.964637937527697	1.659740442511983	-2.767046540229893	0.5019438843471266	-1.678190074860337	-12.17138595911544	1.402424165092536	-0.3346979372857845	-17.15338488292264	-1.504792806681425e-13	-26.70207174524888	-6.811472868807765	7.824056240953146	-20.47038159866194	10.31808742617964	-1.728748083703956	18.80933601656214	-16.4322273664546	-1.297337784526734e-12	-11.70364187784575	254.2473581311802	-15.7651134615199	48.36948481776004	-12.74521318794148	8.474142937566171	6.509378904427642	16.36805010127458	-5.904794894854241	13.45185237307674	47.9476914952665	-1.731690064947275e-11	0	0	-4.11901810990394	3.761723625521963	8.671494222470102	-65.86813879950697	-1.731690064947275e-11	0	0
0.1752312594138309	3.271710852739901	3.082713964937866	0.3164168040372278	-2.193987722085962	-0.7238457639178961	-1.375394712055893	-2.79334935604366	-6.235120178094091	-0.7851246367000779	-6.919313910433369	-1.997982596018153e-13	-18.01726122090442	-13.62541675705732	9.961773269995508	5.932530072424901	-4.899757178091805	-0.8158174165276187	-27.4527604406174	-29.00126682757711	6.521775604189309e-13	-29.23124917750585	-64.82865625909371	7.299477196077703	-70.1802719508769	-7.973592783640768	-2.223898023081452	1.115071400844316	2.183070880162141	-5.719217838571623	8.36501015609816	53.44020955698529	1.379126399509803e-11	0	0	-6.089101697722683	3.289409105680608	13.67360086670108	-45.36962491892521	1.379126399509803e-11	0	0
0.1792	-1.034345613225463	-0.2040958785881525	4.318076817219031	-1.67174641873614	-0.7519456141385101	-1.74356124711862	0.6396084650637963	-4.911183857300168	-4.675122826863611	-4.0898090767464	-2.872766684233615e-13	-15.60715560690729	10.13590940309203	18.72663255283248	-4.235014212682183	-7.026730469035838	-2.353248621259514	-5.235235821235706	-68.97732063404122	-2.049920278287115e-14	-33.70310354363505	-187.1202401839807	82.3171053267036	135.0926682592042	-0.8852089313402929	2.455880727536784	2.647545423641907	7.927547690473837	-3.210698861454233	10.03150179121611	22.4445293138124	-7.672437594031983e-12	0	0	-4.905122476803607	1.92179883202096	8.3580133574113	-33.29184878990502	-7.672437594031983e-12	0	0
0.1887128561131141	3.515267834669871	6.76064894461576	4.146828090027139	-2.495203145900343	-0.08677626293190399	-1.956674378129776	-1.434308803960024	-11.82401866154152	-3.047373684344425	-0.8969074146280258	4.613934080339862e-13	-10.17301469578312	2.479621486926812	17.396871707906	3.028523198390923	-9.393461694345946	9.225170306715873	-4.812675591276361	-79.41869239165105	6.165922916921594e-13	-43.46875882022394	-93.77977946151285	110.5994165454192	81.27240181123989	-9.43120793275372	-5.48508080859547	0.9231745466548563	3.377631974703267	-7.920932578679849	8.613759408569823	49.89486597391508	1.540925843428335e-11	0	0	5.43365816661369	4.387588511382056	13.05332428804076	-50.01958536139025	1.540925843428335e-11	0	0
0.2056558844730552	2.535315820485101	10.96514835673732	6.408830970554503	-3.233920855330597	0.04974448375445384	-2.360077701462511	2.47563203387608	-17.02103461305551	-4.849472232686534	3.484882893030151	-5.651013489616996e-13	-2.669032167074058	-5.723466978792874	12.65207049353644	8.876444454335747	2.500182355388487	19.88572118677553	7.299380323152719	-57.08007732545203	-4.480522105324008e-13	-56.69903233444172	15.49239362767352	14.33850965023286	74.13557330636678	-11.05895007902565	-9.646473907676141	0.9140611435102313	-3.837385328656158	-9.942897201656855	6.305797752110779	50.04570173005525	-2.055213530076218e-11	0	0	9.107189154788088	5.06738932872564	13.28855000598175	-64.04329758916785	-2.055213530076218e-11	0	0
0.2200312594138309	-0.214981713309408	8.934808495641349	4.485180414189935	-2.851389711237647	0.02079744644397807	-1.785462114308197	6.576095561464966	-12.50177221064335	-2.351342533169286	6.297849827169416	2.980368499957875e-13	0.9060252219074001	-2.985802512320989	7.720104197344355	22.04619985407415	5.258223018173401	16.17185109163783	-6.954774640162762	-51.57180721593208	5.46184552774482e-14	-63.2712543696707	42.59028998757019	-7.034412137641628	-57.58355944331645	-8.471768130314402	-8.368938326758407	1.30320447433753	-7.448499860970749	-3.508054986232516	2.854643688298371	12.4675101024618	1.491600092204611e-11	0	0	-2.289883638286248	0.4959183891423479	6.485434879491528	-32.84870239966472	1.491600092204611e-11	0	0
0.224	-1.638077365250721	4.158740442787704	3.871051615605526	-2.037683235324522	0.1351956315414606	-1.754587391802287	5.685963448048591	-7.00626550693514	-1.555818308997786	2.046154751280963	2.425419260578575e-13	1.439634851242128	12.34216223548778	3.33315830547964	6.435420329459481	-0.6661811744568951	9.177114609450944	-3.7195451608962	-67.19781387108652	-6.698530827943424e-15	-64.35500540453573	3.977690415606379	13.53712303995916	17.03553973683589	-3.340255650689895	-2.134983586152787	1.472262047138094	-3.183120324115702	-3.64769664746776	8.206609704350061	19.74081456439647	-7.472757353395628e-12	0	0	-6.290266023559834	1.347912846925035	7.666715431364385	-33.96540488684597	-7.472757353395628e-12	0	0
0.2335128561131141	0.8372645495716268	11.27839754105461	6.555077995155609	-3.127755721335493	0.2204780899444853	-1.97259896486265	5.308837068993228	-15.27035772346266	-2.749289052801375	8.053921164223745	3.080894787086279e-13	1.997900265600094	6.631437054995878	12.12119227975607	16.23256484844	5.269908863386711	19.94055521380143	-4.961458656251241	-48.22575950830603	1.134698344014576e-13	-65.80544690659019	53.72696445912164	-23.80964735936533	-52.94932826138789	-10.87914434553134	-10.90694452086037	-0.9288932286991991	-4.248766618138781	-5.299147337145903	-1.271200763128075	12.11840915750577	1.133917582165197e-12	0	0	6.193982255301101	1.828571140884902	7.444641359515822	-39.81159910815624	1.133917582165197e-12	0	0
0.2504558844730551	-0.7481552208628279	14.90689201667612	7.825058294063894	-3.001113124948368	0.3128814472993027	-1.895436755135836	4.159173934958732	-18.64969527856796	-2.780707442419597	1.795384776018793	-2.136322862682252e-13	0.9406986170477298	-3.96892711944375	-0.7018561801233876	18.18664285501321	4.124112876642231	24.51448349819781	-3.358265818000494	-51.09125679745717	-3.545528874670064e-13	-65.21308199111697	0.2369659187003563	-2.309581043781535	-69.17400277638676	-9.207725860247745	-15.79443872811789	-2.756883924067953	-1.408991730439457	-6.803398949877224	-10.05952490961676	10.10467223770241	-3.338074605549387e-12	0	0	13.90169408668491	2.405293896205056	7.47233279988238	-47.8083325925408	-3.338074605549387e-12	0	0
0.2648312594138309	-2.170509790017992	4.835046745006765	3.357464765494585	-2.15363023296034	0.1260098453869126	-0.8872237422722613	4.764954262685883	-4.965439818515623	1.200510330160554	0.2706985232276784	2.751656361433789e-14	-1.337611005778304	-3.458481315651056	-3.748729528116291	13.20031152708226	1.647717221409453	5.992302545241534	-14.00628944544539	-49.65171996857044	7.57938748774407e-13	-62.86949697809679	0.2768044986449922	52.38015098596278	-36.25546935405961	-5.668452717721088	-5.545486888767078	-1.058905680139722	-3.210786409199763	-1.097241738054819	-7.68116059867617	-4.488015484841464	4.646318583644907e-12	0	0	4.22199314894496	-1.045173400723709	2.777729795054261	-17.23994633766276	4.646318583644907e-12	0	0
0.2688	-2.493424776290346	5.068796714678024	3.426912986568196	-1.519239983123421	0.205152827458463	-1.158694153186537	2.837391965595994	-6.319009595104697	-0.9080500018593052	-2.276516416570837	4.364615171506857e-13	-2.100157466584419	9.669631739628267	5.225428021484181	9.997684567405541	-3.909013552111187	9.221291652938389	-8.923850388306626	-59.33828189268923	1.440919931521463e-12	-62.11797890681031	-9.111983548970898	30.79476441315927	-26.01860003882309	-2.811192096377396	-4.99288480326236	-1.016373067537277	-1.302523795011222	-2.281488873024736	0.01172754937232678	5.597771698144475	2.435564970159574e-11	0	0	-1.597325595961681	0.2896316993155325	5.684089312010214	-23.28780237272072	2.435564970159574e-11	0	0
0.2783128561131141	-1.808361176049221	5.769335644591854	3.389668753728923	-2.130384030107413	0.06870398439135983	-0.9008076173188846	2.856550616297284	-6.654795406430763	-0.9454075603908302	-0.826505418589738	-1.023602932053192e-13	-4.055731191897802	0.006278038474265557	1.950281187815153	10.16472923067099	-3.742161757532193	8.195612627015166	-12.54007228183952	-54.80754293515206	-9.363542029717943e-13	-60.35797563822945	15.97931430321472	19.79928060707829	-36.98701447863434	-5.906681376466405	-6.535706528360703	-1.760682009245687	5.276950528670167	-1.421471308164263	-9.553082672760112	0.9678625381520023	-1.186151088299428e-11	0	0	13.71043765268253	-1.215620990781382	1.384208422798602	-22.80748221601111	-1.186151088299428e-11	0	0
0.2952558844730552	-3.919804958184706	6.678468644377151	2.815886614136765	-1.601058495773678	-0.1679145299162516	-0.7039996281271849	2.385349491869095	-7.446080715269201	-1.669906774957144	-6.684204315067172	1.160311171916618e-13	-7.630451827160346	-6.637290719395772	-4.251331118727924	8.807274408645659	-6.891978349507331	9.77855770640701	-9.194393798462681	-57.21349934738052	1.018062875129354e-12	-57.98432196366767	-16.36804706256907	22.44423383846879	-34.51985271424589	-1.881056294447344	-8.220517834108389	-1.827852651221603	7.040867442468333	-1.096492396141829	-16.18061516986083	3.200716011253375	1.349810484360525e-11	0	0	16.57181924090909	-2.262737796135033	-1.807379789880539	-26.41046950282877	1.349810484360525e-11	0	0
0.3096312594138309	-4.043713259586929	-2.214895755487346	-1.454285586029336	-0.9537228777805491	-0.4442379478209073	-0.1412752731907635	2.951849350522668	3.360254547290615	1.217540917942233	-5.261202814752039	-4.429633900508645e-13	-10.33735255709827	-0.9761419974897088	-0.7383073897061037	2.268844668204407	-8.372663945578903	-3.069014935350399	-8.839549046711163	-51.83540842733591	-1.086542724058052e-12	-57.0453453070407	-19.70028311471134	52.7355608544675	19.09648941902645	0.2410227372247808	1.446497822722762	0.9322596720171166	3.823045292740343	2.023354214823511	-6.172665258253081	7.401803260291436	-1.115292881221618e-11	0	0	6.788685557054613	-3.67848810635768	-2.331061914462927	-5.254758540310556	-1.115292881221618e-11	0	0
0.3136000000000001	-3.047978676784252	0.01669162485671893	-0.147197292337518	-0.6249291027531756	-0.3450139766234681	-0.4700252744511926	0.3407108363897882	-0.0463167878401366	-0.7949456552365008	-5.393576773310539	-5.495405988065337e-13	-10.97824959260326	7.814309134490818	9.470583124602758	6.451918919186257	-13.7439172219658	2.49321209469698	-5.615222067270746	-58.08232513615933	-1.48136303370846e-12	-56.93012417420319	-25.10998861821518	29.65921054822724	-6.028166852283507	0.4478205771761057	-0.6183988851595391	-0.3424509737725869	8.702528690286051	0.3983187452609162	-1.581744967481582	9.439344592882589	-2.613399225561452e-11	0	0	4.390846380523605	-1.856713817600394	1.234319539059078	-9.385543190714499	-2.613399225561452e-11	0	0
0.3231128561131141	-4.809808290784225	-1.785864420957837	-3.107016555878315	-0.8581252122198324	-0.7061797504539638	-0.2177558957215029	2.649132863666241	2.054316939584456	-0.2600726433947874	-7.487219733910715	4.365845423404524e-13	-12.25579662922216	-4.769761155362357	0.2672175676392192	0.8846164522840988	-11.53916363355255	0.03749485034440891	-5.484457296379142	-53.63499582084879	5.607552630471315e-13	-56.76810913575684	9.309984375806479	23.19763988397085	3.877983201988917	1.342774155397763	1.554551412561207	2.242847186696825	9.515587211484192	3.135329203051897	-6.907724333859982	14.61072555665023	-2.49183161828252e-12	0	0	8.738545977576919	-5.615081555986855	-6.451261063874312	-6.9915335946401	-2.49183161828252e-12	0	0
0.3400558844730551	-6.432449381357229	-1.368547656013268	-5.176827257958565	-0.1891906191898062	-1.004612246323665	-0.1560889954395179	4.092375750068088	1.346514700977588	0.1517648657017919	-7.1520170188953	9.727580438277361e-14	-13.3693131742015	-4.536264783733595	2.82640232055452	-3.595121013836385	-11.95770561652223	2.270020189319915	0.4301795737217978	-50.31498196496138	-1.394332592074889e-13	-56.05718417990808	-38.9898578710069	0.9521302979151969	2.292985551977996	4.68722848305061	1.030096501623492	4.176238485793558	2.572153274802989	4.778542044691248	-10.65156420392259	18.59925569800077	9.068724023028927e-12	0	0	0.7687555609033235	-8.200821509823893	-11.82745948576082	-6.164116442684864	9.068724023028927e-12	0	0
0.3544312594138309	-4.698040493307497	-4.194370565999334	-5.451179985193616	0.02461959191148455	-1.117550903245215	-0.2694608112726116	2.950623498085362	3.923463120289171	0.640849532329488	-4.496244595331161	-3.81846958598561e-13	-12.84692685003577	4.9762371531054	7.777632102656641	-5.882655101100464	-11.99459435876788	0.1720387026829326	8.289968636624472	-41.52605556471361	1.504468096980846e-14	-53.65008546312976	-34.65888592502086	33.75044237036469	17.87211377541188	3.543600235416567	4.10499871993696	4.368420064087447	2.747791915455633	4.495132631346196	1.661240648124399	15.58459049821046	-7.733412702616286e-12	0	0	-4.830576716000795	-6.270134932230482	-6.086867301502186	7.960342687609563	-7.733412702616286e-12	0	0
0.3584000000000001	-3.045652646979367	-3.380041886646592	-4.448871161269256	0.07342244943972701	-1.022108111347608	-0.4401699891649331	0.9029069722882763	3.098525614215841	1.027843225246987	-3.490483846440732	-1.631664077800994e-13	-12.43433695720882	9.37611846541127	11.61369964757422	-1.096871555120947	-17.39140125749153	2.169439491485783	9.934668605616388	-46.88225395502258	4.172921668397506e-13	-52.48615083582515	-36.91145062363312	18.24081318195178	5.058557926628126	2.62598626144379	3.684198992945158	2.893936751535698	13.35025981397516	3.197211233399407	4.247524161387791	15.85926276133891	4.765700178201309e-12	0	0	1.368849315235214	-4.756177083741005	-3.902321023137099	0.3554511644430297	4.765700178201309e-12	0	0
0.3679128561131141	-4.590985031922183	-3.71761494928994	-7.089218699236453	0.3184369599170513	-1.33354365191732	-0.2268546746574179	2.769744710517239	3.654790673699925	2.832503748534185	-5.411349986820285	5.547872765457599e-14	-10.95408058658447	-2.523722501206143	2.098147623761342	-13.78708873177331	-13.21986475373439	0.2226436799232948	10.45801682818144	-36.90232926260119	-3.519920653657562e-13	-48.55779775033454	-4.774179971486245	17.21077051439914	-2.091475147318194	3.658468450462493	3.564334339870999	5.457151731859968	3.175808984667938	5.94321984769995	0.09792074449108845	16.860493344995	-3.268378925900211e-12	0	0	-11.2922067460298	-8.419364626800098	-10.2222361825005	16.1547732452269	-3.268378925900211e-12	0	0
0.3848558844730551	-3.487370883045697	-2.370975108176054	-8.391872654547619	1.157827243117838	-1.447539541407848	-0.126466203819064	2.146354383038567	2.555404484135579	5.424844551023837	-1.195608479445145	4.827615416211246e-14	-6.631269918166836	2.636781235819044	6.891466811176418	-22.78843009250579	-14.81734641760143	-0.4446231906484496	13.56470949335237	-25.16471103280367	2.957218771561081e-13	-36.82025192616998	-44.735608689477	-4.312828889437704	-11.8458240919246	4.748257372571226	1.420959822065315	6.543880993585134	-3.854673937728709	7.482123622754232	-3.987681562380917	15.20725441297482	7.417358925939301e-12	0	0	-18.35342736776624	-10.6019861724771	-13.84709799948764	29.16025024191152	7.417358925939301e-12	0	0
0.3992312594138309	-1.542926237746457	-1.95013183935407	-5.296524410702494	1.027692645153403	-1.504001814778856	-0.6020100845967679	1.154760479018469	1.344501713469477	4.04586229100079	0.5230567332679437	-2.949379513733965e-13	-1.488745530675544	-0.1668605121095137	3.095788092223585	-12.99489774029772	-12.79397198629858	-0.7174785814433499	17.82179447196305	-8.105786984750049	5.758027216111365e-14	-21.67919010815563	-25.3793264937056	11.12524901528313	-2.798846517596521	3.453097634118861	1.444681482055656	3.221136430226447	4.945733174624003	4.438835241016226	6.350269331588562	7.080991262120538	-7.723059617315422e-12	0	0	-9.608347663772353	-5.67111745942495	-2.951098185760118	33.67422032079695	-7.723059617315422e-12	0	0
0.4032	-0.8982737982119045	-2.190589282995097	-5.507708670150524	0.780501295455901	-1.561570046526007	-0.6371708312539194	1.755112691628234	2.178778445055669	5.959723305113051	3.300772985205006	5.571533400877731e-14	0.1152042244514262	7.570945507522444	3.932352430708929	-9.446818987346573	-12.08339675723803	-1.442573436523925	15.80465450762616	0.565028230959659	3.308904384067429e-14	-16.70153871637823	-12.05510647106944	4.950434692520698	-3.024711088542037	2.781040599954306	2.515894771709367	2.945049092450333	14.33425825611599	3.930726057504476	6.69190907342871	13.24218620934693	-1.351458853975542e-11	0	0	2.386165885529662	-5.406239580697001	-3.694141923241633	21.87451512003306	-1.351458853975542e-11	0	0
0.4127128561131141	0.1335432187042709	-1.115439467844921	-6.084565562880898	1.407866962771708	-1.409495234550032	-0.6463031077529541	-0.3752207164664609	0.9184619350282258	6.999699257565203	1.987607411018976	3.759518915849774e-13	4.179033210526293	3.143933245639319	0.07626729588132886	-17.67827224964583	-9.614985992362229	-2.666033719622406	9.711641288560381	22.35449175605186	-4.631744772649245e-13	-3.583738351949265	5.783254547235252	25.42459082084756	-14.7357704621887	2.553938686235196	0.9203824426311249	3.401976005711203	7.301893528128115	5.36760866821692	3.424652414529138	4.217531829659908	1.420586252544867e-11	0	0	-17.93989633966628	-7.070010265585079	-4.798025746857904	48.57384411976842	1.420586252544867e-11	0	0
0.4296558844730551	1.041987571999196	0.4390415463666426	-5.976220110337735	1.932826559183109	-1.163608074617847	-0.6951085688113123	-0.7294690018808057	-0.5683386416503833	8.229523744223087	5.495598015955522	-1.815418126725956e-13	11.69860585104949	2.870112096962846	2.176004855289321	-19.12909948852813	-2.444313246294814	-2.865391294289488	-0.996583064838038	60.67741320120032	5.867778890132534e-13	22.5473291731743	-3.867891167196657	-3.334432990681478	-18.79591756183095	2.467487817212767	-0.9135922650404444	3.443587491123256	-6.714545933293646	6.204763154433149	-1.451589126668601	-3.348907686736569	-1.268464216267285e-11	0	0	-27.95910112794018	-8.087222098596246	-4.931031560425295	66.17145299082	-1.268464216267285e-11	0	0
0.4440312594138309	0.2469468336432662	0.7618383172294995	-2.241475645670313	1.54753830461389	-1.2186255893594	-1.376156323428376	2.097730941019036	-2.011629997684981	2.661417044073184	8.520266260702861	-1.673772583925655e-13	17.64339407237552	1.911149143413619	-2.940710790480645	3.446871348538959	1.477541541005771	-0.6999393455372204	-14.45534825008579	67.22727799281186	-4.996501302974683e-13	44.94798042663255	-1.938086458806872	-5.876992157485699	6.082626792181025	4.145012936882052	0.9501639718037237	0.2893597219344904	1.164981234827788	2.66838983813008	3.876297864420073	-3.930185875682252	-1.489152758608423e-12	0	0	-11.58223845239981	-3.050538937552903	5.149433943702684	46.21132008123755	-1.489152758608423e-12	0	0
0.448	0.5683708170019393	0.9366575058071174	-3.699444122702245	1.016634453828572	-1.217204882589559	-1.056775963105526	4.56844229446072	-1.281954063582776	6.340642517146739	13.13379845895621	-2.332485889798428e-13	19.11225682195894	9.409505468721553	-3.517010253955681	-4.386501117715057	2.047436039311568	-0.9533656451267002	-13.49354075457408	66.71978773687241	-8.495034510784508e-13	50.74750982459968	10.39986262714621	-14.17654294860024	-1.27509344026122	1.775639610003524	0.1337269027783919	0.97405019974933	6.953631829832453	2.996401984836924	4.476584660386008	4.633863916671787	-1.423452786759046e-11	0	0	0.2868320548084639	-3.962019886471619	1.895091286369622	38.73328442271277	-1.423452786759046e-11	0	0
0.457512856113114	-0.7077875332870143	1.661313867120652	-2.941261170819666	1.820054601481724	-1.438945957578407	-1.376564264894853	4.648686928886695	-2.794545780996592	3.672139643541145	12.10169132302885	8.759349181973641e-14	22.2014863379386	2.525908153738239	-6.829443404204856	5.594327159638215	-0.3217031871101907	1.755303892775716	-29.56215502380844	62.74014525665486	3.577250665629704e-13	63.36552461490115	68.8810929970509	-9.602488498215884	2.959093552483806	6.160467100366967	-0.00801761095166699	0.5326545012807842	7.182743081448411	3.532987219496107	2.907654354023636	-9.803312376998703	9.560259043759468e-12	0	0	-17.86788944411919	-4.248796542461309	5.402673142175742	58.40859813707218	9.560259043759468e-12	0	0
0.4744558844730551	-0.1179104167451437	2.946228805922413	-2.665545774526644	1.759366360744256	-1.113161695131727	-1.429551976379612	6.048491858407923	-3.980340726965133	2.956547505359955	16.61243029349358	4.399980749272738e-13	25.7945922673561	2.410630952458931	-3.888857601123592	14.36791262350323	-2.546815993296445	4.835589626853871	-39.43424578891937	58.78872624456726	-1.246780204431856e-13	79.19487614205696	15.78274240324552	-56.57858625656391	4.304292631369976	5.022046638163634	-1.609613012656336	0.4075927960265707	0.6469682232444249	4.098232475000893	-0.7146672862235215	-19.86966901941048	-2.758091470239113e-12	0	0	-14.67605822960245	-4.636174134127486	7.3683394403759	71.93324790436844	-2.758091470239113e-12	0	0
0.4888312594138309	-1.125062660464716	1.30039478983975	-1.722631987301093	1.392260190514235	-1.032601386302926	-1.478740570275343	9.910082279475553	-2.538699882862645	-4.400935466167032	21.64462369402045	-7.853020743939973e-13	26.60802792470103	8.014436440093904	-2.434534561856319	24.04171186871773	-0.3646851931794686	4.343214705625983	-23.36982417106409	55.83469963273858	6.911011823338149e-14	83.80274750668966	-13.78449172920715	-33.12687208426782	21.57377281421478	5.989678932421514	1.214924850782	-0.02486994689559992	5.773200478788723	2.021107122307242	6.410776058113083	-11.95828929027162	-2.746947670863479e-12	0	0	1.137874068764567	-1.736962246986215	10.097556452534	34.04893757105297	-2.746947670863479e-12	0	0
0.4928	0.1822440458452981	2.456334153461794	-3.755681851123753	1.122469122259945	-0.8879934459842254	-1.128080466941822	9.10974724886167	-3.343296406714674	1.025408293251156	22.16863538421451	-5.51505098739557e-13	26.46249150918699	7.169519802496941	-1.77218058060816	10.35361541417388	-1.89661791273781	3.354315950823628	-20.07881454602432	56.43692306647021	5.741680867029205e-13	83.49427815198621	17.44563223426166	-14.9566230620495	11.00058569950005	2.357229616776582	-1.422138457499911	0.2309135456326703	10.81209271411623	2.376457659488473	6.697870071881384	-2.884934146136974	-1.103142386932381e-11	0	0	4.358629827060918	-2.791640860269127	7.368907400250517	36.40906565449268	-1.103142386932381e-11	0	0
0.502312856113114	-3.594576401899344	3.49123285250426	-3.794180875200058	1.562826063601621	-1.182226632699617	-1.105691949083923	12.98964349972859	-4.789321253374883	-0.3597853339613233	23.02684168521846	2.263567461955259e-13	25.50750068273065	10.03273982415431	-4.537077655845785	20.92884531770918	-0.1533542212171417	4.603368728990822	-21.50724102757522	53.34677659029565	-1.222845507607546e-12	80.02901493312164	49.81114754375353	-18.91268612909936	18.16809361131247	8.372883970809944	-3.205592700287299	0.4400506712724367	7.337891258502921	2.915947304318927	6.076237133318971	-17.91137333101371	3.991993561695925e-12	0	0	-1.242514362556656	-2.547336663301575	10.17290628219521	37.54569134765619	3.991993561695925e-12	0	0
0.519255884473055	-4.970814428490646	6.402125640688445	-3.904338241629199	1.487476026667727	-0.9162709329426142	-0.8865285302923274	13.5781882750185	-7.832126706281846	0.5531565297290284	21.82475176836208	5.263275630628034e-15	22.06242098318669	8.358120454141588	-2.99708398588216	22.75364040422055	-2.513402333992611	6.151071473630312	-16.34651780283319	39.40819275096812	1.409128016171657e-12	65.53216332788496	6.36805245295826	-36.98660017541383	20.24338571712028	8.682808684408418	-8.232831868528104	0.2585019624089371	-4.290202085456496	3.307165516517045	0.9798328044710947	-26.02684082695966	-4.057186768846022e-12	0	0	7.587986749488367	-2.217367749419412	10.79731618785974	40.18636476421559	-4.057186768846022e-12	0	0
0.5336312594138308	-2.410387918993352	3.283656412861586	-3.194507543062011	1.378327034099751	-0.6908166806598079	-0.7268133837721326	9.548859822984864	-4.445720345891889	-3.850299069339156	18.69348927153009	-1.920748324844893e-13	18.15942217713623	8.346044793757361	0.8749778099428194	10.06811994837468	-5.713329268991789	0.5292686350876273	20.67223252928886	27.25833592666497	-8.044837813065501e-13	47.80822172558268	-24.58922637668697	2.159567515145014	20.74815489770533	5.441984995286613	-3.988309031872726	0.3858951250361053	4.519941231863246	1.651700203420337	2.941843533903849	-7.681995217540147	1.4043838299914e-12	0	0	15.74848244589601	-0.3085241814962689	7.272050729248296	8.206116800173648	1.4043838299914e-12	0	0
0.5376	-1.188995037791654	2.428010321859633	-3.590256105519318	1.245499953715717	-0.6979168015824784	-0.7345135921090068	6.35896329155562	-3.50609351647239	-0.6567800389229594	12.96970915469153	2.315016429815899e-13	17.05963024779748	3.967653258785865	0.219213016971505	11.75961009313445	-7.435342524499037	-0.3162486131768433	11.02147266024692	25.47504674100977	1.82204448331503e-14	42.57422037302426	14.87851425921033	-0.08471351395356663	10.57053693830475	3.021008381232245	-2.818628382879473	0.349670666271223	16.20799073052394	1.929875069654888	5.909382546541224	-4.928100608976855	6.0394871655908e-12	0	0	9.329395707720286	-1.437725937795375	7.700202434798268	21.26512349975212	6.0394871655908e-12	0	0
0.547112856113114	-4.53466567553053	5.681875838694834	-5.709824593295833	1.321395844770112	-0.6690055363828789	-0.2210255946958947	11.18271620755106	-6.717210063420644	2.290279750504656	16.84787592635177	2.670157419111919e-13	14.59311717171874	5.460967859853122	-5.225106837019972	-2.793406343345171	-5.218355924835677	0.6742593208105718	40.92126809162942	19.12148999057245	2.82660137680997e-13	30.20252361771155	-80.27319333892252	-3.846845739092949	5.595544888394745	6.792020797867599	-8.597622038682156	1.693578855686077	4.056045259772414	2.555543691935411	4.207865996962327	-9.997900894366726	1.141536248124436e-11	0	0	21.30292187472775	-0.6452652396111824	5.612068596092605	0.4490385345654269	1.141536248124436e-11	0	0
0.5640558844730551	-2.475386318425386	7.578202628071149	-7.046780834365148	1.679156627133831	-0.1623349185745723	0.07023003176133658	6.631151121103104	-8.264164982411264	5.004374553236536	11.93708214534779	-3.706287587825024e-13	11.59555393932885	-3.392360910079555	-5.627058614561442	-16.80905984936605	-9.112986049507988	1.24410681136944	56.2857226658805	9.381922736095685	-7.137663625647011e-13	11.40424375909078	-7.240488446003305	1.728935311685287	-3.34355702583085	3.664908777503401	-11.89028006228614	2.436393406919067	-16.71624612122699	2.835180272437272	-0.7935544097366721	-12.51980793714471	-1.859082477006417e-11	0	0	14.79919968105874	0.1945210765858597	3.396086552525375	-15.80723867516148	-1.859082477006417e-11	0	0
0.5784312594138308	-1.366798692294212	0.4160235993651015	-6.331286942655669	1.632094450588498	0.03066551916758486	-0.5337442543273841	6.081765244665597	-2.018703086086731	-0.9983421748233321	11.79644334898791	1.703689524910724e-13	11.36436405217701	-4.702787284736614	0.4927864352056686	-21.43722186598139	-23.65521232532837	-3.263075440412915	53.42783034410178	-55.66502894711428	8.832570827088774e-13	0.8547604230036993	-5.632226736836827	-30.18552909305829	-3.170932655843574	3.525501680313001	0.04952029283419201	2.155082562968833	-2.032539292597932	1.217374555485295	1.064726453153098	7.33530225434852	1.13493466754027e-11	0	0	13.60672806805688	0.935659148912231	0.6736655477086116	-31.76991979336339	1.13493466754027e-11	0	0
0.5823999999999999	-1.405165416719415	-0.2816692424546321	-2.944770803595587	1.26173907092456	-0.1767160479906484	-1.019322013723341	4.19459257093172	-1.76622740732349	-1.56679019549765	8.947623012403383	5.098973429028217e-13	11.76177844153374	-2.41322529866498	10.49826792246655	-6.917403829746843	-6.374416623607948	-0.9030473959633998	10.46838059060015	13.13659958463208	1.072960961974912e-12	-1.12017386311065	105.9693949000764	-30.87951730784187	-1.022782260970461	3.773250686627294	2.008455220369792	0.9575106344176821	10.21530214802906	1.272435106986585	0.4150449656490016	2.52811233748003	4.211405126108677e-12	0	0	10.14539964628978	-0.1368411057440546	3.775953191269359	-7.884974960832309	4.211405126108677e-12	0	0
0.5919128561131139	-0.6682719082637752	0.01259960614185637	2.109434300065248	0.5240503427563921	0.629445688903284	-1.322667347964676	7.096007366749303	-1.318306848179094	-7.17132146238	12.5143646298071	4.408214525601693e-13	13.56439087853018	-13.73809035703785	-5.997591793368347	-28.33582734610662	10.34621102591716	-1.613411625117029	-18.20708658699796	24.6823692394874	4.82292310932975e-13	-4.444380783608896	21.14973062615059	-80.60027776364036	-20.69637408576456	1.440395066281096	1.99894088197542	1.323883483721649	-37.90139750945595	1.177333370791527	-6.923109065952189	-9.537843521380317	2.015974934452887e-11	0	0	21.25138582109357	2.760588344585085	-0.2272490229662044	-25.12829780489298	2.015974934452887e-11	0	0
0.6088558844730551	1.245587373182387	1.667014697286717	7.755813476841666	-0.5606138249834919	2.020433960053983	-1.726094747640902	10.65484322149358	-2.422318550968397	-11.49522616072015	23.88534891447157	-2.734051076966054e-13	19.56908224114431	-13.92138311501813	0.7382562121103451	-28.60033770144386	12.25715214974429	1.719049743818775	-31.80722365035261	18.27695212184151	-4.916082868906338e-13	-7.199513072814866	-24.32352403987319	-41.74385325067138	-30.36894564488846	-1.779273314601039	0.7250632150287994	0.3961817421728431	-52.95427184969301	0.9861637484946245	-14.61124708886725	-22.58132764150994	-2.280949300971937e-11	0	0	47.92382745209651	4.796920240732907	-2.592544860751096	-23.00497688668462	-2.280949300971937e-11	0	0
0.6232312594138308	1.771514000758551	1.793809780155208	6.832602407054384	-0.588250829114356	2.409138076366367	-1.906228132442382	14.66604731701678	-3.737663607871485	-20.60043157063162	32.51378449009749	-3.95127316756328e-13	26.73119194823266	-11.51969265422368	2.577147263242276	6.932409575280792	0.8800470208878113	0.7293927124536148	-18.765598889862	15.17798549302749	-6.993946273361862e-13	-8.952238535927453	98.80255382181387	68.9425638566959	0.0002837664502305937	-2.083668288456937	3.210153598357365	-0.8544902909258525	-30.84119956413585	0.303088047597739	-2.490475642154245	-11.96091404147771	-7.209255493008588e-12	0	0	31.27816508088877	2.792037620514328	-0.7703052746536403	8.921573358734546	-7.209255493008588e-12	0	0
0.6272	-0.007987183420018806	1.407452332326022	2.531636734648129	-0.5031981708368769	2.251886078719886	-1.498114368809743	16.84712474230538	-2.898372101315623	-8.344256193252241	29.98249504364538	1.724209489615795e-13	28.87919062178556	-9.702524667034073	-0.2289334102232168	-8.441389879317011	-0.1473413817154121	-0.4538115761914305	-22.06838354092466	14.40813551547716	4.779407635173666e-13	-9.626200818968787	142.1693938750616	48.7495341958938	5.336333784324873	-1.163487627900922	2.692735266438131	-0.3971720493248351	-10.01303098552346	0.5217893681828032	-4.56811994738547	-7.372101979525078	2.674300589537215e-11	0	0	2.234539882091076	1.457675754694585	1.866928218128805	-3.997243398673124	2.674300589537215e-11	0	0
0.636712856113114	1.081490279867492	2.808680320318509	6.780511923425799	-1.981828433159945	3.77869397538749	-1.759438584542514	23.28068698244768	-4.455795599058399	-14.63233686861013	42.79944990367872	3.292769931716844e-13	34.04017292192123	-24.63855947216773	-10.57688091952131	-9.245214129103324	2.891900503402337	4.768574689860415	-1.925743005120333	26.65859194093273	4.665011565009099e-13	-11.72375360471991	193.879738556492	78.39778093816832	5.093464596332497	-6.243425849188641	1.276435055035832	-1.536021149250804	-57.56291758028711	0.3216009609345956	-5.936512023665048	-16.04915159910767	1.867065807511306e-11	0	0	25.46233456162955	3.074363801183319	-1.52888696627038	5.485624076088749	1.867065807511306e-11	0	0
0.6536558844730551	5.334114919279548	3.310211932170879	7.51552539208739	-0.8224522678492659	3.318554666942664	-1.47652923159912	16.37757304154126	-4.699007338268461	-8.732070749505491	39.52077272906488	-7.975746285345905e-14	42.0519415520384	-25.30621499202254	-7.011714294457121	-3.994632553442834	-16.34066685885329	8.099494014194427	13.94500972163108	-35.11264602604447	-1.704548063547392e-13	-16.81286620332509	-102.0907802361063	-2.604091336978822	3.302717800878012	-6.213009138052325	-0.3591533350825699	-3.353095574913342	-47.28338921617382	0.09783990743229246	-11.02760679952221	-19.23508418113421	-1.068865120553605e-11	0	0	20.66225744493913	3.434332927143779	-3.85991507043969	6.363369125144192	-1.068865120553605e-11	0	0
0.6680312594138309	4.936453305005846	-0.5605996598567762	-0.5780716005236062	0.4553673964661282	2.106863622714182	-0.8661202653835887	18.55352860116076	-2.643302280190154	-9.636778891780168	41.99945339923154	-1.345370885240096e-13	46.08033719566792	-26.5500106105908	-9.144234813123278	29.63471135356883	-40.76989399238577	3.026450783743019	1.908874646311651	-60.25232490739145	-1.664178735167629e-14	-21.05622818716725	24.01125326559773	21.34450913865704	6.517952609508308	-1.177396133478601	5.168467467618352	-3.657647487418203	-13.37585544985495	0.1470933075773553	-0.8885284032899249	-1.35803887513798	2.020350044084309e-12	0	0	16.62443660691254	-1.335529427165524	-0.6623572802367974	7.704169052842268	2.020350044084309e-12	0	0
0.672	1.049216670070666	-0.3485777133133551	0.792220718812236	0.06609558561490708	1.475795430519798	-0.6887136842564933	21.03278228483222	-2.123623079051651	-0.01994635211973073	36.04603676807722	2.230883933442997e-13	46.55802140302452	-23.46358621273587	0.01872105924654122	12.92880307813645	-28.70251249395134	2.871448615800395	2.857868020371948	-47.55493415218773	5.568097599977007e-13	-21.95740503960202	19.25433534369586	20.93476454549786	16.18572050601857	2.252708490754169	3.68097068100218	-3.149017161042271	2.969432528287545	0.4269230997305167	-4.611283865575317	-1.173145678755855	1.693351019414117e-11	0	0	5.245656072612719	-0.8841255167180038	1.012490354040551	11.16246420304007	1.693351019414117e-11	0	0
0.6815128561131141	7.114751804568409	0.2506233364454028	0.2572856412255531	0.09424311756270973	2.116590412423935	-0.2756363393065875	18.72720424841037	-2.932410657472262	-2.48759141959058	45.33271873349607	-1.494670523069529e-13	46.41955892599262	-29.4301362391059	-18.21828649429551	28.22273185271371	-37.59778584985843	3.203290697337423	5.007440840815299	-54.63285813188983	-3.050781003940323e-13	-23.3438734636055	-4.279389205183943	13.85669637321613	0.4522929258128494	-4.697464559934337	1.78723105020238	-4.048807976666351	-30.1969374591344	0.6448325158531931	-0.0508282478654376	-13.60298006272462	-4.710360132164623e-12	0	0	13.30923024880521	-1.921067481847443	-1.637271866061469	21.18898324949357	-4.710360132164623e-12	0	0
0.6984558844730551	7.61239999375003	1.664959390240357	1.883605440394138	-0.3812636604495347	1.795766982883977	0.1057838880409271	13.05748532748688	-4.238898093159708	5.42306043254014	25.87882004733861	2.796167755560253e-13	41.43447095403339	-42.9270214701949	-12.11746588435146	37.9461171034117	-26.81814680971832	4.978485183370347	6.529480116266377	-36.94363744591734	4.529596919485724e-13	-22.43760501498052	-11.56591841036698	-4.424630472001716	-4.465631655270291	-6.274316496871076	-1.520410470157704	-5.250370290376388	-31.1744233391378	0.6731252090451134	-1.676674566288647	-25.56904941237248	1.888468729117518e-12	0	0	11.01835377110193	-1.772538079901805	-3.17365213100355	34.51825504443419	1.888468729117518e-12	0	0
0.712831259413831	4.304790081646924	-0.6303838371969654	-1.933738358945377	-0.97251354184543	1.139172433417624	0.2902931297707693	18.50803137835473	-5.500440398211871	-1.169828562142152	31.82461514994534	-7.167124160124061e-14	32.69787906928442	-28.37938284392682	-4.399626163704191	41.31568722266296	-14.24066746495533	1.516096148193783	7.134158312553311	-21.6012641430484	2.970047565935079e-13	-18.35645615326222	-3.724719919661666	-6.771899971174509	0.8930320877562401	-3.879850621830031	2.139090410485453	-2.597387484985965	-23.01778089166891	0.8148835439992458	4.829608537773368	-15.75939281831536	3.516507786879782e-12	0	0	6.19002813676591	-2.254617579095466	1.334470739410128	24.84956552059073	3.516507786879782e-12	0	0
0.7168000000000001	1.280518542096402	-1.023400856295858	-0.7873464952567224	-0.7446238824090732	0.7237467209622339	0.4928326180094887	13.74333969967268	-2.380902031513414	10.24564557640225	4.240655357291022	-2.330054300373479e-13	29.66101075809093	-22.22897609107389	-7.111271183013766	30.3582816417906	-8.195914598163924	0.1846648757042012	4.602073035694675	-14.48056005945856	1.018805902657906e-13	-16.8253938950343	10.89507141323442	5.282543979900288	5.804066026119066	0.230130130809198	1.590338820981434	-3.603849436649372	-6.499131543519145	0.6661036271990616	-2.015164200319605	-9.941055121141806	1.454512273031979e-11	0	0	0.09541426381468709	-1.525264995719978	2.431916303140963	16.54823920173753	1.454512273031979e-11	0	0
0.7263128561131141	4.935315310123594	0.5032264049300748	-0.7512218289054422	-1.617992007718287	0.8522287855700327	0.7088469159404455	18.61046275520134	-4.24652869476825	9.183635836934329	41.44086984928814	1.427387271125694e-13	21.49522479280233	16.02054645246166	5.11413332587342	55.27764808511456	-8.774175487330297	0.6936243637772367	3.520823958323255	-12.69625088322896	-1.060427462258914e-12	-12.73495269037299	-12.91507015250782	-6.04973620826771	0.8518572663356611	-6.444789294944024	-0.2489805564579345	-3.636061116440017	-28.01551806519114	1.050435894075456	0.8484867685094949	-24.31396726666921	-7.242341661713606e-12	0	0	13.03366494117591	-3.319648298132332	-0.7995120711677859	27.33423488375843	-7.242341661713606e-12	0	0
0.7432558844730551	4.28146161935601	1.33772554215612	1.422986443277491	-1.948094633788377	0.2205706091718879	1.189684378759764	6.593206081293314	-2.098555999898394	18.91142107500161	-2.420531011219877	-4.467464148590395e-13	4.839151766581811	-6.102823465052012	15.81700011261533	56.57350208969959	-3.697195912822119	-0.5685574811659	-1.677783145921707	-5.066094377298427	5.293734824343142e-13	-5.259332245303584	-11.90839010918421	6.041241790444642	-2.475042716160188	-5.914634682431593	-2.924385038666167	-4.808294744981147	-1.508877774692692	1.071122077057728	-2.537574264709308	-37.2318798576328	7.071440306715815e-12	0	0	20.32261147239626	-4.170591896181548	-3.729404801220173	30.69469862370297	7.071440306715815e-12	0	0
0.757631259413831	2.273448024839601	-3.669178381720609	0.6268039686250884	-1.612385373419398	-0.1492961501703689	1.132612697277526	0.588477405155472	-0.1505927129568582	4.398457020920439	-21.70955515630526	6.273092020949109e-13	-9.990665121579763	33.62228482073036	75.19936458940975	4.092272742211687	0.9859697974641244	-7.493566799920085	-6.072984600906284	-0.2203776381686282	4.60594071174631e-13	-0.2477072665354831	-13.31074611491169	12.32335049088007	4.402080975440231	-2.696641424094163	3.710616659699665	-1.756363514648792	-2.042539310976011	1.278447091575524	4.763618120072887	-26.32550263452029	-4.50494743038418e-12	0	0	17.74205364663183	-4.15077771185411	-1.20314762605862	5.154904518760924	-4.50494743038418e-12	0	0
0.7616000000000002	-0.3966618048583689	-3.256163392591839	0.659147102159501	-1.14387322857329	-0.308859529362421	1.359705251609713	-5.223795203651656	2.764319740266111	17.01691469288474	-51.22183337538104	3.863855226788782e-13	-14.00128393822829	59.37261645910787	60.26861335781659	1.122532049304301	4.952069617404011	-7.028654538352226	-5.327434821118889	5.720060609131585	2.049118602005577e-13	0.7666748772095733	8.775604185461891	11.33115720559192	4.078944705930276	1.160148625582502	2.130126358611149	-2.310605883198704	3.455036127707086	1.159875090851975	2.572257944112296	-24.79730084764231	-6.952204503713253e-12	0	0	6.020656924228165	-2.771664090011121	1.172280054427806	10.0611782584261	-6.952204503713253e-12	0	0
0.7711128561131142	2.346340744241972	-4.980761071503117	0.5744141398558883	-1.928547229604249	0.4189662124126438	1.695770510406791	0.8215906841909435	7.271377100575897	13.49431810685748	-48.10066125871173	-1.169333675758696e-13	-23.22852817119551	37.24066449318711	63.55623089149648	-17.23594156846656	3.412160965406795	-9.972828190674541	-7.690704014386666	4.987611460504084	2.942286625610748e-14	2.451060142263077	-3.985115366114581	19.49329355986274	3.809250566075955	-4.135483569325374	3.614272853932548	-1.275486350986445	-14.67028434242118	1.800976924639074	7.397491411446227	-48.27789250845456	1.159947865218116e-11	0	0	29.24993415292747	-5.802573205739194	-4.453783126838483	-0.8019476525331592	1.159947865218116e-11	0	0
0.7880558844730552	2.598735952662358	-5.563221880379777	0.5644759147294699	-1.679056331938707	0.6290103918518117	2.165666371020378	1.034586310912293	13.0831686223469	17.24257530028752	-51.9196229963396	-2.496828786552584e-13	-37.58100801941963	8.110911666992385	-50.67188778884273	-35.19697108333046	0.5714297261919059	-11.54680610045828	-10.809410326402	0.7495155445647947	-8.899389284258935e-13	2.869304506762493	-8.277974057028992	17.58192556067061	2.160227764637128	-4.369326391738445	2.801446045631434	-1.817873652225603	-6.578368414757886	1.701692406605845	5.152475500834334	-68.81262391760286	-2.628304680916751e-11	0	0	23.54259275013015	-6.859002833907963	-7.783922579040798	-9.156195006239926	-2.628304680916751e-11	0	0
0.802431259413831	0.7745389064656425	-4.618659605378109	-1.964075167039366	-1.37743889085795	0.4405591326608953	1.66163719997903	3.854391218544063	8.025600512407999	1.005858549688864	-48.67912157420294	3.186594981041345e-13	-47.03862858369238	-6.300433379085696	-0.7491088591299686	-34.28476913490521	0.7906578088709164	-9.143934674721761	-9.509554109158708	-2.424973338456287	1.447529653648916e-12	1.156643333749305	-15.46492671588646	10.09247142451757	9.627600797996157	-3.168759045298379	3.394768321449558	-0.5936954683258419	-1.590352979343308	0.3887842252187191	1.392229563864383	-34.80134598914562	3.544829330386569e-11	0	0	9.141880575029607	-2.376868810185723	-0.5992071673082787	-16.98619331156005	3.544829330386569e-11	0	0
0.8064000000000002	-0.8671611858921096	-4.106508230273809	-0.9770600104279923	-1.055730098691812	0.3054258159605413	1.721764675417844	0.2739930276348801	8.041146189253599	6.941731305034278	-59.10094557295534	6.349268552105703e-13	-49.17135697405568	17.05679684966586	-1.550297003357262	-21.286812059442	4.473061784778674	-8.518331897282131	-9.079147325593674	4.178498939992468	1.850257334037585e-12	0.4670413641936967	4.906760600221869	11.02256773023609	5.835841380156826	-0.4722083915829238	2.376056855316612	-1.188459665020047	2.481512658040636	0.7846925353483479	2.506044951250206	-32.88090225888749	3.264920452323097e-11	0	0	0.6528005670962427	-2.81457765516488	0.3777255381803779	-8.081268919711906	3.264920452323097e-11	0	0
0.8159128561131141	2.141665139079966	-4.151648666355479	-2.755243655337325	-1.425489672443645	0.635324464400723	1.841555637947538	2.069212483475363	8.274898070176315	1.645713748474477	-49.35537486672122	-2.090101902228097e-13	-53.45144968863151	20.69846983383421	-17.57699516606217	-41.40326206637407	0.1377174809889441	-8.905550820742581	-9.829884821620169	1.544572793612141	-1.159807034790656e-12	-1.384865678946014	3.323371123912107	17.76142922850989	7.41008983761628	-5.422682892788376	2.564292026681966	0.2296947490163471	0.4002155011922426	0.5401918067821569	4.21353628359803	-53.19936877056789	-1.946043207952733e-11	0	0	12.18406839777311	-3.721389636774186	-3.613908043477832	-17.37049729774617	-1.946043207952733e-11	0	0
0.8328558844730553	1.763243469675021	-4.257274750467011	-3.427403227281866	-1.083212865654621	0.5542003517848144	1.92937630308235	0.2507153350850277	8.948934926392464	2.016537296294133	-52.83034164880725	1.151339040126311e-13	-58.39270467639967	1.654925251703252	-6.82600609247049	-50.21668930265987	-3.026540016484311	-9.124439213722598	-11.59201957056355	-5.208374648239919	6.175667661497102e-13	-4.703486757235548	-5.55058135712715	11.19193033840787	5.165923820610331	-4.176862938404245	2.493237490090555	0.7664011088925732	19.74578473975306	0.3512755846868362	5.21681551430089	-74.35346936633422	8.45139206343682e-12	0	0	6.13917601206942	-4.690740449347075	-6.944643967634656	-19.1145525611638	8.45139206343682e-12	0	0
0.8472312594138312	-0.2064335784359819	-2.969533954715295	-3.478619380542564	-0.8901170535567546	0.1500795909160937	1.094705067986408	0.5684143636883237	2.112732567076251	-6.905880361312757	-51.85824176896571	-7.551136304954807e-14	-60.37001082427628	-7.508437519671723	-0.05200731149498239	-9.166449669520645	-1.393777061935153	-4.534245787342714	-5.404455594180261	-6.403240351170755	-2.343266892972955e-13	-6.821544724605752	-9.783133768116429	4.065540132191295	9.131322416338971	-2.49822617894081	3.153355483959375	1.311557622023002	17.71014785008744	-0.3348073731953169	4.515114500187193	-33.47848075164813	-3.477884561312707e-12	0	0	-2.475735944023824	-1.128573070069991	0.2553175041171998	-5.218950166563951	-3.477884561312707e-12	0	0
0.8512000000000002	-1.292984494658137	-3.152400838515686	-2.998676626680732	-0.6254428740765119	0.04754750188152079	1.281622616866227	-0.9265700411150211	4.325326470381468	-2.676767780442726	-54.20451878151652	-1.205591900797705e-13	-60.63755428960568	9.710056750671198	9.538496751752605	-17.92556163562043	1.474816104168746	-5.288858228766259	-6.30373404407506	-0.5366665096634163	-3.783711203958164e-13	-7.225411406159283	10.00890236391396	7.387143190887697	8.392166160727541	-0.3181535692798416	2.994799891458771	1.168160816494053	12.55593826390226	0.3193952905737199	7.443727826433124	-33.60139306091598	-6.991160075245254e-12	0	0	-2.306206432684772	-2.183025168602659	0.3631162982149272	-6.828674281344008	-6.991160075245254e-12	0	0
0.8607128561131143	0.8188134676920672	-2.811066674975086	-4.63871463212015	-0.9500621613465157	0.1028834520566627	1.158563819504069	-3.036998427039272	3.088730659314121	-4.966095828987496	-53.18203078619469	3.06648421015579e-13	-60.90042047087023	14.0469735856961	-5.833465018600032	-12.06766775998144	-1.810331637781512	-4.141247019099266	-4.80798231782128	-3.718777796895485	1.735042827351323e-13	-7.828772302164705	0.8371062177215194	7.355376065446773	6.477032242699819	-3.583855264148954	3.136086456351976	2.567643045191977	35.74840904476363	-0.3207159641594449	7.343187779424928	-50.39538244810358	1.132015190822184e-12	0	0	-2.740734533867834	-2.289664560435933	-4.024199778150562	4.024461611914373	1.132015190822184e-12	0	0
0.8776558844730553	-0.4910858647098549	-2.612266121916059	-4.853854279021311	-0.8089443665798354	-0.2480057761572436	1.103047696838703	-4.698502683600928	4.103282261554901	-2.899962422859195	-53.51664034336958	-3.801527606669524e-13	-60.44567014161713	3.281059000142541	-3.148881935889758	-7.447379876181683	-1.806512155821736	-3.227265056991446	-4.195200018964682	-6.961397979834926	-2.906333971000425e-13	-7.601532875950978	-4.69233128043911	-2.496783205595392	0.1118436298632597	-1.393970528024405	2.870053298930023	2.96895532530377	59.75912978213643	-0.848683382737965	4.502574139210707	-66.25185191127244	2.072639921582171e-12	0	0	-12.23527201310108	-2.386226496658863	-7.862372047978709	14.05377830610337	2.072639921582171e-12	0	0
0.8920312594138311	-2.107772195188767	-2.453700351707533	-2.491652117359809	-0.6896340155413609	-0.6641734897994027	0.4341884586619484	-5.974621221822285	1.224916202869732	-5.19639946013457	-51.77792236154286	1.069715796569612e-13	-59.56184862074476	-6.018978681206121	7.038381947402198	20.27886240505756	1.400675556682549	-0.07812498695770158	4.072328294383406	-5.615813655630133	3.815810279340048e-13	-6.237287339001938	-14.22914802407559	-10.3673060792634	-0.7736269824778086	0.1739635869160818	4.217624095764859	2.030293858854376	45.46703596883996	-0.7892607253366369	3.155259355536892	-21.82508312465599	-2.177435941779907e-12	0	0	-12.74017957391213	-0.1877358112502814	-1.380860725784318	19.26704733197327	-2.177435941779907e-12	0	0
0.8960000000000002	-1.906268685620377	-2.542563345247324	-2.62397221268293	-0.3561412163543441	-0.6415888238816483	0.7497036190671179	-8.506523176778465	3.707376509452601	-2.834327510396402	-52.00631808360605	4.342974016373531e-13	-59.27765745497258	15.62993108661746	10.60061243479462	-0.4515781405076269	1.760582304363684	-1.527523839350642	0.7820538225718365	-2.110683287197665	1.135516971486495e-12	-5.707943868240167	0.4000128597057788	-0.9777190121814385	5.401808286061334	0.8774068385278579	3.729158651587196	2.193003352927337	27.93169231790826	-0.132008655635154	7.164875638248271	-24.39132123504363	1.011004708456399e-11	0	0	-3.802878166909198	-1.351742833979769	-1.018511982500579	11.57667425970772	1.011004708456399e-11	0	0
0.9055128561131143	-2.345623741710155	-2.080456816929058	-2.025630301082156	2.245874594593683	-0.6495120737832603	0.4555087099545195	-16.53142508921923	2.741337647202344	-2.562900329116905	-57.03493974881806	4.595896637854691e-14	-58.54509965542859	20.02333461452391	-7.770716169599369	9.632701849269196	-4.681248409652579	-0.04566267582042621	3.460092052642981	-8.296023449235667	-7.29803600236623e-13	-4.236246346027327	5.937763646125429	0.3476231876764508	-2.965555324972851	5.781782416881005	3.538425848842903	2.025823455694447	-91.97777609642752	-1.455007477634741	-2.545043890494847	-31.08437500733352	-9.257529074269637e-12	0	0	10.57234612919358	0.006090148797068401	-6.233553632359456	32.14920160131527	-9.257529074269637e-12	0	0
0.9224558844730553	-4.871914543879659	-1.118395452667381	-0.7598668103022908	-0.9341007503863274	-1.493308352082593	0.3322101606100494	-7.069361381811765	3.115963099046408	1.273789351238322	-47.69355741872701	-2.041348758342239e-13	-56.99546212468611	0.5968350439031465	-4.079104355283659	10.51715798924514	10.40718293122335	0.9710903019315427	3.556494939298546	5.616881015496628	3.545324990818775e-13	-1.186491535486732	-9.755425135189412	-13.28008748502882	-10.23899368800077	1.742880477778343	2.24452870454696	1.199726864423786	62.22872146694434	-2.608339219281278	-14.03038876232369	-37.02880905143807	9.573433832560566e-12	0	0	-23.15955989668473	1.317075757836535	-9.99549978322743	43.80753171702086	9.573433832560566e-12	0	0
0.9368312594138312	-4.366325272519961	-0.5318155393542129	1.239565961282919	-0.318153462090031	-1.649643384949066	0.2210940088163475	-11.31740751377123	2.865855218511022	4.517425552782649	-46.92994158862668	1.592778468366461e-13	-55.1134557109274	-6.666447838922775	10.92906104583807	14.01862872601233	7.993104914863412	1.921892586217238	7.053493702618681	5.974932748722435	1.138770495337041e-13	1.464796384557463	10.95996310629034	-5.954258885979208	-4.600495126786593	2.300907272406458	1.992206318811762	-0.2572966652815296	27.64640096738194	-1.776165135850321	-12.3882473356365	2.941903670450786	-1.680151112779602e-11	0	0	-13.8520262340624	2.227266640209303	-1.587602026495901	23.65002619634015	-1.680151112779602e-11	0	0
0.9408000000000003	-2.836064122044154	-0.7641899378267653	0.3995154961485659	-0.1293108464403619	-1.599249247512504	0.494859992731413	-14.56568980260254	4.835830006403533	6.072534976551837	-46.24506108438973	8.998034767247183e-14	-54.42641715149498	11.83858287626994	12.12428822088598	4.579302636516582	5.335795064779673	0.8248985004044996	4.298734661763889	4.087281849339085	3.684357615419124e-13	2.161843431899843	-1.194535579153893	-1.625855076908646	0.9345857867061053	1.329482960913478	1.780525880219529	0.4065395118230818	19.98971535687084	-1.218866598598628	-8.293237338499488	-7.097733512921592	1.86869848291585e-11	0	0	-3.102680996355169	0.9410533942770996	-1.35818934145993	22.70361515315353	1.86869848291585e-11	0	0
0.9503128561131143	-5.433539136000451	1.992190225664257	3.00736070497595	-0.2556998570367172	-1.895728461624618	0.1589680301973798	-12.87768663076302	0.6664679149133884	6.541429764574074	-46.41811310015692	3.211505123411045e-13	-52.34342262088639	13.94361523223561	-6.632813599821546	0.1028256141707842	10.22147571574461	4.308100447109965	8.541749355406949	4.766345883588883	2.409574428085186e-13	3.72545489023174	-13.85068542107754	-16.32860710234957	-5.622566886840888	3.261316643711792	-1.261643278643988	-1.65820303682308	21.17164567745975	-3.006613976720866	-25.05170645903795	5.84917091098474	1.359648236217636e-11	0	0	-14.78937621818947	3.907715625302694	-5.315785200756913	30.9900197231339	1.359648236217636e-11	0	0
0.9672558844730554	-5.913207551271359	4.351511849203201	4.976126970334541	0.3197568330447046	-2.123085839692426	0.1191203358633874	-14.44420241296427	-1.912264902727542	9.214710797090985	-44.23282491610195	-1.248335060867051e-13	-46.48872320693837	-24.34210579806032	6.592340656381491	-5.43476348421312	10.87290452558392	6.309869850204725	9.600929114625142	10.4442969892744	3.961953010480022e-15	6.036710783564807	15.62414959888182	-3.994227831479826	-9.522683997661723	4.786210591614143	-4.455701118014542	-3.526325718528842	-2.882249851000008	-4.475663557796733	-38.26138584789773	14.66252472884745	1.624266257271259e-12	0	0	-16.12427310739374	6.330750209325227	-7.298528274822504	34.2110249296642	1.624266257271259e-12	0	0
0.9816312594138312	-4.140920812155494	2.275043097047992	3.718988944537606	0.4487015036290425	-2.126094399325976	0.7246508437071336	-17.49641643674533	2.38672183225869	13.6797422515618	-41.56000497794412	-3.69747387413506e-13	-38.55953785893638	-14.14694780352658	23.20531273653408	-2.014131217663098	8.67996059979464	2.402587373540084	6.68145262617465	5.223129149828633	-6.736937404417915e-13	7.511530049105834	-20.19706934035759	-14.14238098815111	2.678268610014114	3.383344963044839	-2.812248290803834	-3.052778158767879	-6.525341302524168	-2.44778862196923	-19.02191581084681	35.38275549725823	-2.244565227033267e-11	0	0	-8.653527290209231	4.697581384067907	3.029225121973651	5.754059646830307	-2.244565227033267e-11	0	0
0.9856000000000004	-2.516485303499113	1.643138912577525	3.384691381392625	0.3092580691015081	-2.134212424203176	0.8062852350876258	-18.36694874698963	3.461262456601991	13.8225751517424	-32.84466690109481	2.780335194039296e-13	-35.80181171923637	-6.059179476096752	18.13202495640073	-4.11963212701396	6.772393622692357	1.953306445022009	7.13634507533219	9.699959949504501	-1.464775670948553e-13	7.852358145106378	14.55744330132766	1.160871182902763	3.044908068373192	2.257517466975159	-2.447605517466232	-2.373892950725516	7.1606429963254	-2.380320509724687	-21.96934101152044	20.67188816400155	1.566558005049623e-12	0	0	-0.291323773187302	3.679579388651377	1.967375113455422	16.92089199465855	1.566558005049623e-12	0	0
0.9951128561131144	-4.116813783559447	4.714505792753712	5.909923616858858	0.8680200635987855	-2.26688243422359	0.6730265765550381	-17.40480558633574	-1.911233463382809	12.86365168299528	-28.09418499188038	1.420021659332645e-13	-28.13845931608096	2.886139390301041	1.829703079505899	-15.11995261834998	9.913279509648186	5.031629429241379	11.29819392930702	11.85642809975902	-1.39089032607952e-14	8.579492095078209	8.365838796078311	-13.30293196715921	1.89571111358661	5.210482579163528	-6.028413319343811	-4.770018838629379	-15.11718330324139	-3.48634554362727	-26.04240911413381	49.98136731446227	6.880554626064455e-12	0	0	-5.729309492024596	6.807016825511074	-0.1128015456478687	6.412167937265943	6.880554626064455e-12	0	0
1.012055884473055	-2.144910285527659	6.2931449418239	7.438422599794373	1.543176744228891	-2.209098765441667	0.752058581952584	-14.82389260228806	-5.554065585203313	9.706822250358062	-0.3027250834314481	5.683886536597782e-15	-10.9534443988456	-15.34255529563269	-1.65412387461156	-20.23460271588103	8.925701972654418	5.854101541089194	10.87842253702882	16.73358748454041	5.53362309813217e-13	9.681114535209975	12.89074713111586	-2.655011314310446	0.0006378348214014506	5.87155956212152	-8.54256013137492	-6.34594417703021	-26.47006557786796	-4.459121269372278	-25.82156713954458	69.54644970498248	3.295027560733159e-12	0	0	-4.354690288341463	9.145782524614475	-0.7461480559889502	-0.7324298125432038	3.295027560733159e-12	0	0
1.026431259413831	0.1735824902561704	-0.4108919781876932	3.974778935907887	1.663556504059551	-1.914544842647229	1.714598479468765	-10.74095100562519	3.938921896652446	5.483142118665904	28.0940035944307	-1.170986683254018e-13	6.366354786696422	-14.25609939552006	7.792346512859241	-2.016552364279711	6.772436477492511	-3.794937112936684	1.042946795299882	17.71137663155232	-4.212665034736004e-13	10.5616452579805	11.72145066905939	0.4515905101659605	6.903670366801995	5.272105099668464	-2.774922467172767	-3.323948346049858	-8.183870778011016	-1.939166386286078	4.753854482995153	60.29927443412818	-3.16366204828193e-12	0	0	0.4358821507488024	5.032304455235187	6.561638592371882	-11.27042751301943	-3.16366204828193e-12	0	0
1.0304	0.5480027343331539	1.140372925062868	3.984215764254582	1.276669049316577	-1.836252388989144	1.589698547821294	-7.945699171484224	1.581795724526509	2.485366273075291	39.24977134728726	-2.285925941939872e-13	11.3937289013535	-5.133484596554817	11.24264605807474	-8.463119825311258	5.914439253621486	-1.170794361740883	4.215918349320501	15.28554007931095	-2.16795624390223e-13	10.81260920749907	7.911899713967145	-7.342611683630018	7.262220200316668	4.69988926718843	-4.661429757859969	-3.432021750372243	12.5656635542797	-2.490805838218334	-11.16842816368566	50.75325276072581	-3.931247016036584e-13	0	0	4.384194684187722	4.768156878244195	4.903484070293692	3.35267594102478	-3.931247016036584e-13	0	0
1.039912856113114	-0.2809415088004805	0.3062777704654798	5.199849592762477	2.080498178257538	-1.836216866978683	1.671267726363875	-4.964125368379904	1.563107309519405	-12.82174043929734	54.33312494674941	1.619605411586592e-13	23.52928799417548	20.59691506092043	-5.844880552310977	-11.54530697267212	7.575966919732757	-2.762159023724234	4.458864224709966	19.94197661512925	-3.213392249990732e-13	11.43288067100439	17.05077961520514	-0.3348031100798359	4.151000283730045	7.733430279894929	-4.156650162682083	-4.11102914806644	-17.53954093433693	-2.517247494210013	9.0691581033822	76.06126320989452	1.589461182092742e-12	0	0	4.371746401953317	6.615704965474426	3.753156313335438	-12.05841026401664	1.589461182092742e-12	0	0
1.056855884473055	-0.157666820836547	-0.1769181505711215	5.96063199518567	2.494769937702485	-1.459957251783791	1.647938380409447	0.1638811611418935	1.747279207339886	-30.42030557304697	77.51430960165374	-3.429267783296131e-14	43.83169250844924	-1.999793519595535	-8.387947742706341	-11.50469403739326	5.511268185777176	-3.825650631165376	0.8733812404256419	17.50655078313353	2.964059487374988e-13	12.66645563863462	14.59922585733973	8.320650719332741	-1.572623031569883	9.556869551445342	-3.927268368519673	-4.578020125586928	-23.42232348756438	-2.933652185734613	22.39707890453854	92.1715234892809	-1.851099585379789e-12	0	0	6.716733685313629	8.202787679120405	2.447815060222585	-19.3694704181979	-1.851099585379789e-12	0	0
1.071231259413831	0.4516310338414424	-5.843482787447764	1.25555103880806	2.343316341805254	-0.9678963455331111	2.238038430764933	0.5510162285439693	12.55764491341957	-34.51778822494614	80.27963884975576	-9.805706011061079e-14	57.78126625510957	-9.984866024319654	-7.448682710659039	9.510828156238055	4.285293821856371	-10.49769239048769	-4.545554891015681	15.06490529859001	8.019514225349748e-14	13.82621554401295	5.513680878477594	3.914660655957306	-1.623613564012568	8.64032481555177	1.652405691400057	-0.9009227088956886	-3.374264063081625	-0.8870939346472293	33.10482144038556	59.47440927621873	2.614342362174125e-12	0	0	7.133381172639088	3.199360677090451	5.680434444721362	-7.543972419343602	2.614342362174125e-12	0	0
1.075200000000001	0.7247271291308277	-2.018430051434126	2.88092839816223	1.753614528685894	-0.6321732730230842	1.867822151019318	-1.549041251326585	7.69671191535153	-23.59937035410558	70.35584135198641	-2.840603521274664e-13	60.84054025751689	5.971276881312745	-2.86070447920141	-3.814187069322332	5.405006721670855	-5.695800711786894	-1.40242909382512	13.06271795788602	-3.079337111927986e-13	14.18844767670661	-15.06002995022268	12.28730102383188	1.897367051287924	6.614412872125333	-2.007644612494652	-2.401722460864502	13.81913182186485	-1.75231519118282	13.4828638352778	58.27806974801884	-1.165027006934696e-11	0	0	8.700829974380667	3.945899284588975	5.627324309565923	-0.8525966981062716	-1.165027006934696e-11	0	0
1.084712856113115	-2.539759288976185	-5.614087478287305	3.847541226460423	2.958360517363116	-1.129326850054328	1.849359323187344	0.9933417945365264	10.88187514475055	-36.35826488667013	79.01479257243518	3.114256189082929e-13	66.68855925234526	30.9635975159474	-6.83165838992838	-2.059029695712153	7.598898458103404	-9.960675927216	-1.133797489684349	19.15242351057357	4.472257503619806e-13	15.05924343837878	25.9286500908048	1.656031749016847	-8.935179855084135	13.68437709449522	2.042923546991407	-1.506808404574059	-23.41243456447602	-1.500830888869777	37.74140178712453	65.97000545830099	9.989628357743812e-12	0	0	10.16991497838281	4.829915263520915	2.654739638736527	-6.620942797952233	9.989628357743812e-12	0	0
1.101655884473056	-2.696573411898484	-6.606181834966041	4.554165764844742	3.795399733019388	-0.9033163840577687	1.637004311732694	-4.840104539665189	10.81925133247884	-35.20963958142514	63.52682440219935	-3.037459438726635e-13	71.09970146545999	0.8849397860438888	-23.00732205455782	3.747901807395993	3.716661136656953	-11.52557276413788	-5.64213701706044	8.711479270201741	-6.028853059565532e-13	17.10454241809313	-11.11090529508103	20.79639517180822	-11.95807233644839	15.41691274740801	3.883783149681368	-1.399284265638176	-42.48054014667288	-1.644001821380252	47.24994935834851	64.24202681152464	-1.354243595278903e-11	0	0	5.105763488830879	6.12895276148333	0.8167284860356427	-14.08625710226785	-1.354243595278903e-11	0	0
1.116031259413831	1.166445016204124	-6.118502610483638	1.056166991119637	3.857472168007988	-0.6738405370810647	1.622775057601479	-11.40501090521357	12.68791688928291	6.525699193150203	45.43210633535833	-8.913082522318603e-14	70.33057243206277	40.20933144934089	2.948607739651486	23.25467832004639	-1.868831155684084	-10.7532322065538	-7.582994220527302	14.78745501151102	-2.461791670450626e-13	18.71115601786182	59.64262489367865	-8.970629299096146	9.340509699249955	10.56087135353857	4.648628146653166	-0.218003282416028	-22.77484364804435	-0.09372623158174714	24.87793791971373	21.91653448340103	2.683886612460363e-13	0	0	4.225185525210356	2.348862188938851	4.209939333854872	-4.263826511515499	2.683886612460363e-13	0	0
1.12	2.681813377495728	-6.125977134323327	0.9187953312353239	3.85152153445699	-0.6046527749068495	1.625429205453885	-13.46333176809793	12.79418581752813	7.955345096030321	39.68696369165341	-7.209290671705186e-14	70.28526163967288	60.62202198583532	15.77805107750293	23.99045716618765	-3.746402219177247	-10.7525890865869	-7.627532292641809	18.95573008970235	-2.186308677190238e-13	18.75665629985756	93.37954599301918	-23.78704610084623	10.08602597489259	8.387144479106627	4.69708456718389	-0.1642885988352623	-11.84638522873979	-0.03015934442297481	24.16990973099763	20.40229448309075	1.14901271497912e-12	0	0	4.323955515920618	2.198774529465	4.336482472306608	-3.88993440351095	1.14901271497912e-12	0	0
