DataType=double
version=3
OpenSimVersion=4.5
endheader
time	pelvis_tilt	pelvis_list	pelvis_rotation	pelvis_tx	pelvis_ty	pelvis_tz	hip_flexion_r	hip_adduction_r	hip_rotation_r	knee_angle_r	knee_adduction_r	knee_angle_r_beta	ankle_angle_r	subtalar_angle_r	mtp_angle_r	hip_flexion_l	hip_adduction_l	hip_rotation_l	knee_angle_l	knee_adduction_l	knee_angle_l_beta	ankle_angle_l	subtalar_angle_l	mtp_angle_l	lumbar_extension	lumbar_bending	lumbar_rotation	arm_flex_r	arm_add_r	arm_rot_r	elbow_flex_r	pro_sup_r	wrist_flex_r	wrist_dev_r	arm_flex_l	arm_add_l	arm_rot_l	elbow_flex_l	pro_sup_l	wrist_flex_l	wrist_dev_l
0	-0.3560898913446082	-0.1467847770927911	0.2361944140736198	0.1833257803337921	-0.2239108134242335	0.1869449288747941	0.05596332689813573	0.4102739935336476	-1.264189230821716	-0.03876233123022253	-4.066623667251007e-16	-1.742563521828008	0.007144378753721647	-0.3593298433011775	-0.4469846940555099	-0.4734500111860872	-0.5003651823872245	-0.04346077868674907	0.6979348295365631	3.810308149280355e-15	0.3222893037747587	1.143445846167625	0.6214945774114029	-0.2144075814309379	0.7018430658566011	-0.1630788803979084	-0.4712331693187111	-2.139426565943987	-0.04245529445363198	0.4432249311655473	0.9028644286710013	-4.973519903545247e-14	0	0	2.151349368888538	0.1960513197012656	-0.3787116330761497	3.315487722660792	-4.973519903545247e-14	0	0
0.009512856113114032	-0.3312192028662219	-0.2006133446924573	0.2672609234700427	0.2131348302837519	-0.2235978360201463	0.1994641925631051	-0.01431062627904746	0.5098302465927741	-1.194678927876907	0.4046054525451219	1.752680930012193e-15	-1.033779642161637	0.03622771982261397	-0.4234119348707315	-0.3890298109319035	-0.4221757773134691	-0.5918507425236729	-0.05758236837626721	0.8888060850653422	2.719172260944688e-15	0.6228994918354087	1.029870974189998	0.5273386488781633	-0.2220588526511685	0.7478385675404122	-0.1093767421636526	-0.4862463155594958	-2.242703698860024	-0.03799210268465864	0.7032447052767815	0.9697365198242297	2.986789989841251e-14	0	0	1.954426002694078	0.2277511117713015	-0.3794411768824823	3.190495829367085	2.986789989841251e-14	0	0
0.02645588447305514	-0.2605247661254292	-0.2938058830413974	0.3323511862999553	0.2727546945096638	-0.2184092808505003	0.2157732009512083	-0.1983393344443335	0.6595893868432099	-0.9565611401313489	1.049105813852526	-7.816198643110825e-16	0.1419461760653826	0.03557990398056635	-0.5503813800630832	-0.331860331067324	-0.3698869419066644	-0.7407331295104657	0.04075226576622884	1.233264109067303	9.328199163394646e-16	1.228876852872951	0.9302580681576413	0.3502285695467264	-0.3495020690217586	0.7990298664102531	0.01388081053204352	-0.5175017057188346	-2.587761368675024	-0.02692866097559576	1.237765405175073	0.8849463593775926	-5.985126716386151e-15	0	0	1.331482584323946	0.3056796049009087	-0.4259677078527392	2.807188853832432	-5.985126716386151e-15	0	0
0.04083125941383081	-0.1431663820532127	-0.3450080853440111	0.3735223066327352	0.3085180368622609	-0.2035628265838066	0.2239586768998836	-0.4383446796708407	0.7345035883829212	-0.06925028252866569	1.331304753501645	2.074003161698089e-15	0.9645412816101985	-0.7144609723664528	-0.2209197907439705	-0.2374050597482709	-0.3244567183773905	-0.8115988186467884	0.1772776953973036	1.578970221692929	2.279202188640683e-15	1.842487625955602	0.721494080312687	-0.07477301058330371	-0.2746496495600458	0.7367744594873598	0.1098045056780002	-0.5493201662968362	-2.448354810558495	-0.02296818156400693	1.23809262243197	0.4445793806585027	1.745048119133162e-13	0	0	0.8304834355715494	0.3622815893009862	-0.4253022687661807	2.625132206364969	1.745048119133162e-13	0	0
0.04479999999999995	-0.1254094533324656	-0.3610704262869249	0.3909099313752135	0.3168180489232548	-0.2012778316124006	0.2264037883581235	-0.5184238371303127	0.7445671541749042	0.1226723091466703	1.284535160563789	2.213083382791467e-15	1.155928025329121	-0.6477728687308324	-0.2097473337171956	-0.2655993016411254	-0.2908849953968745	-0.8336975254241681	0.2205741339711757	1.680002665480725	3.240908369353836e-15	2.025377118995442	0.6704832305195595	-0.1800941082812966	-0.2613017398051628	0.7315307090353289	0.1315534869329419	-0.5570132725768305	-2.417520863972588	-0.0253037866708789	1.229677857142478	0.3834989887644816	1.58521344024568e-13	0	0	0.762608420715142	0.3732375233342586	-0.4139453004585816	2.617585392983972	1.58521344024568e-13	0	0
0.05431285611311398	-0.1077649296394854	-0.409686468119395	0.396435227294045	0.3288893807139724	-0.1926129286819593	0.2372223062177921	-0.6730999943548009	0.7946226530477445	0.2858400666558391	1.09598554642426	-1.938396717067538e-15	1.541091239998905	0.1149623642161913	-0.5135962583424803	-0.4027015485334209	-0.152430834425789	-0.8975450343168644	0.3000400406568315	1.978391273570812	-1.34785711603414e-15	2.486568306150561	0.5870304656431977	-0.4003190255101793	-0.3668215282351325	0.7287632787598173	0.1848701662623305	-0.5777197915875888	-2.164221135439715	-0.02502756094344992	1.243025040493162	0.3310069005799352	-1.030956187129701e-13	0	0	0.5693803186104317	0.4056239096426827	-0.4054221991599285	2.526283359417119	-1.030956187129701e-13	0	0
0.07125588447305514	-0.0412840568855284	-0.5087728731251157	0.2136985786276661	0.3074388572665244	-0.1431201648781315	0.2721227080205073	-0.6744807961051988	1.023438176296677	0.2370329339181002	1.281121605703128	9.784772224709764e-16	1.948671996261044	1.070672345738177	-1.581722538952261	-0.61319633359028	0.2238772898859378	-1.002681123466175	0.3183561843166999	2.735602551841307	-3.91253676330335e-15	3.363794173169425	0.2649165828323483	-1.082397033101185	-0.782688610592896	0.5972303845900732	0.2959994242276449	-0.6249726554953156	-0.5192475104256808	0.01573109809748402	0.9643690736376915	-0.06430256365357682	-8.552090385235269e-14	0	0	-0.1364542155015347	0.4876605363197525	-0.4699768552925881	2.054362213483844	-8.552090385235269e-14	0	0
0.08563125941383082	-0.09249649935855787	-0.6590967027921778	0.04769834501080045	0.2551074482408541	-0.09043350618089362	0.3057581413198697	-0.3024726929217768	1.274430033493906	0.2406148966049961	1.691940284440223	5.876691599291441e-16	2.001607842733069	1.732122254710786	-1.05757015713553	-0.09942396723323282	0.8069084540726885	-1.200919026969113	0.1021224583860525	3.597134792824082	6.843599670378239e-15	4.12931604876136	-0.1059032415648311	-1.330834245879069	-1.077896032135837	0.5483302679363402	0.4315165131558588	-0.6290907899571436	0.9156421723899332	0.05517211583022159	0.7173724595835496	-0.1570636756012123	9.256696751172064e-14	0	0	-0.4389127200509861	0.5248111491068655	-0.4842769208204435	1.730899056646868	9.256696751172064e-14	0	0
0.08960000000000001	-0.09877340670489387	-0.6860176689861381	0.02965885459518589	0.2466700644561942	-0.07590089013741148	0.3111206498285691	-0.244784180195022	1.321517911377055	0.2569018811868219	1.772025912422037	-1.558768621203744e-15	1.970784332042585	1.916343719002851	-1.00082008223965	-0.08356239592198686	0.9434853316522467	-1.239736335677948	0.07881987979210509	3.804187492435438	2.963100571731507e-15	4.337333203573983	-0.2460959802731905	-1.425389525776811	-1.075695713075665	0.5406957701102717	0.4552137241999679	-0.6198270690062475	1.077351392341927	0.06035485663246036	0.6816621858299647	-0.2220205140238454	6.290495335975417e-14	0	0	-0.533781315117926	0.5276759410077763	-0.4871053502842349	1.675938127621569	6.290495335975417e-14	0	0
0.0991128561131141	-0.08738797504422051	-0.7194858363903506	0.02396236328659262	0.2424119073403027	-0.04250042743988493	0.3164908823459109	-0.2995797222693543	1.383109888419217	0.2337452548767984	1.719644030006865	-2.358378158621332e-15	1.824990924267385	2.100111973317162	-1.3112126741708	-0.2889676247683203	1.19492382782475	-1.291296370419351	0.1198319763024733	4.219485825282002	-3.343622295078738e-15	4.81889366726488	-0.6306843734849737	-1.751260755054348	-1.002976039717778	0.5315749984063851	0.4874045209371556	-0.5820568888453368	1.172164053203439	0.05728253491057217	0.6001654007515305	-0.4764949996186136	-2.419406363265869e-14	0	0	-0.8446640905096383	0.5391017875352199	-0.5102109496305538	1.536499624512012	-2.419406363265869e-14	0	0
0.1160558844730551	-0.1032939261377717	-0.7979408555807104	-0.002859004129401546	0.2326421493166387	0.01348077351947062	0.318440570803884	-0.6462542521744787	1.461245183193145	0.2245288380859939	0.9093799645958195	2.964722778833367e-15	1.365513558189463	1.430150583963849	-1.194827161304497	-0.2190188750503602	1.691408030930729	-1.383992580590638	0.1941678067960601	4.945013769909731	4.283528801824618e-15	5.56858224892437	-1.419565618118225	-2.279267183040978	-0.8520444194357907	0.5754732323814553	0.5754011531307691	-0.4766080931236095	1.634201965439388	0.0295890318142035	0.2155952504172239	-0.8686122160614962	7.501817977666766e-14	0	0	-1.291987688950323	0.5803196619788683	-0.5662264211135086	1.212033036753502	7.501817977666766e-14	0	0
0.1304312594138309	-0.05397756729777993	-0.8164028654548354	0.04816789140881044	0.2338562427644098	0.05139932791011115	0.3017078940278362	-1.167971167987591	1.381923312822569	0.07175434975032204	-0.001505194908537778	-1.972552936060206e-15	0.8616771764597502	0.6269412302086768	-1.151930192514289	-0.3253089706181771	1.979218937193162	-1.404275395954464	0.302244422191203	5.429028978594296	-4.930826378832765e-15	6.031074541913939	-1.886409453725757	-2.584777297044256	-0.3253453553644976	0.546525935041678	0.6302137981341434	-0.3590225423688497	1.47089547342312	-0.02338365250604062	0.1014482515243152	-0.8597368007966313	-8.733439551258132e-14	0	0	-1.593561160262821	0.5988266536181925	-0.5348631934922053	0.8426178510341082	-8.733439551258132e-14	0	0
0.1344	-0.05149584911139614	-0.8303424189182897	0.05384461077378746	0.2280049721349287	0.05981165671722222	0.2972251327209217	-1.23951852777817	1.375255009457894	0.04513729835037144	-0.1492084725125424	-2.403351908345471e-15	0.7172594011429451	0.5758788878423056	-1.096601735769668	-0.3415525572421022	2.072437185936082	-1.41280962306379	0.3347696011832357	5.54191803635094	-5.024615292181263e-15	6.122383278138614	-2.032461590662649	-2.705416051579348	-0.1682191694535752	0.5373919910193857	0.6570264059649094	-0.3337267893096967	1.497205986475558	-0.02736016804815389	0.1171080155065619	-0.8211038237677923	-1.031648070536821e-13	0	0	-1.661133472391665	0.5992525351481957	-0.5268372870943436	0.7543419874368772	-1.031648070536821e-13	0	0
0.1439128561131141	-0.04974277043681954	-0.8784298659265903	0.05510573065945799	0.2057535913378385	0.07731184807700767	0.286126869407031	-1.315059972281485	1.398630091305739	0.02882247575168503	-0.3501398341083572	1.105232482637307e-16	0.3788130007048182	0.7082212674773158	-0.9988842517059181	-0.4586215821340081	2.298953794973534	-1.429832089365279	0.4635635765209449	5.778876823385036	2.881461906010447e-15	6.268107380149067	-2.264291718299583	-3.029716530423825	0.2057704393975895	0.5058887575640975	0.7424077817703588	-0.2837380537230522	1.668580832434589	-0.03423883434860123	0.19484853710037	-0.6804050448088863	3.660486097191635e-14	0	0	-1.817326457227856	0.6087916630167917	-0.5098900715487148	0.4640040614290529	3.660486097191635e-14	0	0
0.1608558844730551	0.0410020850068436	-0.9584254403207476	0.114220061217257	0.1592276171984624	0.1032384425830234	0.2552524267019524	-1.529365986340367	1.410206157169687	-0.01427850814140223	-0.6913639635615085	1.449391196129152e-15	-0.1455568789549272	0.6097348870100188	-0.8904750664965915	-0.8524007701802083	2.721122212326315	-1.452496767771273	0.8689949281390834	6.446923186574416	-2.195088373526653e-15	6.251673282597604	-3.011641441021999	-3.42042345761084	1.713260507350263	0.3224059217691863	0.9079546765785822	-0.1611531134017065	1.597332955236821	-0.1243659266315185	0.4194466332781912	-0.004599706908515258	-9.352570536702537e-14	0	0	-2.025411724649463	0.6619927050079345	-0.3859285204614874	-0.5397331657741269	-9.352570536702537e-14	0	0
0.1752312594138309	0.109987431532471	-0.9428932296021406	0.1046426231074402	0.1232649365926787	0.1105076299401912	0.2355506030479507	-1.64494278402089	1.365724695353647	0.0007623336529454719	-0.9126689520880514	-6.755151453416473e-16	-0.4677510222529171	0.4201053770954441	-0.8081048772758377	-0.887746075127229	2.610342352359196	-1.460337569680723	0.6701025486516582	5.955433951014069	-3.828947416131336e-15	5.955511711823344	0.7664546642489701	-2.070047280954166	0.4253636387774082	0.1926287956975275	0.9213381887247735	-0.118215048309723	1.809562181684667	-0.2209325107115195	0.564816654935133	0.8896991060327186	-2.232143989955005e-15	0	0	-2.093751744039079	0.7202071068454647	-0.1956977675930581	-1.396627815267526	-2.232143989955005e-15	0	0
0.1792	0.1144742348159891	-0.9375164422734457	0.1140143055647955	0.114930507079234	0.1106252732797317	0.2293645304130588	-1.652411160377875	1.343797587288445	-0.01041227736790195	-0.9463129625207956	-1.70783008278294e-15	-0.5344569257685367	0.385197186381537	-0.7702017131905864	-0.8844068010814431	2.565671940110246	-1.467379746437319	0.6045717816234115	5.731303061527198	-2.56768631745327e-15	5.830558176661789	0.8569652456224552	-1.815593974630236	0.5625557543187498	0.1742573588320226	0.9221388028909415	-0.1107531220284035	1.816556852762352	-0.2382652628746404	0.6013162936108686	1.037509876158468	8.268838345397386e-15	0	0	-2.113598925410652	0.7303255738302319	-0.152294357684573	-1.550523384136966	8.268838345397386e-15	0	0
0.1887128561131141	0.1161655313410896	-0.9168578427110143	0.1616671909719961	0.09165651756820069	0.1134112038282725	0.2112512675902781	-1.639174488211707	1.271301297839024	-0.05483607952204823	-0.9713353215173757	-1.036365299469831e-15	-0.6565816742206276	0.3673487575459472	-0.6533004549309551	-0.9136375692515755	2.556273442278163	-1.444641088337898	0.5994815586371018	5.199478848226738	-1.20503983937179e-15	5.462332339190416	-0.9941385843825402	-1.555239040533818	2.009632056894401	0.1267838236428821	0.9214319399101978	-0.08964094277002316	1.751371494195981	-0.2832412941379903	0.6938626724893527	1.304290929002796	4.571206551110974e-15	0	0	-2.146115776647796	0.7559946414882844	-0.06409740860702713	-1.911394047318716	4.571206551110974e-15	0	0
0.2056558844730552	0.1712022367875388	-0.7479071705119261	0.2438448683394763	0.04409375663160368	0.1254403932138236	0.1741157551017843	-1.657058539520914	1.009860696094923	-0.1116681229653455	-1.014374293574844	-8.990371328455645e-16	-0.7607609023756499	0.2069454573300482	-0.4837139421776414	-0.8220333327216061	2.433167367152285	-1.173620508871508	0.6003827037792233	3.758322725252122	2.788732350583458e-15	4.60566116203066	-1.046096557269955	-0.2915475655747531	3.116789473996938	-0.03763648358102015	0.7727906911750358	-0.08219224831853431	1.727439194889711	-0.4618781630596838	0.829314095998721	2.358552492206627	-1.937776164790238e-14	0	0	-1.989622533160924	0.8538297269119568	0.1952234467742154	-2.991711282725285	-1.937776164790238e-14	0	0
0.2200312594138309	0.1853695444000089	-0.5812288552781757	0.3277437904253565	0.002357329733319282	0.1305807024509289	0.1441407496640102	-1.602470336616646	0.7702617887247548	-0.1693531087297119	-0.9690495948334472	-3.057305887502657e-15	-0.770281615335686	0.06394428989861906	-0.3940025868179889	-0.5133278960589274	2.485898816692061	-0.8765966663767838	0.5931125797969213	2.97810173572496	-6.204833051481167e-16	3.738255063665774	-0.5339131745785328	-0.7449971875115473	2.845059040075789	-0.1528115543879926	0.6123234121092097	-0.06633782715060572	1.655339964471655	-0.5531283415662582	0.8630001910386238	2.725634169641316	3.371918084391109e-14	0	0	-1.932757217916622	0.8859673516204769	0.3237642603005153	-3.664612049678409	3.371918084391109e-14	0	0
0.224	0.1854874502022777	-0.5559267582564782	0.3440367728989117	-0.007305192532458956	0.1316397244446693	0.1371526926186294	-1.582782034662048	0.7324285871127346	-0.1768880117495926	-0.9545669717415489	-1.951909078924837e-15	-0.765564793939325	0.05106631346839262	-0.3783697882017626	-0.4575887494375385	2.487554754775396	-0.8273662786539486	0.5715262580930124	2.728304642094938	-5.081031867719174e-16	3.484897850036002	-0.3207670434750326	-0.7333185624093173	2.766593400785739	-0.1766131675563	0.5922874820879909	-0.0606762604164939	1.655215312180738	-0.5670416736809329	0.8856568130079576	2.78935439520372	4.87837616396241e-14	0	0	-1.941560334242682	0.8894968261144509	0.3517370401928463	-3.795924594591522	4.87837616396241e-14	0	0
0.2335128561131141	0.1957886350199351	-0.4965477668982163	0.3908081538956606	-0.0298857516044898	0.1351300695328974	0.1196292416567269	-1.549811738404708	0.6425873281433145	-0.1949653918564968	-0.9218524248049166	5.387261507429058e-16	-0.7484478386470659	0.0558994182656924	-0.3424382026618036	-0.3862795970462273	2.470853873217283	-0.7099270579819328	0.5366551414943221	2.094437480861949	-1.199676626609512e-16	2.86458220118034	-0.1529930589869564	-0.5664636168685073	2.789484979073694	-0.2459023309001318	0.5481673816156107	-0.0561901793868321	1.658711221993391	-0.6086277059314773	0.9347836408018712	2.95870466026124	-3.344924217826251e-14	0	0	-1.9309260736951	0.9058030699165562	0.4256837500693009	-4.143601746805433	-3.344924217826251e-14	0	0
0.2504558844730551	0.2439243032516012	-0.2310067387673471	0.5276765698098972	-0.07524256490377344	0.1398708762052336	0.0841712547080202	-1.530216625376951	0.2995362042124157	-0.2563128152371066	-0.837126339206251	2.27397800209774e-15	-0.7203827793781804	0.01015956842170017	-0.2491918257266335	-0.03502291535268767	2.45170130461899	-0.2570979620763845	0.4807134957278775	1.170642409177181	-1.665425112966383e-15	1.749947643165755	0.5987833528235684	-1.069604063136619	1.378914378981059	-0.4243331520426974	0.2723206207404729	-0.09639310857620045	1.643979053722274	-0.7256430328973613	0.8154206119888096	3.151276247256334	4.824057496013157e-14	0	0	-1.684954507432688	0.9487799366889142	0.5616868046506377	-4.953647300023635	4.824057496013157e-14	0	0
0.2648312594138309	0.2575139020496383	-0.09808332514085215	0.6045986647320883	-0.1028702805072341	0.1418014670251702	0.06635685377892532	-1.524490692448101	0.147488805325815	-0.2540313440369362	-0.8531448228606192	-1.583702626756777e-15	-0.7221419974982874	-0.03846693306758912	-0.3349824860159601	0.1958676749879183	2.387970106452194	-0.06896763181746311	0.3257307944185477	0.3133282666474949	-2.847951250592453e-15	0.8282096900375213	0.1896581405751057	-0.5538626011603499	0.6297338807547459	-0.5152543631465061	0.1241297990258928	-0.1234123264570545	1.657947563139667	-0.77327529774496	0.6475720295347673	3.135551712750611	-6.373983754353688e-14	0	0	-1.530351576427946	0.949849002328041	0.617228118952057	-5.37618581851199	-6.373983754353688e-14	0	0
0.2688	0.2568582267066518	-0.07875837618832869	0.6179282996549195	-0.1092471938741103	0.1410522134478754	0.06230077368983462	-1.517813554682995	0.1254632669935142	-0.2534205247417666	-0.8530733344338366	-5.927904930288165e-16	-0.7289501253936953	-0.03334514183489697	-0.3367187574427877	0.2417069530445852	2.369008242584051	-0.0391179191291558	0.2803100948315499	0.09375986909804662	1.774694466982181e-15	0.5801849289541481	0.2347248959408092	-0.4046311068047504	0.5077341789913049	-0.5322651248926185	0.1036297720589309	-0.1274291296218159	1.672769745113803	-0.7798935386258797	0.6333429404991474	3.137914226329716	-2.195729839439724e-15	0	0	-1.512171256848626	0.9483830584536447	0.6342525490733546	-5.455866441253649	-2.195729839439724e-15	0	0
0.2783128561131141	0.2628519758789998	-0.02761179804073141	0.6504127211472387	-0.1242922284663958	0.138762051739686	0.05183241042482276	-1.512860466206611	0.06182106510385171	-0.2660168765073775	-0.8461878741468393	1.915575025289119e-15	-0.7581219987071315	-0.004409646118812122	-0.2783099312889914	0.3306254317313252	2.29873879039441	0.04965813530474164	0.1894991426503061	-0.4308761618033744	5.815528115242545e-15	-0.002243944599148208	0.5701279920375415	-0.2130540355976777	0.2384665607649479	-0.5834234544101405	0.05133379289530995	-0.1399581503973363	1.721194506514685	-0.8002355271150718	0.6088763503560367	3.191841496160456	1.037003172510352e-13	0	0	-1.442710670450672	0.9474040232342401	0.676024680132548	-5.686386316459142	1.037003172510352e-13	0	0
0.2952558844730552	0.2896727749335412	0.09629118119946059	0.7117813777190609	-0.1465892516933275	0.1362929133966916	0.03801524281525683	-1.5679178585764	-0.07778029146303674	-0.2918671001798091	-0.9117945346161066	2.710784409963112e-16	-0.8573012425930844	0.00315345396772232	-0.2469591327315334	0.5163987456340488	2.063608308129343	0.2212896943642954	-0.01061821740177248	-1.459170263739788	5.550244314006618e-16	-1.002999401243888	0.5610380738751468	0.1424871136392366	-0.5453185339683285	-0.6817040052166681	-0.09671967493333607	-0.1791706732053817	1.814564405502875	-0.8245782625619004	0.344891978240166	3.189928663546144	-1.696284630057879e-14	0	0	-1.146281041342913	0.9170672097830042	0.6634464614518756	-6.127341792107583	-1.696284630057879e-14	0	0
0.3096312594138309	0.273724264919216	0.1118637115239333	0.7112907697888692	-0.1567656690766443	0.1300077248563161	0.03392739155913507	-1.595405952692588	-0.08399660616281235	-0.2843856673704958	-1.018898983004186	-1.031662303804021e-15	-0.9870601912376618	0.03312436416606845	-0.2083085816086384	0.567501347980728	1.85813345177615	0.235960328845097	-0.1507100009151965	-2.294694663087298	4.090687021360163e-15	-1.828684155915717	0.2526407152180182	0.6695201666092242	-0.4862604392213798	-0.6983655920615432	-0.1290934539445557	-0.1765334012448004	1.858802035242219	-0.8076616352619621	0.1674054043273676	3.26672003913763	1.063085901690954e-13	0	0	-1.027974416198896	0.8636261959529433	0.6137942895677077	-6.325716563101142	1.063085901690954e-13	0	0
0.3136000000000001	0.2673854609240164	0.1074104004957435	0.7082122887411231	-0.1591252892839679	0.1274395273268223	0.03270473527801893	-1.597910941058786	-0.07732448475182636	-0.2835436767202564	-1.040248207424586	-3.100954214157934e-15	-1.029376885684971	0.05661735410049856	-0.1845702852298615	0.5851428930007533	1.799864833790447	0.2347535653158328	-0.1792993771679806	-2.51552021819931	-1.273302215239211e-15	-2.054838312712737	0.2313604855736202	0.8138387051963347	-0.4603218115350432	-0.6976823164253609	-0.127352042689885	-0.1754903673372988	1.882755568140714	-0.8029855423178767	0.1528424439588319	3.29996724873207	2.894793071489276e-14	0	0	-1.002181424134795	0.8529016183473563	0.6122176555142562	-6.354362873864466	2.894793071489276e-14	0	0
0.3231128561131141	0.257599445406781	0.1043724167074588	0.6971842991931011	-0.1647331463886168	0.120941613043519	0.02863112831763648	-1.609537884106874	-0.07570059959851631	-0.2930896960731381	-1.084338249339092	-4.185583341707337e-15	-1.140202176351669	0.1025687454657054	-0.09243901782200609	0.6312960633937476	1.639960265869558	0.2588668114168727	-0.2265319936844881	-3.044965265054238	-6.92473324671968e-15	-2.595572443951996	0.3528169709719323	1.002059336094669	-0.5249271437667745	-0.7040979570451511	-0.1281511920627005	-0.1704985961707374	1.948299870968396	-0.7910191210637798	0.1247395206955915	3.414878265651864	-1.494803721758365e-13	0	0	-0.9294571511553846	0.8232259817941646	0.5991877341552041	-6.441086079436721	-1.494803721758365e-13	0	0
0.3400558844730551	0.2240807041630741	0.07345745543118744	0.6190055275806874	-0.1679712150499884	0.1091700227386626	0.02666518578662795	-1.652377127480917	-0.03903722966368245	-0.2886755253847538	-1.253254319587038	4.374539651446666e-15	-1.359644444796228	0.1083043763731511	0.07728586732335083	0.599035660957519	1.309880583232923	0.2664417883775893	-0.2856452575724128	-4.011524166728872	3.556198466795103e-15	-3.553176383034298	0.2018410700770945	1.123872872674707	-0.4389077957784577	-0.6937911882744486	-0.1009085517769904	-0.1100175434433291	1.981498204264948	-0.7156434766304396	-0.05974295961473378	3.710778424667902	4.468345921298389e-14	0	0	-0.8935037329979989	0.6929683987148793	0.4132836633812876	-6.573686025445202	4.468345921298389e-14	0	0
0.3544312594138309	0.171950615140537	0.02943951411977829	0.5369288014815571	-0.1661565954887271	0.09587028900625785	0.02428342866446061	-1.653695399944537	0.002115865596825695	-0.2847643819422145	-1.361667779086255	3.409367558428838e-16	-1.549848967182293	0.1801707613296435	0.2968535937219431	0.5024097859938983	1.051229674922721	0.2766046264798641	-0.2214225773130363	-4.75440618056017	-9.941782903143806e-16	-4.34466353049247	-0.2792936335909302	1.302511728460854	-0.2363238973485937	-0.6509748232609538	-0.06210861813820265	-0.04052476829025035	1.971215575646784	-0.6423950959194479	-0.1302327552868907	3.954657815795677	-2.741812062110965e-14	0	0	-1.001462016948887	0.5818151811110313	0.2757821963535826	-6.511350285008147	-2.741812062110965e-14	0	0
0.3584000000000001	0.159068020294785	0.01435177981643677	0.5174734851361702	-0.1662322502297318	0.09180279723143427	0.02285389916682759	-1.652847797573151	0.01609809334709482	-0.2815072785434618	-1.387221401123779	-7.541838551485414e-16	-1.600056051034741	0.2127190772584983	0.3505155425444942	0.4894580181577262	0.9813620359422048	0.2813317623031004	-0.1850062116934851	-4.942494314233747	-3.774439371283664e-17	-4.555361585282441	-0.3480590047304613	1.390713428733065	-0.190213362907658	-0.6404209044842717	-0.04654111203225002	-0.02632338216856667	1.990848017909734	-0.627357053019469	-0.1177573795505692	4.016912156988128	-3.267020899425088e-14	0	0	-1.019562626028263	0.5602821303409644	0.2566162927100345	-6.495688878985842	-3.267020899425088e-14	0	0
0.3679128561131141	0.1339987239630574	-0.01765539634389225	0.4662962714792634	-0.1659341560811467	0.08149579793670766	0.01919675719255894	-1.655683623871741	0.04616183000351384	-0.2641143969940983	-1.448112670745102	-9.688899871124439e-16	-1.711853961614279	0.2682889762153392	0.4568298108232069	0.4361194689768403	0.8050692229683174	0.297927691290947	-0.08560402499396971	-5.36251345532474	1.160837800796531e-15	-5.037331257160229	-0.3604293827048912	1.5530227567388	-0.196904956297235	-0.621916486469293	-0.0127351622789473	0.008883521916467621	2.049162343221922	-0.5881466527017174	-0.08930081087716182	4.17185930416741	5.247261344017327e-16	0	0	-1.064848297986516	0.502906162416966	0.1978650195252425	-6.441021558636791	5.247261344017327e-16	0	0
0.3848558844730551	0.07094571453115296	-0.07346818957020622	0.3211416371138235	-0.1550296742874158	0.05988184020620817	0.01776288776044316	-1.641361307930549	0.105893624782431	-0.1849269957888889	-1.548909776195424	1.179681599017005e-15	-1.863757608042546	0.2907976903148062	0.638470151453186	0.07619793710652908	0.5111194549079513	0.285926309856472	0.1064655430052528	-5.93977125223428	-1.90225063183144e-15	-5.769723708050472	-0.7054752550649048	1.631382433326418	-0.3191316754768412	-0.5608083111816548	0.03277834855254119	0.1247692656199286	2.007723751916613	-0.4611157422560629	-0.151763330593405	4.470503273338651	-5.536405108475592e-15	0	0	-1.388963728002655	0.3224853588529347	-0.04436492467483317	-6.031987107160498	-5.536405108475592e-15	0	0
0.3992312594138309	0.01737079643148264	-0.1014136029434597	0.226031127441354	-0.1415580219349696	0.03891749505775023	0.01233453966626467	-1.613180740296919	0.1273590682143537	-0.1259379462155299	-1.577269402168765	-2.439628962286868e-15	-1.923513098813741	0.3336105698686536	0.7705765178284085	-0.1945843112065688	0.2964456696580353	0.2816838141197998	0.3450874035448324	-6.182038549801716	1.291336662210382e-15	-6.19580957334839	-1.23130856308038	1.852179621598059	-0.4291015175507751	-0.4838935994531734	0.04601303193909465	0.193699252613459	2.023180406631729	-0.3747722051692049	-0.1317155543617041	4.590796140436677	3.817413857996717e-14	0	0	-1.616681095976045	0.2071314286867485	-0.1544049336534568	-5.510778750499718	3.817413857996717e-14	0	0
0.4032	0.006081343218619794	-0.1097037311637752	0.2047102345138987	-0.1385478717539201	0.03297322114401413	0.009861964383780408	-1.604370018624574	0.1344390320442745	-0.1061011210462275	-1.578962549146366	-2.940234426427637e-15	-1.926260478837609	0.3472887253823048	0.7864500922899786	-0.2381793546594984	0.2489040779246591	0.2774237979192526	0.4122485423610664	-6.19236668639775	1.497139176722071e-15	-6.272077372527242	-1.340045868087507	1.918084861949773	-0.4395740951054471	-0.4643727473428003	0.05402091233226997	0.2057974722050702	2.05371708847197	-0.3583668181094055	-0.1052774752386133	4.631702456943836	-7.175713811985125e-15	0	0	-1.641302013619769	0.185417496504526	-0.1672135658892179	-5.4025434002554	-7.175713811985125e-15	0	0
0.4127128561131141	-0.01615314026878849	-0.1266998362292054	0.1496505567955162	-0.1302682281905332	0.0184916123273406	0.003638109582753917	-1.580816566713336	0.1515327853345326	-0.04218396623712089	-1.571484032975083	-1.579020175789372e-16	-1.906038860130873	0.3708212690691088	0.7880663753288268	-0.3542073230419408	0.1540336752244149	0.2572808615781604	0.5329985793266142	-6.105726295606254	-6.543705996070277e-16	-6.369788675427323	-1.41758907016111	2.026628411961283	-0.516508107007565	-0.4191712248336814	0.07379310923576034	0.235106741790786	2.129067236311164	-0.3160740336079438	-0.05434169100379588	4.731935015316616	-1.630863282647196e-14	0	0	-1.713800142147448	0.1277250559634371	-0.2080893175740339	-5.107168158672756	-1.630863282647196e-14	0	0
0.4296558844730551	-0.06885749067581973	-0.1295669788528086	0.03804349643182197	-0.1032759538745356	-0.008519048346423655	-0.006044619851910643	-1.510875834335495	0.1533541956968328	0.1011494971528672	-1.496240409046748	1.610419595450624e-15	-1.771481829098757	0.3802359108316528	0.7560825100824015	-0.7444221094103662	0.04680326744239036	0.2044197997601854	0.6205585091758924	-5.623501326986911	-3.179887079310372e-16	-6.212294905967561	-1.514968607723872	2.111053720316774	-0.8825338648799168	-0.2967427191762153	0.06344747691856925	0.300766968189329	2.151273497940534	-0.2075521371342549	-0.05239462972260737	4.72171010851704	4.468746469543671e-14	0	0	-2.099624470892084	-0.01452544176340081	-0.3130105107183651	-4.027451279577771	4.468746469543671e-14	0	0
0.4440312594138309	-0.09335570409967645	-0.1209284419314429	-0.01104138898239103	-0.07812350250357236	-0.02849988387406551	-0.02307366055981339	-1.453800669477535	0.129665378158685	0.1577199707022752	-1.374763896868273	-9.005508877414487e-16	-1.559626077970486	0.3922070744929857	0.736632413141423	-0.7979257008137325	0.023539484657111	0.1823014813573346	0.4865042327664539	-4.845866831814874	2.782939433417501e-15	-5.725497962315068	-1.484186711062693	2.009302676611247	-0.9188164442360871	-0.1937265834773671	0.06871355618282017	0.3219691167662143	2.163923782293517	-0.1475075029766055	-0.03713545501879759	4.622279170587699	-1.020771220148838e-14	0	0	-2.32274653666386	-0.08707753466193288	-0.2880690740397014	-3.191294807496587	-1.020771220148838e-14	0	0
0.448	-0.09964217025445825	-0.1175767444488369	-0.02281924257094482	-0.07250286097845055	-0.03373999264792016	-0.02788923404341344	-1.43043184668248	0.1231985404275474	0.1757438576898518	-1.329183646963032	-1.707703829101833e-15	-1.486658221691598	0.4023745555763133	0.7154942601147123	-0.8000505197768416	0.03399586494446685	0.1789184050611805	0.4316776179695463	-4.582952611072021	-4.446872618996561e-17	-5.535518731139792	-1.495644194001759	1.992250537859828	-0.9090897559652145	-0.1658078235466915	0.0708792971280484	0.3244260030840571	2.191344636776	-0.1364020330629763	-0.02026734559737173	4.624923687626082	-4.294774834220318e-14	0	0	-2.340085004168883	-0.1008471585533207	-0.2741102273616478	-3.024834164148344	-4.294774834220318e-14	0	0
0.457512856113114	-0.1193950795243718	-0.1057550605118329	-0.05763229348586853	-0.05958206677619604	-0.0461248493664988	-0.03868027752503275	-1.356331798163992	0.1064651471271935	0.2310902354398093	-1.199530724899105	-2.887086231489681e-15	-1.289626182048406	0.4263977591259606	0.6320566263356129	-0.8151511549703774	0.07940293931621592	0.1803000448299601	0.239683919235964	-3.895293063588485	-3.408068348699444e-15	-4.99109433992971	-1.382370123371749	1.93404869894222	-0.9167310502855497	-0.09550114584864898	0.07068679098440464	0.3333199949249991	2.261563325339394	-0.1050174724977128	0.01771795557221581	4.625299096571759	-9.783993103825961e-14	0	0	-2.392322151125861	-0.1414871474878345	-0.2479280406440736	-2.591154503885125	-9.783993103825961e-14	0	0
0.4744558844730551	-0.1678877949629933	-0.06079770655949684	-0.1051437090046828	-0.02863176693943412	-0.06639776128795938	-0.06327651172385104	-1.198101413305257	0.04011267541114467	0.2937934735498146	-0.9164390553034907	4.723076687863552e-15	-0.8792484760034762	0.4276961363478954	0.4956820329010962	-0.6445381546759059	0.166235281478337	0.2424104359719719	-0.4080621613115288	-2.544886745971374	3.467004198607563e-15	-3.769388679089063	-0.6471151269947653	1.633843734773739	-0.8742573510766277	0.0640271976490665	0.04969270015848297	0.3396380525066386	2.283519266992901	-0.03614676972253321	0.02169958222274235	4.325821188050172	3.698317039974915e-14	0	0	-2.651615489360489	-0.2217026690315772	-0.1328988299724288	-1.360461200203356	3.698317039974915e-14	0	0
0.4888312594138309	-0.180046459811224	-0.03617051103247246	-0.1265912914595519	-0.009559189224688128	-0.07653556879283042	-0.08575408934934767	-1.054858811289572	-0.002160389185793962	0.2532179297083599	-0.6045369656821816	7.088196181230105e-16	-0.5000607803810165	0.4763664223708257	0.4490013876019356	-0.2919878326495686	0.217662679997754	0.3142023980711885	-0.8660062110767994	-1.435616322553502	-1.053328027930968e-15	-2.587240933099672	-0.7243998935736951	1.005735673784749	-0.6262199185414665	0.1435318979501913	0.05998961294068975	0.3412871815590209	2.310744473639329	0.005290943871237175	0.06360719851953582	4.053588966055145	2.145860517229128e-14	0	0	-2.689146362868303	-0.2609118409780765	0.00748478803215067	-0.6341361750288499	2.145860517229128e-14	0	0
0.4928	-0.1876959328271773	-0.02877881149063878	-0.1375017790683552	-0.00462018570008877	-0.07967889728369595	-0.0909179540410051	-1.005570756311887	-0.0137438817792146	0.2465789680315667	-0.5083882782856841	-2.033638314084817e-15	-0.394697551251283	0.5074625468682968	0.4395307994478701	-0.2245907948127304	0.2350817692575904	0.3293511120217373	-0.9515542039515635	-1.146229651965298	4.1976357282972e-16	-2.255033913593879	-0.7256456508714971	0.9133351500258325	-0.5618656878125693	0.1701642060416063	0.05966684762300154	0.3416694275641251	2.336659324155316	0.01392568614776711	0.0899086688556188	4.025685811984064	-7.06429873372746e-15	0	0	-2.677978064763244	-0.2698560021312524	0.04197161812867878	-0.4954557170004269	-7.06429873372746e-15	0	0
0.502312856113114	-0.2274432922716483	0.0006485568234687426	-0.1773861728465831	0.008366557475797363	-0.08909551849179777	-0.100882899179236	-0.8633502323791121	-0.05262200602612389	0.260696728781993	-0.2739962130915659	-3.355020949733855e-15	-0.1468528326669483	0.5803883879332206	0.3942302239451918	-0.1098147373373391	0.2836146414209366	0.3640108602498946	-1.1400644590072	-0.4871613237453108	-1.874724648690209e-15	-1.474260626542336	-0.4398797339770416	0.8067871799832103	-0.4477260269367613	0.257487241089971	0.03434504314711422	0.3453892335951643	2.393801995286693	0.03947195290292589	0.1519876940221366	3.953614875510011	-6.168285170877749e-14	0	0	-2.671859527967184	-0.2974417485861901	0.1180995244700557	-0.1417988034577791	-6.168285170877749e-14	0	0
0.519255884473055	-0.3310559148712446	0.08715339911383464	-0.2401858766052704	0.03076953202734932	-0.1057698019622053	-0.118752344450176	-0.5732120163046776	-0.1643072757036937	0.259425131655211	0.1542529292209746	1.299703283175404e-15	0.2587494964436318	0.7170133900564051	0.3127297227423613	0.340382351460071	0.3414230245787356	0.4670363055212745	-1.548690938031455	0.5075320988064943	-1.91665369299584e-15	-0.2280776647262242	0.1503571190441144	0.1885851946835592	-0.09996155149081148	0.4299598114191399	-0.06474100146237471	0.3509589948640008	2.384185420854089	0.09570329283884745	0.2136652760452856	3.50225175229009	-3.852987966261986e-15	0	0	-2.637827672072389	-0.3399910279230083	0.3152653273716149	0.5870390048998836	-3.852987966261986e-15	0	0
0.5336312594138308	-0.3894143381218479	0.1621068655403478	-0.2902239589001364	0.04701141789817224	-0.1153248054037287	-0.1298047260332045	-0.3879187586349144	-0.257964283764932	0.2209747961703876	0.4599703811210053	-2.633420356917664e-15	0.5483186616994857	0.7897000669911607	0.3102955660139299	0.5481835424902299	0.3066469395472763	0.516446228875747	-1.432543022991803	1.079753692845306	-7.894911427499615e-17	0.590139977241392	-0.09684923161343083	-0.2132186091615196	0.2393665682427764	0.5202430221426244	-0.1611932876599643	0.356160976052914	2.366622213563978	0.1293407247803277	0.224572614177961	3.259127355568508	-5.378123627543314e-14	0	0	-2.489725994373269	-0.3513545555682138	0.4385954444357656	0.8463553897923213	-5.378123627543314e-14	0	0
0.5376	-0.4006329302274966	0.1730819934133238	-0.3035220719432871	0.05122862687814431	-0.1179545042062673	-0.1327356702903351	-0.3465399166463564	-0.2733732304005543	0.2117983068979817	0.5325061535536942	-2.549443928204267e-15	0.6181997495295698	0.8197714963916293	0.3177430042720255	0.5921847198345288	0.2880895523166387	0.5165935239516241	-1.370898773723759	1.196620254928845	-1.749180424547717e-15	0.7695038410903844	-0.211039294280416	-0.2213787401044155	0.3014848049441594	0.539221668024658	-0.1741155928714151	0.3575330919736696	2.395253226406643	0.1363618375665705	0.2424294407762284	3.235074581348005	-3.922944532224963e-14	0	0	-2.436016432142854	-0.3548491010586316	0.4683669165811913	0.9056575990752215	-3.922944532224963e-14	0	0
0.547112856113114	-0.4345879494129169	0.2078838853260601	-0.3476866782290771	0.06276080724264177	-0.125185223669318	-0.1375858700873789	-0.2489924728058832	-0.3182069180131109	0.2239023543269683	0.6873734991881366	8.135052589734825e-16	0.7684864816144061	0.8958793737623791	0.3139397356508231	0.6461206115812159	0.2378329649570987	0.5158328131581762	-1.157294401502003	1.424783442910935	1.786231799033837e-15	1.115185876288448	-0.4802470284923835	-0.10438968012372	0.3619045500123569	0.5928625455215193	-0.2224783155588937	0.3665450869270672	2.469442340221692	0.1578968120210827	0.2982821187876772	3.173175795940458	6.073589169871122e-14	0	0	-2.32059303876779	-0.3674605895995275	0.5335304820917349	1.045487184428133	6.073589169871122e-14	0	0
0.5640558844730551	-0.4880653686201853	0.3397616088952241	-0.4559460667380247	0.08694098386726332	-0.1340812212317442	-0.1374235785237873	-0.1132017383255874	-0.4642606211266736	0.2954848284215375	0.9240633489009318	-8.65325430258595e-16	0.9870262079649768	0.9683977117365238	0.2919064100009473	0.4748670363186547	0.08398094987061351	0.5472102712649431	-0.3042256905821932	1.597032963831952	-4.776048160023411e-15	1.459618107667897	-1.499823568307857	0.01736187289542393	0.3949967648830326	0.662760953301212	-0.427743699881097	0.4033466467776017	2.397567972997356	0.2071352513033624	0.3147319621406034	2.927209790959093	-4.833224802555518e-14	0	0	-2.095166774055747	-0.3703475904198919	0.6137930017581292	0.9035582513542229	-4.833224802555518e-14	0	0
0.5784312594138308	-0.4686145052514962	0.3962822745926632	-0.5671867883908444	0.1161809244824874	-0.137354723034456	-0.1388006212593341	-0.1260666705155356	-0.535091761772551	0.3231550742617411	1.006665086429206	-4.019127675578772e-15	1.149062128374436	0.9411595227925937	0.3620779613138767	0.1154418929433338	-0.2370393912143199	0.5176986518648572	0.6828358180949823	1.092752566137622	-4.279922268445669e-15	1.541265513376402	-0.7193517255424	0.1957694089166874	0.3244293671109458	0.6596839983744839	-0.515099612304261	0.4422267221199739	2.264397148470714	0.2350367275380294	0.3171781724387862	2.92306998451041	-6.225862665985921e-14	0	0	-2.10346026238024	-0.3556580538545028	0.6241943922472951	0.429755119717335	-6.225862665985921e-14	0	0
0.5823999999999999	-0.4685228249687186	0.3962632832324271	-0.5857585478873771	0.123207113274647	-0.1388546798034573	-0.1419021960212265	-0.1200515692369959	-0.5424113383874207	0.3182478509212487	1.032968738189682	-2.631813671122001e-15	1.194883798894883	0.9350258897112141	0.3870006516076469	0.06093979878869443	-0.3196453976771042	0.5094417951107888	0.8097774108422087	0.871451953420521	-2.896587696075126e-16	1.540611111405201	-0.4858142704651193	0.1016687359868783	0.3175074674683677	0.6691104477016679	-0.5105435447593407	0.4483202151085285	2.256030674957235	0.2399301687561518	0.3205817004188296	2.943870941577279	-3.174933525071471e-14	0	0	-2.090492492415235	-0.3542725480480002	0.6333203399122739	0.3524787069605933	-3.174933525071471e-14	0	0
0.5919128561131139	-0.4758847954930273	0.393668606310005	-0.5860988713633926	0.1335748138026279	-0.13980457395315	-0.1538002820873727	-0.07751194738706829	-0.5571690398365535	0.2771802240409812	1.125872269529514	2.641874696033885e-15	1.314394317356814	0.9112265538212994	0.4133804654168349	-0.06402304143601328	-0.3815860206602934	0.5020393832043776	0.7047120080198683	0.6182752432283201	7.682528115161734e-15	1.512710513270522	-0.3515847645441882	-0.4449678201710318	0.2307991005781773	0.6986737859217609	-0.4878917159116044	0.4567220523405059	2.138242346122618	0.2518089336448826	0.2943133305651336	2.908049905482465	6.869580775452972e-14	0	0	-1.936378543825281	-0.3456737435994545	0.6585906449361218	0.2548395225871731	6.869580775452972e-14	0	0
0.6088558844730551	-0.4136706836024182	0.4081658065493641	-0.5032658748375458	0.1392496504570518	-0.1192237621383798	-0.1784216702365615	-0.04668410246995378	-0.5837369527788107	0.1423262014394256	1.329011276261415	4.602379371324162e-15	1.590476246350237	0.7062458797258777	0.3447658553135046	-0.7158484209526333	-0.2544377180790768	0.4941488663802058	0.2606828297908086	0.9923464142153938	8.400643520379744e-15	1.410472251812943	-0.270172242566571	-1.818992861325271	-0.2942276052745999	0.6342703287994672	-0.4721522434641912	0.4776641591841503	1.268118495326004	0.2711526413612124	0.07257661107911551	2.609467521522571	1.543053668395326e-13	0	0	-1.454803249687051	-0.2715229978292729	0.6203953970809678	-0.3216869773671261	1.543053668395326e-13	0	0
0.6232312594138308	-0.3693251365589774	0.4363257241204197	-0.3734329515446392	0.1277031650576935	-0.0893248455095689	-0.2070571208829898	0.08817035998957648	-0.6344183675218136	-0.1581648449418573	1.694575849249053	-3.415102900233489e-15	1.921702736491298	0.5482665263445472	0.390265508708194	-0.7603367137891557	-0.1771733808867789	0.5220253621477292	-0.08288444504199861	1.086904052106589	-6.532021521977315e-15	1.295165180746824	-0.698051095450548	-1.815642916151495	-0.5192922867971682	0.5733698028785102	-0.4405556778085546	0.4698697609295676	0.6088760792307323	0.2788093349348598	-0.0353434306277455	2.336338341903865	-2.627368864532214e-13	0	0	-0.6823106779462079	-0.211189539213369	0.5841106272247135	-0.3203635522244122	-2.627368864532214e-13	0	0
0.6272	-0.363544274402658	0.4425760755267263	-0.3553437111160143	0.1253301897237673	-0.08231889143475035	-0.2137803445786249	0.1397672251445555	-0.6474863947691949	-0.2149075828076574	1.804867808693175	-3.847931878911231e-15	2.032042842433723	0.5131911969711032	0.3896814937929781	-0.7629015880175022	-0.1643615544577622	0.5221279949267287	-0.1647034236149134	1.120515105661605	-6.931450178391537e-15	1.258337426065734	-0.6449917448526126	-1.743306572139681	-0.5074170836269005	0.5656089151899054	-0.4287067145790521	0.4674409222575607	0.4897387247696454	0.2804442205025767	-0.048969029283084	2.29912277347472	-2.213097208688065e-13	0	0	-0.5456604440852607	-0.2029705396675621	0.5866570215028292	-0.3108071701961361	-2.213097208688065e-13	0	0
0.636712856113114	-0.3505488612239291	0.4608146359928061	-0.3222284103135492	0.1203671009724193	-0.06514885374909742	-0.2283823791510387	0.2774901937052169	-0.6799117898761324	-0.2992576665042372	2.081098177032814	-3.524630498310879e-16	2.331412248735118	0.3985785673313868	0.3204416367465754	-0.8757163222834521	-0.1195982487471767	0.53708828958818	-0.299785120408983	1.299982145668075	-2.569295304937426e-18	1.157335082642153	-0.07942389445428383	-1.634570892163763	-0.4497578060114881	0.5472614009424126	-0.4094262021867295	0.4600276785017021	0.16447181197708	0.2850486924990024	-0.1008691254581936	2.201715515310899	6.944329477926455e-14	0	0	-0.3061568966982521	-0.1851466034731075	0.5954142531858004	-0.3355298409926304	6.944329477926455e-14	0	0
0.6536558844730551	-0.2800261274456441	0.5233673147335126	-0.1664325486827145	0.09910184107072145	-0.01684316616682697	-0.2580251420945575	0.5525920940291839	-0.7654701039529037	-0.5207666728419228	2.724546440032577	1.960761592993689e-15	2.979469931085272	0.03768848441204003	0.1610755556547712	-1.042483136559237	-0.08276981785576079	0.6693225528511569	-0.1186110583081955	1.609693587974023	1.238275611263972e-15	0.9171008524069963	1.553596621484334	-0.5040872845052118	-0.3725783901066516	0.4420836546626549	-0.4149637350019522	0.4163742367818065	-0.8083278241877722	0.2880315428967771	-0.265178790843982	1.846098989233077	6.770369303675022e-14	0	0	0.5168499532049724	-0.1149654952982445	0.534374758789278	-0.1790350068955794	6.770369303675022e-14	0	0
0.6680312594138309	-0.1877437877398865	0.5395695498976247	-0.1310472347698354	0.09942502969389869	0.02197413273109467	-0.2748370335335498	0.7328768650294368	-0.8191821234048522	-0.6922508439161905	3.235844066441789	-1.722270898163853e-15	3.616893009504742	-0.2066550753220874	0.1489847879643394	-0.7510992465070339	-0.3385067429056812	0.746861969525337	-0.0144887430348158	1.287676927791247	-3.284950767581235e-15	0.6436522076854592	1.337286234934103	-0.7367807454031552	-0.3534311732424111	0.3683175366612354	-0.3709051360322464	0.3624457161070145	-1.31874353726086	0.2885063632620223	-0.3281885398776621	1.706604767274484	-7.644997337981332e-14	0	0	0.6528485308488072	-0.1061203880024477	0.4951937788308746	-0.09918486400290479	-7.644997337981332e-14	0	0
0.672	-0.1727151001694534	0.5376164310819846	-0.1307567864501082	0.1000425102055052	0.02961052184784312	-0.2779247428626609	0.8093824783462554	-0.8284951510390736	-0.7108906994480314	3.403436667546209	-1.502299928100539e-15	3.80082214264526	-0.2707705243792339	0.1338806973217534	-0.6671356200508227	-0.4595728738975969	0.7583809496104471	-0.005582663216333125	1.07468201794937	-2.117259321434098e-15	0.5582426784736029	1.172195710740185	-0.7386708198996399	-0.3068237209989028	0.3608517078659574	-0.3531065690774566	0.348995655522406	-1.408440658896537	0.2896416843309254	-0.3392273636506533	1.702956843692283	-3.610718672528177e-14	0	0	0.6989145574164889	-0.1105873903536391	0.4962231661451917	-0.06207157011900792	-3.610718672528177e-14	0	0
0.6815128561131141	-0.1389981256317554	0.5371073350495456	-0.1231577727377878	0.09907291936391409	0.04497463801191279	-0.2824593126313448	1.012220799980101	-0.851469710950893	-0.7061767749166863	3.824850663689758	-4.042355715416409e-16	4.244542526953706	-0.4724569904567589	0.03229815938714949	-0.5138982919401052	-0.7518730174174086	0.7866101370570038	0.03369455682128323	0.5946403253582145	3.726106727586578e-16	0.341811249453586	1.160458336066476	-0.4583192098175084	-0.2012334547776194	0.3376808230411838	-0.3285199410235792	0.3167772487159181	-1.669622308234748	0.2952250219757699	-0.3697422427669179	1.639911728465856	5.654913604712656e-14	0	0	0.8795827522072621	-0.1224510557465483	0.498065564375147	0.09116516768655805	5.654913604712656e-14	0	0
0.6984558844730551	0.001843665502643185	0.5566325869248441	-0.1020899734938138	0.09974824270083046	0.07593497068246707	-0.2830864494764065	1.247198326521557	-0.9071769336815139	-0.677520948957878	4.463666997830644	-9.32530747814697e-16	4.997332516981174	-0.873469214663821	-0.1809729725283928	0.0936934902381245	-1.285572946399537	0.8592103255791345	0.1288209154188427	-0.1299060603690091	-1.95390269765963e-15	-0.05235216908830536	1.027541141377299	-0.5069952131216166	-0.2946712149771908	0.2064117376863792	-0.3338802307140804	0.2288779356351893	-2.256630484230837	0.3059043772253936	-0.3862807533765676	1.274539713510945	-3.554245824858614e-14	0	0	0.9788811756946326	-0.1555396392581262	0.4428114105055988	0.5798522156335804	-3.554245824858614e-14	0	0
0.712831259413831	0.05971329843894133	0.5659229639234542	-0.1086381895446894	0.08919684768885508	0.08766406988739253	-0.280958444158882	1.451304987936764	-0.9946606695869132	-0.699534701880729	4.80345883533337	1.901098857267175e-15	5.534705728079212	-1.371048479139051	-0.1782247452363124	0.7225027718047977	-1.571947043614182	0.9117259432950038	0.2403515281000594	-0.6015733131562475	4.926733459745833e-15	-0.3487032205527658	0.8533607987560559	-0.58691007286283	-0.3369787404623951	0.137597959442477	-0.3269402199542323	0.1788471289042559	-2.454449314296283	0.3175725731555724	-0.3286987936945283	0.9467768395473275	-4.077905774138992e-14	0	0	1.085487643734876	-0.1882815708896184	0.426286617344295	1.051383138815309	-4.077905774138992e-14	0	0
0.7168000000000001	0.06978937504540889	0.5624528365395234	-0.1141315219439061	0.08540978544558069	0.08943561275356246	-0.2794018131505699	1.527858079783316	-1.010065528745317	-0.6811741095764777	4.931556821645068	1.235474289388494e-15	5.658528946909573	-1.405616331628405	-0.168341425775211	0.8629051283379213	-1.62710538721036	0.9148923084447704	0.2636069272183693	-0.6995025259937515	5.787359133004744e-15	-0.418562311451331	0.8307353558232154	-0.6058855244034391	-0.323085834929739	0.1236792563924162	-0.3193290871789864	0.1665799350308068	-2.512845087590467	0.3204823611576275	-0.3233613195085627	0.8972644471772938	-2.989833909730289e-15	0	0	1.102359563203694	-0.1956546014750517	0.4341610081494096	1.132171765404568	-2.989833909730289e-15	0	0
0.7263128561131141	0.1016080690110447	0.558057651442796	-0.1194645525356515	0.07340972508943761	0.09250269406769547	-0.2735262700905555	1.745935034657866	-1.035189514400197	-0.5700307674451561	5.354930111423684	6.310449390519197e-16	5.902755953917267	-1.296468376387451	-0.1930873512016423	1.233101691852988	-1.749704601295504	0.9161148817747483	0.2983922119942136	-0.9003799776984482	1.000469192754943e-15	-0.5595140001854102	0.8296495971793221	-0.5697154522709373	-0.2784701083232072	0.07356150449488036	-0.3121820087574748	0.1305850511009785	-2.707421035939401	0.3282151827937232	-0.3424813824952302	0.754697062227053	5.885306954922722e-14	0	0	1.170094949932051	-0.2164293535611759	0.4457385878176958	1.317192540197351	5.885306954922722e-14	0	0
0.7432558844730551	0.1646518934124043	0.5868263133965202	-0.1153806599949958	0.03628426167177201	0.08989564476957977	-0.2568665429902295	2.106867397608568	-1.098772857716249	-0.3142167923060403	6.036994850090911	-2.527739161082683e-15	6.128548234979108	-1.006755218343009	-0.1099841484599073	2.347078798703498	-1.844532848026084	0.932875810535631	0.3253832868456525	-1.060984454963672	-7.041464860067248e-15	-0.7109886357035288	0.7028872320663988	-0.5675373527536285	-0.3255575459601076	-0.06794008762204819	-0.3553566929864014	0.05556088766513593	-2.883037714286015	0.3469357106086551	-0.3500280505944511	0.1746484520791551	-1.725007803737203e-14	0	0	1.372558632494201	-0.2832880401259523	0.3983899628554074	1.902157616226622	-1.725007803737203e-14	0	0
0.757631259413831	0.1995276973784974	0.5643652428414019	-0.0994739432227604	0.01034746961238272	0.07997076040962121	-0.2409551167414793	2.211137876148825	-1.123899654002273	-0.2091124278944625	6.029384160416294	-1.771834584787169e-16	6.091366142981314	-1.412326928009992	-0.02269987779628289	2.748480506172624	-1.869088150774166	0.866206067104857	0.2588142755886452	-1.127157825970234	2.857768761335314e-15	-0.7483271740888958	0.5519019532184364	-0.3523771251414536	-0.3046561691895497	-0.1384410979661548	-0.3386602917594849	0.01219544107924427	-2.896547077407709	0.3645346753443951	-0.3229025846581776	-0.291313309153744	3.812941750692505e-14	0	0	1.627225177212497	-0.3504818707495599	0.3504880147800372	2.112123483029329	3.812941750692505e-14	0	0
0.7616000000000002	0.2047409243611031	0.5505791276433223	-0.09695292405532849	0.004235453363917661	0.07700257850812653	-0.2360240425021314	2.220120537366066	-1.118821241880867	-0.1664114269009616	5.953448389120584	1.904159691809392e-15	6.043733223986846	-1.415344801804006	0.1058280752332505	2.758204364369278	-1.857033064356103	0.8373674893161637	0.236248413030676	-1.112074362935014	4.147357150257223e-15	-0.7472379840052591	0.5572651259188287	-0.2905005263968383	-0.2876450584706072	-0.1507332220703599	-0.3269989048677471	0.004140735478475508	-2.929143164272281	0.3693380805060543	-0.3084477393175815	-0.3909199834842642	1.280055550603639e-14	0	0	1.683166150016549	-0.3639807538817106	0.3509616868836531	2.14241512105215	1.280055550603639e-14	0	0
0.7711128561131142	0.2203909210683932	0.5134584598102967	-0.09122607855240378	-0.0125623314333243	0.07311544705923644	-0.2213311049060359	2.249376757796007	-1.069074629520899	0.003423121935667746	5.710992274719016	2.864273847118903e-15	5.86614178775733	-1.117126782671219	0.5071616396920731	2.689590063409445	-1.809447408373799	0.7596254201846554	0.177812230301357	-1.032245473510025	5.232201193683404e-15	-0.7310822990745581	0.6233250061926905	-0.1489346372907309	-0.2496420148818798	-0.1933481917636141	-0.3035734454508653	-0.01437668138615534	-3.07226999794214	0.3827640463347979	-0.2679350892481316	-0.7190410274672632	3.828350847425529e-14	0	0	1.836100481291908	-0.4000841803842025	0.3434789917201123	2.202650586139915	3.828350847425529e-14	0	0
0.7880558844730552	0.26160348852649	0.417851804851483	-0.07611216769517556	-0.05028374504921053	0.07435740723722851	-0.1873794723754709	2.29383975859077	-0.883341387480739	0.2637497979503314	5.01740468788593	-1.212783141185519e-15	5.346620164707161	-1.085162548302337	0.950245164480322	2.225449475971136	-1.717963191987642	0.5656948937496319	0.0124115018561315	-0.8807676966280718	-4.310820274215358e-15	-0.681639126027726	0.6139509456360893	0.2493491805801135	-0.2168980821726382	-0.3058046242453568	-0.2441782186276271	-0.03941987118949628	-3.238596365468581	0.4172238926937309	-0.1353911413426712	-1.81956651296151	-1.159732189284254e-13	0	0	2.315704912665177	-0.5256874202647877	0.2118793701643297	2.108112963233306	-1.159732189284254e-13	0	0
0.802431259413831	0.2763662375116897	0.3431876584515977	-0.0931098029110914	-0.07369786651474151	0.07890219520352171	-0.1601910011184869	2.303602092666482	-0.7317680955561512	0.3618979891234819	4.258039476046054	-2.232537651865977e-15	4.73518436148007	-0.9017102399771787	0.4766502748270981	1.651017089878386	-1.662674177901634	0.415597706840694	-0.1359832837491637	-0.824723446083532	-2.695842055526644e-15	-0.6509417195778333	0.4751669048549867	0.4391306819694277	-0.109378487992669	-0.3653606994956809	-0.1958835584384614	-0.05361992063797498	-3.231314106560252	0.4290265596540824	-0.1000113199552229	-2.563376495126336	-5.389384197413461e-14	0	0	2.550844201896834	-0.5864861348276915	0.1505999413785727	1.868954499081353	-5.389384197413461e-14	0	0
0.8064000000000002	0.2773350217256935	0.3259181899639021	-0.09887604778369463	-0.07928565096469814	0.08029924496735666	-0.1534997820056107	2.308822379224672	-0.7000786223757152	0.3776507997633752	4.049894344654243	-2.458492387726915e-16	4.544199256840965	-0.8918531350258684	0.4295498396849048	1.542509585037402	-1.643568726090345	0.3806612925016287	-0.17278313056178	-0.801507371038403	4.183052530516081e-15	-0.6476973594148295	0.4733963644727927	0.4947047117486356	-0.07870696326231642	-0.3800594856496303	-0.1844465546991967	-0.05722204109351316	-3.244221724270862	0.4313490395436908	-0.09241233291716817	-2.695238421453255	8.765036713041118e-14	0	0	2.587172512031876	-0.5966177765802348	0.1506740467490913	1.819857409005801	8.765036713041118e-14	0	0
0.8159128561131141	0.2888397344659798	0.2877769616629476	-0.1136655046568442	-0.09395228446849936	0.08563606932044129	-0.1365554139270918	2.330710027615079	-0.6231187437692476	0.4324418461692232	3.590639602084662	2.626126675236355e-15	4.055164449895374	-0.8277026907658518	0.5110176495775079	1.28490733871398	-1.599260934770074	0.2995708057664036	-0.2605933223809925	-0.7251214798255513	8.834596100003384e-15	-0.6519075794634444	0.5285251091971014	0.6583210035495879	-0.02347239470786869	-0.4330787602279812	-0.163032316437187	-0.06371021188499319	-3.292589011803493	0.4385300221534127	-0.05939646749100322	-3.086493586795058	1.536015520384178e-13	0	0	2.689923395692606	-0.6278396515670654	0.1397466287776795	1.722736529459104	1.536015520384178e-13	0	0
0.8328558844730553	0.3367613166834894	0.2131629156231951	-0.1717489686526619	-0.1176756933582726	0.1002734964392638	-0.1028274887662324	2.309403107637097	-0.4625346529201375	0.4575556498658725	2.686229120807472	-9.849414971085486e-16	3.103165599408705	-0.5249337285048232	0.1112557040703571	0.3508547230195834	-1.595391814970744	0.1362391324493013	-0.4557874862188287	-0.6766294362709437	-4.033338558448664e-15	-0.704084036501933	0.5068123996534006	0.9276180928491118	0.08861968903907028	-0.549175093564452	-0.1189134188383054	-0.05147375360848139	-3.111028896297771	0.446906145796957	0.02904210049181197	-4.280442380648022	-6.692774961856761e-14	0	0	2.930696063741875	-0.7075880786979472	0.02833222002872176	1.345227282383037	-6.692774961856761e-14	0	0
0.8472312594138312	0.348921713216755	0.1630878777995704	-0.2237023065674385	-0.1282766975127946	0.1093180205269747	-0.08253294658508027	2.267054384253041	-0.3981756585581193	0.3996814936443995	1.842116513964249	2.637369455132952e-16	2.247463122850059	-0.6422817537356766	0.1564940168454634	0.0007309612828680385	-1.614319099275785	0.04511704708106312	-0.5699649736267426	-0.730957750336187	1.756321857698945e-15	-0.7880379935525104	0.3583395103553224	0.9879299467578923	0.1933903781438241	-0.5927905068622936	-0.07751364929592505	-0.03549362168463666	-2.852385912894702	0.4432552835683559	0.08426225037073368	-5.041201368968392	2.174825736847025e-14	0	0	2.980364089340184	-0.7425123704280524	-0.01772536473237085	1.195550492937203	2.174825736847025e-14	0	0
0.8512000000000002	0.3476947291638143	0.1509537562754538	-0.2364407867506083	-0.1309626076093039	0.1106853225823066	-0.07782848185691767	2.258335999609006	-0.3854466511818799	0.380656106224495	1.618740271170404	-1.779062556796823e-16	2.007304873633447	-0.638856564165503	0.1590431764015277	-0.05253713758546831	-1.612243450660576	0.02566624273795788	-0.5931453194617207	-0.7367982230098817	4.326010018980328e-16	-0.8159411632262323	0.3530259270073794	1.007840933220983	0.2284251523717927	-0.6017784594278348	-0.06530933899233539	-0.0306456165293806	-2.80224587350028	0.4432677224008996	0.1080824685200836	-5.171908040324097	-5.493573445056828e-16	0	0	2.981981265956997	-0.7489983860666511	-0.01597681542726964	1.171276990622708	-5.493573445056828e-16	0	0
0.8607128561131143	0.3517073316240163	0.1219741105778918	-0.2708430943085429	-0.1383590517494474	0.1137486119002135	-0.06582246387032824	2.235816687793251	-0.3455588935192672	0.3534248857951684	1.116687572885466	6.423392010691244e-16	1.428834570848191	-0.5299612443006517	0.1247964813445736	-0.2140914664541407	-1.609282938048807	-0.0212520119102378	-0.647891385313651	-0.7349711243628014	-8.526376398235401e-16	-0.8879619987751242	0.3977472115579792	1.083705238047869	0.2988121875843511	-0.635948179871107	-0.03634291775484434	-0.0139843078100554	-2.672419708453813	0.4449233268937864	0.1843713727764207	-5.559904805313169	-3.8967408739439e-14	0	0	2.997987572644809	-0.7722323116428429	-0.03048883307192163	1.148456834464556	-3.8967408739439e-14	0	0
0.8776558844730553	0.3730174977476662	0.07691989622986188	-0.3605797262937561	-0.1453047345338166	0.1184038495402948	-0.04578420981162196	2.107763288916348	-0.28400744246406	0.2788940991929801	0.126546544879348	1.290592878563934e-15	0.3995594627461353	-0.3575872235174424	0.02630096254898924	-0.4257184013079779	-1.669152934967436	-0.08653686192796084	-0.7369182072213603	-0.8286302969357753	5.245579646003843e-16	-1.02097123693374	0.3116834493860355	1.104052913918022	0.3660515655396213	-0.6868120735542824	0.01241370979713403	0.0387521440802811	-2.119461136929539	0.4332980363989431	0.2896948026907191	-6.659383248970958	4.722919567186805e-14	0	0	2.949671202685306	-0.8154257369164543	-0.1507623754872296	1.309074099060725	4.722919567186805e-14	0	0
0.8920312594138311	0.3509417763426279	0.04110025199099435	-0.4104379425459783	-0.1469649642154354	0.1139923486592485	-0.03672254399908676	2.010222123105577	-0.2581944477007906	0.2113309408023552	-0.673763755029847	-2.805978318320376e-15	-0.4633566081093784	-0.4529131466059797	0.0981240322767027	-0.2125772439915082	-1.68295256148415	-0.1008566665337244	-0.716093107729287	-0.9294013972970816	-3.467086747046506e-15	-1.121572501834059	0.1670184378605934	0.9507928178231584	0.3234899461683082	-0.6773554726160471	0.06626524256134721	0.07289387014830566	-1.68622550109091	0.4179883929981557	0.3199917536816781	-7.259290145421117	-2.943497269058095e-14	0	0	2.816398143346497	-0.8267646870707318	-0.2175682401776443	1.597950207686603	-2.943497269058095e-14	0	0
0.8960000000000002	0.3432920591182197	0.0311611130057317	-0.4205607155282531	-0.1476525311872301	0.111513599182637	-0.03436449263923327	1.978500061842452	-0.2483554133835625	0.1953693691904819	-0.8879023200502785	-1.670460344240677e-15	-0.699182446742238	-0.4416288922100932	0.1168592006978726	-0.1737748846111779	-1.679926118134815	-0.1040897687524556	-0.7064992352606496	-0.9444558873120747	-2.544262485565295e-16	-1.1452951392091	0.1556434754566829	0.9229027334777156	0.3334589992433159	-0.6748634056181512	0.08207002439129252	0.08126439927766355	-1.589337483936238	0.4162696726701816	0.3411906395048171	-7.349228169489724	-1.157898154479137e-14	0	0	2.791697549988379	-0.8298754279644021	-0.2217664806196029	1.657732449436662	-1.157898154479137e-14	0	0
0.9055128561131143	0.3289252949205788	0.008659675396510441	-0.4433537440522207	-0.1503806317483343	0.104488541741333	-0.02784815342505225	1.891662697404551	-0.212464917175966	0.1737365122442383	-1.385345586540668	1.470366532685103e-15	-1.259653761160355	-0.2991925602909118	0.08798220242767679	-0.1762675717958165	-1.668361529428207	-0.1152991696477844	-0.6939360564335839	-0.9589479701224485	3.562133350340701e-15	-1.192795328382456	0.171747966672599	0.9038276376964682	0.3622741097193882	-0.6782864699230244	0.1159317642051366	0.1017617360184124	-1.353790993338725	0.4108414070955413	0.3774945970879424	-7.612601968167264	1.426555584356162e-14	0	0	2.741037264737669	-0.8393795548863164	-0.2522950784894707	1.837263948431363	1.426555584356162e-14	0	0
0.9224558844730553	0.2767847656018486	-0.01880429699021425	-0.470028063401959	-0.1521451362366937	0.08641577658951852	-0.02191519115342438	1.72552559207336	-0.1662319285979916	0.1557481263750095	-2.266464170852699	-2.178175350327004e-15	-2.23908547626043	-0.1583553402551616	-0.004801425048894081	0.04227883897785598	-1.620375326862684	-0.1043829671779636	-0.6309809181656034	-0.9959851142713522	-5.520728201197288e-15	-1.239209303937773	0.09672742281154498	0.7410648688627598	0.2191624607307151	-0.6475941044427668	0.1660501543665356	0.1320847260481118	-0.825622384380394	0.3716890629811759	0.2116728223738244	-8.279276793859543	4.119367708597241e-14	0	0	2.478670601168905	-0.8263436584096078	-0.415505672784746	2.578283585422849	4.119367708597241e-14	0	0
0.9368312594138312	0.2066736238795992	-0.02789770079091321	-0.4598653796210616	-0.1507260515891911	0.06434278725742439	-0.01933148468022833	1.592593576312492	-0.1330310243762567	0.1949089019125224	-2.957939666438703	-1.777488667743704e-15	-3.045837346064244	-0.2942375378586194	0.09674191611172425	0.2562919228275916	-1.535488522119254	-0.07690479144029354	-0.5397406896390985	-0.9884424350040639	-1.852697097012159e-15	-1.237061229842345	0.06675093018110664	0.6136708015181011	0.08665613240093802	-0.593326879889184	0.1955424636019489	0.133617109092781	-0.5791911943914448	0.3373217892301475	-0.005107669209447349	-8.448723770399234	-1.803402528913133e-13	0	0	2.251420792079247	-0.7930565974124535	-0.4964418314223439	3.055057140733779	-1.803402528913133e-13	0	0
0.9408000000000003	0.1904643209109406	-0.0306333719466597	-0.4567459277148391	-0.1505976848878663	0.05775600213497863	-0.01788408938878792	1.547364767167446	-0.1174346899115452	0.2160354641598883	-3.142257831407309	-1.290453589732132e-15	-3.263235194278112	-0.2998136237159731	0.123688863007272	0.2933286159916249	-1.511621914882805	-0.0716763101076659	-0.5174507129787899	-0.9780819471074589	-9.038534283269336e-16	-1.229857157780796	0.07166105636587365	0.5820824570384386	0.08018119777610638	-0.5828811081663885	0.2032073701716479	0.1340237883611897	-0.5225057138689861	0.3315373027188725	-0.04490539107155656	-8.456882848767407	-1.760288709218407e-13	0	0	2.212474531932064	-0.786974149837118	-0.5017521676865802	3.145908153337583	-1.760288709218407e-13	0	0
0.9503128561131143	0.1542884648430519	-0.02707820554475549	-0.443937018000786	-0.150623161409441	0.04132006361027549	-0.01402839988471091	1.4254416537152	-0.08474678286014571	0.2785054529013417	-3.580256500040615	4.218405965814203e-16	-3.7716222806461	-0.2268393243534775	0.1240220083136178	0.3000346827236998	-1.452160108837805	-0.05170394694468074	-0.464416004259847	-0.9426655117488367	2.550258428390129e-15	-1.201721435201602	0.09023763219630399	0.5079665458184643	0.07310498800193024	-0.5632255444282921	0.2073473169208682	0.1307266913059336	-0.4004996935102831	0.3137323742034481	-0.183531117817543	-8.489452593140484	5.052322204313333e-14	0	0	2.125145671396867	-0.7683367733092998	-0.5305398175401694	3.392820231685186	5.052322204313333e-14	0	0
0.9672558844730554	0.04731991415720573	0.0359179140178246	-0.3667607560050661	-0.1453322561153855	0.006733417710405623	-0.01389255370355005	1.226459722835476	-0.1141364697614728	0.4033799502117461	-4.333767487259179	4.539209096650482e-15	-4.613431443044556	-0.2665664212789473	0.133000416082538	0.2547272067245505	-1.291678472924759	0.05443392254296341	-0.2888021424837039	-0.8611919599928047	5.760209546145065e-15	-1.118122651640239	0.08405967900837405	0.3063211440308776	-0.1005852691483651	-0.4754767739299242	0.1501754256286214	0.08091608003885969	-0.385782955524495	0.2418642534677717	-0.8053406485024004	-8.321212436965688	1.761030868894683e-13	0	0	1.829732570948206	-0.6710968317435966	-0.6651390081826616	4.032721207646792	1.761030868894683e-13	0	0
0.9816312594138312	-0.03121067708232126	0.08672197126882208	-0.3026066172797806	-0.1370362498217842	-0.02304654155492729	-0.007713254341964307	1.01711368463172	-0.1144769948385041	0.5716982809086012	-4.951927269678511	-2.865887976325839e-15	-5.228436000375488	-0.5178823531518049	0.2547370601648367	0.2056925179584345	-1.160537331694473	0.1173914003492722	-0.1764789903102714	-0.7577694734626268	-2.10175921893727e-15	-1.020253300255487	0.1344088034643965	0.2422101484881735	-0.1430030501768793	-0.4023536296438199	0.09510350801545078	0.02961386504618978	-0.5121906086875062	0.1925637512071977	-1.192518335449082	-7.869642278162302	-1.006422713178705e-13	0	0	1.665905144300452	-0.5867731276886772	-0.6847545860656969	4.242503393051999	-1.006422713178705e-13	0	0
0.9856000000000004	-0.04836100987100447	0.0942197207130198	-0.2887212735995671	-0.1348266807020073	-0.03105034495300446	-0.004646654138254113	0.9523502616864489	-0.1023782820530202	0.6264582625365588	-5.10734402382155	-3.018150006764754e-15	-5.376081588300701	-0.5373691592554315	0.2851061740827607	0.1942658781460701	-1.128246691783588	0.1257166633820286	-0.1493749415992786	-0.7285332790586035	-3.733139788573421e-15	-0.9897573344135764	0.1489306204323859	0.2124638185356102	-0.1311760548547012	-0.3852447236522306	0.08495447876800183	0.01903596510428971	-0.5221000144477982	0.1831177681099143	-1.273160967433869	-7.760121740431535	-1.424306165798977e-13	0	0	1.644306910981456	-0.5704355108461968	-0.674407298434013	4.287714079010824	-1.424306165798977e-13	0	0
0.9951128561131144	-0.08617292897078455	0.1209551248781622	-0.2467890004470788	-0.1282810884405962	-0.05043125505889312	0.002648448892742059	0.7944739144505292	-0.08899531528374355	0.7543793875217276	-5.419491602460011	3.612568673462353e-16	-5.681393696090331	-0.4825672290168364	0.3018677821775133	0.1062736892281608	-1.05244675870403	0.1557022923616962	-0.0634591753782789	-0.6550760814983845	-3.703717141317712e-15	-0.9115116125421635	0.1774262808880972	0.09913318127351908	-0.1063192766790475	-0.3417207066837133	0.0480128155928075	-0.01200024951551266	-0.5564350112083463	0.1561684145766471	-1.502558493045162	-7.471099756380998	-5.50349504490327e-14	0	0	1.598571288513565	-0.5246228572798129	-0.6666039318437261	4.426236944419474	-5.50349504490327e-14	0	0
1.012055884473055	-0.1562097545684266	0.2365632614573092	-0.1213497873304344	-0.1058724745208524	-0.08573024338744809	0.01250945750867599	0.5364948327259341	-0.1868490352624443	0.9463266659076095	-5.744117777921034	-6.982151329912144e-17	-6.01850054071059	-0.5794922535386742	0.2946372642319958	-0.2571863813924025	-0.9029096092908662	0.2765227782380544	0.1555906695799003	-0.473656408948549	1.912440361932806e-15	-0.7565832691193909	0.2663792792508806	-0.08913019929190985	-0.1024113140854668	-0.2295310203290131	-0.09762629752265473	-0.1184493422551395	-0.9479670021930648	0.08118291346556651	-2.024064100709139	-6.35800757607047	1.233590682845407e-14	0	0	1.476879552118996	-0.3739133195440028	-0.6906891427724443	4.467700628597829	1.233590682845407e-14	0	0
1.026431259413831	-0.168722364109543	0.2663756193610833	-0.04120738585673574	-0.08010066382930037	-0.1120321288694986	0.03159869715863201	0.3423949296382957	-0.1808539028123129	1.061463153774917	-5.623973314144716	-7.928256107641975e-17	-6.053636267835526	-0.8563866392422061	0.372829371394675	-0.3743242757232917	-0.8273116412379993	0.2710597656093526	0.2178854608521685	-0.2807584936229744	1.720410368006654e-15	-0.6111091975455035	0.4338133187710974	-0.02291593815324013	-0.05230023796981898	-0.1463386359798941	-0.1659907462700117	-0.1856467536251606	-1.215246683871497	0.03926988456848358	-2.070466002467453	-5.378621171133368	-3.151988317036028e-16	0	0	1.451265774361645	-0.2726161933045828	-0.6366289110180505	4.300601660717854	-3.151988317036028e-16	0	0
1.0304	-0.169330371342178	0.2677391511096321	-0.02559258639659868	-0.07317199108848688	-0.1188273141445959	0.03817405087704658	0.3004933130548392	-0.1697063138133544	1.078018014081084	-5.529157213425423	-8.05681434296616e-16	-6.01841382444503	-0.8735532514139368	0.3931329780533376	-0.3946322305741522	-0.8079283437370143	0.2611201123909147	0.2280999632156888	-0.2266880337726161	4.333771071356005e-16	-0.5686960236255488	0.4736858311385233	-0.02726739019188271	-0.0237353517509853	-0.1231094066423332	-0.1806814445338692	-0.1989259772646948	-1.228229683664325	0.03053766263204151	-2.084166515125542	-5.160451326460028	-7.772367864846349e-15	0	0	1.462321866306282	-0.2534218412814349	-0.6136237079981102	4.286056760971857	-7.772367864846349e-15	0	0
1.039912856113114	-0.1767420882162933	0.2776836894895134	0.01708844917632746	-0.05578853354691693	-0.1349373109846237	0.05343492611938117	0.2331846637123977	-0.1586249776576568	1.03203683097872	-5.186954822705255	-1.42485369411177e-15	-5.852246569124693	-0.7826625817026449	0.3772427287403288	-0.4992902379194902	-0.7538704158147264	0.2480542171799389	0.2762472135701793	-0.0985081862362826	-1.712846225772127e-15	-0.4629193400379871	0.5521110964715816	-0.1003388880843653	0.03291868093509918	-0.05533578048279203	-0.226121609877519	-0.2343476836632861	-1.263798751501772	0.005825077038133597	-2.136129049500859	-4.592559208711581	6.064277838548645e-15	0	0	1.497710860839876	-0.2011584052672915	-0.5752058875407042	4.282815505341214	6.064277838548645e-15	0	0
1.056855884473055	-0.1869672392503851	0.2891170607428824	0.1245771077203622	-0.01449715748048868	-0.1608554659448419	0.08051878104516622	0.1866628868531786	-0.15111237838211	0.6604666625544199	-4.20132043703512	6.482647390825405e-16	-5.2776464642271	-0.6967443021441984	0.2596279886755826	-0.7456615777390176	-0.6745760139306566	0.2017179712330025	0.3298792145176494	0.1503236390579131	-3.310530634191699e-15	-0.2589491481013632	0.7753790628821515	-0.01217925711257931	0.05492030417023594	0.09669574032816566	-0.304813276479581	-0.3177437879723802	-1.65775217116755	-0.04380917835997157	-1.838404621480472	-3.036439189780865	-3.180332611584743e-14	0	0	1.58264039181479	-0.06176188173171923	-0.5264954086334076	3.941229899982877	-3.180332611584743e-14	0	0
1.071231259413831	-0.1867057765484464	0.222828705547294	0.165884325335844	0.0209972846679401	-0.1775007132220171	0.1105455352228169	0.2000115158100865	-0.0172893553174146	0.1265095897105878	-3.134521284134497	4.857803785944256e-16	-4.542400753923165	-0.8208512798015823	0.2069296930119958	-0.6813679445478875	-0.6430003406277254	0.07036470229835833	0.2833589079944117	0.3064305087000675	2.062087419546187e-15	-0.06876737685564201	0.8738802073042318	0.0990816271548004	0.008473444513079525	0.2305708847010867	-0.2990122877036109	-0.3472687390893966	-1.778458290116719	-0.06611709438419079	-1.332282146940512	-1.959927969609407	5.377173471497546e-14	0	0	1.703470408741372	0.01401793648284772	-0.4678092485549142	3.725829592287318	5.377173471497546e-14	0	0
1.075200000000001	-0.1865186462081876	0.2074118678629799	0.173937163460306	0.0301486657268709	-0.1811883411381053	0.1187003534868218	0.2013675134525625	0.02287466364934941	0.01231701983800067	-2.853193020908816	-3.258102581266503e-16	-4.306892003328969	-0.8111159707372952	0.1983818654863241	-0.6699602927980165	-0.6321704355591978	0.03845524371137506	0.2714524208614822	0.3511036329678416	1.517917161465862e-15	-0.01317755775881974	0.8960530391880266	0.1137563331195474	0.009853305389468596	0.2648466483353911	-0.2999252133220158	-0.3538149616864372	-1.761428084353142	-0.07133386049714206	-1.241719665293669	-1.727863058127436	3.370884543115338e-14	0	0	1.744140107175653	0.02800584960504117	-0.4450631668814942	3.710085631962159	3.370884543115338e-14	0	0
1.084712856113115	-0.2004738407044623	0.1808641600742086	0.2086384693188566	0.05359122631625428	-0.1901537760174496	0.1356590906155574	0.2030744772007052	0.09967703088101132	-0.2425545039374824	-2.213426084289621	-6.481615732139668e-16	-3.698545047406331	-0.619806576034212	0.146682569560272	-0.7262505333465418	-0.5860397909899488	-0.02380864150475545	0.2667602495955087	0.470222734623382	1.410071270677574e-15	0.1258803239033796	0.9616292627811549	0.1336943497276921	-0.009711263659068454	0.364038897060407	-0.3094639139983259	-0.3759402617457053	-1.773171184664855	-0.08861770010989958	-1.051959266698572	-1.143305273358109	-4.950365478340973e-15	0	0	1.83848815134077	0.07060283081504343	-0.4040872333198461	3.692045816467353	-4.950365478340973e-15	0	0
1.101655884473056	-0.2571418777504491	0.05905258061055348	0.2838877518539544	0.1073721080609102	-0.2071919445002675	0.1659802179934075	0.2200470157704804	0.2998846850991531	-0.9664417623816564	-1.007005754492686	1.250552231915924e-15	-2.520253023769723	-0.3160476482537597	-0.05088315926191393	-0.7092220483975649	-0.5086533069151066	-0.2282334610635927	0.2074417009105121	0.6393066022223409	2.618996115524328e-15	0.3973157850294057	1.068792366042943	0.3243777515315009	-0.2536715265752916	0.6126772160870617	-0.2420550203280921	-0.3966360058205683	-2.082909995144071	-0.1149394585788997	-0.1955079202325585	0.04297308357376104	3.802547067682794e-14	0	0	1.961853585585965	0.1692545067551422	-0.3870259357455405	3.475766530373338	3.802547067682794e-14	0	0
1.116031259413831	-0.2590569213830247	-0.03001150160862366	0.3234837215617394	0.1580894836293195	-0.2143700063077991	0.189130558881574	0.1102279343564116	0.4664018064111622	-1.145863097297377	-0.2825880635741037	-2.270757506129439e-15	-1.502554598673397	-0.1746984216070877	-0.2725353409139681	-0.5084583164787692	-0.5387664808437355	-0.3856463162979491	0.1092477891856167	0.696391624743729	-4.576626523670701e-15	0.656599468453868	1.094857813199452	0.494799509927325	-0.2602080547267621	0.7707887301080991	-0.1821550922143116	-0.4086456155210383	-2.230012206293939	-0.1273379420580988	0.303557757108525	0.6406754151921128	-8.36631265941663e-14	0	0	1.96834374594326	0.2295434116071668	-0.3496096051209312	3.346941351993573	-8.36631265941663e-14	0	0
1.12	-0.2502774262584945	-0.05431649958002351	0.3272664800036886	0.1720050847260527	-0.2150969816932908	0.195578832333127	0.06034865815721008	0.5170731724800275	-1.115708869767435	-0.1295139125788267	-2.573780320662067e-15	-1.223565671499346	-0.1621417571820931	-0.3311864351946414	-0.4139764442848572	-0.5638336632670804	-0.428321191106361	0.07902028221710358	0.6949449779920502	-5.471648735180289e-15	0.7309946268679718	1.073326446534436	0.5342748322273629	-0.2209189242622511	0.8022526226898395	-0.1635616597965669	-0.4093509292622807	-2.226668082131931	-0.1275207067936133	0.4001843538741489	0.7231492357947309	-7.997673530400637e-14	0	0	1.962376219014755	0.2384186920684981	-0.3325247853542469	3.331132241252852	-7.997673530400637e-14	0	0
