DataType=double
version=3
OpenSimVersion=4.5-2024-01-10-34fd6af
endheader
time	pelvis_tilt	pelvis_list	pelvis_rotation	pelvis_tx	pelvis_ty	pelvis_tz	hip_flexion_r	hip_adduction_r	hip_rotation_r	knee_angle_r	knee_adduction_r	knee_angle_r_beta	ankle_angle_r	subtalar_angle_r	mtp_angle_r	hip_flexion_l	hip_adduction_l	hip_rotation_l	knee_angle_l	knee_adduction_l	knee_angle_l_beta	ankle_angle_l	subtalar_angle_l	mtp_angle_l	lumbar_extension	lumbar_bending	lumbar_rotation	arm_flex_r	arm_add_r	arm_rot_r	elbow_flex_r	pro_sup_r	wrist_flex_r	wrist_dev_r	arm_flex_l	arm_add_l	arm_rot_l	elbow_flex_l	pro_sup_l	wrist_flex_l	wrist_dev_l
0	-0.09700667812834186	0.06889816034589061	0.02848082316852594	1.056359896314557	0.9457165017075937	0.4329063907334257	0.613975736221759	-0.2393231426237938	0.1318800125447317	0.3640262995678206	0.03879643001440361	0.3484251164524865	-0.05196741087533205	-0.378644703414895	-0.04237228992711711	-0.03704368892612492	0.05854572980295385	-0.0928643254820781	0.179609255996874	0.09396746454545897	0.1563783269951612	0.2661179489962145	-0.06635565620336378	-0.03539987579571074	-0.1795903336532683	-0.01671153675623751	0.06247601866307927	-0.2099288630063261	-0.1661225742003514	-0.4759779960058643	0.2265188417088823	1.570796326969429	0	0	0.5048771639210532	-0.3314988015297102	-0.0451534638809673	1.415403710950121	1.570796326969429	0	0
0.009512856113114032	-0.1009838150462846	0.06724594103249493	0.0308743173490704	1.058116743451162	0.9437138424789245	0.4347447877741679	0.6128192527125818	-0.2349448064256404	0.1201840111199794	0.3660972894418842	0.03879643001440362	0.3352255525811833	-0.05134421115750301	-0.3832703166629529	-0.04634331927269813	-0.0414022829443495	0.05335017971750673	-0.09335557583439308	0.1851066193567088	0.093967464545459	0.1608688073584537	0.2756420173094115	-0.05976616957202804	-0.03746291171731607	-0.1719041993636539	-0.01801004894179473	0.05792216554847969	-0.2288823931629956	-0.1665055387112712	-0.4705375401984395	0.2355618183162723	1.570796326969429	0	0	0.5237446512986168	-0.3294850617022925	-0.04875499314366956	1.447873484996561	1.570796326969429	0	0
0.02645588447305514	-0.1058509840171887	0.06303899498704046	0.03594047599724359	1.061854968821001	0.9404608869012583	0.4382782144470613	0.606169414599256	-0.2249582664171645	0.1013965925365635	0.3779542152614765	0.03879643001440364	0.3279258688304888	-0.05200297770163709	-0.3927194503590583	-0.05238566893293951	-0.05158644996350753	0.04200547248006194	-0.09379269462219583	0.1956092114067819	0.09396746454545904	0.1763614874309316	0.2895049795993644	-0.04880290241057553	-0.04213271197690689	-0.1590195779858327	-0.01887813344659089	0.04943155400420304	-0.2530567024375063	-0.167061261253613	-0.4540615399716005	0.2535251224310761	1.570796326969429	0	0	0.5491486967276786	-0.3250112002260271	-0.05549114376304768	1.500296247823024	1.570796326969429	0	0
0.04083125941383081	-0.1075311387119711	0.05841729265030268	0.04102790440266201	1.065592254483476	0.9380792588186143	0.4414398653601774	0.5956670272782676	-0.2148719929170547	0.0933453153945998	0.3920383366846579	0.03879643001440364	0.3361017332090348	-0.05690990933435711	-0.4044629028817491	-0.05646273905475752	-0.06187724939005262	0.03079424468601933	-0.09218123100547448	0.2071572651410475	0.09396746454545907	0.1983482882394516	0.3002045844997783	-0.0424759121152691	-0.04696804833355157	-0.1494528941569265	-0.01793785162896261	0.04176331494949612	-0.2657405109584128	-0.1674013359134776	-0.4355681879814428	0.2670874988317775	1.57079632696943	0	0	0.5609457237507929	-0.3201640828286476	-0.06173671470477896	1.538250698503591	1.57079632696943	0	0
0.04479999999999995	-0.1077593201773675	0.05701790171528003	0.04254272496623163	1.06668175923425	0.937468221296227	0.4423334235925124	0.5921036610734602	-0.2119357587059998	0.09349403079982524	0.3951329825179312	0.03879643001440364	0.3403153175072408	-0.05943447046413877	-0.409192001995614	-0.05744236013205151	-0.0646562687454143	0.02753203502280887	-0.09139523594532756	0.2108050989085982	0.09396746454545907	0.2060214459245196	0.3019939914608945	-0.04190769173242745	-0.04801575938399611	-0.146925389341801	-0.01745911731552091	0.03956762685844821	-0.2679783466487539	-0.1674966614994454	-0.4306918010792005	0.2703240664998209	1.570796326969431	0	0	0.5633368406300253	-0.318704631914578	-0.06340130923740012	1.54822080687837	1.570796326969431	0	0
0.05431285611311398	-0.1080210936069252	0.05335342401345976	0.04637350912156658	1.069371846860621	0.9360987768631667	0.4445308944375572	0.5828560394653959	-0.20467269487758	0.09556780100458769	0.4013655844430943	0.03879643001440364	0.3532275253426	-0.05998695027559708	-0.4219541285476149	-0.06066245682305708	-0.07096030193388997	0.01929094380562326	-0.08884390817211599	0.2208592909334793	0.09396746454545908	0.2274597179529609	0.3064919027637173	-0.04158288772464339	-0.05090698023569235	-0.1410145692831042	-0.01595383384683136	0.03417737656873677	-0.27209097550786	-0.1677511271310516	-0.4187882134258066	0.2777484008055925	1.570796326969431	0	0	0.5676171630001037	-0.3150099051357155	-0.06727259909922317	1.57139585570649	1.570796326969431	0	0
0.07125588447305514	-0.1072468532256863	0.04564281141619384	0.05168908295035149	1.074316578994784	0.9342760824455838	0.448832795842981	0.5676480308563419	-0.1894172965340284	0.1007139578136195	0.4198595707213339	0.03879643001440362	0.3833153567823612	-0.03320805426058297	-0.4435101053663303	-0.06932545969442583	-0.08089050357430788	0.003266136961226157	-0.08352292297832484	0.2432214393934259	0.09396746454545898	0.2769414838037666	0.3102596880593904	-0.04778838744912883	-0.06029835259098396	-0.1315355365869054	-0.01194509442016221	0.02397423873260321	-0.2766826925640917	-0.1678732695300385	-0.4000542901069851	0.2841288363392045	1.570796326969429	0	0	0.5667077153849802	-0.307457584111656	-0.0745920822163596	1.607510200243687	1.570796326969429	0	0
0.08563125941383082	-0.1054233316984175	0.03728441835397029	0.05349005296246014	1.078515699288913	0.9335794994855671	0.452992017696015	0.5585222668192528	-0.1728946015996951	0.1036852486613625	0.4451359207761011	0.03879643001440364	0.412026053934314	0.003321132349788564	-0.4577245022209696	-0.07526433228505505	-0.08712804152700232	-0.0124791284152824	-0.08022544912361081	0.2680811751701219	0.09396746454545904	0.3308064363104889	0.3084977824537261	-0.05845932137674442	-0.0740929431126565	-0.1247047048443687	-0.006718681416625873	0.01489311862012086	-0.2802063611298198	-0.1673444852287478	-0.3879530177557243	0.2803461963585755	1.570796326969429	0	0	0.556643317550928	-0.3001102567674593	-0.08155477059745732	1.631826303862227	1.570796326969429	0	0
0.08960000000000001	-0.1048612713051462	0.03460889648740362	0.05363636747225022	1.079653533432793	0.933528649946249	0.4542173473849059	0.5564722353613736	-0.1677355172271672	0.1046846261187168	0.4524484430522769	0.03879643001440364	0.4199149394272091	0.01048464334746863	-0.4614550842268091	-0.07555515633112403	-0.0881421913219339	-0.01733103935056063	-0.0798888973024643	0.2762966561605473	0.09396746454545905	0.3476083824678753	0.3072966476883472	-0.0614769630412699	-0.07838089341491887	-0.1228892573800185	-0.00495420329412191	0.01241332613625202	-0.2813448205283073	-0.1671138028179418	-0.3851887576999747	0.278326274111987	1.570796326969429	0	0	0.5531633611225808	-0.2980216231737601	-0.08347901835759136	1.637979328880006	1.570796326969429	0	0
0.0991128561131141	-0.1033313235581786	0.02792801084241735	0.05389127238295648	1.082391984168886	0.9336179256161315	0.4572047528111056	0.5512271208025492	-0.1548524457472301	0.1070079725636376	0.4699384382194187	0.03879643001440362	0.4380457699112437	0.02989635881179819	-0.4706267101618313	-0.0775755904292372	-0.08944682740149973	-0.02936172177805018	-0.07890681196411117	0.2980528313439438	0.09396746454545904	0.3911827230090199	0.3022632940769264	-0.07041803748203335	-0.0882596348129184	-0.1186471505168509	-0.0004731855366027907	0.006681445783113965	-0.2843201373367523	-0.1665399569405996	-0.3789842793037206	0.2723486877212896	1.57079632696943	0	0	0.5435304507517382	-0.2929561348341594	-0.08822471522987947	1.652044236020305	1.57079632696943	0	0
0.1160558844730551	-0.1003131551162463	0.01502971707798242	0.05402394162666908	1.087332887072835	0.93447066400747	0.4626115146844469	0.5368376644798531	-0.1306253808719285	0.1110221882312611	0.4915827047188548	0.03879643001440364	0.4653720532456865	0.05880962230850805	-0.4877144677216499	-0.0813078342658925	-0.08727386415641802	-0.05215422520796056	-0.07661346127563429	0.344826069864289	0.09396746454545907	0.4794281241452035	0.2880193800269176	-0.09080868550346832	-0.1043224656255186	-0.110691767375809	0.00851329116395903	-0.002348534894366106	-0.285392505019279	-0.1657781813438205	-0.3720554573458142	0.2593698626694992	1.57079632696943	0	0	0.5222510421149561	-0.2834881777401653	-0.09729611888666558	1.67305183463112	1.57079632696943	0	0
0.1304312594138309	-0.09779519453113589	0.003401954260194008	0.05428522852784353	1.091516784189069	0.9357438792487318	0.4670826721269353	0.5171930501351132	-0.1100635566366988	0.1132573483662467	0.4945334705228998	0.03879643001440364	0.4814445210910061	0.07032268909106287	-0.5019703095998074	-0.085465354340535	-0.08020162057457575	-0.07220153604207133	-0.07289629066705226	0.3929061158134394	0.09396746454545905	0.563034013756934	0.2715482295699722	-0.112270663009586	-0.113236442388175	-0.1032113820433807	0.01718580982501251	-0.008357172213889706	-0.2783710392674192	-0.1657199328965037	-0.3701562930641836	0.2489798564477742	1.57079632696943	0	0	0.5006524981424805	-0.2749728906337555	-0.1053594998251813	1.685151822039948	1.57079632696943	0	0
0.1344	-0.09716219772828893	0.0001379918966408556	0.05449262380348775	1.092636938363513	0.9361545178118843	0.468270729155059	0.5107481498440499	-0.1046017893532403	0.1134803993635977	0.4930646314168189	0.03879643001440364	0.4845776293842117	0.07113330488694647	-0.5057481894378759	-0.0867818078728632	-0.07719413114752766	-0.07779084735474102	-0.0716394556187421	0.4076863857134059	0.09396746454545905	0.5871566515903593	0.2668603354401352	-0.1186600668627255	-0.114205054223462	-0.1010812734888471	0.0197358235385173	-0.009729296359397782	-0.2753741344757564	-0.1658246692569639	-0.3697266506888706	0.2467901617838762	1.57079632696943	0	0	0.4944447532656675	-0.272595309537398	-0.1074610145415218	1.687610716982515	1.57079632696943	0	0
0.1439128561131141	-0.09546355597281493	-0.007997937974814271	0.05498518587273262	1.095261357609947	0.9372345097655805	0.4710504530046583	0.4939925439547895	-0.09138915474819889	0.1138319840987654	0.4873707700496057	0.03879643001440363	0.489776957653244	0.07494637075544683	-0.5138102870235589	-0.09051348404645398	-0.06864976606229284	-0.09132453353353609	-0.06787125036257362	0.4455390426912819	0.09396746454545903	0.6461754949386566	0.2551201804029303	-0.1363241350733215	-0.1141692305456654	-0.09620966225010572	0.0263934409195017	-0.01267210963140937	-0.266952144833591	-0.1660840789274762	-0.3682825730829408	0.2419502353454186	1.570796326969429	0	0	0.4785997982205612	-0.2668656183985318	-0.1124392030811824	1.691975425168772	1.570796326969429	0	0
0.1608558844730551	-0.09184613063388347	-0.02353848097890605	0.05644475767299655	1.09946045812373	0.9393673547173852	0.4756385387921551	0.4608984899349004	-0.06765768422313376	0.11389118602438	0.471408436823629	0.03879643001440365	0.4915658001752486	0.08546507679697041	-0.5255683821427636	-0.1014797777002123	-0.04631632730350971	-0.1157094678816964	-0.05678832914114053	0.5271480086078795	0.0939674645454591	0.7527490485008804	0.2351553500629152	-0.1722675633687903	-0.09831745608743594	-0.08886701987423928	0.04034379377645769	-0.01646092828306648	-0.2469260659916918	-0.1673858200522658	-0.3631536134738064	0.2394157982269467	1.57079632696943	0	0	0.4472079713636819	-0.2561344757405428	-0.120067482786302	1.689231888603806	1.57079632696943	0	0
0.1752312594138309	-0.08804489288023484	-0.03735348097404749	0.05805622456972535	1.102395593955974	0.9411874059182583	0.479159440537502	0.430908692222419	-0.04755018189555414	0.113790038746617	0.45366344488868	0.03879643001440365	0.4870073248711306	0.09157902764695902	-0.5344092707372512	-0.1145279784753007	-0.02141179203028348	-0.1366737979928695	-0.0447618394726459	0.6037572618202512	0.09396746454545901	0.8407928562247766	0.2444483031415617	-0.2106136384585786	-0.07988628792870499	-0.08446177353062699	0.05371558597437767	-0.01836114229286858	-0.2250603029145997	-0.1698590848684203	-0.3559755490711742	0.2460780283339076	1.570796326969428	0	0	0.4186104059416267	-0.2461965423899831	-0.1243663081788167	1.674089703114176	1.570796326969428	0	0
0.1792	-0.08695741535285061	-0.04108033054809661	0.05848469063138478	1.103109730386618	0.9416589176798149	0.4800825028344046	0.4225888865523454	-0.04217541281981155	0.1137761730679902	0.4482518205561418	0.03879643001440365	0.485015409086006	0.09163256555119471	-0.5370238876226103	-0.1180305450244969	-0.01478606286894651	-0.1424812563941242	-0.04226284012092218	0.6203056386378878	0.093967464545459	0.8641866533942432	0.2575908476326322	-0.2240953396188826	-0.07820549706855888	-0.08344358581711506	0.05736722397975724	-0.01881763041895974	-0.2179184516143153	-0.1707737521239652	-0.3536638202613684	0.2495383293639803	1.570796326969428	0	0	0.4109868661248549	-0.2433162737660568	-0.1250495654196414	1.668535607062651	1.570796326969428	0	0
0.1887128561131141	-0.08421233057433804	-0.04995993611438734	0.05980153073066014	1.104688214686945	0.9426959008477881	0.482179539507015	0.4027391002006092	-0.02967994090435901	0.1134486475603823	0.4355746680226837	0.03879643001440364	0.4793092799431573	0.09330463298553915	-0.5417155705211431	-0.1266532193085241	0.001815985799898723	-0.1564260903497522	-0.03651374607916795	0.6638563802581198	0.09396746454545898	0.9179741706970704	0.2626715084251496	-0.2476090355374342	-0.06532539877292554	-0.08141496401884493	0.06620495811534323	-0.01975518706196384	-0.200956865816367	-0.1732144185140334	-0.3474898807314603	0.258736095004632	1.570796326969428	0	0	0.3918033807894497	-0.2362675152834803	-0.1261215386341593	1.65282161465119	1.570796326969428	0	0
0.2056558844730552	-0.07901883297873986	-0.06413851414793939	0.06316722830572807	1.106830565214346	0.9443626123456096	0.485455812239363	0.3681757994690077	-0.01024682202820524	0.1121003047614132	0.4139670986875368	0.03879643001440364	0.467122312274925	0.09915990335826184	-0.5458546558398349	-0.1414093322261594	0.03158977201877161	-0.1788398461888509	-0.02674564522964533	0.7281857173570603	0.09396746454545903	1.003582163257851	0.2469349268019659	-0.2733808556161768	-0.02268732623636025	-0.07950762988141828	0.08062146053086193	-0.02121905822105303	-0.16754120440562	-0.1794809685970663	-0.3345522529702781	0.2850376272906038	1.570796326969429	0	0	0.3586417731731181	-0.2226476405214529	-0.1250067026084508	1.613567242261086	1.570796326969429	0	0
0.2200312594138309	-0.07444298235234501	-0.07367579398313136	0.06731198212440759	1.107892721554973	0.9456283350497331	0.4877323385979219	0.3401889304073933	0.002486790022564388	0.1100332857094278	0.3969446578771416	0.0387964300144036	0.4560561479351946	0.1030477369377033	-0.5467577244156896	-0.1513237820005167	0.0586810188831198	-0.193534558442721	-0.01786757944658075	0.772052267132376	0.09396746454545903	1.063668698373304	0.2323559773438704	-0.2853541319228758	0.02305695701453434	-0.07982260769392364	0.09058257427197554	-0.02229132900974838	-0.1384847561047729	-0.186896562747903	-0.3222999494921945	0.3173035168645806	1.570796326969429	0	0	0.3324014640252994	-0.2100540612044476	-0.1211471180903397	1.56740916199455	1.570796326969429	0	0
0.224	-0.07321251106760995	-0.07592579763906397	0.06864588466041457	1.108082148712063	0.9459502855176841	0.4882904894985735	0.3327211735632837	0.005461182776298671	0.1093451493970381	0.3923872976088679	0.0387964300144036	0.4530077597625574	0.1032354350689976	-0.5469206537458453	-0.1532290862291437	0.0665913182752651	-0.196906293838409	-0.015561039268924	0.7829557603844333	0.09396746454545903	1.078003530531132	0.2313425631728821	-0.2890640019471412	0.03408963309572948	-0.0801401283540227	0.09296443384850001	-0.0225436262229687	-0.1309381537453338	-0.189119180695123	-0.3188373431194188	0.326866055606474	1.570796326969429	0	0	0.3253181996342811	-0.2065320624417467	-0.1198083174625155	1.553241152888181	1.570796326969429	0	0
0.2335128561131141	-0.07026319155498373	-0.08099277907905948	0.07211935651565271	1.108366927665609	0.9467110813165566	0.4895135582853043	0.3153035719371739	0.01207190253517271	0.1075863590446131	0.3821580681202965	0.03879643001440358	0.4458022787441963	0.1052749804984933	-0.5464460690372671	-0.1573370985882089	0.0859676288789441	-0.204309931897092	-0.01027498234180617	0.8059302945641535	0.09396746454545903	1.108215278784868	0.2296750314221163	-0.2986581684469811	0.06115607445887148	-0.08136588187764057	0.09846454159676546	-0.02308024868278967	-0.1132311073498211	-0.1946987893039114	-0.3100974933052717	0.3507241890753793	1.570796326969429	0	0	0.3079971509923779	-0.1979953935534021	-0.1161069465268565	1.516967477666419	1.570796326969429	0	0
0.2504558844730551	-0.06522265564623883	-0.08723940719621399	0.07986777632690541	1.108165335293385	0.9480317161614426	0.4912397803596171	0.2861028037836004	0.02013397590445695	0.1037708558954901	0.3662524027406671	0.03879643001440362	0.4333847925262553	0.1122518181160772	-0.5430443232414024	-0.1608985259612499	0.1231661701786348	-0.2126166648365529	-0.001739830475220893	0.8385766009582346	0.09396746454545901	1.147292291014472	0.2354769190224374	-0.3205450217456757	0.09656447215815975	-0.08523208141493051	0.1055221871727817	-0.02432943094624474	-0.0823740181161674	-0.2059540614211555	-0.2950920971136853	0.3980377513212346	1.570796326969429	0	0	0.2782709095629508	-0.1823091140421003	-0.1077615432479941	1.441431817211017	1.570796326969429	0	0
0.2648312594138309	-0.06138771608162229	-0.08941616037485868	0.08809032933313361	1.107290676605846	0.9491413424957874	0.4923017188284101	0.2630650116768267	0.0230866080021301	0.1000198211848929	0.354172217073941	0.03879643001440362	0.4230557844559663	0.1179311201394023	-0.539783191422782	-0.1596698103185663	0.1576599784782843	-0.2146014520777055	0.004282118036976181	0.8585074974201445	0.09396746454545896	1.165782531971648	0.2417876682772693	-0.3395510496887073	0.1104724667461357	-0.09003185484276277	0.1081834414098293	-0.02594123200624875	-0.05716046267477823	-0.2168409481369361	-0.2845885969885447	0.4427425005937972	1.570796326969429	0	0	0.2554592732068253	-0.1685909628042289	-0.09918595201662829	1.366278242076307	1.570796326969429	0	0
0.2688	-0.06043406723999115	-0.08976745649312595	0.09051615066708402	1.106972310183064	0.9494476679873839	0.492557400498683	0.2568689211315427	0.0236301673504209	0.09901573331226909	0.3507011644045837	0.03879643001440362	0.420177281475399	0.1188526730654437	-0.5393890622684809	-0.1587971791182652	0.1674479817481609	-0.2148204456822947	0.005477717124483039	0.8624474857033029	0.09396746454545897	1.168576321574191	0.2417842250995568	-0.342633013009399	0.1127157865518726	-0.09148728445157127	0.1086347039728189	-0.02643904693979806	-0.05056992581431993	-0.2199213554126943	-0.2820572961362008	0.4552353945867624	1.570796326969428	0	0	0.2494472607958556	-0.1648260177671866	-0.09670656950611377	1.344616438263178	1.570796326969428	0	0
0.2783128561131141	-0.05824043271104409	-0.09027767853058026	0.09654971601998633	1.106068465737458	0.9501874289939626	0.4930978595138953	0.2424013196821266	0.02452094312602406	0.09654282158351513	0.3428142561346362	0.03879643001440362	0.4131188954103553	0.1220209297799358	-0.5378134918412925	-0.1560786905163652	0.1913137342700857	-0.2147569121350059	0.007747581274642643	0.8696489043998237	0.09396746454545903	1.171311945166582	0.2443677330648685	-0.3473266948220162	0.1163582343262941	-0.09535462344600859	0.1093834628143864	-0.02770512198655391	-0.03515535964877403	-0.2274456828991742	-0.2760653733936351	0.4857093434612707	1.570796326969429	0	0	0.2350015628022952	-0.1557951892402707	-0.09043674616292971	1.290911817051605	1.570796326969429	0	0
0.2952558844730552	-0.05500438804605037	-0.08973941159677196	0.1080933682995161	1.103966236014456	0.951492516339325	0.4938569306123198	0.2178096322757059	0.02443565242413414	0.09184948155889616	0.3290694272262947	0.03879643001440364	0.3995195937683619	0.1287574805755523	-0.5346936761211231	-0.1488818162755044	0.2344573220998702	-0.2125484479918631	0.009147667517408354	0.8724958337434037	0.09396746454545901	1.16273899049728	0.2554453634841107	-0.3531742266102085	0.1137918127116643	-0.1030794688161644	0.1090598832202947	-0.03040108418953764	-0.006473267437756502	-0.241204250351496	-0.2678476236338944	0.5427906208774939	1.570796326969429	0	0	0.2114380145977287	-0.1399869913794769	-0.07903385661558875	1.188725547076189	1.570796326969429	0	0
0.3096312594138309	-0.0531363652800495	-0.08806549685866306	0.1184081432301546	1.101768717921835	0.9525548574936289	0.494361958951288	0.1979840342230246	0.0230537117884301	0.0876436012207962	0.3168300973084992	0.03879643001440364	0.3863096194200766	0.1331782267686032	-0.5330181343446309	-0.1409516984678385	0.2712628893361614	-0.2089934880049483	0.008000593419826549	0.8647337330617545	0.0939674645454591	1.142369676288503	0.2620913536072593	-0.3553350822313617	0.1052725734926263	-0.1100582964886005	0.1072450938027967	-0.0330153088466217	0.01896041276418226	-0.2530029746487867	-0.2643324300854397	0.5940133235709353	1.570796326969431	0	0	0.1944347032032633	-0.1271525656410372	-0.06982674076996413	1.096507950602898	1.570796326969431	0	0
0.3136000000000001	-0.05275680419179832	-0.08763348181017055	0.1212231320770235	1.101129150815005	0.9528388953692938	0.4944946339171973	0.1925691943147943	0.02273830609526644	0.08651937274284643	0.3131371327825086	0.03879643001440363	0.3823091029723429	0.1339736334014466	-0.5328059587534537	-0.13867019553581	0.281333408193124	-0.208067076971109	0.007341350696340028	0.860976426966561	0.0939674645454591	1.134663178843068	0.2611039852297954	-0.3540077142240194	0.1034287069222189	-0.1119815753065103	0.1067391003738997	-0.03371208097850882	0.02585851266858971	-0.2561968410812965	-0.2637031524377607	0.6082592000986198	1.570796326969431	0	0	0.1899690473998012	-0.1237488580228251	-0.06739879643923062	1.070834358314168	1.570796326969431	0	0
0.3231128561131141	-0.05198068048861799	-0.08660882420443598	0.1279329462180337	1.099522829689118	0.9534998340314361	0.4947840021127032	0.1797574422131615	0.02198950048952679	0.08377037429821595	0.3042566107196598	0.0387964300144036	0.3719993034195553	0.136328886378194	-0.5318678326910626	-0.1328351833676229	0.3051430871395224	-0.2056929541232548	0.005413647603045042	0.8493546608201457	0.09396746454545903	1.112542646389564	0.2598641358877988	-0.3468116410171848	0.09863466412425716	-0.1167218101021561	0.1055036142003328	-0.03537982991856102	0.04314119165049113	-0.2638022739488757	-0.2623368170852172	0.6431119402385825	1.57079632696943	0	0	0.1794501398284845	-0.115744637856984	-0.06157215285948767	1.008516753777655	1.57079632696943	0	0
0.3400558844730551	-0.05141044085053554	-0.0851303731259751	0.1391228661334769	1.096484855511935	0.9545477882438376	0.4952524518717217	0.1574131289895573	0.02105613629659675	0.07883726920081581	0.2871913243061903	0.0387964300144036	0.3508486545037596	0.1401258161895203	-0.5295597800398518	-0.122335756960035	0.3459482742037295	-0.2013287320293008	0.0009240583167309764	0.8187182328291021	0.09396746454545903	1.060437309502603	0.2610031183498634	-0.3311362393595808	0.09064767465854444	-0.1251154519506949	0.1035943070630016	-0.03779286498685366	0.07541946292727116	-0.276595020319246	-0.2616963785248444	0.7080423689383857	1.570796326969429	0	0	0.1617438468336264	-0.1028473375604196	-0.05287888304252054	0.8965157774147617	1.570796326969429	0	0
0.3544312594138309	-0.05187819002507654	-0.08433205680579441	0.1474415026558529	1.093816931837563	0.9552669148861685	0.495619866382341	0.1389810469243371	0.02073586023473456	0.07470687208557381	0.2712450855292447	0.03879643001440365	0.3299271837989142	0.1420507146946646	-0.5269149780523086	-0.114352769802133	0.3789128950160974	-0.1973724602310361	-0.002856691555581679	0.7834557749619731	0.09396746454545904	1.003629078277924	0.2557781865090974	-0.3193481650785318	0.08543561420896971	-0.1318730282938683	0.1023606426217825	-0.03888529117360073	0.1026167605806545	-0.2863573419111719	-0.2632816806884322	0.7654725837232903	1.570796326969429	0	0	0.1474766844231154	-0.09371361270456319	-0.0480233720570244	0.8023898673495716	1.570796326969429	0	0
0.3584000000000001	-0.05213200970741376	-0.08424628963188134	0.1495324391833605	1.09308452466153	0.9554392428620664	0.4957136373764899	0.1339285397722426	0.02077315014187459	0.07358267522074653	0.2666334945449441	0.03879643001440364	0.3236760643051148	0.1425842530205963	-0.5258460850855172	-0.1123911720565399	0.3877113571573626	-0.1962680589805251	-0.003665380224247242	0.7723739660879453	0.09396746454545904	0.9859666055758773	0.2504890151178048	-0.315700836675712	0.08460663046422601	-0.1336615247289886	0.102145636511058	-0.03901591600036283	0.109885473183792	-0.2888752133120088	-0.2637772500371375	0.7814115327187467	1.570796326969429	0	0	0.1434503454488021	-0.09144934628240854	-0.04696988402352244	0.7769528525582409	1.570796326969429	0	0
0.3679128561131141	-0.05289306822869062	-0.08425821328500198	0.1542336276213823	1.091316567696104	0.9557990503807605	0.4959118025078042	0.1218681804226747	0.02106384378169337	0.07097380218362662	0.2553129762982709	0.03879643001440364	0.3079120413827463	0.1443116218036269	-0.5227847046642168	-0.1078829721207206	0.408117708604239	-0.1934952022275089	-0.00495531370073933	0.7435524656410171	0.09396746454545905	0.9403100741581607	0.2378283275127071	-0.3031870215290606	0.08280851743048247	-0.137905890608155	0.1018638794047331	-0.03912069519048268	0.1280814036372736	-0.2946797673607296	-0.2647276840560707	0.8203206686997671	1.570796326969429	0	0	0.1336347475287439	-0.0863619216878522	-0.04475635193276355	0.7162588146821696	1.570796326969429	0	0
0.3848558844730551	-0.05490637156117825	-0.08506691910263545	0.1609347087958129	1.088253669052375	0.9562184533768463	0.4962224648399021	0.1006113437059434	0.02238023585706495	0.06709995902871567	0.2341361080057194	0.03879643001440364	0.2775176601602136	0.1475879298967297	-0.5159408868354762	-0.1033447667669621	0.4417373801550366	-0.1885406289983462	-0.004850352177915392	0.6845805962904059	0.09396746454545903	0.8484775010881738	0.2084033461763102	-0.2777333148764248	0.07871421355158616	-0.1450334632583961	0.1020881774195847	-0.03801174879473134	0.1602108888665072	-0.3036024938688567	-0.2666621098725546	0.8915987367629004	1.570796326969428	0	0	0.1140574057610695	-0.07931800396047362	-0.04336261920096657	0.6135220593236941	1.570796326969428	0	0
0.3992312594138309	-0.05718493724057491	-0.08633154199662539	0.1648090932143319	1.085833474188782	0.9563255597498084	0.4964475544535272	0.08280706392507081	0.02408185508753132	0.0649003874442757	0.2154858331481924	0.03879643001440364	0.2502072575514788	0.1497199021442172	-0.5090234331700241	-0.1043635617089845	0.4673792441197837	-0.1844571623920137	-0.001688953644464824	0.6285339984868071	0.09396746454545904	0.762212092564987	0.169238316208538	-0.2575669885166635	0.07315860720255993	-0.1505714558230044	0.1026569122351264	-0.03566211171826458	0.185465479382123	-0.309556128611971	-0.268892993439338	0.9531257906497769	1.570796326969429	0	0	0.09478477575975812	-0.07560229699239078	-0.04499873955274317	0.5348310177188029	1.570796326969429	0	0
0.4032	-0.05784969241177124	-0.08675014075970996	0.1656641445030627	1.085200402554468	0.9563146988374416	0.4964916446414659	0.07788482231221533	0.0246002099184747	0.06443733664117277	0.2103274895551577	0.03879643001440362	0.2425657756580658	0.1503929944921227	-0.5068180144389424	-0.1052271485938689	0.4739528875197743	-0.1833467201342996	-0.0001834287816720525	0.6124034398626634	0.09396746454545904	0.737464653864881	0.1548877155125788	-0.252265542335468	0.07143509945075509	-0.1520304804420846	0.1028539540595795	-0.03486900471854591	0.192342840645827	-0.3110102642559057	-0.2693637001558705	0.9701022323353867	1.570796326969429	0	0	0.08916666639982906	-0.07482367772824924	-0.04563587972434179	0.5145392679451934	1.570796326969429	0	0
0.4127128561131141	-0.05950797587882236	-0.08788328216648948	0.1673536965646847	1.083725069881876	0.9561974803012092	0.4965559716504384	0.066170422963441	0.02597135466840216	0.06372626747675549	0.1980036251859779	0.03879643001440361	0.2243070517100583	0.1521084500583246	-0.5015957945998931	-0.1079772501541844	0.4888963814743187	-0.1807943655777121	0.004359214596007324	0.5732058669412173	0.09396746454545905	0.6772355510101513	0.1223703015584486	-0.2377951674058577	0.06697921331246462	-0.1554008723688714	0.1034753519474293	-0.03277548489578086	0.2099601715196533	-0.3142298543155285	-0.2700975169821526	1.011495862350661	1.570796326969429	0	0	0.07528843966884055	-0.07332119419234792	-0.04741397915917316	0.4674656372540898	1.570796326969429	0	0
0.4296558844730551	-0.06266970309108816	-0.09009110317280661	0.1689496504980663	1.08136035302302	0.9556526643570732	0.4965349599545824	0.0456939231634455	0.02858350877738654	0.06417461290965988	0.1768618303452905	0.03879643001440364	0.1929725391427548	0.1560313428662719	-0.4923637073585291	-0.1172188921106036	0.5127650048394164	-0.1768752496197308	0.01437104109369866	0.5039339169178411	0.093967464545459	0.5700195389028211	0.06502649072447979	-0.2120213091026097	0.05526113770721224	-0.160807611155181	0.1046843074419853	-0.02824231084903893	0.2432978772621606	-0.3186895808762136	-0.2708754154802042	1.086865696177598	1.57079632696943	0	0	0.04685611610303528	-0.07232980173173194	-0.05180082434379966	0.3952124885409224	1.57079632696943	0	0
0.4440312594138309	-0.06554042806202177	-0.09189648311436795	0.1690674722424372	1.079703798084181	0.9548422851874946	0.4963398421530406	0.02881518225936791	0.03064799822735017	0.06615704501941345	0.160258568897746	0.03879643001440363	0.1689269967082804	0.1597695726631533	-0.484867600656306	-0.128760818664702	0.5306952836303961	-0.1741379236092311	0.02258373080266554	0.4490907693084532	0.09396746454545905	0.4838277634280166	0.01623020695040048	-0.1938865755661651	0.04181570262732361	-0.1645705685357025	0.1055954336286925	-0.02370417196260637	0.272164578493451	-0.3211739152829714	-0.271618974734443	1.151392920817362	1.57079632696943	0	0	0.01839065475861466	-0.07315866655985928	-0.05632526121017236	0.3481602918884293	1.57079632696943	0	0
0.448	-0.06633389296729136	-0.09236999652898847	0.1690022896118173	1.079305621340061	0.9545649850934206	0.4962382718886624	0.02423187670618931	0.03114876144532546	0.06681369951278886	0.1559888172825044	0.03879643001440363	0.162880112389575	0.1609341578091983	-0.4827813521448923	-0.1319209234610572	0.5353318993036333	-0.1734207445243136	0.02440419556912775	0.4350790109782113	0.09396746454545905	0.4614741228091199	0.00243142890340764	-0.1897769816991976	0.03819864961735586	-0.1654563243497616	0.1058735601149689	-0.02242243767005169	0.2804023677015588	-0.3217377595700582	-0.2717336676719054	1.16915283535168	1.57079632696943	0	0	0.0101818355303888	-0.07353031199384749	-0.05743631681535953	0.3369164070160593	1.57079632696943	0	0
0.457512856113114	-0.06821664999496858	-0.09343759068421198	0.1686118227215121	1.078435519548865	0.9538016074832635	0.495924575251782	0.01349747091397441	0.03225381021008846	0.06877480950020928	0.1464860964842171	0.03879643001440361	0.1496515960188401	0.1640543517403881	-0.4781376541462209	-0.1396927784223571	0.5460056085973344	-0.1717339805163834	0.02772679365999096	0.404021440191123	0.09396746454545903	0.4113097752077458	-0.02736986872252103	-0.1795682421646653	0.02947054476599397	-0.1673753162909653	0.1065466121796154	-0.01928956291708448	0.301603111469081	-0.3228897371114732	-0.2717337028717651	1.212290736492227	1.570796326969429	0	0	-0.01013592416679662	-0.07468197754133897	-0.05995126722085924	0.3121539758839735	1.570796326969429	0	0
0.4744558844730551	-0.07157934863897354	-0.09488566827165716	0.1672369828025418	1.077262564704893	0.952110476375984	0.4950597966072915	-0.004510694823807893	0.0335247370416854	0.07319996427696115	0.132814158356922	0.03879643001440362	0.1311917636176944	0.1712986188372549	-0.4705731430896309	-0.1521949556938552	0.5636301814581541	-0.1682238274359836	0.02653119265661193	0.3594562695949153	0.09396746454545904	0.336715071080621	-0.06658049113466191	-0.1644762571925469	0.01434543123478968	-0.1699316694753619	0.1076200611102913	-0.01358946527328587	0.3428950301408192	-0.324104129669593	-0.2712983527343978	1.289378479508037	1.570796326969429	0	0	-0.05088486570856735	-0.07773984568459164	-0.06320058974070251	0.2797032853112851	1.570796326969429	0	0
0.4888312594138309	-0.07439689807345386	-0.09554643433590027	0.1655447130925657	1.076677465329354	0.9504106858960282	0.4939911723037075	-0.01853355905370535	0.03376745433915628	0.07729476242241112	0.1249515325015075	0.03879643001440368	0.1212637197729959	0.178436839632785	-0.46469729548545	-0.1591672898880629	0.5772584534272709	-0.1642170131523711	0.01708433114370433	0.3334181990851569	0.09396746454545905	0.2909460492754369	-0.09250978192472009	-0.1580501472187302	0.003186596963693545	-0.1712661844040158	0.1083434061548045	-0.008685689910808446	0.3796110094985515	-0.3242850967734837	-0.2708202899883628	1.353205906765693	1.570796326969429	0	0	-0.08987346553168735	-0.08126825667464585	-0.06416651315813379	0.2645811957865153	1.570796326969429	0	0
0.4928	-0.07513357102881303	-0.09567688888382039	0.1650234168781804	1.076575058870355	0.9499144408610254	0.4936401137482261	-0.02217438034033858	0.03373698198640897	0.07827911899018955	0.1235046538153401	0.03879643001440368	0.1194883791194223	0.1805887985776321	-0.4630642020911577	-0.1601736488244801	0.5807973661100532	-0.1629386197306689	0.01347326498577438	0.3281024229967485	0.09396746454545905	0.2813375882835045	-0.1004445530113913	-0.1575061494689258	0.0008435280028833312	-0.171543584264215	0.1085844302229382	-0.007330798294936156	0.3899134161577826	-0.3242474545586685	-0.2705159980739623	1.370387481530613	1.570796326969429	0	0	-0.1007376756847643	-0.0823200437118722	-0.06406462596705025	0.2615687571024911	1.570796326969429	0	0
0.502312856113114	-0.07685477295671876	-0.09581735363105062	0.1635239601362425	1.076432052000671	0.9486717722811766	0.4927280009069546	-0.0304469621416113	0.03343163072123337	0.08070917559249347	0.1213416117840337	0.03879643001440364	0.1169197482865424	0.1862764013447266	-0.4591510808870408	-0.1618619368442143	0.5888826417092429	-0.1596512012556685	0.003536491899666058	0.3186750848939233	0.09396746454545907	0.2636256312833621	-0.1159842663228694	-0.1551301204119428	-0.004027631502704132	-0.1720399697830102	0.1090425151865229	-0.004064336012122366	0.4157872238901601	-0.3239972583977662	-0.2693611060148576	1.411575699349334	1.570796326969429	0	0	-0.1273070776725887	-0.08502158063226306	-0.06332831629969149	0.2560631302722813	1.570796326969429	0	0
0.519255884473055	-0.08002007868097989	-0.09515252542014932	0.1599952591860065	1.076561440020297	0.9463162745947202	0.4908613297381114	-0.04328109074400804	0.03167471812768714	0.0850618159639662	0.1224505976838216	0.03879643001440363	0.1179505756808617	0.1994301642929604	-0.4516572426992468	-0.1599253861060259	0.6016519220689927	-0.1526539560971714	-0.01929643130001339	0.3126543864823165	0.09396746454545894	0.2495528774285526	-0.1324127788760254	-0.1530839939178026	-0.00865662016663764	-0.1722223391709955	0.1089213601232524	0.001840064296457617	0.4631338342150706	-0.322865113585765	-0.2661348100974987	1.481351830410012	1.570796326969429	0	0	-0.1757994776946324	-0.09042132981158847	-0.05966697701742327	0.2530362578989113	1.570796326969429	0	0
0.5336312594138308	-0.08295357040628673	-0.09330413922053278	0.1561676729393985	1.07705659385591	0.9442376948202232	0.4890718846550323	-0.05232831202342464	0.02857828817746643	0.08861327733638455	0.1278571436046975	0.03879643001440362	0.1238190352243616	0.212177225022867	-0.4450967267573436	-0.1532972346097188	0.6104872034303974	-0.1454822700034135	-0.04146403081191921	0.3161133332771279	0.09396746454545897	0.252461656630431	-0.1416575573086899	-0.1559297108277896	-0.00770948524932386	-0.1716529850187347	0.1072194726915209	0.006919569012166778	0.501372276721626	-0.3212151860706327	-0.2630133388135801	1.534746321476013	1.570796326969428	0	0	-0.2161621684308038	-0.095431503237627	-0.05418150545744056	0.2566610368099483	1.570796326969428	0	0
0.5376	-0.08376171022918363	-0.09263783285425248	0.1549899783644546	1.077254142644769	0.9436635885560551	0.4885509238681868	-0.05464726797718017	0.02752263759141431	0.08946772574979589	0.1298874221080153	0.03879643001440362	0.1261352837335508	0.2155767539600979	-0.443292810067862	-0.1510368444276692	0.6125054469912504	-0.1434312208099163	-0.04701343611749009	0.3180037143746324	0.09396746454545898	0.2551665650610491	-0.145446046467645	-0.1571005977267768	-0.006622480390093366	-0.171436740665795	0.1065524871945336	0.008335868021088187	0.5112769462443587	-0.3206883156206811	-0.2620906467893059	1.548620506253616	1.570796326969428	0	0	-0.2267035713691668	-0.09683132064090838	-0.05238238085881679	0.2579893707982297	1.570796326969428	0	0
0.547112856113114	-0.08575153012387954	-0.09085217269391008	0.1519093019768993	1.077806680437716	0.9422607939342187	0.4872610338999904	-0.05976371725595359	0.02473500700291282	0.09152017468974087	0.1357552799729836	0.0387964300144036	0.1327495981902986	0.2242618879088907	-0.4389336816381725	-0.1450277814534434	0.6167902560969728	-0.1385286481110906	-0.05929173503677936	0.3240371016855005	0.09396746454545897	0.2642244020052788	-0.1551296069324913	-0.1585509754910228	-0.003437595640510395	-0.1708002378575036	0.1047127868435524	0.01176900170728843	0.53586503205539	-0.3192933020431338	-0.259503242285692	1.581447213457262	1.570796326969428	0	0	-0.2514176735362672	-0.1002744919074553	-0.04759943367947701	0.2621476088793031	1.570796326969428	0	0
0.5640558844730551	-0.08954460719447765	-0.08626272400573992	0.1451259129911798	1.079133979368291	0.9397456139447777	0.4849250756536714	-0.06756927804943319	0.01814649499279506	0.09584045862760507	0.1493147957921533	0.03879643001440362	0.1476937686854823	0.2404174352866126	-0.4317996380079568	-0.1352517268931681	0.6218949339828418	-0.1295468674653552	-0.07188580536057003	0.3383257027094225	0.09396746454545897	0.2864881169461991	-0.1781860980115056	-0.157336809262925	0.00320833560098909	-0.1691672833250366	0.09928895157923574	0.01827772291352494	0.576287549401568	-0.316210119266755	-0.254186071583607	1.634534011004129	1.570796326969429	0	0	-0.2901053084019787	-0.1065381775787256	-0.03784078209065726	0.2711395340277482	1.570796326969429	0	0
0.5784312594138308	-0.0929800669378838	-0.08084039061824647	0.1377706312532352	1.080634477220737	0.9376164998760927	0.482949156641476	-0.07302675301240547	0.01084719202368902	0.100401485720735	0.1635650807905258	0.03879643001440358	0.1630514314319746	0.2533429816069276	-0.4268330016492373	-0.1308612258960593	0.6228864575207376	-0.1217981310980351	-0.06928191086628797	0.3511328113571909	0.09396746454545887	0.3082391550004854	-0.1999365640124444	-0.1530232511820894	0.008381493744421055	-0.1672297009142031	0.09229528678034048	0.02435574868042247	0.6037105751008042	-0.3130011354855038	-0.2496822532985	1.672884550983246	1.570796326969427	0	0	-0.3153138643213	-0.1117756173400722	-0.02887822699226801	0.2792076843192205	1.570796326969427	0	0
0.5823999999999999	-0.09392969054415763	-0.0792667854308107	0.1354782316138628	1.081106482079494	0.9370205267329744	0.4823927889842918	-0.07441374462284656	0.008708729418430849	0.101674921153425	0.1678186170369065	0.03879643001440357	0.1677021664318245	0.2566383263237424	-0.4255428183030018	-0.1305311404431156	0.6224412171777491	-0.1197631430351576	-0.06626212490537364	0.3542304041365895	0.09396746454545887	0.3143573308438608	-0.2041253037239724	-0.1514364497263403	0.009652233470377974	-0.166631098003186	0.0902574559718143	0.02612454916972512	0.6105086366882293	-0.3120587117401907	-0.2484158734632024	1.682886057206203	1.570796326969427	0	0	-0.3210280421119901	-0.1131828930744487	-0.02638711688713296	0.2813287905310743	1.570796326969427	0	0
0.5919128561131139	-0.09622488471046357	-0.07551210368819029	0.1298671667676329	1.082322999312272	0.9355338837290693	0.4809883038639265	-0.07745340416078594	0.003475018569483338	0.1045529628529021	0.1786930043202709	0.03879643001440357	0.1796237741446834	0.2642489231625717	-0.4223626075907513	-0.1303616475810555	0.6203061699381831	-0.1149434905753786	-0.05886957789425584	0.3613497085064082	0.09396746454545891	0.3289052280320409	-0.205086612975553	-0.1481411936421276	0.01241870449780373	-0.1650268903424692	0.08550958961783579	0.03042519621777659	0.6271913456560276	-0.309718882983972	-0.2454344631244976	1.706568106052419	1.570796326969427	0	0	-0.3331466206176076	-0.1165363262299275	-0.02020704966402099	0.2868266586395637	1.570796326969427	0	0
0.6088558844730551	-0.1003361130001467	-0.06875972104364994	0.1205064231795464	1.084837369917663	0.9326990673265385	0.4781832993337217	-0.08204239056900581	-0.006164343439030034	0.1081617948341318	0.2005525319352557	0.03879643001440364	0.2040883399802862	0.276419307835449	-0.4171706522194871	-0.136957782793567	0.613410458821849	-0.106597237924086	-0.05029787538503335	0.3785156904082526	0.09396746454545907	0.3537331437803738	-0.159393676294293	-0.152922796141373	0.01211600328036631	-0.1613101155297845	0.07741209981724791	0.03836531143307666	0.6517232287166072	-0.3052857949162749	-0.2421190423752431	1.746236315791619	1.57079632696943	0	0	-0.3467657895561257	-0.1218081978502887	-0.009330942853964797	0.2955559469117888	1.57079632696943	0	0
0.6232312594138308	-0.1039668779094411	-0.06269304846941685	0.1142071975475685	1.087238135722176	0.9302868072333684	0.4754173849017614	-0.08395423598180413	-0.01489254767151951	0.1082701235960924	0.2238099890969029	0.03879643001440365	0.2292090763027966	0.2856668380064879	-0.4128695008932045	-0.1482851552232585	0.6033190978115128	-0.09927688187429079	-0.04929524775410664	0.3930404353837551	0.09396746454545908	0.3732100950133992	-0.09796398940088652	-0.1664718614838443	0.005720208069342402	-0.1572481417492851	0.0708026874330282	0.04520027840662657	0.6648649848355431	-0.3013190953009591	-0.2420909673827416	1.777337825804645	1.570796326969429	0	0	-0.3502007236330479	-0.1252458828785227	-0.0006951001274375865	0.3010183187385871	1.570796326969429	0	0
0.6272	-0.1050223390485519	-0.06094844576522004	0.1127668943730739	1.087908013703369	0.9296631267784389	0.4745817307681174	-0.08391037039811711	-0.01743748239389401	0.1075130566876178	0.2314260958577372	0.03879643001440364	0.2370519514787201	0.2882774961581068	-0.4113412627758644	-0.1512867812915071	0.5996191974363456	-0.09720325089131183	-0.04978176392584464	0.3952028212241139	0.09396746454545907	0.378278074374543	-0.08683426115410345	-0.1692122471031554	0.003675791631411509	-0.1560459515251297	0.06907845634847196	0.04705961325803964	0.668011079080608	-0.300209631953614	-0.2422553771227809	1.785940570300607	1.570796326969428	0	0	-0.3503395582123957	-0.1260659187214911	0.001624536308198212	0.3023992538601428	1.570796326969428	0	0
0.636712856113114	-0.1076394521287238	-0.05666292613545044	0.1095063496449625	1.089409878374396	0.9283487436592162	0.472481140311172	-0.08222813441629351	-0.02373782390439813	0.1051319919496056	0.2522566399763703	0.03879643001440362	0.2577674331595384	0.2935198712057285	-0.4083370338322972	-0.1590922180857388	0.5913612144153174	-0.09220772886717071	-0.05215478037548013	0.4003385348384763	0.09396746454545904	0.3897838600223451	-0.06107719213809759	-0.1745208273546149	-0.0008707002083974678	-0.1534123474438011	0.0651021502514576	0.05148051422564116	0.6736035237272564	-0.2975180732744052	-0.2429610961581666	1.806127633073843	1.570796326969428	0	0	-0.3504948584748105	-0.1279258822109267	0.007276504818185668	0.3049935010664343	1.570796326969428	0	0
0.6536558844730551	-0.1125118635948773	-0.0483409413287577	0.1053509704496687	1.091530477120239	0.9269213863565001	0.4683522953357321	-0.07286563768865112	-0.03597988478239424	0.09796475078729035	0.300151924214648	0.03879643001440364	0.302565945346418	0.2983697411744056	-0.405245892911944	-0.1753521778386903	0.5820458536925189	-0.08206614035927805	-0.05607172854791844	0.4183609425096723	0.09396746454545907	0.4074801564838444	-0.00544646817571065	-0.1786346147536932	-0.007816401504431424	-0.1500191356563532	0.05817095032329934	0.05894657691595229	0.6711005336666815	-0.2926588957718899	-0.2459011796431524	1.839509061995055	1.570796326969429	0	0	-0.3498826015494761	-0.1304799899144923	0.01689531867511395	0.3065272866903609	1.570796326969429	0	0
0.6680312594138309	-0.1165116279681168	-0.04062755278446448	0.1033682623087887	1.092802726385443	0.9266950744673905	0.4645118329148235	-0.05856423442805619	-0.04740545076747638	0.08931461213051674	0.3517938330882815	0.03879643001440364	0.3499088199633064	0.2955288915680981	-0.4057320579395121	-0.1889502715794574	0.5790075303059133	-0.07179231813727233	-0.0567969122658078	0.4390751127845106	0.09396746454545904	0.4187719948108924	0.02641176887676813	-0.1848569468933288	-0.01305222415117819	-0.1483646760264124	0.05241173869864377	0.06455173921591255	0.6568258922600819	-0.2885147854011124	-0.2503778657631117	1.865256221890737	1.570796326969429	0	0	-0.3481142477530357	-0.1319779491221941	0.0242432977953715	0.3058036598800655	1.570796326969429	0	0
0.672	-0.1175160191412876	-0.03849032418142317	0.1028468315064747	1.09312617528638	0.9267528654501008	0.4634147158316295	-0.05381513900654028	-0.05067575564388787	0.08651714962359641	0.3675193686676314	0.03879643001440364	0.3646276863178333	0.2934718684752476	-0.4063263887593519	-0.1917415436615206	0.578023686631157	-0.0688051804955957	-0.05683808193298651	0.4439530456427548	0.09396746454545904	0.4211581826533685	0.03001361089418286	-0.1883661675723319	-0.01437567296892896	-0.1479807267631567	0.05097706846749033	0.06596280571339622	0.6523374273850739	-0.2873679016904524	-0.2516970843000083	1.872345947246402	1.570796326969429	0	0	-0.3476001215075428	-0.1324086314788731	0.02620835849198157	0.3056869601724297	1.570796326969429	0	0
0.6815128561131141	-0.1198198368429569	-0.03338267741193478	0.1016455564802055	1.093842189187058	0.9271017664175355	0.4607461532674179	-0.04068634327503912	-0.05865929943968366	0.07980866994621975	0.4082371087798132	0.03879643001440364	0.4028959056930166	0.2862657454941012	-0.4088809252283145	-0.1974994995622535	0.574869215124086	-0.06145880953192077	-0.05672045248974028	0.454653157041562	0.09396746454545903	0.4254497303673688	0.04239860295190559	-0.1950718675151305	-0.01665637882412893	-0.1471602489654821	0.04774793868280029	0.0691368583813889	0.6402481102305766	-0.2845875483373643	-0.2551112900724857	1.889423888429193	1.570796326969429	0	0	-0.3465019491058871	-0.133507957699331	0.03096015501802329	0.305298546953171	1.570796326969429	0	0
0.6984558844730551	-0.1229023062260463	-0.02415609017297325	0.09968080097991575	1.095018509849494	0.9283670095263128	0.4559459198375815	-0.01240144561322593	-0.07353581902118306	0.06781664394431516	0.4902161150444954	0.03879643001440361	0.4813079678361907	0.2650428652097485	-0.4178654007774346	-0.2012012823954992	0.5640641513558931	-0.04756502298628926	-0.05537396598615675	0.4657143298263857	0.09396746454545898	0.4278802123822255	0.06255297784102423	-0.2057960617399311	-0.02079472377470272	-0.1464001217590862	0.04222841311355252	0.07379401905266525	0.6110173822506266	-0.2794951350450658	-0.2614255959979346	1.917578783164003	1.570796326969429	0	0	-0.3426742812816978	-0.1358737046637399	0.03896543720784602	0.307601079550272	1.570796326969429	0	0
0.712831259413831	-0.124236746831853	-0.01604520618573067	0.09824486627696159	1.095923034149769	0.9299451344623428	0.4518891875500956	0.01583170803120393	-0.08716919811851458	0.05810049723006033	0.5674255888584196	0.03879643001440363	0.5571596762683767	0.2368543839831611	-0.4295690793161844	-0.1954542445701731	0.5485213553953163	-0.03477500976077199	-0.0527412138723688	0.464997131797785	0.09396746454545903	0.4249269192105249	0.07397790238597302	-0.2146978891751118	-0.02540807024157368	-0.1466393717114759	0.0374055220394116	0.07667015468497855	0.5771281334576819	-0.2750171452557699	-0.266720647318725	1.936479286969558	1.570796326969429	0	0	-0.3356070803090026	-0.1383316626388718	0.04513304933215669	0.3144762872276318	1.570796326969429	0	0
0.7168000000000001	-0.1244417115334339	-0.01380556095328012	0.09780122374439683	1.096153621598776	0.9304236230588748	0.4507769534835684	0.02417601072060971	-0.09115157702162957	0.05534508723170835	0.5894305432097017	0.03879643001440363	0.5793751852913058	0.2273965795864601	-0.4329927367473635	-0.1922930625426428	0.5433940705663354	-0.03114853975733026	-0.05173774858530725	0.4635087724816541	0.09396746454545904	0.423402369946461	0.07701811587977964	-0.2172036468823013	-0.0267245655865157	-0.1467945897616469	0.03612384246317809	0.07735699461644811	0.5670278752370166	-0.2737508007819232	-0.2680052064499319	1.940830397715221	1.570796326969429	0	0	-0.3331019984009116	-0.1390945481196118	0.04683900243259426	0.317092433012148	1.570796326969429	0	0
0.7263128561131141	-0.124722249925972	-0.008488120108873967	0.09669147744406602	1.096656352933153	0.9316162739070594	0.4481455196523304	0.04531490155048501	-0.1008611690474825	0.04941685813291245	0.6441705890418196	0.03879643001440364	0.6344272298679993	0.2041951190579153	-0.441612083925955	-0.1825328725680131	0.5298822453693848	-0.02244446641971585	-0.04905876398654135	0.4579448804899838	0.09396746454545908	0.418719309929407	0.08434982404562757	-0.2227079142255311	-0.02954213785092738	-0.1472819935374521	0.03313340589219806	0.0787692414833968	0.5419087305744228	-0.2706685996693118	-0.2712033305914512	1.950558414588122	1.570796326969429	0	0	-0.3262974147936694	-0.1410393574348605	0.05105084377273966	0.32433009427167	1.570796326969429	0	0
0.7432558844730551	-0.1241724258758509	0.001184031270083392	0.09464102116590449	1.097249037691525	0.9338467959622013	0.4436393831295918	0.08580547274016787	-0.119009228656866	0.04159171435948551	0.7467877433587082	0.03879643001440364	0.7367499582527371	0.1632200187111063	-0.4564152001495769	-0.1522314947108425	0.5024666911830966	-0.006757321470796617	-0.04364587075878913	0.443071695058056	0.09396746454545898	0.4077763738244887	0.09679974142830428	-0.2314768513250206	-0.03458320265578425	-0.1491967012738357	0.02755972953670036	0.08038570745149122	0.4928247106062851	-0.2649474824941667	-0.2769404989266498	1.961049316756187	1.570796326969429	0	0	-0.307894641036703	-0.1452603713801774	0.05826614249636676	0.3435874839462139	1.570796326969429	0	0
0.757631259413831	-0.1226228435753042	0.009554765125936511	0.09311402983934362	1.097369110383601	0.9357587814033772	0.4400634494984315	0.1215157528542883	-0.1350074996384298	0.03816785431265981	0.8345004619408385	0.0387964300144036	0.8248386576224215	0.1330791396976591	-0.461719781372586	-0.1146385854508353	0.4771090244772687	0.006305470601416593	-0.03936479916474964	0.427434455556052	0.09396746454545897	0.3972006992092782	0.1051006520422991	-0.2373432417126519	-0.03924267028097159	-0.1520557900248	0.02243802102285268	0.08081135869216081	0.4481876436145842	-0.2598384162995828	-0.2819314982913749	1.960759655275396	1.570796326969429	0	0	-0.2847414939173455	-0.1498093621222954	0.06361170023027045	0.3665161655842891	1.570796326969429	0	0
0.7616000000000002	-0.1220962616219074	0.01176661669592757	0.09272419014013882	1.097351597239925	0.9362704784988521	0.4391166405297686	0.1311883265943417	-0.1394617898093344	0.03740540260429796	0.8570069596802214	0.0387964300144036	0.8489244530262845	0.1264118173347551	-0.460265299815753	-0.1037077703360912	0.4700018768962427	0.009685288192774219	-0.03838346470868945	0.4230209241423469	0.09396746454545897	0.3942316126114628	0.1078425050342705	-0.238209394007856	-0.04041753009901791	-0.1529200786775701	0.02111931331716213	0.08084456289962361	0.4363255999483585	-0.2583819718281233	-0.2831812450137061	1.959556558732781	1.570796326969429	0	0	-0.2774430137662356	-0.1512290215990205	0.06500037587764521	0.3734213071372469	1.570796326969429	0	0
0.7711128561131142	-0.1206992683923442	0.01684206843741731	0.09183012849338514	1.097214546113951	0.9374800010441936	0.4369388663654279	0.1544280082476369	-0.1499009692249882	0.03667324266633853	0.9094409109491607	0.03879643001440362	0.9056425424713709	0.1120392693767761	-0.4523583219810385	-0.07764985402174558	0.4530083145712453	0.01730545745398874	-0.03639458580759018	0.4123458446627126	0.09396746454545903	0.3871873781589626	0.1132721119584995	-0.2397783956322139	-0.04297243741718407	-0.1551476774179337	0.01810603469802918	0.08078663121095628	0.4072098128898224	-0.2548098788646891	-0.2859643372656662	1.955013239569285	1.570796326969429	0	0	-0.2589089941366415	-0.1548378303146712	0.06835031930647016	0.390682575993197	1.570796326969429	0	0
0.7880558844730552	-0.1177414042549346	0.02474135518531757	0.09040560759502217	1.096571026954638	0.9396702827704432	0.4334636589796834	0.195861769663271	-0.1665948811200221	0.03875960292654673	0.9914913998047561	0.03879643001440364	1.000975382329629	0.09075805744073719	-0.4329495039621019	-0.0356202315709182	0.4233042710918719	0.02856714333688978	-0.03470865470795453	0.3941003742255196	0.09396746454545905	0.3752098103886795	0.1223715421760141	-0.2384015515546184	-0.04685985526633366	-0.1598475666210573	0.01349822875297457	0.08035303304624249	0.3534355327899189	-0.2480312500818267	-0.2893121363791213	1.935428348658098	1.57079632696943	0	0	-0.2202094765836852	-0.162655661462484	0.07313153964053912	0.4234258649763706	1.57079632696943	0	0
0.802431259413831	-0.1147958666954797	0.03019627806974691	0.08924146654741746	1.095620925711225	0.9416201460270074	0.4309754405427051	0.2315604276009305	-0.1781049698055854	0.04359723517093998	1.049696807864916	0.03879643001440361	1.073603152602344	0.07427298957359263	-0.4219755087887236	-0.007723376966934946	0.398661715052371	0.03557802702082062	-0.03562056696198281	0.3792401421757844	0.09396746454545896	0.3656613958967751	0.1286599408383218	-0.2332000204737488	-0.0493629443889218	-0.1646653673937393	0.01031790494728042	0.07965729974274446	0.3065292745626563	-0.2419226680401929	-0.2909340348057988	1.90424538760924	1.570796326969427	0	0	-0.1826225351443966	-0.1707346328044288	0.07560715987668236	0.4513679506789436	1.570796326969427	0	0
0.8064000000000002	-0.11396279193309	0.03152334334782045	0.08885912128336423	1.095313449734738	0.9421650875343144	0.4303528773350299	0.2414537328656441	-0.1809463472713422	0.04505653830863914	1.063839508782632	0.0387964300144036	1.092019685078007	0.06978106058673597	-0.4205760516363914	-0.001404029828534322	0.3919055747962688	0.03715726549495056	-0.03623384911372009	0.3751898858406201	0.09396746454545897	0.3630853206338517	0.1306968590699724	-0.2312177753661649	-0.04973096301290707	-0.166055761467182	0.009564579807311794	0.07943818066800745	0.2940304231265177	-0.240215911767201	-0.2913173819966272	1.893963948032665	1.570796326969427	0	0	-0.172134246095052	-0.173081736007607	0.07620368102439684	0.4586925973618927	1.570796326969427	0	0
0.8159128561131141	-0.1119375853562093	0.03444305052005298	0.08786355696306025	1.094478650216251	0.9435012927700163	0.4289724348540387	0.2654547520224062	-0.1872410221883702	0.04895978634424603	1.094602786352197	0.03879643001440362	1.132954209585384	0.05969950007867976	-0.4157282767234166	0.01221507395436107	0.3759188819183989	0.04039601571234413	-0.03828946641033636	0.365413004834187	0.09396746454545904	0.356917844311412	0.1336189424785881	-0.2260280777254239	-0.05023421632890634	-0.1695924524630749	0.00790923374216866	0.07885089691853439	0.2636738251765396	-0.2360759371328019	-0.2920517571889216	1.866974427799258	1.570796326969429	0	0	-0.1464748579779015	-0.1788994276067447	0.0776171533529643	0.4761464973357943	1.570796326969429	0	0
0.8328558844730553	-0.1081733840906482	0.03869111331272081	0.08545465155270295	1.092704720617008	0.9459977022605002	0.4269404968448308	0.3087159382106176	-0.1964724814737347	0.05643611689564262	1.137915966348696	0.03879643001440362	1.193714004995972	0.04658072969888554	-0.4110506109947803	0.02631078854306964	0.3478562009405968	0.04410132559349243	-0.04430205511238651	0.3484435162664588	0.09396746454545903	0.3455104078176766	0.1392762713665823	-0.2132177223178651	-0.04960249485750835	-0.1764851315411765	0.00552681273484153	0.07786790145270081	0.2099916083687936	-0.2285742674159321	-0.2923400938795638	1.804337276378527	1.570796326969429	0	0	-0.09870511595684384	-0.1901800747483559	0.07912718713562533	0.5055264054453711	1.570796326969429	0	0
0.8472312594138312	-0.1049074951113872	0.04137048469446013	0.08261626765676229	1.090950772321803	0.9482245783782575	0.4256247556415267	0.3458316022313899	-0.2025202841144455	0.062788688347167	1.163004948035781	0.03879643001440363	1.232206534643965	0.03664801727066879	-0.4096989891682324	0.02803373739255679	0.3240919324645115	0.04531513143610866	-0.05179654183621819	0.333538215470617	0.09396746454545904	0.3348220880644299	0.1428439364688319	-0.1997248622404187	-0.04765666466077483	-0.1827684422214621	0.004101298218961116	0.0772311144802714	0.1671987674183225	-0.2221602157790047	-0.2915003279981844	1.734454007433581	1.570796326969429	0	0	-0.05670538459080618	-0.2006748767170072	0.07906868255334612	0.5285687713914866	1.570796326969429	0	0
0.8512000000000002	-0.1040324138544936	0.04199391936796906	0.0817025036774022	1.090440604961761	0.9488446101198263	0.4253062785238382	0.3560700456956042	-0.2040783430932303	0.06433133702097459	1.167934460585079	0.03879643001440363	1.240649920793513	0.03324969152048227	-0.4090353733461035	0.02794314488617823	0.3175066462739544	0.04545665830619286	-0.05410329978732444	0.3292812716891274	0.09396746454545904	0.3316397296344429	0.1440029073984966	-0.1957528907034104	-0.04681861044975438	-0.1845182722096214	0.003818107669172376	0.07710008386955114	0.1563240955497604	-0.2204019241741622	-0.2911226188969063	1.713506832218598	1.570796326969429	0	0	-0.0452780018647021	-0.2036331328728014	0.0790016625863772	0.5347308125365925	1.570796326969429	0	0
0.8607128561131143	-0.101966017281269	0.04328911126230606	0.07930321523057622	1.089167283915114	0.9503401385590633	0.4246242719188437	0.38056541535907	-0.2075424481896918	0.06784648043468293	1.176514586358831	0.03879643001440362	1.256995632324599	0.02628925487112618	-0.4075638883814507	0.0266153712259006	0.3017229762975251	0.04546732456189254	-0.06002005542874908	0.3188052627979066	0.09396746454545904	0.3235397914466266	0.1461083840558595	-0.1859053524489981	-0.04429666387754707	-0.1888039212811387	0.003333124066011244	0.07687642972562311	0.130804504834091	-0.2161715113558491	-0.2897280312419975	1.660808753430088	1.570796326969429	0	0	-0.0176769721420601	-0.210869250496364	0.07881512288081757	0.5495041160827024	1.570796326969429	0	0
0.8776558844730553	-0.09850793460672781	0.04497080746162605	0.0739585533369783	1.086780712396181	0.952995991883647	0.423677572125605	0.4234936566465303	-0.2129213690887861	0.07312416544072128	1.179685428126472	0.03879643001440367	1.272473733852829	0.01697316666541822	-0.4063561263021067	0.02120550036789851	0.2734966889711001	0.04454421247101945	-0.07173908531445697	0.2991191182262419	0.09396746454545905	0.3073627189847795	0.1491857448000391	-0.1674817292579256	-0.03851687894352019	-0.1963896837508322	0.003141541144691814	0.07707808644755759	0.0903756265451767	-0.2087224916519136	-0.2856559359306912	1.553870807165885	1.570796326969429	0	0	0.03163150635046374	-0.2243079833044601	0.07737784432849268	0.5773217881984645	1.570796326969429	0	0
0.8920312594138311	-0.09593860830247976	0.0458155580572915	0.06837226719815118	1.084685252306381	0.9551827080580388	0.4230985890154741	0.4588224277072356	-0.2167517909127712	0.07670480886518471	1.170265126654515	0.03879643001440364	1.271999892941949	0.008660855149526359	-0.4058022335284874	0.01600605912176371	0.2494157142257402	0.04313153455668042	-0.08235341147685848	0.281067957887467	0.093967464545459	0.2919392047234119	0.1506550001135422	-0.1523408660941392	-0.03352143075428195	-0.2025102875102876	0.003679367718144748	0.07789854917666748	0.06277538168248972	-0.2026017416199357	-0.2812310095150996	1.449750502402287	1.570796326969429	0	0	0.07259958746681736	-0.2361584482044635	0.07460992403021886	0.6035813246232578	1.570796326969429	0	0
0.8960000000000002	-0.09530856489320355	0.04595907763077668	0.06672345815351129	1.084102588079068	0.9557619489925825	0.422957090476109	0.4683370083450338	-0.217760373247591	0.07750862805561434	1.165782346075428	0.03879643001440363	1.269692611959782	0.005576137506529813	-0.4050439648787937	0.01526779107340531	0.2427827719970684	0.04272684679054309	-0.08517181354120734	0.2759399964935303	0.093967464545459	0.2874402049593636	0.1512536190671987	-0.148420099000556	-0.03222625497035039	-0.2041326765144781	0.003974390435891579	0.07820422846081294	0.05626657730688092	-0.2009471690957047	-0.2799245190758765	1.42008667210052	1.570796326969429	0	0	0.08351298563232989	-0.2394442278691614	0.07373762160070617	0.6112939893521865	1.570796326969429	0	0
0.9055128561131143	-0.0939063251674674	0.04614473429683444	0.06260926934948106	1.082686467147796	0.9571026756006316	0.422663895172682	0.4905479759401064	-0.2199417081019405	0.0792649213313432	1.15182721675566	0.03879643001440363	1.260370023063517	-0.0002542484206601164	-0.4031198821020825	0.01349986711520831	0.2269550165811604	0.04166985964916994	-0.09185840008618318	0.263347182590604	0.09396746454545904	0.2763081340576269	0.1515987964411612	-0.1394890976793838	-0.02884448263954061	-0.2079744850652143	0.004917015730580974	0.07907632930000186	0.0421346059782219	-0.1970019156075578	-0.2764251655953822	1.347310562933004	1.570796326969429	0	0	0.1096816940060115	-0.2473960565733627	0.07152410462481942	0.6306076102863585	1.570796326969429	0	0
0.9224558844730553	-0.09211164261432839	0.04603699915339278	0.05484616783784796	1.080123556341864	0.9592533781313933	0.4222432009704006	0.5277825207308025	-0.2231728353018879	0.08195393510245505	1.115471469742519	0.03879643001440364	1.230693520263177	-0.003870373148179812	-0.4027419353874163	0.01244023977708782	0.1996482621928	0.03979405664656643	-0.1030574936387636	0.2408239508351304	0.09396746454545898	0.255632176550097	0.1514279280009528	-0.1253530770703033	-0.0237674930288186	-0.2142833204774911	0.007339873137241423	0.08107389379736381	0.02263231839546365	-0.1903475664568373	-0.2711772299199728	1.211128249412556	1.570796326969429	0	0	0.1546896697420461	-0.2615304539581698	0.06596392137081393	0.6710563859707486	1.570796326969429	0	0
0.9368312594138312	-0.09145405714690122	0.04568915316555024	0.04812129215892301	1.077937381445001	0.9607776276925132	0.4219501714793404	0.5567267600413475	-0.2253085643783339	0.08442301140798671	1.073189313506681	0.0387964300144036	1.192674910283138	-0.004707391029845423	-0.4051012694277978	0.01447186382646265	0.1777143185702449	0.03846738626375204	-0.1115527749556359	0.2220636964012424	0.09396746454545893	0.2377877741603824	0.1511267861766248	-0.1154931206365646	-0.02165148611131109	-0.2189353633967446	0.009942421579180943	0.08301383028890452	0.01122767825695953	-0.1852644917723837	-0.2697060255166097	1.090709159385169	1.570796326969429	0	0	0.1901337359462422	-0.2731933094321168	0.05925201234632604	0.7123682185499933	1.570796326969429	0	0
0.9408000000000003	-0.09138651833053915	0.0455733522394761	0.04630357353041746	1.07733709442567	0.9611426934828252	0.4218759463930156	0.5642287496650957	-0.2258082993023811	0.0852363880350155	1.059775196081096	0.03879643001440359	1.180154472712768	-0.005844088182551999	-0.4052567238785113	0.01557530610518326	0.1718496677591083	0.03817407638411995	-0.1136468274760789	0.2170627518754972	0.09396746454545893	0.2328915795917144	0.1515386795269113	-0.1129449725331988	-0.02132794902132226	-0.2201421693088351	0.0107339451902345	0.08354399897180927	0.008677806098367741	-0.1839379954041759	-0.2698109698569407	1.057680355176353	1.570796326969428	0	0	0.1994277801036693	-0.2763268952242579	0.05727093195246045	0.7245004191688832	1.570796326969428	0	0
0.9503128561131143	-0.09139166466548276	0.0452767077076997	0.04199789379168483	1.075890204652665	0.961919780845251	0.4217271069676792	0.5811902968490892	-0.2267348446077865	0.08758638938286083	1.024620846723726	0.03879643001440359	1.146678000285356	-0.00737815841490326	-0.4049787441671592	0.0184236010558155	0.1581359052135571	0.03755842201865613	-0.118353789230182	0.2050176764433505	0.09396746454545893	0.2213141524241892	0.1503840286957245	-0.1080474591583591	-0.02054200173368172	-0.2229765474031468	0.01271062122986774	0.08482041181939722	0.003624955267525487	-0.1808541722200748	-0.2707613190564275	0.9781669947262472	1.570796326969427	0	0	0.2213721340159659	-0.283749520346936	0.05239191484094615	0.7547746490439359	1.570796326969427	0	0
0.9672558844730554	-0.09223093184939152	0.04529628941105231	0.03508665621638456	1.073359037626797	0.9628992381142646	0.4214909647498394	0.6077521264319359	-0.2283635404127122	0.09329881753134948	0.9516007685170109	0.03879643001440364	1.075504380959868	-0.009719224766942203	-0.4048371593829619	0.02328417639345411	0.1353806773077565	0.03753587967168198	-0.1247498990022566	0.1850610649277061	0.09396746454545901	0.2016062582937705	0.1493370876844481	-0.1013961495190775	-0.0206818006510065	-0.227486526039719	0.01581639220824885	0.08665398362316253	-0.004699880827195219	-0.176111876094164	-0.2788093037477642	0.8389614455693569	1.570796326969429	0	0	0.2574943073173173	-0.2959962775704639	0.04232355828964581	0.8147473640166318	1.570796326969429	0	0
0.9816312594138312	-0.09380604560262587	0.04621414424882738	0.03029718542125583	1.071306048730686	0.9633001215335877	0.4213248281365101	0.626460794653326	-0.2300816184599011	0.1002262786810817	0.8797049812042933	0.03879643001440365	1.004627728990982	-0.01732746757896773	-0.4028903573520122	0.02651769017083528	0.1180085608828125	0.03884162156568415	-0.1280404943817147	0.1699939403267212	0.09396746454545904	0.1862109172814109	0.14827583087415	-0.09817001741010983	-0.02265912590304849	-0.2307155234048788	0.0175495660790109	0.08744258295262085	-0.01340673542007256	-0.1730271813488451	-0.2935442556870917	0.7263566783366169	1.57079632696943	0	0	0.2841415070079558	-0.3050114698775186	0.03242271300968104	0.8710194434143497	1.57079632696943	0	0
0.9856000000000004	-0.09432249370245895	0.04657407104077251	0.02912424274914992	1.070755494767292	0.963344522622038	0.4213001932772423	0.6309487353022203	-0.2305134209582013	0.1026036878453777	0.8583892973659116	0.03879643001440364	0.9835808195940687	-0.02122254590787459	-0.4011335184673057	0.02731413171178452	0.1135154592823105	0.03932465084527916	-0.1286876975769941	0.1662983887212838	0.09396746454545904	0.1822218645842423	0.1483589425075791	-0.09741070147664124	-0.02320362819909981	-0.231574020068907	0.01790635191953256	0.08753818139213976	-0.0160868159973773	-0.1722817782587754	-0.2984329783217695	0.6965497012556832	1.57079632696943	0	0	0.2909527741089927	-0.3073063998027968	0.02972711833142678	0.8867477575262472	1.57079632696943	0	0
0.9951128561131144	-0.09569278341329168	0.04757288476886327	0.02655682649241211	1.069447883813151	0.9633325615434882	0.4212917723514634	0.6404762032598605	-0.231380567849526	0.1091789260008105	0.8051814668751887	0.03879643001440363	0.9309289469079557	-0.02911365088585631	-0.3962050873040862	0.02882831175659776	0.1032909723094019	0.0406388576956123	-0.1297325196684751	0.1580805481686918	0.09396746454545901	0.1731731384401618	0.1481957872680691	-0.09658383591112482	-0.02432467926675595	-0.2335778034698425	0.01856722458731376	0.08759125726953325	-0.0221023831597878	-0.170659374703211	-0.3116089641210604	0.62639049512764	1.570796326969429	0	0	0.3068809598518712	-0.3125406323667976	0.02336355406585319	0.9252723096079376	1.570796326969429	0	0
1.012055884473055	-0.09860659733298993	0.05055500927336959	0.02339997126686724	1.067260583980994	0.9628694346094262	0.4214195776413772	0.6533434662655646	-0.2336176076595643	0.1236632127679552	0.7053614177014704	0.03879643001440364	0.8314015585006146	-0.04110871863784282	-0.3885364361202197	0.02770215114787738	0.08732928145412866	0.04426564858617654	-0.1289540964747024	0.1469294000048249	0.09396746454545898	0.1590155841446902	0.1492474996716753	-0.09786009695039713	-0.02603552810116366	-0.2365906605578606	0.01821608502091714	0.08652466815864782	-0.03452372977695581	-0.1686207383904739	-0.3414048068432405	0.5129249888709687	1.570796326969429	0	0	0.3332595561512723	-0.3202093612141267	0.01189495353235058	0.99618597147886	1.570796326969429	0	0
1.026431259413831	-0.1013953870544159	0.05430252143854807	0.0222965597252181	1.065630911635769	0.9620381649291379	0.4217180724452049	0.6608671692014035	-0.2364491328209327	0.1381640486962782	0.6203130701910482	0.03879643001440364	0.7443320890384558	-0.05317116608745742	-0.383802527462341	0.02279457522587507	0.07624581445584355	0.04839359031464792	-0.1260736791900013	0.1420021851738542	0.09396746454545903	0.1491699088366374	0.1523854676473317	-0.1006402790409749	-0.02727647422849523	-0.238313730340077	0.01620457233201054	0.0842817561122385	-0.04743678583562494	-0.1678049614432043	-0.3714801040006916	0.4319150420929305	1.570796326969429	0	0	0.3535135708068005	-0.3247803030728835	0.00221041132506051	1.057266695684599	1.570796326969429	0	0
1.0304	-0.1021452740344818	0.05536024386917648	0.02216397875521458	1.065223623814495	0.9617442783064759	0.4218567041198416	0.6625452104160177	-0.2371415107546831	0.1424134437135121	0.597717099789516	0.03879643001440364	0.7203700719591937	-0.05780661857122654	-0.3821871217337964	0.02127751503627684	0.07354967162927645	0.04944599220899724	-0.1251930342016385	0.1416271718905219	0.09396746454545903	0.146828408894505	0.1545528490667436	-0.1010475372209056	-0.02742782800446904	-0.2386660023661226	0.01551925099008217	0.08351878262826683	-0.05087300730052971	-0.1676656713765565	-0.3797024245020145	0.4116825348640912	1.570796326969429	0	0	0.3588928451371293	-0.3258238094147919	-0.0002682692805899109	1.07382687979192	1.570796326969429	0	0
1.039912856113114	-0.1039041405786825	0.05796351689748971	0.02211431848107306	1.064327674713145	0.9609280083352649	0.4222915586593551	0.6660771625346205	-0.2387065772814955	0.1525695026967633	0.5462158085694089	0.03879643001440362	0.6638165295100444	-0.06686545750207845	-0.3780271636274486	0.01704171784630557	0.06762700891328241	0.05188413928565728	-0.1227928366723542	0.1417340085378151	0.09396746454545903	0.1419169351228956	0.1583851495659059	-0.1032293484707427	-0.0273594391133845	-0.2392452092348987	0.01357767044876573	0.0814628394066379	-0.05836451462152192	-0.1674933625116814	-0.3999561330661454	0.3659014214179743	1.570796326969429	0	0	0.3716365713282589	-0.3280004691804898	-0.00591572803645361	1.113738705387879	1.570796326969429	0	0
1.056855884473055	-0.1069385194368874	0.06275331875420075	0.02328617183779587	1.063167893124685	0.959093358052822	0.4234293300848254	0.671345085977777	-0.2413002492605499	0.1672984052993699	0.4676370329710405	0.03879643001440362	0.5690426014778315	-0.07732815346545555	-0.372801800005039	0.006564778080484679	0.05904403742979816	0.05568925955560856	-0.1175866429695019	0.1471993472332781	0.09396746454545896	0.1357720275154592	0.169182109981184	-0.1068917428786534	-0.02648346787754301	-0.2387477777709867	0.009097588884915818	0.07680624518547872	-0.0734735771280273	-0.1677975522670072	-0.4338194885870575	0.2995137037884951	1.570796326969429	0	0	0.3936406155758241	-0.330274083383964	-0.01520860919439267	1.183305586487623	1.570796326969429	0	0
1.071231259413831	-0.1094119920198991	0.06655679819823609	0.02546900992184212	1.062735934090591	0.9572025688450431	0.4247899161308271	0.6755316314821989	-0.2427356692489145	0.1730718041204865	0.4176538192318311	0.03879643001440364	0.4982183860502796	-0.08712153761901781	-0.3711824662314231	-0.004143419901207893	0.05343252902365286	0.05779202853929771	-0.1130659840475315	0.1569073532029604	0.09396746454545896	0.1333966318787044	0.182328637208497	-0.1084609243474638	-0.02601300859171774	-0.2363539151828163	0.004635752333280417	0.0719506210960148	-0.09015422334350931	-0.1686303481914485	-0.4569012265343728	0.2600237627075621	1.570796326969429	0	0	0.4114279957876858	-0.3305197633774801	-0.02241692200433093	1.239333750042453	1.570796326969429	0	0
1.075200000000001	-0.1100457441631999	0.06740529356877828	0.02614111761239663	1.062704708353263	0.9566377963194437	0.4252453305570871	0.6767315064252607	-0.2427178899450846	0.1733323503037818	0.4069209480656107	0.03879643001440364	0.4806540979456614	-0.09169484919664969	-0.370700353890196	-0.006806741750809634	0.05207968546766653	0.05800136880236358	-0.111969314576587	0.1603998066377668	0.09396746454545896	0.1332335462958228	0.1869636345717967	-0.1084939939413643	-0.0259815200151309	-0.2353947434909047	0.003452280775335068	0.07056147982091228	-0.09486441506324544	-0.1689019113158167	-0.4619820721027415	0.2509810230817344	1.570796326969429	0	0	0.4162273473296551	-0.3304374102357557	-0.02422833488297379	1.25424919061324	1.570796326969429	0	0
1.084712856113115	-0.1115166999543451	0.06928486767306326	0.02795497615654587	1.062770370368773	0.9552154606365528	0.4264549206045538	0.6794898687736708	-0.2421658761946053	0.1723487995702587	0.385948333824049	0.03879643001440363	0.4425326366608183	-0.1004449701561614	-0.3691148713643947	-0.01347539927425978	0.04926975511064272	0.05811007588224095	-0.1094090084340863	0.1697833133103022	0.09396746454545897	0.1337630868912836	0.196663399910551	-0.1091158949657347	-0.02589143043448171	-0.2325928899205535	0.0005175280452913945	0.06708160545079817	-0.105969205144075	-0.1696657498526753	-0.4731045556057125	0.2322217856028048	1.570796326969429	0	0	0.4277400828471911	-0.3299742513134684	-0.02824381308298315	1.289823284963301	1.570796326969429	0	0
1.101655884473056	-0.1143543038980101	0.07132564611138328	0.03210218619125307	1.063667598943845	0.9523737109305435	0.4290165355136422	0.6838135036894908	-0.2387564540379641	0.1620880700746091	0.365466840499977	0.03879643001440365	0.3897446357837214	-0.1098738858104447	-0.3685864335303294	-0.0257215938299909	0.04562336405856715	0.05599470593042061	-0.1052831172170032	0.190780845181983	0.09396746454545904	0.1381463777315065	0.2169550901160268	-0.1082769069064266	-0.0280458835818773	-0.2246197419441214	-0.004182128544185549	0.06054175407706474	-0.1341284956058623	-0.1713812084530039	-0.4838488192268787	0.2113342816877298	1.57079632696943	0	0	0.4478606804299916	-0.3279819799230748	-0.03490008792828339	1.350228647965503	1.57079632696943	0	0
1.116031259413831	-0.1171843812613124	0.0715274723471072	0.03653387940187629	1.065399661370974	0.9496178348124635	0.4315689517629293	0.686306100013737	-0.2332867800878766	0.1461349762978948	0.3628633227637559	0.03879643001440363	0.3608457915977786	-0.1133830865613738	-0.3727226698239995	-0.03483987332266454	0.04349913218831475	0.05157030392537783	-0.1029729187700609	0.2120907024579864	0.09396746454545901	0.1456927549941688	0.2364578044465517	-0.1048301898056129	-0.03213407617031699	-0.2142180868519936	-0.007247263694720561	0.05473068692503447	-0.1724966599353331	-0.173152148378361	-0.4826642095969148	0.2065986270845367	1.570796326969429	0	0	0.464233093932553	-0.325043976275711	-0.04025833015555527	1.397374184692096	1.570796326969429	0	0
1.12	-0.1179987682486198	0.07136014319646011	0.03782537104964619	1.066023884342031	0.9488094210116133	0.4323323545149347	0.6866409731184189	-0.2313353270931325	0.1416454912048577	0.3637984016837491	0.03879643001440362	0.3554362130447108	-0.1139420353629044	-0.3744126768623541	-0.03667119464776093	0.04298141847247741	0.0499550902244198	-0.1025992725884229	0.2183376621504976	0.093967464545459	0.1484462017454991	0.2415197567684634	-0.1037066202234729	-0.03308969094615009	-0.2108462878842348	-0.007933350989656822	0.05310741542761764	-0.1849238361341438	-0.1736579574027629	-0.4812668882517007	0.2067412456504486	1.570796326969429	0	0	0.4686901675277953	-0.3241151888776884	-0.04161208686354689	1.409911457946142	1.570796326969429	0	0
