DataType=double
version=3
OpenSimVersion=4.5-2024-01-10-34fd6af
endheader
time	pelvis_tilt	pelvis_list	pelvis_rotation	pelvis_tx	pelvis_ty	pelvis_tz	hip_flexion_r	hip_adduction_r	hip_rotation_r	knee_angle_r	knee_adduction_r	knee_angle_r_beta	ankle_angle_r	subtalar_angle_r	mtp_angle_r	hip_flexion_l	hip_adduction_l	hip_rotation_l	knee_angle_l	knee_adduction_l	knee_angle_l_beta	ankle_angle_l	subtalar_angle_l	mtp_angle_l	lumbar_extension	lumbar_bending	lumbar_rotation	arm_flex_r	arm_add_r	arm_rot_r	elbow_flex_r	pro_sup_r	wrist_flex_r	wrist_dev_r	arm_flex_l	arm_add_l	arm_rot_l	elbow_flex_l	pro_sup_l	wrist_flex_l	wrist_dev_l
0	-0.4449514653427873	-0.1467847770927911	0.2361944140736198	0.1735550356076756	-0.2142204765973959	0.1869449288747941	-0.04160071017782102	0.4102739935336476	-1.264189230821716	0.06392709283998295	-4.066623667251007e-16	-1.742563521828008	0.07743104439922766	-0.4472837185152931	-0.4469846940555099	-0.4156985207601206	-0.5003651823872245	-0.04346077868674907	0.6101331867983547	3.810308149280355e-15	0.3222893037747587	1.2092812151689	0.7138452431993723	-0.2144075814309379	0.8009176126129031	-0.1630788803979084	-0.4712331693187111	-2.242692476237013	-0.04245529445363198	0.4432249311655473	0.8395474840453643	-4.973519903545247e-14	0	0	2.054025809347773	0.1960513197012656	-0.3787116330761497	3.450642591397736	-4.973519903545247e-14	0	0
0.009512856113114032	-0.3814050652332889	-0.2006133446924573	0.2672609234700427	0.1968188508213483	-0.2054435496727285	0.1994641925631051	-0.2099043201417953	0.5098302465927741	-1.194678927876907	0.3899804752859396	1.752680930012193e-15	-1.033779642161637	0.04581091319865754	-0.5133326796361757	-0.3890298109319035	-0.5067872872206238	-0.5918507425236729	-0.05758236837626721	0.5658026842304954	2.719172260944688e-15	0.6228994918354087	0.8612915788798354	0.6784458916786797	-0.2220588526511685	0.8038858989825469	-0.1093767421636526	-0.4862463155594958	-1.762320445596901	-0.03799210268465864	0.7032447052767815	1.032452170418656	2.986789989841251e-14	0	0	1.863222438312417	0.2277511117713015	-0.3794411768824823	3.338721290167742	2.986789989841251e-14	0	0
0.02645588447305514	-0.187317527665543	-0.2938058830413974	0.3323511862999553	0.2440594437190847	-0.1772740025415949	0.2157732009512083	-0.5808695209850778	0.6595893868432099	-0.9565611401313489	0.9547973360248107	-7.816198643110825e-16	0.1419461760653826	-0.162427577342301	-0.6347986756939226	-0.331860331067324	-0.6858326730655271	-0.7407331295104657	0.04075226576622884	0.7068292499202232	9.328199163394646e-16	1.228876852872951	0.8226773227021464	0.586090192875161	-0.3495020690217586	0.7061094640882664	0.01388081053204352	-0.5175017057188346	-1.122388704351063	-0.02692866097559576	1.237765405175073	1.029499655329897	-5.985126716386151e-15	0	0	1.100575317976017	0.3056796049009087	-0.4259677078527392	2.823867456727564	-5.985126716386151e-15	0	0
0.04083125941383081	-0.06380474295004714	-0.3450080853440111	0.3735223066327352	0.2725478104430349	-0.1558047871333437	0.2239586768998836	-0.8668166757973612	0.7345035883829212	-0.06925028252866569	0.8684536144580346	2.074003161698089e-15	0.9645412816101985	-0.5603055996759527	-1.082602200827249	-0.2374050597482709	-0.7143228060588527	-0.8115988186467884	0.1772776953973036	0.8970016072327331	2.279202188640683e-15	1.842487625955602	0.5562660171945528	0.2289675938833745	-0.2746496495600458	0.6377985399828713	0.1098045056780002	-0.5493201662968362	-0.636599302742205	-0.02296818156400693	1.23809262243197	0.8444186566541312	1.745048119133162e-13	0	0	0.6195194090094959	0.3622815893009862	-0.4253022687661807	2.516874520374243	1.745048119133162e-13	0	0
0.04479999999999995	-0.04431001382714779	-0.3610704262869249	0.3909099313752135	0.2775595938387009	-0.1513583586789805	0.2264037883581235	-0.9206188648344056	0.7445671541749042	0.1226723091466703	0.6633226907492452	2.213083382791467e-15	1.155928025329121	-0.5554212063392153	-1.249179123012151	-0.2655993016411254	-0.6987017819232573	-0.8336975254241681	0.2205741339711757	0.9635635795978483	3.240908369353836e-15	2.025377118995442	0.5368640924106749	0.1433055953897447	-0.2613017398051628	0.6282456313119852	0.1315534869329419	-0.5570132725768305	-0.5322606467243725	-0.0253037866708789	1.229677857142478	0.8192113079751704	1.58521344024568e-13	0	0	0.5405955520124534	0.3732375233342586	-0.4139453004585816	2.474572209314594	1.58521344024568e-13	0	0
0.05431285611311398	-0.005713011611718409	-0.409686468119395	0.396435227294045	0.2873157951082236	-0.1341377110418902	0.2372223062177921	-0.9889084621120701	0.7946226530477445	0.2858400666558391	0.7265946882136616	-1.938396717067538e-15	1.541091239998905	0.5147553770600958	-1.380184454422163	-0.4027015485334209	-0.6327882669081812	-0.8975450343168644	0.3000400406568315	1.14797603329402	-1.34785711603414e-15	2.486568306150561	0.3969727648370094	-0.09560588738337272	-0.3668215282351325	0.6069660510496639	0.1848701662623305	-0.5777197915875888	-0.3488732343647241	-0.02502756094344992	1.243025040493162	0.692273565044252	-1.030956187129701e-13	0	0	0.3147645801706803	0.4056239096426827	-0.4054221991599285	2.363917042077272	-1.030956187129701e-13	0	0
0.07125588447305514	0.09731035276143671	-0.5087728731251157	0.2136985786276661	0.2940368237813671	-0.07707143893446036	0.2721227080205073	-0.7611302495003154	1.023438176296677	0.2370329339181002	1.50860773307634	9.784772224709764e-16	1.948671996261044	2.465133518685888	-1.108574531447181	-0.61319633359028	-0.5283846471717218	-1.002681123466175	0.3183561843166999	1.511297817589577	-3.91253676330335e-15	3.363794173169425	0.03466829303443653	-0.6222679300217071	-0.782688610592896	0.5076969453410038	0.2959994242276449	-0.6249726554953156	-0.2314847310876423	0.01573109809748402	0.9643690736376915	0.01446883563817458	-8.552090385235269e-14	0	0	-0.4443400399854612	0.4876605363197525	-0.4699768552925881	1.873759497185655	-8.552090385235269e-14	0	0
0.08563125941383082	0.1431602024637445	-0.6590967027921778	0.04769834501080045	0.2883746579968034	-0.02017538266288941	0.3057581413198697	-0.5313514806565367	1.274430033493906	0.2406148966049961	1.874865913775137	5.876691599291441e-16	2.001607842733069	2.12818883521757	-0.9267155104378723	-0.09942396723323282	-0.3055679479228987	-1.200919026969113	0.1021224583860525	1.984290418225921	6.843599670378239e-15	4.12931604876136	-0.2684876790227665	-0.7836757654621342	-1.077896032135837	0.4561937104010038	0.4315165131558588	-0.6290907899571436	-0.2744536533135475	0.05517211583022159	0.7173724595835496	-0.4801137473329691	9.256696751172064e-14	0	0	-0.870409763092842	0.5248111491068655	-0.4842769208204435	1.560974016526823	9.256696751172064e-14	0	0
0.08960000000000001	0.150710683773381	-0.6860176689861381	0.02965885459518589	0.2876346273737186	-0.006529529929614163	0.3111206498285691	-0.5223257615205885	1.321517911377055	0.2569018811868219	1.868181288004487	-1.558768621203744e-15	1.970784332042585	1.992258382153997	-0.9326366879258607	-0.08356239592198686	-0.2326410679969029	-1.239736335677948	0.07881987979210509	2.11223768015554	2.963100571731507e-15	4.337333203573983	-0.4438629699600835	-0.8552680050456047	-1.075695713075665	0.4508062368764119	0.4552137241999679	-0.6198270690062475	-0.2860083473393227	0.06035485663246036	0.6816621858299647	-0.5529190529293018	6.290495335975417e-14	0	0	-0.9388212528969158	0.5276759410077763	-0.4871053502842349	1.516867503202834	6.290495335975417e-14	0	0
0.0991128561131141	0.1696553026703541	-0.7194858363903506	0.02396236328659262	0.2888165061779658	0.02499323456824222	0.3164908823459109	-0.6153072402507437	1.383109888419217	0.2337452548767984	1.733347639244019	-2.358378158621332e-15	1.824990924267385	2.018174293341109	-0.9897634006925058	-0.2889676247683203	-0.04313693553968834	-1.291296370419351	0.1198319763024733	2.45884417298019	-3.343622295078738e-15	4.81889366726488	-0.6298607805181602	-1.030348028035946	-1.002976039717778	0.4471869293972913	0.4874045209371556	-0.5820568888453368	-0.2878018907934439	0.05728253491057217	0.6001654007515305	-0.6966713709691221	-2.419406363265869e-14	0	0	-1.094604446908447	0.5391017875352199	-0.5102109496305538	1.419420075762717	-2.419406363265869e-14	0	0
0.1160558844730551	0.1814476293528272	-0.7979408555807104	-0.002859004129401546	0.2935810509853731	0.07348117993176601	0.318440570803884	-1.126416540486873	1.461245183193145	0.2245288380859939	0.7175353640078959	2.964722778833367e-15	1.365513558189463	1.271063418553881	-1.011481695865432	-0.2190188750503602	0.3094275162004778	-1.383992580590638	0.1941678067960601	3.066400880427695	4.283528801824618e-15	5.56858224892437	-1.042559407815154	-1.373537894263985	-0.8520444194357907	0.4982273294186221	0.5754011531307691	-0.4766080931236095	0.2277409564420362	0.0295890318142035	0.2155952504172239	-0.7910772760576918	7.501817977666766e-14	0	0	-1.410924435319466	0.5803196619788683	-0.5662264211135086	1.031046597055826	7.501817977666766e-14	0	0
0.1304312594138309	0.1642364725156362	-0.8164028654548354	0.04816789140881044	0.2852600773925056	0.1010487019266685	0.3017078940278362	-1.580196949405898	1.381923312822569	0.07175434975032204	-0.2662317975143207	-1.972552936060206e-15	0.8616771764597502	0.3273347689533082	-0.9628268237714689	-0.3253089706181771	0.6939239358804985	-1.404275395954464	0.302244422191203	3.637166974358438	-4.930826378832765e-15	6.031074541913939	-1.193011380352122	-1.59180014965181	-0.3253453553644976	0.535903578654799	0.6302137981341434	-0.3590225423688497	0.7138830201381536	-0.02338365250604062	0.1014482515243152	-0.6041225028167394	-8.733439551258132e-14	0	0	-1.561903852523061	0.5988266536181925	-0.5348631934922053	0.6623605926435985	-8.733439551258132e-14	0	0
0.1344	0.1767665040019491	-0.8303424189182897	0.05384461077378746	0.2815582178879691	0.1067747917829346	0.2972251327209217	-1.680919093229046	1.375255009457894	0.04513729835037144	-0.4468507180400711	-2.403351908345471e-15	0.7172594011429451	0.2555562285788457	-0.9094378809221213	-0.3415525572421022	0.8243194715568272	-1.41280962306379	0.3347696011832357	4.015014652413321	-5.024615292181263e-15	6.122383278138614	-1.158209877280362	-1.704169946494629	-0.1682191694535752	0.5190689239454297	0.6570264059649094	-0.3337267893096967	0.7458273458764988	-0.02736016804815389	0.1171080155065619	-0.5847725304742906	-1.031648070536821e-13	0	0	-1.618966148440805	0.5992525351481957	-0.5268372870943436	0.5607585068277654	-1.031648070536821e-13	0	0
0.1439128561131141	0.1855569958471384	-0.8784298659265903	0.05510573065945799	0.2682691915837239	0.1195160348970389	0.286126869407031	-1.83875279172492	1.398630091305739	0.02882247575168503	-0.7392738926563256	1.105232482637307e-16	0.3788130007048182	0.5258314320645857	-0.7859649584878332	-0.4586215821340081	1.013740460555618	-1.429832089365279	0.4635635765209449	4.128758717440079	2.881461906010447e-15	6.268107380149067	-1.312872141052102	-1.973431352988793	0.2057704393975895	0.4952748735998628	0.7424077817703588	-0.2837380537230522	1.008474915468252	-0.03423883434860123	0.19484853710037	-0.4112504608294372	3.660486097191635e-14	0	0	-1.725295126331433	0.6087916630167917	-0.5098900715487148	0.2997840502295379	3.660486097191635e-14	0	0
0.1608558844730551	0.2448061141504646	-0.9584254403207476	0.114220061217257	0.2247367924882409	0.1291879889054895	0.2552524267019524	-2.047569609051729	1.410206157169687	-0.01427850814140223	-1.11850762181524	1.449391196129152e-15	-0.1455568789549272	0.6166705716760724	-0.6232279767581695	-0.8524007701802083	1.61665176160658	-1.452496767771273	0.8689949281390834	5.455648793954793	-2.195088373526653e-15	6.251673282597604	-0.6829913913693202	-2.307656337036792	1.713260507350263	0.3619014017634322	0.9079546765785822	-0.1611531134017065	1.348609545046081	-0.1243659266315185	0.4194466332781912	0.1564425215875964	-9.352570536702537e-14	0	0	-1.966273519142313	0.6619927050079345	-0.3859285204614874	-0.6710739999441346	-9.352570536702537e-14	0	0
0.1752312594138309	0.2752667465924773	-0.9428932296021406	0.1046426231074402	0.1846581113435432	0.1212930827596341	0.2355506030479507	-2.101342865220064	1.365724695353647	0.0007623336529454719	-1.338344612936368	-6.755151453416473e-16	-0.4677510222529171	0.1328860405948494	-0.6390449059842342	-0.887746075127229	1.726285977629362	-1.460337569680723	0.6701025486516582	4.624198237571981	-3.828947416131336e-15	5.955511711823344	2.550746670780235	-3.185065026149103	0.4253636387774082	0.2626322576199812	0.9213381887247735	-0.118215048309723	1.726944697978803	-0.2209325107115195	0.564816654935133	0.7819876321628758	-2.232143989955005e-15	0	0	-1.955282219495956	0.7202071068454647	-0.1956977675930581	-1.355818971874978	-2.232143989955005e-15	0	0
0.1792	0.2839187343510338	-0.9375164422734457	0.1140143055647955	0.1763043576103004	0.1139985168151604	0.2293645304130588	-2.092938849792634	1.343797587288445	-0.01041227736790195	-1.338251813390539	-1.70783008278294e-15	-0.5344569257685367	0.07430202955783227	-0.5953128036419906	-0.8844068010814431	1.771323127223527	-1.467379746437319	0.6045717816234115	4.879675628106993	-2.56768631745327e-15	5.830558176661789	1.392827460463065	-2.799174165930288	0.5625557543187498	0.2363678792400835	0.9221388028909415	-0.1107531220284035	1.701770536838268	-0.2382652628746404	0.6013162936108686	0.8412313949649337	8.268838345397386e-15	0	0	-2.001756475904994	0.7303255738302319	-0.152294357684573	-1.51132334560287	8.268838345397386e-15	0	0
0.1887128561131141	0.294412748070289	-0.9168578427110143	0.1616671909719961	0.1537831242745868	0.1045448503666306	0.2112512675902781	-2.076104056260486	1.271301297839024	-0.05483607952204823	-1.320070802550878	-1.036365299469831e-15	-0.6565816742206276	0.2647883882716801	-0.3941730531288701	-0.9136375692515755	1.731290632901787	-1.444641088337898	0.5994815586371018	4.28174356840668	-1.20503983937179e-15	5.462332339190416	-0.2037190978440583	-2.124195214840154	2.009632056894401	0.1839259145997025	0.9214319399101978	-0.08964094277002316	1.862681673269813	-0.2832412941379903	0.6938626724893527	1.135733026578831	4.571206551110974e-15	0	0	-2.014822583119646	0.7559946414882844	-0.06409740860702713	-1.839423202042447	4.571206551110974e-15	0	0
0.2056558844730552	0.3170132450958194	-0.7479071705119261	0.2438448683394763	0.0974365346482747	0.09280507942486385	0.1741157551017843	-1.994927411636708	1.009860696094923	-0.1116681229653455	-1.223898343732587	-8.990371328455645e-16	-0.7607609023756499	0.3662826956405646	-0.1185101805867982	-0.8220333327216061	1.80976436692247	-1.173620508871508	0.6003827037792233	3.350182084054858	2.788732350583458e-15	4.60566116203066	-1.283095193942162	-1.002481746137297	3.116789473996938	0.03641743011644934	0.7727906911750358	-0.08219224831853431	2.045396947251625	-0.4618781630596838	0.829314095998721	1.98031910663463	-1.937776164790238e-14	0	0	-1.882561899199871	0.8538297269119568	0.1952234467742154	-2.828789495691243	-1.937776164790238e-14	0	0
0.2200312594138309	0.3138068276746525	-0.5812288552781757	0.3277437904253565	0.05251478138856442	0.0828225723305528	0.1441407496640102	-1.896171853748691	0.7702617887247548	-0.1693531087297119	-1.152705899100762	-3.057305887502657e-15	-0.770281615335686	0.1137883835338689	-0.0366342155934189	-0.5133278960589274	1.968082895132637	-0.8765966663767838	0.5931125797969213	2.798926347068965	-6.204833051481167e-16	3.738255063665774	-0.4892896610447078	-0.8507515721431127	2.845059040075789	-0.07101037136603011	0.6123234121092097	-0.06633782715060572	1.944196335791823	-0.5531283415662582	0.8630001910386238	2.409764715080319	3.371918084391109e-14	0	0	-1.786138503483571	0.8859673516204769	0.3237642603005153	-3.520230207725432	3.371918084391109e-14	0	0
0.224	0.311572243461306	-0.5559267582564782	0.3440367728989117	0.04190243458188354	0.08116968001767784	0.1371526926186294	-1.861563905960156	0.7324285871127346	-0.1768880117495926	-1.115600521960928	-1.951909078924837e-15	-0.765564793939325	0.1034843256319276	-0.01113893191057919	-0.4575887494375385	2.004579204184876	-0.8273662786539486	0.5715262580930124	2.632193589213393	-5.081031867719174e-16	3.484897850036002	-0.3797750720226588	-0.9915942121227288	2.766593400785739	-0.09896321167621952	0.5922874820879909	-0.0606762604164939	1.88749510870448	-0.5670416736809329	0.8856568130079576	2.450732669814912	4.87837616396241e-14	0	0	-1.801855028685486	0.8894968261144509	0.3517370401928463	-3.661642891008726	4.87837616396241e-14	0	0
0.2335128561131141	0.3074532024915214	-0.4965477668982163	0.3908081538956606	0.01638784104953979	0.07896923445063715	0.1196292416567269	-1.796067041322004	0.6425873281433145	-0.1949653918564968	-1.028678816796654	5.387261507429058e-16	-0.7484478386470659	0.3123445576637543	0.1119499574195594	-0.3862795970462273	2.081258973270985	-0.7099270579819328	0.5366551414943221	2.21803205207277	-1.199676626609512e-16	2.86458220118034	0.03503049311999207	-1.077648415375715	2.789484979073694	-0.1620566142908769	0.5481673816156107	-0.0561901793868321	1.841786708950048	-0.6086277059314773	0.9347836408018712	2.588738001373897	-3.344924217826251e-14	0	0	-1.820596056055081	0.9058030699165562	0.4256837500693009	-4.005368764136499	-3.344924217826251e-14	0	0
0.2504558844730551	0.2839997111168779	-0.2310067387673471	0.5276765698098972	-0.04048801477426742	0.07731071942557577	0.0841712547080202	-1.65103488954324	0.2995362042124157	-0.2563128152371066	-0.8601692808000214	2.27397800209774e-15	-0.7203827793781804	0.4562826548006075	0.2585160833791561	-0.03502291535268767	2.316321474306293	-0.2570979620763845	0.4807134957278775	1.648710021470037	-1.665425112966383e-15	1.749947643165755	0.5452469523386803	-1.457156866036847	1.378914378981059	-0.2927597816663308	0.2723206207404729	-0.09639310857620045	1.798346150769787	-0.7256430328973613	0.8154206119888096	2.998541820809379	4.824057496013157e-14	0	0	-1.664932145790907	0.9487799366889142	0.5616868046506377	-4.923192250906592	4.824057496013157e-14	0	0
0.2648312594138309	0.2467941482466809	-0.09808332514085215	0.6045986647320883	-0.07740078930184202	0.07717135439042436	0.06635685377892532	-1.565962179535023	0.147488805325815	-0.2540313440369362	-0.8553925328781624	-1.583702626756777e-15	-0.7221419974982874	0.2825545998643022	0.1435334495128887	0.1958676749879183	2.460229109885807	-0.06896763181746311	0.3257307944185477	1.090667937632958	-2.847951250592453e-15	0.8282096900375213	0.1525334804185211	-0.969439959176974	0.6297338807547459	-0.3636029088840635	0.1241297990258928	-0.1234123264570545	1.688261605435283	-0.77327529774496	0.6475720295347673	3.161131772501974	-6.373983754353688e-14	0	0	-1.523723017057203	0.949849002328041	0.617228118952057	-5.441545439793138	-6.373983754353688e-14	0	0
0.2688	0.2389921130023108	-0.07875837618832869	0.6179282996549195	-0.08549033360785699	0.07735725999374313	0.06230077368983462	-1.539746472487522	0.1254632669935142	-0.2534205247417666	-0.8388578569983812	-5.927904930288165e-16	-0.7289501253936953	0.2664649261437211	0.1336359694951029	0.2417069530445852	2.494754939709937	-0.0391179191291558	0.2803100948315499	0.9619567403212311	1.774694466982181e-15	0.5801849289541481	0.1041179085083063	-0.6708109834167346	0.5077341789913049	-0.384332376571579	0.1036297720589309	-0.1274291296218159	1.617701404763591	-0.7798935386258797	0.6333429404991474	3.174238443158948	-2.195729839439724e-15	0	0	-1.520431844223342	0.9483830584536447	0.6342525490733546	-5.539946309222456	-2.195729839439724e-15	0	0
0.2783128561131141	0.2196441932204198	-0.02761179804073141	0.6504127211472387	-0.1051725038871233	0.07789585138746599	0.05183241042482276	-1.498574943103608	0.06182106510385171	-0.2660168765073775	-0.8192115843330018	1.915575025289119e-15	-0.7581219987071315	0.3824559953788529	0.1873534662436879	0.3306254317313252	2.523460652652174	0.04965813530474164	0.1894991426503061	0.5489135382209211	5.815528115242545e-15	-0.002243944599148208	0.4426801706991774	-0.379698546858435	0.2384665607649479	-0.4273316761566846	0.05133379289530995	-0.1399581503973363	1.635247304239079	-0.8002355271150718	0.6088763503560367	3.248138970743456	1.037003172510352e-13	0	0	-1.495902711710864	0.9474040232342401	0.676024680132548	-5.770014590232122	1.037003172510352e-13	0	0
0.2952558844730552	0.1587511071365866	0.09629118119946059	0.7117813777190609	-0.1419959690442434	0.07562268315135995	0.03801524281525683	-1.405422353294257	-0.07778029146303674	-0.2918671001798091	-0.8158419332826511	2.710784409963112e-16	-0.8573012425930844	0.3739281902214652	0.1597794094761903	0.5163987456340488	2.563204873360158	0.2212896943642954	-0.01061821740177248	-0.215909163196646	5.550244314006618e-16	-1.002999401243888	0.7335244375388592	-0.3236020645266078	-0.5453185339683285	-0.478204656134212	-0.09671967493333607	-0.1791706732053817	1.751781249272896	-0.8245782625619004	0.344891978240166	3.493653020009613	-1.696284630057879e-14	0	0	-1.268410293592456	0.9170672097830042	0.6634464614518756	-6.282434783614159	-1.696284630057879e-14	0	0
0.3096312594138309	0.1024011473529592	0.1118637115239333	0.7112907697888692	-0.1604684545252444	0.07207752732685162	0.03392739155913507	-1.363743775171418	-0.08399660616281235	-0.2843856673704958	-0.9069883001663539	-1.031662303804021e-15	-0.9870601912376618	0.226535037174673	0.06784192310605053	0.567501347980728	2.546096818708622	0.235960328845097	-0.1507100009151965	-0.8602426690819629	4.090687021360163e-15	-1.828684155915717	-0.02533304496656197	0.1746694998973551	-0.4862604392213798	-0.4866119984866809	-0.1290934539445557	-0.1765334012448004	1.755918907764215	-0.8076616352619621	0.1674054043273676	3.596873594455253	1.063085901690954e-13	0	0	-1.126288258255899	0.8636261959529433	0.6137942895677077	-6.480583743283774	1.063085901690954e-13	0	0
0.3136000000000001	0.09265834667741552	0.1074104004957435	0.7082122887411231	-0.1644880467564175	0.07105356593625073	0.03270473527801893	-1.351185730988176	-0.07732448475182636	-0.2835436767202564	-0.9151174111928235	-3.100954214157934e-15	-1.029376885684971	0.2136504546123215	0.06598116622066769	0.5851428930007533	2.538698273318222	0.2347535653158328	-0.1792993771679806	-1.005756065139488	-1.273302215239211e-15	-2.054838312712737	-0.1973017612883884	0.5241843423182704	-0.4603218115350432	-0.4927311511599435	-0.127352042689885	-0.1754903673372988	1.759401285965573	-0.8029855423178767	0.1528424439588319	3.615642638849515	2.894793071489276e-14	0	0	-1.116119850565995	0.8529016183473563	0.6122176555142562	-6.515358322801778	2.894793071489276e-14	0	0
0.3231128561131141	0.06765728352115985	0.1043724167074588	0.6971842991931011	-0.1730943988597137	0.06739163113683808	0.02863112831763648	-1.339600684627784	-0.07570059959851631	-0.2930896960731381	-0.9556176184692691	-4.185583341707337e-15	-1.140202176351669	0.2617917421726988	0.1214328968394771	0.6312960633937476	2.468114407021024	0.2588668114168727	-0.2265319936844881	-1.436515492145722	-6.92473324671968e-15	-2.595572443951996	-0.04178143545199431	0.9103756098889169	-0.5249271437667745	-0.5011457871619164	-0.1281511920627005	-0.1704985961707374	1.864569742655494	-0.7910191210637798	0.1247395206955915	3.719293693807294	-1.494803721758365e-13	0	0	-1.088993966993541	0.8232259817941646	0.5991877341552041	-6.583142292678701	-1.494803721758365e-13	0	0
0.3400558844730551	-0.003051506841573515	0.07345745543118744	0.6190055275806874	-0.1842299048385539	0.05559975982295741	0.02666518578662795	-1.296528738230913	-0.03903722966368245	-0.2886755253847538	-1.062844546427852	4.374539651446666e-15	-1.359644444796228	0.1683124285495857	0.1490597187919001	0.599035660957519	2.348221601933627	0.2664417883775893	-0.2856452575724128	-2.169408972899415	3.556198466795103e-15	-3.553176383034298	0.04536477760436797	0.8563852758942401	-0.4389077957784577	-0.4844340548642496	-0.1009085517769904	-0.1100175434433291	1.918881094049743	-0.7156434766304396	-0.05974295961473378	3.93969695066493	4.468345921298389e-14	0	0	-1.003360843386348	0.6929683987148793	0.4132836633812876	-6.609485477626987	4.468345921298389e-14	0	0
0.3544312594138309	-0.05855415995605338	0.02943951411977829	0.5369288014815571	-0.1852883957709594	0.04471425806319301	0.02428342866446061	-1.273098040423762	0.002115865596825695	-0.2847643819422145	-1.152097960238529	3.409367558428838e-16	-1.549848967182293	0.1243826064598594	0.2423724777321455	0.5024097859938983	2.23462085221535	0.2766046264798641	-0.2214225773130363	-2.72306709523828	-9.941782903143806e-16	-4.34466353049247	-1.036371079175686	0.864037828983871	-0.2363238973485937	-0.4548564727244335	-0.06210861813820265	-0.04052476829025035	1.848792758587704	-0.6423950959194479	-0.1302327552868907	4.02153513692972	-2.741812062110965e-14	0	0	-1.002433860029531	0.5818151811110313	0.2757821963535826	-6.450343988807036	-2.741812062110965e-14	0	0
0.3584000000000001	-0.06872748709160177	0.01435177981643677	0.5174734851361702	-0.1858161302037964	0.04185243475776047	0.02285389916682759	-1.268413239575431	0.01609809334709482	-0.2815072785434618	-1.168721797406747	-7.541838551485414e-16	-1.600056051034741	0.1382428297874736	0.2744278820440218	0.4894580181577262	2.202680638052691	0.2813317623031004	-0.1850062116934851	-2.852280426617239	-3.774439371283664e-17	-4.555361585282441	-1.264972970508685	1.130759594754984	-0.190213362907658	-0.452245692579587	-0.04654111203225002	-0.02632338216856667	1.853036697705865	-0.627357053019469	-0.1177573795505692	4.039738928673948	-3.267020899425088e-14	0	0	-1.0138473038683	0.5602821303409644	0.2566162927100345	-6.418773162315764	-3.267020899425088e-14	0	0
0.3679128561131141	-0.0928292593428257	-0.01765539634389225	0.4662962714792634	-0.1851257782103712	0.0335068679389017	0.01919675719255894	-1.265093389333153	0.04616183000351384	-0.2641143969940983	-1.212124871291714	-9.688899871124439e-16	-1.711853961614279	0.2067618506605188	0.3607007511285263	0.4361194689768403	2.087735439182751	0.297927691290947	-0.08560402499396971	-3.202788705118949	1.160837800796531e-15	-5.037331257160229	-1.422628717360217	1.449792707036684	-0.196904956297235	-0.4386784987484154	-0.0127351622789473	0.008883521916467621	1.942632507585359	-0.5881466527017174	-0.08930081087716182	4.138206159219803	5.247261344017327e-16	0	0	-1.062137932025449	0.502906162416966	0.1978650195252425	-6.309669159191098	5.247261344017327e-16	0	0
0.3848558844730551	-0.1439484874790348	-0.07346818957020622	0.3211416371138235	-0.1749062270653881	0.01554736994383919	0.01776288776044316	-1.243467277171378	0.105893624782431	-0.1849269957888889	-1.283056448032635	1.179681599017005e-15	-1.863757608042546	0.1629993671850237	0.4407926865511022	0.07619793710652908	1.878778489339447	0.285926309856472	0.1064655430052528	-3.733476751079036	-1.90225063183144e-15	-5.769723708050472	-2.16197235200232	1.475455028233035	-0.3191316754768412	-0.4012190531460114	0.03277834855254119	0.1247692656199286	1.817357513901767	-0.4611157422560629	-0.151763330593405	4.261622321872077	-5.536405108475592e-15	0	0	-1.260095066135487	0.3224853588529347	-0.04436492467483317	-5.764927617003615	-5.536405108475592e-15	0	0
0.3992312594138309	-0.1674896599604394	-0.1014136029434597	0.226031127441354	-0.1614623407807905	-0.0005818676217777541	0.01233453966626467	-1.238195680729627	0.1273590682143537	-0.1259379462155299	-1.302313182551043	-2.439628962286868e-15	-1.923513098813741	0.1560101298043388	0.5345802406618952	-0.1945843112065688	1.685083072753843	0.2816838141197998	0.3450874035448324	-4.036850481704864	1.291336662210382e-15	-6.19580957334839	-3.392009205633665	1.341616837111931	-0.4291015175507751	-0.3708047199632601	0.04601303193909465	0.193699252613459	1.725653838709838	-0.3747722051692049	-0.1317155543617041	4.282832613856149	3.817413857996717e-14	0	0	-1.405615527319279	0.2071314286867485	-0.1544049336534568	-5.186678674484248	3.817413857996717e-14	0	0
0.4032	-0.1719868426916255	-0.1097037311637752	0.2047102345138987	-0.158658301597192	-0.005711239822213866	0.009861964383780408	-1.236593681782488	0.1344390320442745	-0.1061011210462275	-1.307721154860032	-2.940234426427637e-15	-1.926260478837609	0.1439246266529851	0.5370701693826955	-0.2381793546594984	1.635102490326361	0.2774237979192526	0.4122485423610664	-4.087419478694125	1.497139176722071e-15	-6.272077372527242	-3.42201261639639	1.449583546003927	-0.4395740951054471	-0.3628142827465998	0.05402091233226997	0.2057974722050702	1.758480271209276	-0.3583668181094055	-0.1052774752386133	4.301599047370403	-7.175713811985125e-15	0	0	-1.427493859086046	0.185417496504526	-0.1672135658892179	-5.076147530139542	-7.175713811985125e-15	0	0
0.4127128561131141	-0.1777575497600273	-0.1266998362292054	0.1496505567955162	-0.1506704715806519	-0.01917629366524319	0.003638109582753917	-1.224920501159743	0.1515327853345326	-0.04218396623712089	-1.281836488124624	-1.579020175789372e-16	-1.906038860130873	0.2085236575286333	0.5546083023249634	-0.3542073230419408	1.508770831763899	0.2572808615781604	0.5329985793266142	-4.137797592578507	-6.543705996070277e-16	-6.369788675427323	-3.408776820476123	1.563928959937566	-0.516508107007565	-0.3441394574734386	0.07379310923576034	0.235106741790786	1.921862015886644	-0.3160740336079438	-0.05434169100379588	4.395721201193212	-1.630863282647196e-14	0	0	-1.513171513010156	0.1277250559634371	-0.2080893175740339	-4.765893302289263	-1.630863282647196e-14	0	0
0.4296558844730551	-0.1954557307636011	-0.1295669788528086	0.03804349643182197	-0.1270150641013951	-0.04535190169489902	-0.006044619851910643	-1.190315608330971	0.1533541956968328	0.1011494971528672	-1.205931661897301	1.610419595450624e-15	-1.771481829098757	0.2457518058641255	0.5296764882481291	-0.7444221094103662	1.315571827443973	0.2044197997601854	0.6205585091758924	-3.986602076205739	-3.179887079310372e-16	-6.212294905967561	-3.368964458190447	1.417398042639955	-0.8825338648799168	-0.2904205519525097	0.06344747691856925	0.300766968189329	1.987276350331629	-0.2075521371342549	-0.05239462972260737	4.4843615694116	4.468746469543671e-14	0	0	-1.857907708773346	-0.01452544176340081	-0.3130105107183651	-3.711069372598161	4.468746469543671e-14	0	0
0.4440312594138309	-0.2009464573473382	-0.1209284419314429	-0.01104138898239103	-0.1034655633413794	-0.06707648672363067	-0.02307366055981339	-1.158667475333216	0.129665378158685	0.1577199707022752	-1.095538210606044	-9.005508877414487e-16	-1.559626077970486	0.2827127070472277	0.5214907848424901	-0.7979257008137325	1.183995256577636	0.1823014813573346	0.4865042327664539	-3.603369154507744	2.782939433417501e-15	-5.725497962315068	-3.449114586580174	1.087357110487934	-0.9188164442360871	-0.2317878220262058	0.06871355618282017	0.3219691167662143	2.051455059570362	-0.1475075029766055	-0.03713545501879759	4.481203600330151	-1.020771220148838e-14	0	0	-2.063892929262969	-0.08707753466193288	-0.2880690740397014	-2.901571856142338	-1.020771220148838e-14	0	0
0.448	-0.1997060005500425	-0.1175767444488369	-0.02281924257094482	-0.09799049737427062	-0.07284904915454546	-0.02788923404341344	-1.150744888502887	0.1231985404275474	0.1757438576898518	-1.066338741025396	-1.707703829101833e-15	-1.486658221691598	0.271946067890923	0.4987062912047802	-0.8000505197768416	1.154016880878955	0.1789184050611805	0.4316776179695463	-3.464645127397187	-4.446872618996561e-17	-5.535518731139792	-3.424204079555979	1.070780471478754	-0.9090897559652145	-0.2168969302837051	0.0708792971280484	0.3244260030840571	2.114327047122717	-0.1364020330629763	-0.02026734559737173	4.497716952677902	-4.294774834220318e-14	0	0	-2.089440364689708	-0.1008471585533207	-0.2741102273616478	-2.75645886066004	-4.294774834220318e-14	0	0
0.457512856113114	-0.1972315556645826	-0.1057550605118329	-0.05763229348586853	-0.08425754607805783	-0.08759933762016431	-0.03868027752503275	-1.105735916293589	0.1064651471271935	0.2310902354398093	-0.9316594006460894	-2.887086231489681e-15	-1.289626182048406	0.3751819740399512	0.4749973724282384	-0.8151511549703774	1.091215345116656	0.1803000448299601	0.239683919235964	-3.05254598936956	-3.408068348699444e-15	-4.99109433992971	-2.826370211836661	1.047636463317872	-0.9167310502855497	-0.1849088174769042	0.07068679098440464	0.3333199949249991	2.326743041686585	-0.1050174724977128	0.01771795557221581	4.559375648891342	-9.783993103825961e-14	0	0	-2.208200005591973	-0.1414871474878345	-0.2479280406440736	-2.403311849436033	-9.783993103825961e-14	0	0
0.4744558844730551	-0.1993617444040679	-0.06079770655949684	-0.1051437090046828	-0.05356542275353229	-0.111041334503447	-0.06327651172385104	-1.017890930302845	0.04011267541114467	0.2937934735498146	-0.6755245282983872	4.723076687863552e-15	-0.8792484760034762	0.4675345019987295	0.4196334881939041	-0.6445381546759059	0.9905035419252767	0.2424104359719719	-0.4080621613115288	-2.190777627217768	3.467004198607563e-15	-3.769388679089063	-1.892415298973575	0.6795823586316085	-0.8742573510766277	-0.116851555718207	0.04969270015848297	0.3396380525066386	2.516451651365383	-0.03614676972253321	0.02169958222274235	4.510733994239785	3.698317039974915e-14	0	0	-2.606469940663627	-0.2217026690315772	-0.1328988299724288	-1.404777462554438	3.698317039974915e-14	0	0
0.4888312594138309	-0.18910431918897	-0.03617051103247246	-0.1265912914595519	-0.02868648688473539	-0.124019711801389	-0.08575408934934767	-0.9306756413965234	-0.002160389185793962	0.2532179297083599	-0.4075149693636615	7.088196181230105e-16	-0.5000607803810165	0.5300351878267953	0.4075376252621936	-0.2919878326495686	0.9043778510107998	0.3142023980711885	-0.8660062110767994	-1.43821459756218	-1.053328027930968e-15	-2.587240933099672	-1.897227987954728	0.204518331430023	-0.6262199185414665	-0.07326903804402561	0.05998961294068975	0.3412871815590209	2.586798315127103	0.005290943871237175	0.06360719851953582	4.356189684685998	2.145860517229128e-14	0	0	-2.754772728674957	-0.2609118409780765	0.00748478803215067	-0.7890133138076035	2.145860517229128e-14	0	0
0.4928	-0.1864168810117066	-0.02877881149063878	-0.1375017790683552	-0.02306378369030922	-0.1271018791265439	-0.0909179540410051	-0.9010460378364573	-0.0137438817792146	0.2465789680315667	-0.3297525914851808	-2.033638314084817e-15	-0.394697551251283	0.5293542127932515	0.3953115808241872	-0.2245907948127304	0.8838417853678364	0.3293511120217373	-0.9515542039515635	-1.238285983704599	4.1976357282972e-16	-2.255033913593879	-1.866947017111269	0.201953367380189	-0.5618656878125693	-0.06138704130149088	0.05966684762300154	0.3416694275641251	2.639585637729939	0.01392568614776711	0.0899086688556188	4.341535974617364	-7.06429873372746e-15	0	0	-2.75942446839301	-0.2698560021312524	0.04197161812867878	-0.6785769770218422	-7.06429873372746e-15	0	0
0.502312856113114	-0.1790162755240045	0.0006485568234687426	-0.1773861728465831	-0.006940018385682922	-0.1340276819876701	-0.100882899179236	-0.8335350655625373	-0.05262200602612389	0.260696728781993	-0.1224639757150177	-3.355020949733855e-15	-0.1468528326669483	0.6671621764332434	0.4255533085055302	-0.1098147373373391	0.8163982021723457	0.3640108602498946	-1.1400644590072	-0.7486566536151191	-1.874724648690209e-15	-1.474260626542336	-1.383948673617867	0.2545329138655315	-0.4477260269367613	-0.04012045547381692	0.03434504314711422	0.3453892335951643	2.779504550214881	0.03947195290292589	0.1519876940221366	4.28977530859879	-6.168285170877749e-14	0	0	-2.826127766599468	-0.2974417485861901	0.1180995244700557	-0.4552673569378576	-6.168285170877749e-14	0	0
0.519255884473055	-0.1976889562516256	0.08715339911383464	-0.2401858766052704	0.02222410615917308	-0.1430883216210492	-0.118752344450176	-0.6811431988128909	-0.1643072757036937	0.259425131655211	0.2466471503749319	1.299703283175404e-15	0.2587494964436318	0.8649990466113608	0.4539111666497012	0.340382351460071	0.685865606603455	0.4670363055212745	-1.548690938031455	0.00446240459311191	-1.91665369299584e-15	-0.2280776647262242	-0.6454417172418031	-0.05862734987990814	-0.09996155149081148	0.01963058447844245	-0.06474100146237471	0.3509589948640008	2.758101049110209	0.09570329283884745	0.2136652760452856	3.907673329669786	-3.852987966261986e-15	0	0	-2.869942549610782	-0.3399910279230083	0.3152653273716149	0.09547828389083191	-3.852987966261986e-15	0	0
0.5336312594138308	-0.2056193235606009	0.1621068655403478	-0.2902239589001364	0.04651381819739409	-0.1449858084846888	-0.1298047260332045	-0.5897031100908764	-0.257964283764932	0.2209747961703876	0.4880964082602038	-2.633420356917664e-15	0.5483186616994857	0.8741499730320252	0.455736163529206	0.5481835424902299	0.5343913122274185	0.516446228875747	-1.432543022991803	0.4374195565434437	-7.894911427499615e-17	0.590139977241392	-0.8262346305715396	-0.2926240262501436	0.2393665682427764	0.05349901455814277	-0.1611932876599643	0.356160976052914	2.537088625253979	0.1293407247803277	0.224572614177961	3.535609203392254	-5.378123627543314e-14	0	0	-2.702620522594004	-0.3513545555682138	0.4385954444357656	0.3409295548707696	-5.378123627543314e-14	0	0
0.5376	-0.2060551872105585	0.1730819934133238	-0.3035220719432871	0.0518243434377024	-0.1457408714127092	-0.1327356702903351	-0.56331815019832	-0.2733732304005543	0.2117983068979817	0.5521438271958391	-2.549443928204267e-15	0.6181997495295698	0.8730093966353941	0.4512799290916727	0.5921847198345288	0.4990501820913636	0.5165935239516241	-1.370898773723759	0.532827909168986	-1.749180424547717e-15	0.7695038410903844	-0.992966058964486	-0.2348860393257448	0.3014848049441594	0.05992325455436055	-0.1741155928714151	0.3575330919736696	2.534732640330204	0.1363618375665705	0.2424294407762284	3.486984862857299	-3.922944532224963e-14	0	0	-2.653097630225743	-0.3548491010586316	0.4683669165811913	0.3890992317606803	-3.922944532224963e-14	0	0
0.547112856113114	-0.2134592867589442	0.2078838853260601	-0.3476866782290771	0.06480288320024395	-0.1485337094464622	-0.1375858700873789	-0.5109170438362612	-0.3182069180131109	0.2239023543269683	0.6829449520276432	8.135052589734825e-16	0.7684864816144061	0.9430489131953778	0.4557779720801965	0.6461206115812159	0.4008898181632508	0.5158328131581762	-1.157294401502003	0.7281730735777721	1.786231799033837e-15	1.115185876288448	-1.100392058948632	-0.06989142923037228	0.3619045500123569	0.07562954934252429	-0.2224783155588937	0.3665450869270672	2.580009589738566	0.1578968120210827	0.2982821187876772	3.377527083656227	6.073589169871122e-14	0	0	-2.517961227899725	-0.3674605895995275	0.5335304820917349	0.4801855689880372	6.073589169871122e-14	0	0
0.5640558844730551	-0.2341268657368565	0.3397616088952241	-0.4559460667380247	0.09242196854946391	-0.1478807685674214	-0.1374235785237873	-0.412196188158879	-0.4642606211266736	0.2954848284215375	0.9126510600468936	-8.65325430258595e-16	0.9870262079649768	0.940301956564744	0.3773423782558197	0.4748670363186547	0.1899738040516171	0.5472102712649431	-0.3042256905821932	0.9153879238636499	-4.776048160023411e-15	1.459618107667897	-1.58444412193956	0.2056658031189564	0.3949967648830326	0.1183151659691734	-0.427743699881097	0.4033466467776017	2.127078591289393	0.2071352513033624	0.3147319621406034	2.860674753270422	-4.833224802555518e-14	0	0	-2.009824928074968	-0.3703475904198919	0.6137930017581292	0.5634208761827193	-4.833224802555518e-14	0	0
0.5784312594138308	-0.2404221688395878	0.3962822745926632	-0.5671867883908444	0.1159519960202951	-0.1493362973093521	-0.1388006212593341	-0.3537321692434926	-0.535091761772551	0.3231550742617411	1.058239045198672	-4.019127675578772e-15	1.149062128374436	0.8475579983162983	0.324946090874267	0.1154418929433338	-0.06797982024035076	0.5176986518648572	0.6828358180949823	0.8188547592981152	-4.279922268445669e-15	1.541265513376402	-1.228400691077265	0.3821858176982327	0.3244293671109458	0.1484339807292216	-0.515099612304261	0.4422267221199739	1.734686331361452	0.2350367275380294	0.3171781724387862	2.530531176032016	-6.225862665985921e-14	0	0	-1.503296978851268	-0.3556580538545028	0.6241943922472951	0.544437464350104	-6.225862665985921e-14	0	0
0.5823999999999999	-0.2412143832877445	0.3962632832324271	-0.5857585478873771	0.1215927766726664	-0.1514558550195906	-0.1419021960212265	-0.3292905774152377	-0.5424113383874207	0.3182478509212487	1.109331697753228	-2.631813671122001e-15	1.194883798894883	0.816872401760826	0.3220902876927834	0.06093979878869443	-0.1681016115186657	0.5094417951107888	0.8097774108422087	0.6986223475662889	-2.896587696075126e-16	1.540611111405201	-0.9123680098568403	0.3776234810090333	0.3175074674683677	0.1574792662353467	-0.5105435447593407	0.4483202151085285	1.731327939662096	0.2399301687561518	0.3205817004188296	2.503562737898945	-3.174933525071471e-14	0	0	-1.394830197720299	-0.3542725480480002	0.6333203399122739	0.56083837573387	-3.174933525071471e-14	0	0
0.5919128561131139	-0.2413102038820445	0.393668606310005	-0.5860988713633926	0.1348915301251562	-0.161034121136578	-0.1538002820873727	-0.3081873188596662	-0.5571690398365535	0.2771802240409812	1.182117310917587	2.641874696033885e-15	1.314394317356814	0.7761727856461462	0.3344523258091359	-0.06402304143601328	-0.2831927659483181	0.5020393832043776	0.7047120080198683	0.8305570988345961	7.682528115161734e-15	1.512710513270522	0.8603122303320299	0.2135986142091505	0.2307991005781773	0.1833052531725599	-0.4878917159116044	0.4567220523405059	1.713790241356187	0.2518089336448826	0.2943133305651336	2.455513331899077	6.869580775452972e-14	0	0	-1.128765319978834	-0.3456737435994545	0.6585906449361218	0.576657008318018	6.869580775452972e-14	0	0
0.6088558844730551	-0.2456883471842519	0.4081658065493641	-0.5032658748375458	0.1609347367780681	-0.1709924451394362	-0.1784216702365615	-0.2165924347069832	-0.5837369527788107	0.1423262014394256	1.431207959649311	4.602379371324162e-15	1.590476246350237	0.6630424126546262	0.2804931804273713	-0.7158484209526333	-0.5476592989789116	0.4941488663802058	0.2606828297908086	1.139403167046273	8.400643520379744e-15	1.410472251812943	4.216605512736219	-0.7879121844149775	-0.2942276052745999	0.2570157508910907	-0.4721522434641912	0.4776641591841503	1.130085461819297	0.2711526413612124	0.07257661107911551	2.221247647396027	1.543053668395326e-13	0	0	-0.4706840902221271	-0.2715229978292729	0.6203953970809678	0.4363259759349523	1.543053668395326e-13	0	0
0.6232312594138308	-0.2621753648716902	0.4363257241204197	-0.3734329515446392	0.1695901821664281	-0.1607004662856624	-0.2070571208829898	-0.02708933626757964	-0.6344183675218136	-0.1581648449418573	1.842304021595039	-3.415102900233489e-15	1.921702736491298	0.6465879009592685	0.3538021122149723	-0.7603367137891557	-0.8762936568857391	0.5220253621477292	-0.08288444504199861	0.7051826781008468	-6.532021521977315e-15	1.295165180746824	3.42625211953207	-0.8380619292986926	-0.5192922867971682	0.3011056149710648	-0.4405556778085546	0.4698697609295676	0.7850174475318712	0.2788093349348598	-0.0353434306277455	2.150463057220421	-2.627368864532214e-13	0	0	-0.05984459535901496	-0.211189539213369	0.5841106272247135	0.3459149183419303	-2.627368864532214e-13	0	0
0.6272	-0.2685465785905489	0.4425760755267263	-0.3553437111160143	0.1652935867282723	-0.152324603921651	-0.2137803445786249	0.06106845483999473	-0.6474863947691949	-0.2149075828076574	1.992690067575021	-3.847931878911231e-15	2.032042842433723	0.5954371116587953	0.3379927832705457	-0.7629015880175022	-0.9137569967012165	0.5221279949267287	-0.1647034236149134	0.413520157114971	-6.931450178391537e-15	1.258337426065734	2.084884428494411	-0.7627716047051438	-0.5074170836269005	0.2952590970490753	-0.4287067145790521	0.4674409222575607	0.7354518920869393	0.2804442205025767	-0.048969029283084	2.141393073415899	-2.213097208688065e-13	0	0	-0.01015289423385746	-0.2029705396675621	0.5866570215028292	0.3297033289615769	-2.213097208688065e-13	0	0
0.636712856113114	-0.2813264678795534	0.4608146359928061	-0.3222284103135492	0.1481881865936702	-0.1214874964477484	-0.2283823791510387	0.3025223138223185	-0.6799117898761324	-0.2992576665042372	2.402737748687617	-3.524630498310879e-16	2.331412248735118	0.485847482750944	0.2822255995617582	-0.8757163222834521	-0.7862989621755163	0.53708828958818	-0.299785120408983	0.7049014742169341	-2.569295304937426e-18	1.157335082642153	3.170192285203525	-0.3832651623704197	-0.4497578060114881	0.2536328626173412	-0.4094262021867295	0.4600276785017021	0.3800674367715623	0.2850486924990024	-0.1008691254581936	2.084795030891154	6.944329477926455e-14	0	0	-0.01048721645950884	-0.1851466034731075	0.5954142531858004	0.2091870962585241	6.944329477926455e-14	0	0
0.6536558844730551	-0.2887782771382803	0.5233673147335126	-0.1664325486827145	0.1019519551769793	-0.04536786468738257	-0.2580251420945575	0.8047757950159919	-0.7654701039529037	-0.5207666728419228	3.257542627797751	1.960761592993689e-15	2.979469931085272	0.04604599127295117	0.06761443411385931	-1.042483136559237	-0.3115489547253233	0.6693225528511569	-0.1186110583081955	1.382905346323562	1.238275611263972e-15	0.9171008524069963	2.994300746463881	-0.2261291339391271	-0.3725783901066516	0.1467528929725662	-0.4149637350019522	0.4163742367818065	-0.6863583059236154	0.2880315428967771	-0.265178790843982	1.850965923409033	6.770369303675022e-14	0	0	0.09105935081602017	-0.1149654952982445	0.534374758789278	-0.01449883895141646	6.770369303675022e-14	0	0
0.6680312594138309	-0.2607166741387852	0.5395695498976247	-0.1310472347698354	0.08091203113059481	0.009621056105465153	-0.2748370335335498	1.161470376158547	-0.8191821234048522	-0.6922508439161905	3.894407574998218	-1.722270898163853e-15	3.616893009504742	-0.4486571483524946	-0.1280997942490811	-0.7510992465070339	-0.2060290622972867	0.746861969525337	-0.0144887430348158	1.332164688912272	-3.284950767581235e-15	0.6436522076854592	1.238481786277186	-0.7532048999827667	-0.3534311732424111	0.09615890152057832	-0.3709051360322464	0.3624457161070145	-1.15379068738805	0.2885063632620223	-0.3281885398776621	1.772405773120362	-7.644997337981332e-14	0	0	0.135545737134116	-0.1061203880024477	0.4951937788308746	-0.04709101946389604	-7.644997337981332e-14	0	0
0.672	-0.253253525655228	0.5376164310819846	-0.1307567864501082	0.07787901400097257	0.02276066769126237	-0.2779247428626609	1.270129234159682	-0.8284951510390736	-0.7108906994480314	4.080258825538262	-1.502299928100539e-15	3.80082214264526	-0.6228665927630976	-0.2063784419972661	-0.6671356200508227	-0.269409897477459	0.7583809496104471	-0.005582663216333125	1.209683246840047	-2.117259321434098e-15	0.5582426784736029	1.172107077704616	-0.7505190357347539	-0.3068237209989028	0.09161813461434451	-0.3531065690774566	0.348995655522406	-1.207702577884339	0.2896416843309254	-0.3392273636506533	1.777583476936591	-3.610718672528177e-14	0	0	0.1321602621428384	-0.1105873903536391	0.4962231661451917	-0.04733993992455465	-3.610718672528177e-14	0	0
0.6815128561131141	-0.2262396943988554	0.5371073350495456	-0.1231577727377878	0.07290510178652791	0.05075458920359502	-0.2824593126313448	1.488468331880806	-0.851469710950893	-0.7061767749166863	4.484436347450669	-4.042355715416409e-16	4.244542526953706	-0.9106409016262658	-0.347714496952599	-0.5138982919401052	-0.415773668476955	0.7866101370570038	0.03369455682128323	1.000998615709112	3.726106727586578e-16	0.341811249453586	1.352814962868368	-0.6672428735580901	-0.2012334547776194	0.07640833543628625	-0.3285199410235792	0.3167772487159181	-1.382214307155297	0.2952250219757699	-0.3697422427669179	1.785048450627968	5.654913604712656e-14	0	0	0.1234763247526037	-0.1224510557465483	0.498065564375147	-0.009211173549485085	5.654913604712656e-14	0	0
0.6984558844730551	-0.132668322108932	0.5566325869248441	-0.1020899734938138	0.06610085202294161	0.09660990735704247	-0.2830864494764065	1.84007614264618	-0.9071769336815139	-0.677520948957878	5.167290051686074	-9.32530747814697e-16	4.997332516981174	-1.62462122526453	-0.7120412062897927	0.0936934902381245	-0.8822243535629668	0.8592103255791345	0.1288209154188427	0.2646865294187872	-1.95390269765963e-15	-0.05235216908830536	0.9513779859096791	-0.6154825175830246	-0.2946712149771908	0.009552173548905939	-0.3338802307140804	0.2288779356351893	-2.100524690357632	0.3059043772253936	-0.3862807533765676	1.492152352302295	-3.554245824858614e-14	0	0	0.3627008322230928	-0.1555396392581262	0.4428114105055988	0.3150874072477112	-3.554245824858614e-14	0	0
0.712831259413831	-0.05835189620346937	0.5659229639234542	-0.1086381895446894	0.05930785376226879	0.1193869845630976	-0.280958444158882	2.076142215491133	-0.9946606695869132	-0.699534701880729	5.523706660621346	1.901098857267175e-15	5.534705728079212	-2.294448737889286	-0.8689863224239118	0.7225027718047977	-1.256205496592093	0.9117259432950038	0.2403515281000594	-0.3221220264759634	4.926733459745833e-15	-0.3487032205527658	0.7337619009468654	-0.6279578327530078	-0.3369787404623951	-0.03667022800607848	-0.3269402199542323	0.1788471289042559	-2.534703660954336	0.3175725731555724	-0.3286987936945283	1.139991108599745	-4.077905774138992e-14	0	0	0.607615336821701	-0.1882815708896184	0.426286617344295	0.6271340621878889	-4.077905774138992e-14	0	0
0.7168000000000001	-0.0441860407478326	0.5624528365395234	-0.1141315219439061	0.05620781491855527	0.1225556420620983	-0.2794018131505699	2.158875683852435	-1.010065528745317	-0.6811741095764777	5.68988895503843	1.235474289388494e-15	5.658528946909573	-2.415386835318598	-0.8981456439470679	0.8629051283379213	-1.336868742851373	0.9148923084447704	0.2636069272183693	-0.4630275098186079	5.787359133004744e-15	-0.418562311451331	0.6675612789200494	-0.6311305132436286	-0.323085834929739	-0.04495452819998774	-0.3193290871789864	0.1665799350308068	-2.596791843859274	0.3204823611576275	-0.3233613195085627	1.074413923511671	-2.989833909730289e-15	0	0	0.6420227682420402	-0.1956546014750517	0.4341610081494096	0.6746200170057883	-2.989833909730289e-15	0	0
0.7263128561131141	-0.01099899299136532	0.558057651442796	-0.1194645525356515	0.04808923281886381	0.1280827179091763	-0.2735262700905555	2.286948186631907	-1.035189514400197	-0.5700307674451561	5.850460633031733	6.310449390519197e-16	5.902755953917267	-2.455509327280414	-0.9177401324249397	1.233101691852988	-1.500158459407204	0.9161148817747483	0.2983922119942136	-0.7023512438459885	1.000469192754943e-15	-0.5595140001854102	0.8181916560776672	-0.5427377059161411	-0.2784701083232072	-0.06524844898225209	-0.3121820087574748	0.1305850511009785	-2.711761948028315	0.3282151827937232	-0.3424813824952302	0.9281191950049115	5.885306954922722e-14	0	0	0.8166374397667368	-0.2164293535611759	0.4457385878176958	0.8715233053439515	5.885306954922722e-14	0	0
0.7432558844730551	0.07732966702440539	0.5868263133965202	-0.1153806599949958	0.02037333654134867	0.1339368715495	-0.2568665429902295	2.471663580607357	-1.098772857716249	-0.3142167923060403	6.206887110784587	-2.527739161082683e-15	6.128548234979108	-2.318288449277403	-0.7347748244466807	2.347078798703498	-1.716917792250415	0.932875810535631	0.3253832868456525	-1.024012523173339	-7.041464860067248e-15	-0.7109886357035288	0.6129485312335741	-0.4891685625368029	-0.3255575459601076	-0.1654546399533115	-0.3553566929864014	0.05556088766513593	-3.069945087567152	0.3469357106086551	-0.3500280505944511	0.2655978428993699	-1.725007803737203e-14	0	0	1.380730525984214	-0.2832880401259523	0.3983899628554074	1.410996540008927	-1.725007803737203e-14	0	0
0.757631259413831	0.1302422975143758	0.5643652428414019	-0.0994739432227604	-0.002245863244029297	0.1303522505912255	-0.2409551167414793	2.459398603832413	-1.123899654002273	-0.2091124278944625	5.822793912892973	-1.771834584787169e-16	6.091366142981314	-1.79503665615123	0.1560355933949644	2.748480506172624	-1.79100739411671	0.866206067104857	0.2588142755886452	-1.117326200073103	2.857768761335314e-15	-0.7483271740888958	0.6319519557367641	-0.2769834053608496	-0.3046561691895497	-0.2187903885064185	-0.3386602917594849	0.01219544107924427	-3.046698396539647	0.3645346753443951	-0.3229025846581776	-0.2606627132894872	3.812941750692505e-14	0	0	1.804048271009185	-0.3504818707495599	0.3504880147800372	1.727470921717456	3.812941750692505e-14	0	0
0.7616000000000002	0.1404654454219965	0.5505791276433223	-0.09695292405532849	-0.007808022250027441	0.12855831016413	-0.2360240425021314	2.459693997365207	-1.118821241880867	-0.1664114269009616	5.759191400305727	1.904159691809392e-15	6.043733223986846	-1.65744568244935	0.500658768522246	2.758204364369278	-1.794578966825863	0.8373674893161637	0.236248413030676	-1.138126534613468	4.147357150257223e-15	-0.7472379840052591	0.512884330557863	-0.2480871794838013	-0.2876450584706072	-0.2277004811731052	-0.3269989048677471	0.004140735478475508	-3.061897275291692	0.3693380805060543	-0.3084477393175815	-0.3737648058161116	1.280055550603639e-14	0	0	1.861072805404314	-0.3639807538817106	0.3509616868836531	1.760834951924545	1.280055550603639e-14	0	0
0.7711128561131142	0.1551361591270358	0.5134584598102967	-0.09122607855240378	-0.02195528255490327	0.1267285751161892	-0.2213311049060359	2.434196990769561	-1.069074629520899	0.003423121935667746	5.268056765748774	2.864273847118903e-15	5.86614178775733	-1.386582558095836	1.07320803264783	2.689590063409445	-1.776264921201426	0.7596254201846554	0.177812230301357	-1.105742098361726	5.232201193683404e-15	-0.7310822990745581	0.5947848960426569	-0.07872891853568198	-0.2496420148818798	-0.2450586563297711	-0.3035734454508653	-0.01437668138615534	-3.082095241670047	0.3827640463347979	-0.2679350892481316	-0.6465246265987157	3.828350847425529e-14	0	0	2.054561773999853	-0.4000841803842025	0.3434789917201123	1.866258979681053	3.828350847425529e-14	0	0
0.7880558844730552	0.1940110342368219	0.417851804851483	-0.07611216769517556	-0.05430276608449636	0.1328746886740534	-0.1873794723754709	2.466045830927862	-0.883341387480739	0.2637497979503314	4.417991150053228	-1.212783141185519e-15	5.346620164707161	-1.171013481616361	1.039157651700614	2.225449475971136	-1.72964190206883	0.5656948937496319	0.0124115018561315	-1.050029282728728	-4.310820274215358e-15	-0.681639126027726	0.4580178984716357	0.2398345947450036	-0.2168980821726382	-0.3122623613421597	-0.2441782186276271	-0.03941987118949628	-3.26239270480779	0.4172238926937309	-0.1353911413426712	-1.725935486018179	-1.159732189284254e-13	0	0	2.504948447723141	-0.5256874202647877	0.2118793701643297	1.971900833638014	-1.159732189284254e-13	0	0
0.802431259413831	0.2106579217514851	0.3431876584515977	-0.0931098029110914	-0.07577948791942443	0.1373756598497734	-0.1601910011184869	2.493741547148713	-0.7317680955561512	0.3618979891234819	3.671570967148635	-2.232537651865977e-15	4.73518436148007	-1.133706549098064	0.4459583597124369	1.651017089878386	-1.703282942000746	0.415597706840694	-0.1359832837491637	-1.021910636180778	-2.695842055526644e-15	-0.6509417195778333	0.4748903154960278	0.4733495988535363	-0.109378487992669	-0.3500444280471784	-0.1958835584384614	-0.05361992063797498	-3.197346100043238	0.4290265596540824	-0.1000113199552229	-2.531761051983664	-5.389384197413461e-14	0	0	2.659365001499011	-0.5864861348276915	0.1505999413785727	1.878494900928455	-5.389384197413461e-14	0	0
0.8064000000000002	0.2107257849489302	0.3259181899639021	-0.09887604778369463	-0.08190510592329805	0.138876643621973	-0.1534997820056107	2.516023702463674	-0.7000786223757152	0.3776507997633752	3.483973420474618	-2.458492387726915e-16	4.544199256840965	-1.182350268137756	0.5653539646128173	1.542509585037402	-1.696008305802271	0.3806612925016287	-0.17278313056178	-1.056774008338978	4.183052530516081e-15	-0.6476973594148295	0.2200794254298344	0.4605880988878672	-0.07870696326231642	-0.3599006280711953	-0.1844465546991967	-0.05722204109351316	-3.181453460201265	0.4313490395436908	-0.09241233291716817	-2.677169938261035	8.765036713041118e-14	0	0	2.673715787502335	-0.5966177765802348	0.1506740467490913	1.85710739020564	8.765036713041118e-14	0	0
0.8159128561131141	0.2158276184754837	0.2877769616629476	-0.1136655046568442	-0.0938090574405526	0.14251762097748	-0.1365554139270918	2.532202985007338	-0.6231187437692476	0.4324418461692232	2.987335287535999	2.626126675236355e-15	4.055164449895374	-0.9398680351856712	0.436723466683606	1.28490733871398	-1.667751246836844	0.2995708057664036	-0.2605933223809925	-1.006760628939135	8.834596100003384e-15	-0.6519075794634444	0.3582904171470782	0.6277542685370554	-0.02347239470786869	-0.3843539428203474	-0.163032316437187	-0.06371021188499319	-3.196537835749581	0.4385300221534127	-0.05939646749100322	-3.068738448368534	1.536015520384178e-13	0	0	2.732521244552283	-0.6278396515670654	0.1397466287776795	1.805718492273762	1.536015520384178e-13	0	0
0.8328558844730553	0.2274883110423812	0.2131629156231951	-0.1717489686526619	-0.1150798466605508	0.1521719622535151	-0.1028274887662324	2.573543356463238	-0.4625346529201375	0.4575556498658725	2.124542761311941	-9.849414971085486e-16	3.103165599408705	-0.6617657115625006	0.130272097460558	0.3508547230195834	-1.650806678581925	0.1362391324493013	-0.4557874862188287	-1.01213808844204	-4.033338558448664e-15	-0.704084036501933	0.2757810725180427	0.8699650811510722	0.08861968903907028	-0.4271587330138412	-0.1189134188383054	-0.05147375360848139	-3.105264361763052	0.446906145796957	0.02904210049181197	-4.374369052343853	-6.692774961856761e-14	0	0	2.900730584238218	-0.7075880786979472	0.02833222002872176	1.658126147975764	-6.692774961856761e-14	0	0
0.8472312594138312	0.2231978901573204	0.1630878777995704	-0.2237023065674385	-0.1275863409797416	0.1563915368078628	-0.08253294658508027	2.58282389572013	-0.3981756585581193	0.3996814936443995	1.354870866662911	2.637369455132952e-16	2.247463122850059	-0.796381658781943	0.127391421671124	0.0007309612828680385	-1.65754916513031	0.04511704708106312	-0.5699649736267426	-1.064692968989744	1.756321857698945e-15	-0.7880379935525104	0.2647930598536296	0.9919702078179817	0.1933903781438241	-0.4418126069702011	-0.07751364929592505	-0.03549362168463666	-2.80480929189474	0.4432552835683559	0.08426225037073368	-5.232183732855995	2.174825736847025e-14	0	0	2.90247746369886	-0.7425123704280524	-0.01772536473237085	1.559171361699423	2.174825736847025e-14	0	0
0.8512000000000002	0.2200531134322691	0.1509537562754538	-0.2364407867506083	-0.1307083119972181	0.1570589099400252	-0.07782848185691767	2.585129958542105	-0.3854466511818799	0.380656106224495	1.15356058634285	-1.779062556796823e-16	2.007304873633447	-0.8240947465558099	0.1486439043233256	-0.05253713758546831	-1.660491491733382	0.02566624273795788	-0.5931453194617207	-1.094285613536	4.326010018980328e-16	-0.8159411632262323	0.1896903777034138	0.9963887232015636	0.2284251523717927	-0.4459588260629107	-0.06530933899233539	-0.0306456165293806	-2.748338954885802	0.4432677224008996	0.1080824685200836	-5.379988734075857	-5.493573445056828e-16	0	0	2.894564442931037	-0.7489983860666511	-0.01597681542726964	1.548043444568109	-5.493573445056828e-16	0	0
0.8607128561131143	0.2137189899965645	0.1219741105778918	-0.2708430943085429	-0.1367783162861475	0.1573223082109931	-0.06582246387032824	2.563231711019616	-0.3455588935192672	0.3534248857951684	0.6474761096101056	6.423392010691244e-16	1.428834570848191	-0.6458739231009715	0.1404558009761603	-0.2140914664541407	-1.659757389073508	-0.0212520119102378	-0.647891385313651	-1.115117892134346	-8.526376398235401e-16	-0.8879619987751242	0.2305607873592745	1.066605836640634	0.2988121875843511	-0.4527848585951552	-0.03634291775484434	-0.0139843078100554	-2.599515961980037	0.4449233268937864	0.1843713727764207	-5.758817485970371	-3.8967408739439e-14	0	0	2.908515113225222	-0.7722323116428429	-0.03048883307192163	1.569324628255544	-3.8967408739439e-14	0	0
0.8776558844730553	0.1922807175520302	0.07691989622986188	-0.3605797262937561	-0.1441846163156681	0.155329158838438	-0.04578420981162196	2.498113550217358	-0.28400744246406	0.2788940991929801	-0.2731801239595333	1.290592878563934e-15	0.3995594627461353	-0.5056740943719883	0.01026452521207849	-0.4257184013079779	-1.672892173732698	-0.08653686192796084	-0.7369182072213603	-1.215053244629907	5.245579646003843e-16	-1.02097123693374	0.1200496490981173	1.086476128850902	0.3660515655396213	-0.4382160325687726	0.01241370979713403	0.0387521440802811	-2.144471885942065	0.4332980363989431	0.2896948026907191	-6.883898315189554	4.722919567186805e-14	0	0	2.897483473073061	-0.8154257369164543	-0.1507623754872296	1.733773583956959	4.722919567186805e-14	0	0
0.8920312594138311	0.1635339544359888	0.04110025199099435	-0.4104379425459783	-0.1467554130501592	0.1476733407700227	-0.03672254399908676	2.411900020773725	-0.2581944477007906	0.2113309408023552	-1.029690788133986	-2.805978318320376e-15	-0.4633566081093784	-0.714480658186577	0.1344038999550628	-0.2125772439915082	-1.673553468349592	-0.1008566665337244	-0.716093107729287	-1.28767961197332	-3.467086747046506e-15	-1.121572501834059	0.1250531726108817	1.005845965106858	0.3234899461683082	-0.4125004772476654	0.06626524256134721	0.07289387014830566	-1.698021265318682	0.4179883929981557	0.3199917536816781	-7.471888513773301	-2.943497269058095e-14	0	0	2.778960222784314	-0.8267646870707318	-0.2175682401776443	1.919347959883992	-2.943497269058095e-14	0	0
0.8960000000000002	0.1558415442768769	0.0311611130057317	-0.4205607155282531	-0.147695764023959	0.1449820969584819	-0.03436449263923327	2.381417227542117	-0.2483554133835625	0.1953693691904819	-1.229560802835576	-1.670460344240677e-15	-0.699182446742238	-0.7629687471318454	0.1940024646656627	-0.1737748846111779	-1.672709486325035	-0.1040897687524556	-0.7064992352606496	-1.321001353039184	-2.544262485565295e-16	-1.1452951392091	0.02306776307272007	0.9518406313273593	0.3334589992433159	-0.4076758739491065	0.08207002439129252	0.08126439927766355	-1.599466209496107	0.4162696726701816	0.3411906395048171	-7.555762876807557	-1.157898154479137e-14	0	0	2.759378289238872	-0.8298754279644021	-0.2217664806196029	1.961916617844785	-1.157898154479137e-14	0	0
0.9055128561131143	0.1359970605168783	0.008659675396510441	-0.4433537440522207	-0.1499369331552587	0.1365177979669661	-0.02784815342505225	2.287493603236228	-0.212464917175966	0.1737365122442383	-1.708014749981107	1.470366532685103e-15	-1.259653761160355	-0.4567674590963614	0.1726154887831708	-0.1762675717958165	-1.650634230581685	-0.1152991696477844	-0.6939360564335839	-1.327056671760268	3.562133350340701e-15	-1.192795328382456	0.03300200422299482	0.9140528794269993	0.3622741097193882	-0.3965511008367433	0.1159317642051366	0.1017617360184124	-1.367293295161744	0.4108414070955413	0.3774945970879424	-7.771099167065837	1.426555584356162e-14	0	0	2.73174429875273	-0.8393795548863164	-0.2522950784894707	2.127292375321927	1.426555584356162e-14	0	0
0.9224558844730553	0.07278160937131622	-0.01880429699021425	-0.470028063401959	-0.1521525550683487	0.1163658105049115	-0.02191519115342438	2.103095489846805	-0.1662319285979916	0.1557481263750095	-2.582832373227419	-2.178175350327004e-15	-2.23908547626043	-0.03378670822144048	-0.1326530191006768	0.04227883897785598	-1.566611242381467	-0.1043829671779636	-0.6309809181656034	-1.325425130865499	-5.520728201197288e-15	-1.239209303937773	-0.04852515853845385	0.7463745488469411	0.2191624607307151	-0.3448757110360232	0.1660501543665356	0.1320847260481118	-0.9415139031897521	0.3716890629811759	0.2116728223738244	-8.286677536143959	4.119367708597241e-14	0	0	2.562032863228281	-0.8263436584096078	-0.415505672784746	2.668150964521131	4.119367708597241e-14	0	0
0.9368312594138312	0.02191023742552506	-0.02789770079091321	-0.4598653796210616	-0.1515632131976278	0.09515904134271411	-0.01933148468022833	1.918536803017628	-0.1330310243762567	0.1949089019125224	-3.288880508068543	-1.777488667743704e-15	-3.045837346064244	-0.1991681073938582	-0.1004381935945165	0.2562919228275916	-1.487030050873154	-0.07690479144029354	-0.5397406896390985	-1.273439090163577	-1.852697097012159e-15	-1.237061229842345	0.05853996207153933	0.6443128668320941	0.08665613240093802	-0.3065964534810316	0.1955424636019489	0.133617109092781	-0.6675363389932574	0.3373217892301475	-0.005107669209447349	-8.368216976403065	-1.803402528913133e-13	0	0	2.36793252934494	-0.7930565974124535	-0.4964418314223439	3.034545702491847	-1.803402528913133e-13	0	0
0.9408000000000003	0.01113394603093665	-0.0306333719466597	-0.4567459277148391	-0.1518844889165929	0.08935925318468235	-0.01788408938878792	1.861329868827149	-0.1174346899115452	0.2160354641598883	-3.473756579792189	-1.290453589732132e-15	-3.263235194278112	-0.247903642147095	0.01131832666249905	0.2933286159916249	-1.469425421498704	-0.0716763101076659	-0.5174507129787899	-1.302987052660617	-9.038534283269336e-16	-1.229857157780796	-0.2099429771649733	0.5268128799473126	0.08018119777610638	-0.3022020448744114	0.2032073701716479	0.1340237883611897	-0.6052809120572175	0.3315373027188725	-0.04490539107155656	-8.363983854871796	-1.760288709218407e-13	0	0	2.333775593549515	-0.786974149837118	-0.5017521676865802	3.096510709093386	-1.760288709218407e-13	0	0
0.9503128561131143	-0.01517924321085438	-0.02707820554475549	-0.443937018000786	-0.1518076207821369	0.07359990371228867	-0.01402839988471091	1.705489630954939	-0.08474678286014571	0.2785054529013417	-3.917786180823519	4.218405965814203e-16	-3.7716222806461	-0.1021922783921882	0.02974203855334001	0.3000346827236998	-1.410431108691435	-0.05170394694468074	-0.464416004259847	-1.232694695135146	2.550258428390129e-15	-1.201721435201602	-0.0645474453404985	0.4872657411697807	0.07310498800193024	-0.2901694244277108	0.2073473169208682	0.1307266913059336	-0.4827247626576116	0.3137323742034481	-0.183531117817543	-8.336068954660895	5.052322204313333e-14	0	0	2.26367484891342	-0.7683367733092998	-0.5305398175401694	3.291433255135114	5.052322204313333e-14	0	0
0.9672558844730554	-0.08510004250040623	0.0359179140178246	-0.3667607560050661	-0.1461490092825642	0.04156645313364848	-0.01389255370355005	1.427806028527294	-0.1141364697614728	0.4033799502117461	-4.694543247148999	4.539209096650482e-15	-4.613431443044556	-0.2675375154228967	0.01353279782539207	0.2547272067245505	-1.271080723948858	0.05443392254296341	-0.2888021424837039	-1.118740125571956	5.760209546145065e-15	-1.118122651640239	-0.08448480602458353	0.2888979836597506	-0.1005852691483651	-0.2404432119596281	0.1501754256286214	0.08091608003885969	-0.5400158225061862	0.2418642534677717	-0.8053406485024004	-8.047525588066005	1.761030868894683e-13	0	0	1.981297448427165	-0.6710968317435966	-0.6651390081826616	3.784174015699516	1.761030868894683e-13	0	0
0.9816312594138312	-0.1279318910018554	0.08672197126882208	-0.3026066172797806	-0.1395375707857689	0.01462510332201001	-0.007713254341964307	1.169573336555846	-0.1144769948385041	0.5716982809086012	-5.295140608408669	-2.865887976325839e-15	-5.228436000375488	-0.8632477219188901	0.3460665438943739	0.2056925179584345	-1.14770818711137	0.1173914003492722	-0.1764789903102714	-0.9618163373811466	-2.10175921893727e-15	-1.020253300255487	-0.01738314233084493	0.187961623250718	-0.1430030501768793	-0.2155859752857029	0.09510350801545078	0.02961386504618978	-0.6648748270284384	0.1925637512071977	-1.192518335449082	-7.588317726863309	-1.006422713178705e-13	0	0	1.739909501425176	-0.5867731276886772	-0.6847545860656969	3.976643805054145	-1.006422713178705e-13	0	0
0.9856000000000004	-0.1362079034000844	0.0942197207130198	-0.2887212735995671	-0.1388092168089863	0.007682058550998405	-0.004646654138254113	1.094227780556621	-0.1023782820530202	0.6264582625365588	-5.446569548311778	-3.018150006764754e-15	-5.376081588300701	-0.8873688138675011	0.4712545280650867	0.1942658781460701	-1.114255012106914	0.1257166633820286	-0.1493749415992786	-0.9333041190187461	-3.733139788573421e-15	-0.9897573344135764	-0.1058963635787464	0.1164212289295375	-0.1311760548547012	-0.2142408221469125	0.08495447876800183	0.01903596510428971	-0.6591636297028727	0.1831177681099143	-1.273160967433869	-7.491918420077371	-1.424306165798977e-13	0	0	1.701545982177654	-0.5704355108461968	-0.674407298434013	4.004677228003363	-1.424306165798977e-13	0	0
0.9951128561131144	-0.153330501425372	0.1209551248781622	-0.2467890004470788	-0.1354350804467642	-0.01043032672435023	0.002648448892742059	0.9102309037594547	-0.08899531528374355	0.7543793875217276	-5.729515695802966	3.612568673462353e-16	-5.681393696090331	-0.7707893571403692	0.5304515316495032	0.1062736892281608	-1.031557869231961	0.1557022923616962	-0.0634591753782789	-0.7942348968429389	-3.703717141317712e-15	-0.9115116125421635	0.039102885110607	0.04057455207168537	-0.1063192766790475	-0.2034280710676772	0.0480128155928075	-0.01200024951551266	-0.6362832625212409	0.1561684145766471	-1.502558493045162	-7.201363111189176	-5.50349504490327e-14	0	0	1.639810856218974	-0.5246228572798129	-0.6666039318437261	4.099541593115278	-5.50349504490327e-14	0	0
1.012055884473055	-0.1887393401207016	0.2365632614573092	-0.1213497873304344	-0.1213809586019903	-0.04422298199474015	0.01250945750867599	0.6194118191335889	-0.1868490352624443	0.9463266659076095	-5.983221211637813	-6.982151329912144e-17	-6.01850054071059	-0.7014503136776831	0.3561594619649404	-0.2571863813924025	-0.8487185223314091	0.2765227782380544	0.1555906695799003	-0.507245992952756	1.912440361932806e-15	-0.7565832691193909	0.08920415421385097	-0.180512413907322	-0.1024113140854668	-0.1473244508005799	-0.09762629752265473	-0.1184493422551395	-0.8475984777437564	0.08118291346556651	-2.024064100709139	-6.123996792971877	1.233590682845407e-14	0	0	1.470183097569623	-0.3739133195440028	-0.6906891427724443	4.252608628090631	1.233590682845407e-14	0	0
1.026431259413831	-0.1923839673034	0.2663756193610833	-0.04120738585673574	-0.1049945651135308	-0.07077331430561565	0.03159869715863201	0.4404988060078545	-0.1808539028123129	1.061463153774917	-5.766970880860015	-7.928256107641975e-17	-6.053636267835526	-1.067666337008206	0.3663325461931868	-0.3743242757232917	-0.6974601317735725	0.2710597656093526	0.2178854608521685	-0.1554737227689884	1.720410368006654e-15	-0.6111091975455035	0.4417452465861575	-0.1439007020339521	-0.05230023796981898	-0.09446775247778783	-0.1659907462700117	-0.1856467536251606	-0.8936199382985122	0.03926988456848358	-2.070466002467453	-5.193517229606783	-3.151988317036028e-16	0	0	1.361751996927523	-0.2726161933045828	-0.6366289110180505	4.203146973685834	-3.151988317036028e-16	0	0
1.0304	-0.189844783696193	0.2677391511096321	-0.02559258639659868	-0.1003362546595632	-0.07746715623428833	0.03817405087704658	0.4044400679024051	-0.1697063138133544	1.078018014081084	-5.634670890627168	-8.05681434296616e-16	-6.01841382444503	-1.091993982180275	0.42363999989352	-0.3946322305741522	-0.665667796438983	0.2611201123909147	0.2280999632156888	-0.1059780120373864	4.333771071356005e-16	-0.5686960236255488	0.2862622697057196	-0.2132412126389341	-0.0237353517509853	-0.08008838557815856	-0.1806814445338692	-0.1989259772646948	-0.8510273946066594	0.03053766263204151	-2.084166515125542	-5.014683516471269	-7.772367864846349e-15	0	0	1.346699264852021	-0.2534218412814349	-0.6136237079981102	4.195408004694503	-7.772367864846349e-15	0	0
1.039912856113114	-0.1814051441762602	0.2776836894895134	0.01708844917632746	-0.0866862411887741	-0.09411439197800799	0.05343492611938117	0.3424310399067418	-0.1586249776576568	1.03203683097872	-5.170535279054468	-1.42485369411177e-15	-5.852246569124693	-0.8088906342799582	0.4216960683259136	-0.4992902379194902	-0.5795929097898473	0.2480542171799389	0.2762472135701793	0.1262284236638876	-1.712846225772127e-15	-0.4629193400379871	0.5030150832108391	-0.2375384039882616	0.03291868093509918	-0.03583529937826306	-0.226121609877519	-0.2343476836632861	-0.7711217631698619	0.005825077038133597	-2.136129049500859	-4.552967734327519	6.064277838548645e-15	0	0	1.329052683444838	-0.2011584052672915	-0.5752058875407042	4.182250728929294	6.064277838548645e-15	0	0
1.056855884473055	-0.1771379397933736	0.2891170607428824	0.1245771077203622	-0.04822577613341672	-0.1217528459169692	0.08051878104516622	0.2912014807787484	-0.15111237838211	0.6604666625544199	-4.049315821077411	6.482647390825405e-16	-5.2776464642271	-0.5197519880847216	0.1784297410664811	-0.7456615777390176	-0.4379240874234581	0.2017179712330025	0.3298792145176494	0.5150730831872324	-3.310530634191699e-15	-0.2589491481013632	0.7670561427308877	-0.1738761353322941	0.05492030417023594	0.1023515652067548	-0.304813276479581	-0.3177437879723802	-1.054825374434613	-0.04380917835997157	-1.838404621480472	-3.245123160222426	-3.180332611584743e-14	0	0	1.264770930229661	-0.06176188173171923	-0.5264954086334076	4.004977079659792	-3.180332611584743e-14	0	0
1.071231259413831	-0.1635955563346266	0.222828705547294	0.165884325335844	-0.01237203534494756	-0.1402944870538557	0.1105455352228169	0.2981548314095926	-0.0172893553174146	0.1265095897105878	-2.877847525698876	4.857803785944256e-16	-4.542400753923165	-0.9998116071399152	0.09972661922657944	-0.6813679445478875	-0.3494540763937379	0.07036470229835833	0.2833589079944117	0.835508921756598	2.062087419546187e-15	-0.06876737685564201	1.099434695053587	-0.0330090173495633	0.008473444513079525	0.2271442378689678	-0.2990122877036109	-0.3472687390893966	-1.205224784755428	-0.06611709438419079	-1.332282146940512	-2.343786715903333	5.377173471497546e-14	0	0	1.213777405588985	0.01401793648284772	-0.4678092485549142	3.787748371061195	5.377173471497546e-14	0	0
1.075200000000001	-0.1584889195748823	0.2074118678629799	0.173937163460306	-0.003783461635188015	-0.144615552525546	0.1187003534868218	0.3017490995485477	0.02287466364934941	0.01231701983800067	-2.553928106401359	-3.258102581266503e-16	-4.306892003328969	-1.066489388706175	0.1384843769010695	-0.6699602927980165	-0.3266760243819178	0.03845524371137506	0.2714524208614822	0.892263618555846	1.517917161465862e-15	-0.01317755775881974	0.99799443753177	-0.06215522282637287	0.009853305389468596	0.255854343363818	-0.2999252133220158	-0.3538149616864372	-1.193237287983858	-0.07133386049714206	-1.241719665293669	-2.169083553806589	3.370884543115338e-14	0	0	1.205730440958871	0.02800584960504117	-0.4450631668814942	3.755954816226105	3.370884543115338e-14	0	0
1.084712856113115	-0.1546664171519778	0.1808641600742086	0.2086384693188566	0.02019456655949324	-0.1551844011632924	0.1356590906155574	0.2790023838817944	0.09967703088101132	-0.2425545039374824	-1.84647676626124	-6.481615732139668e-16	-3.698545047406331	-0.7778517802058789	0.1603819222202973	-0.7262505333465418	-0.2645379224792236	-0.02380864150475545	0.2667602495955087	1.080565327904164	1.410071270677574e-15	0.1258803239033796	1.064365302019469	-0.04752995175367913	-0.009711263659068454	0.3444320226289866	-0.3094639139983259	-0.3759402617457053	-1.23274512989328	-0.08861770010989958	-1.051959266698572	-1.740774159472978	-4.950365478340973e-15	0	0	1.208928166313146	0.07060283081504343	-0.4040872333198461	3.701961406667348	-4.950365478340973e-15	0	0
1.101655884473056	-0.1842476755995935	0.05905258061055348	0.2838877518539544	0.0890882621003216	-0.1809675207585274	0.1659802179934075	0.2232395571031133	0.2998846850991531	-0.9664417623816564	-0.599899436025323	1.250552231915924e-15	-2.520253023769723	-0.3606143349663302	-0.1398011134799764	-0.7092220483975649	-0.171656430972922	-0.2282334610635927	0.2074417009105121	1.386470929582123	2.618996115524328e-15	0.3973157850294057	1.326452944466808	0.1633409722829826	-0.2536715265752916	0.6088999715252407	-0.2420550203280921	-0.3966360058205683	-2.202273091504958	-0.1149394585788997	-0.1955079202325585	-0.709906467706239	3.802547067682794e-14	0	0	1.160136492844303	0.1692545067551422	-0.3870259357455405	3.406497919435528	3.802547067682794e-14	0	0
1.116031259413831	-0.2051706922709744	-0.03001150160862366	0.3234837215617394	0.1501430377538622	-0.2014863658078339	0.189130558881574	0.1085249343526697	0.4664018064111622	-1.145863097297377	0.1684828758582453	-2.270757506129439e-15	-1.502554598673397	-0.154915985995351	-0.4081898212521758	-0.5084583164787692	-0.1317294540537173	-0.3856463162979491	0.1092477891856167	1.560051926179241	-4.576626523670701e-15	0.656599468453868	1.317527739235052	0.2856171023939486	-0.2602080547267621	0.827036046422837	-0.1821550922143116	-0.4086456155210383	-3.063510684368375	-0.1273379420580988	0.303557757108525	-0.01770172244373014	-8.36631265941663e-14	0	0	1.123913116815769	0.2295434116071668	-0.3496096051209312	3.175636207521578	-8.36631265941663e-14	0	0
1.12	-0.205295510633242	-0.05431649958002351	0.3272664800036886	0.1646388598294261	-0.2054067095410206	0.195578832333127	0.07513848763296604	0.5170731724800275	-1.115708869767435	0.3501060989132813	-2.573780320662067e-15	-1.223565671499346	0.07335434530441104	-0.370787985969797	-0.4139764442848572	-0.133901434331774	-0.428321191106361	0.07902028221710358	1.53116307590384	-5.471648735180289e-15	0.7309946268679718	0.8259201744912841	0.301616376323435	-0.2209189242622511	0.8723967474036464	-0.1635616597965669	-0.4093509292622807	-3.219458398416687	-0.1275207067936133	0.4001843538741489	0.1511705193910133	-7.997673530400637e-14	0	0	1.122535650711118	0.2384186920684981	-0.3325247853542469	3.143846762069663	-7.997673530400637e-14	0	0
