DataType=double
version=3
OpenSimVersion=4.5
endheader
time	right_leg_1	right_leg_2	right_leg_3	right_leg_4	right_leg_5	left_leg_1	left_leg_2	left_leg_3	left_leg_4	left_leg_5
0	0.08038815261336786	0.04159752354294821	0.2561190683941077	1.376923408489313	1.050115399808219	0.1670443240858401	1.035891376140162	2.267417316752455	0.05768439356760968	0.1041455494745347
0.009512856113114032	0.01962351630170534	0.06738132453702295	0.1991719720930492	1.329056911954902	1.168826058716063	0.1444457078965408	1.17354307162091	2.304676758151727	0.09608239093758231	0.1205440506470938
0.02645588447305514	0.02559378585724171	0.03633547387824443	0.3999916201702867	1.350622625569946	1.109603746240311	0.06371245861106799	1.360308007238251	2.281943818724837	0.09502252902066877	0.1009153232185147
0.04083125941383081	0.13596307735177	0.04737749357214693	0.1884908487175805	1.213183518398122	0.9831321006306448	0.04856492979263715	1.572307300917031	2.084211261948537	0.1621416477517763	0.1146544109241945
0.04479999999999995	0.3830404160990161	0.0371171761106539	0.08518646673278751	1.006603256017585	0.9720787732045097	0.06173450196706808	1.60417113941998	2.102071292840801	0.1774088348778429	0.1553186161593076
0.05431285611311398	0.4061070979774085	0.001979137071515424	0.01393565093158422	0.9855113897780545	1.14224928693856	0.0336881465242258	1.736351690192379	1.867328690864798	0.1232790912232165	0.132158402097758
0.07125588447305514	0.5905592975860141	0.00262717234913934	0.005814002042115352	1.012699887636336	0.8465994939343851	0.02484214515835958	1.873593280112559	1.601098689949074	0.0370688283446039	0.2213610816373346
0.08563125941383082	0.8517910510669006	0.03464251212715697	0.007503463536828292	1.185329395881392	0.5790614995955261	0.02439018887666599	1.943713609752016	1.339825255514467	0.02139720678500767	0.3479623420874116
0.08960000000000001	0.9476659806038059	0.02990001947837473	0.0227013975103747	1.155661934883336	0.5157242063829401	0.05209709426525321	1.997235199188259	1.332692729370808	0.05061431686013695	0.3912675017138654
0.0991128561131141	1.256305700315756	0.008609818094325927	0.004812579676867879	1.164624108441973	0.4616278485545726	0.02052749807181197	1.993917561419795	1.044231709552875	0.01221419478371777	0.4858008821643065
0.1160558844730551	1.825864617536399	0.03154450366380623	0.00456658171117974	0.8436963308555873	0.5466453118716921	0.08896542344212886	2.01369715878453	0.7069713933056229	0.007154338027128837	0.7231560639071932
0.1304312594138309	2.17953829355374	0.1585824504687354	0.04218986606947928	0.5942308115854306	0.6029147030335624	0.04673345750809465	1.807159185088868	0.414528398583613	0.01105475900601682	0.9818490038558727
0.1344	2.191523617676797	0.1840133193849067	0.1094360468714237	0.5904505951830448	0.6229909935107392	0.5033401707382418	1.849216986462401	0.2821278024667015	0.02043352253415387	1.046772840059213
0.1439128561131141	2.326427301432029	0.2168630672391263	0.1020141410120206	0.4585685454633146	0.5844801077009745	0.003313540541301618	1.574835330288274	0.1193694394818019	0.008566635173541837	1.172884236368297
0.1608558844730551	2.503869851814266	0.2496819624636717	0.2247766287057704	0.3129235577090019	0.5485587286997089	0.001917767844313189	1.001832513960531	0.007292724223354473	0.005889443002495387	1.467598035103862
0.1752312594138309	2.582800448730548	0.2865043982931159	0.4213273824262003	0.2259843365760803	0.5239955934876599	0.1112583345380371	0.1014999279748199	0.003158008783048282	0.006623147174034782	2.014585453811755
0.1792	2.562947182493313	0.2874437452890024	0.5320110237247224	0.2585976720170753	0.5116377468947588	0.2661433677567628	0.2568932061617935	0.01551069557475681	0.02118902585544169	2.047513133675738
0.1887128561131141	2.541127382296749	0.3045040035331328	0.6170193403314641	0.173995480749946	0.4850815845678689	0.227683672210718	0.4267184160404447	0.008560054513122582	0.005507856382514165	2.110194250132495
0.2056558844730552	2.46591548051617	0.3443129566082441	0.9056018108192605	0.1253358989193529	0.3912464622000791	0.1318432565427736	0.4673409482504007	0.007178678045459685	0.005148234111663097	2.173537768842308
0.2200312594138309	2.35233242101142	0.3940306591702458	1.186178546429336	0.12264604124982	0.3158155436209333	0.08716845089215484	0.3583809083919771	0.01235851836771484	0.007929251803029391	2.186132517100541
0.224	2.319342791539102	0.3856492160966587	1.339239397153384	0.193966419285226	0.2812323482009154	0.2219136088408557	0.3389915322898005	0.06963329274176998	0.02618878696965687	2.121149443025611
0.2335128561131141	2.218789341696298	0.4044207903194024	1.40614623342834	0.09514960578896758	0.2457103403909568	0.07283468206343756	0.2618196936402675	0.01461441308922984	0.006154886241471758	2.174375725199412
0.2504558844730551	2.091324844033437	0.4479130672595915	1.655786185770119	0.06056261117478368	0.1612200588272645	0.09040510824361501	0.1760698916108652	0.07274443866699752	0.00539383372596669	2.081083550366416
0.2648312594138309	1.998790419020771	0.4916238362987382	1.817732440265432	0.04673686831225776	0.1096868853124215	0.109281191409281	0.1590378938019634	0.1406145279103614	0.008974152553106185	1.968238609167311
0.2688	1.987960154944372	0.4886608252055424	1.92700209485026	0.1012871633753665	0.1177561212366542	0.162822629830978	0.1360234833842151	0.1881063335350794	0.02670642988804128	1.897901420897625
0.2783128561131141	1.921627483799046	0.5129144749051523	1.920019587945268	0.03269311635858374	0.09548179505844256	0.1486592194676963	0.100780520786361	0.2101745632748555	0.006364700018753	1.856971965337125
0.2952558844730552	1.869100305811665	0.5715464465026467	1.997734102470862	0.02462278331763579	0.1026166535391373	0.1866408480723422	0.05459307629895815	0.298298977611481	0.00534850345020077	1.706440321182428
0.3096312594138309	1.828388218610425	0.6207003911823339	1.987946739431005	0.02582167962300375	0.1375284131133927	0.1865087183967273	0.05089601812054356	0.343496831868753	0.009630625558304517	1.59092213395996
0.3136000000000001	1.818733527157052	0.6245053045314783	2.015367015669825	0.05189721112374368	0.16980712853283	0.2216172325564349	0.04701334707424443	0.3453037208822993	0.02845986500184416	1.530925421170642
0.3231128561131141	1.808498044215266	0.6561209971548994	1.96987433506914	0.01919715768926955	0.2158180611990239	0.1846508502659225	0.02452730703873529	0.3336806564114975	0.006754219070501222	1.477865914796309
0.3400558844730551	1.7844353949044	0.7364302690342208	1.904284577189008	0.01591196776372894	0.3316739120258856	0.1443682747162926	0.02240025776326005	0.3048336125608086	0.006152708757087177	1.332963326671838
0.3544312594138309	1.739769570276039	0.7904165697230112	1.804176528566646	0.02054940631200086	0.462268439921006	0.07863500413416212	0.040264562459978	0.290818953275739	0.01692380647326064	1.226575054660272
0.3584000000000001	1.718553466230621	0.7909107294980346	1.798529812994427	0.04190433247171055	0.4811922238558699	0.1520898918327877	0.04793200359384597	0.266457913081127	0.04524606180943103	1.174190609779597
0.3679128561131141	1.693137003138182	0.8244123767828614	1.738324426295317	0.01697991134308419	0.6159428149467323	0.02257120567038573	0.03007270287145802	0.2451200456936864	0.05448420103436358	1.123973884030565
0.3848558844730551	1.594429661830311	0.8822511550577619	1.659685509923091	0.01013367708429791	0.8083675670630848	0.005783753247215805	0.03024837727399055	0.2378582739703145	0.1443515557752715	0.9986177440794195
0.3992312594138309	1.484248712064662	0.9173664103170502	1.598173227543068	0.01489843776801658	0.9616523432475881	0.01070657757769244	0.0341944612652052	0.2371822793022977	0.2418708930937132	0.8994753399205577
0.4032	1.450414892883966	0.919760511143234	1.615220649154377	0.03740434475088827	0.9861559263778966	0.04167366341073663	0.04355306191977482	0.1808444413778534	0.3145624501909694	0.8481572532614602
0.4127128561131141	1.36128544878606	0.9223429391538828	1.585535469173433	0.01156004172093494	1.094744657130736	0.008652103385220931	0.01802779618722772	0.2266958210969711	0.3698765965156929	0.8245269132404434
0.4296558844730551	1.174574153270717	0.9276902302583181	1.629844664140623	0.01015993240743907	1.231849342084846	0.007003571875915603	0.01784908921691164	0.2124465030996159	0.5474743554271581	0.7485337952562816
0.4440312594138309	1.000335227716454	0.940597227435306	1.658081379536665	0.01561273603983726	1.310232470184772	0.008833233604567779	0.0324829766504966	0.2349088464869504	0.7005678592482704	0.6614826096393909
0.448	0.9611453968354999	0.9264442801510485	1.762680087899727	0.04858147884792574	1.337578345580187	0.03038426096584068	0.04301962637771495	0.268567753768889	0.721193505204629	0.6988787925362268
0.457512856113114	0.8324706767637083	0.9323106636137258	1.729991030785945	0.01592412587071057	1.353969905142176	0.00707794826638719	0.02130384120606132	0.2160630310488278	0.8394382457400832	0.6365318607444173
0.4744558844730551	0.6229644203858685	0.9564776966844846	1.864465870319617	0.01866891601364218	1.367945670756268	0.007217282848234418	0.01866968700566285	0.191719190482605	0.9934311666786022	0.6258737745565901
0.4888312594138309	0.4691685769814474	0.9849722711686293	1.967825848988581	0.06864605168193338	1.335519176619256	0.0104035442303072	0.0376701980912415	0.2374757491328407	1.076930896223558	0.6258973378979645
0.4928	0.4502990608722525	0.9759005076446519	2.088380028902171	0.08726965212883409	1.325673591817768	0.03046776623692704	0.03304967622380262	0.3148735940518363	1.091914604876695	0.6857023223012033
0.502312856113114	0.3368364474298196	1.009458013207992	2.057361388440568	0.07691231653643071	1.275058842954678	0.00871926117368149	0.02643360673896011	0.2121802338894993	1.165280264619463	0.6801024339078208
0.519255884473055	0.2255963076887105	1.057307785156908	2.182642261014989	0.04999213563814342	1.161317520730254	0.008588621680638784	0.01945621287312016	0.225956633638779	1.208852871011352	0.767554938267034
0.5336312594138308	0.1804977854610288	1.11726769038425	2.280372651957956	0.05598051101631452	1.033845432604149	0.01231238675290713	0.03033088163985775	0.3014101000069118	1.209861033952643	0.8034856869654665
0.5376	0.2000380177386681	1.122442550602796	2.369878242900522	0.06388480369289562	0.9929890064455512	0.03765490746342936	0.02690972020333193	0.2836044973527109	1.177383599751795	0.8492184039458429
0.547112856113114	0.1547545988903667	1.183885005492608	2.309794297609904	0.02810720322637406	0.913449417494635	0.007549644511771757	0.0931127703059822	0.3770974101287953	1.222259145212039	0.8287237198209441
0.5640558844730551	0.1459995460813477	1.272546564783027	2.361185603138559	0.01635103070302923	0.7817762945425027	0.01134130724117921	0.1062946296470497	0.4353000507301956	1.137205229702088	0.8687724651093295
0.5784312594138308	0.1488269648264491	1.357461638960584	2.35248959787061	0.02522782906114474	0.6902236184474395	0.263193927383299	0.1027676985510815	0.3703144980700703	1.011715970928742	0.946991911713943
0.5823999999999999	0.1759756430983128	1.368722177522657	2.360266339174077	0.0547859706103544	0.6478024317687316	0.1628217810631103	0.02629940770417827	0.2516458999457693	1.125776537400745	0.826902198210997
0.5919128561131139	0.1296765410245473	1.453996694442199	2.202457018131011	0.0214354202968936	0.6162868170460226	0.06355824869074798	0.02370899219156852	0.2418943626753877	1.116491420031815	0.8753881118447806
0.6088558844730551	0.07089701232338809	1.569484939512543	1.991791108786884	0.0533315574812574	0.5771424467912867	0.2702502160657522	0.03093198154977439	0.1052234032800141	1.09040902962351	0.7242685128609028
0.6232312594138308	0.0324636299087191	1.629284236204862	1.7903741998174	0.1085605046767433	0.571027607126798	0.655844306212836	0.00647354810767653	0.084669803531487	1.102897549596539	0.6648738998833141
0.6272	0.06452389373679891	1.628552163221527	1.75566125573819	0.1623135992534668	0.5814733410570192	0.7527818554086235	0.02215955038406525	0.04328077598686696	1.037052613632945	0.650244280019342
0.636712856113114	0.01376214478928462	1.66722821940763	1.48114634558563	0.06989301789505764	0.5938704308673997	0.9024506624908167	0.01625312068922669	0.06482681661562538	1.098806320825563	0.75455186443333
0.6536558844730551	0.008168864073032635	1.69097768044241	1.140416268515787	0.04041143693449722	0.6245637605353773	1.092868191925437	0.004660870081095947	0.2971219895751495	1.191144364358585	0.3168777944978092
0.6680312594138309	0.01114225730143304	1.66168607120678	0.8282629469293126	0.01891522156149317	0.7111567843144733	1.651532103381054	0.02351000702337513	0.4260444806464689	1.112054672524981	0.2356599835810731
0.672	0.05866665578988341	1.629498083527291	0.8815796703404055	0.09024001325911613	0.7150311823092628	1.696513024069606	0.01733427235378104	0.4739730064540916	1.066334930136984	0.288119567316891
0.6815128561131141	0.008950465808026166	1.619964314303254	0.5586333952626766	0.01032633968575292	0.8143682348979802	1.925436003622384	0.01184189951807646	0.6249562227166575	1.016401234746866	0.2296613068811149
0.6984558844730551	0.08137393761004709	1.558538585593547	0.3138712500741083	0.007794513622156662	0.9428741449502531	2.279754571601961	0.04659628748208977	0.7879282640363616	0.8818551729952544	0.2125873684753976
0.712831259413831	0.08273772007933423	1.477398343071744	0.1792305892183017	0.01123363286823276	1.05108940998538	2.523109287313914	0.06081055016293169	0.9215007061972621	0.7835797010135966	0.2025066270084679
0.7168000000000001	0.133747958110757	1.401591861593599	0.3722884771108939	0.1018549363847416	1.04984227102963	2.561517282507924	0.05651800297540799	0.9527204187525753	0.7699823372946084	0.2126933072181187
0.7263128561131141	0.003381527310426292	1.157308868623581	0.130442809153007	0.01267571694865044	1.228126956950628	2.646584492001754	0.05125307464535966	1.054256459443479	0.697653837660916	0.2053834550237172
0.7432558844730551	0.001195173390267757	0.7073842207418549	0.08133610191374085	0.07967653810869191	1.359283707799935	2.754170371859504	0.06090200161888149	1.239214343300389	0.6063423802345159	0.1998391551753695
0.757631259413831	0.002571041878236092	0.5186249264271647	0.0285314857838399	0.1070070900328717	1.492756260922869	2.745212491102859	0.06235428202344639	1.428915306353749	0.5681665463584331	0.1878381491405638
0.7616000000000002	0.1190035247794712	0.4658864828957419	0.06269983515847288	0.06863522409570422	1.515774839339964	2.71547142188623	0.06600711701994433	1.456624706208363	0.5347352089726891	0.2044253378802821
0.7711128561131142	0.002117086526449708	0.4715088996944345	0.01163672385080372	0.01303272758171192	1.704583091988148	2.66510264591459	0.04578507994829506	1.618266071824822	0.5329087857368189	0.1799943412817577
0.7880558844730552	0.00263159803549895	0.4672532654682422	0.00888198827795228	0.01321137631584213	1.824919639255195	2.60221025926266	0.03573839210837981	1.848660732708497	0.4868617025542867	0.1473926116859097
0.802431259413831	0.01234647024089153	0.4942903231652227	0.01885172743825136	0.01871107295100982	1.906731698192551	2.531987224914023	0.05113841022684529	2.035849304892743	0.4524806686672782	0.1128988777412256
0.8064000000000002	0.1141944789825182	0.4940588606586196	0.05569227572645352	0.04888044200497998	1.901815506193049	2.491121653299661	0.07049382972754392	2.043996655916994	0.4386934198902734	0.1408317650835953
0.8159128561131141	0.03417621251887005	0.4709163651907389	0.01967037955870987	0.01586447679602299	2.014486956360031	2.41429506721985	0.06085703150132105	2.173283242477622	0.4176126031018348	0.08674568208198141
0.8328558844730553	0.1113688205573787	0.4384471672369965	0.03926856117957755	0.01484548486790405	2.107236292213446	2.327603248942914	0.07642997205218416	2.30762800820519	0.3749035478815004	0.05011466672012999
0.8472312594138312	0.157154172963274	0.4450345087129064	0.09239320483445401	0.01886539934002052	2.142852926717879	2.231959345613681	0.1138548741167722	2.38246012433563	0.3450421176064942	0.04150195548575031
0.8512000000000002	0.2092041880036806	0.4288869546607601	0.1734238539850912	0.04356187788760613	2.144826370796194	2.188984407277748	0.1377666156767208	2.366236765985799	0.3468130039821928	0.08311446973546932
0.8607128561131143	0.2149254391736411	0.3923497694423537	0.1506982167461977	0.01507773394758405	2.160726020977264	2.103817621206165	0.1443653628765973	2.411657751008433	0.3114789607907797	0.03547988666057145
0.8776558844730553	0.2755451407557388	0.3221206689063294	0.2168465614143951	0.01338084582236898	2.142998262181508	1.972326147757801	0.191410595919584	2.418128711345946	0.2650429963726311	0.03118527270218308
0.8920312594138311	0.2962051052512827	0.2990915783710144	0.2546028838415808	0.01659738428659607	2.091811986599856	1.816924444597867	0.2474785525047087	2.40023130357915	0.2311824054515221	0.04217581011665517
0.8960000000000002	0.3098300424448839	0.2872639322826098	0.286430816608779	0.03848035607722755	2.081056908233037	1.770755723406539	0.2656184851303616	2.385422498122278	0.2374326454768307	0.08289113948397442
0.9055128561131143	0.3068041468365684	0.232212471461374	0.295341479346436	0.01278185614991201	2.032950629546822	1.639717882112913	0.2861048926136371	2.382057268479687	0.1951588003080333	0.03601134391050298
0.9224558844730553	0.2933935001938993	0.1709668671717595	0.310860561810923	0.01076295763377133	1.935871514604861	1.401351196053207	0.3379037238619189	2.347168339213032	0.156862241904975	0.02878924630872648
0.9368312594138312	0.2729983004566568	0.1614065374670612	0.2879869533829769	0.01383737243519945	1.838330834141064	1.192861405977201	0.3840653051730141	2.294701050985212	0.1407756100017332	0.03211576447994213
0.9408000000000003	0.2837946257260713	0.1506579674274815	0.2988833836711338	0.03706208149188273	1.80830056811956	1.156172238238151	0.4072391422020365	2.269943672604544	0.1535715351626208	0.06890872211124144
0.9503128561131143	0.2565052714472294	0.1312308532122208	0.2347714418457261	0.009876476430292769	1.737734539359246	1.005348707083468	0.4323779524508882	2.247482849050638	0.1227437635010293	0.02080224193026248
0.9672558844730554	0.2513046350149451	0.1419280700175563	0.1268406635829733	0.00964715771341762	1.600426807804355	0.7677331418756649	0.4948876480803654	2.159321192555513	0.1147554882361117	0.01465032074862105
0.9816312594138312	0.2484752131803006	0.1680428782275407	0.0478431657785281	0.02630913008833513	1.483008676304916	0.5915317512929058	0.5448657177937255	2.076046627776733	0.1341007219760648	0.02071532954715383
0.9856000000000004	0.2473096802927964	0.1601019586793921	0.05484005181639162	0.114234127195223	1.456938415525213	0.5919699394699075	0.5753266249223064	2.021287943187887	0.1495498926345522	0.05481010957877785
0.9951128561131144	0.2219767449768575	0.1508982516026705	0.01659010624296231	0.140020385583387	1.383457118335344	0.4373338490411791	0.6121465824065586	2.01571138681542	0.140064139033222	0.01498678858108904
1.012055884473055	0.1709013684757248	0.1413706871947578	0.01321341104847984	0.3416859767236031	1.253416952394911	0.2296802333687788	0.6823738129636021	1.947613705823078	0.1575592139763051	0.0145505515850628
1.026431259413831	0.1170849649312063	0.1433424978565794	0.01953260886476005	0.5419088667732583	1.149483253316179	0.1190691328276969	0.7209262014797071	1.919501663782059	0.1907334774060589	0.02035196546121854
1.0304	0.1157368026603469	0.1326893136420439	0.04558599226249727	0.6321822998210208	1.111567524852851	0.1468621001484416	0.7535948339766525	1.853458607086944	0.1886685487945894	0.05721306320402508
1.039912856113114	0.0654698477555007	0.1197626934477098	0.01661638456952685	0.7224434446618133	1.068647061645741	0.03554126032886894	0.7776518422991177	1.905774222708061	0.1914028898609361	0.0157187623541768
1.056855884473055	0.01507826354692532	0.1040530617965694	0.01888689288553169	0.9304761994724389	0.9711235578798691	0.014510241146509	0.8253515746382911	1.895526286359557	0.1857936953220367	0.01458457183171036
1.071231259413831	0.01509416365408911	0.1042957807929454	0.1049361725607774	1.019334025791097	0.8993760209564302	0.02264209891413648	0.8726688200432395	1.923691824826417	0.1777980685933691	0.01824242838162671
1.075200000000001	0.06536593574282269	0.06059035707012939	0.306569874216474	0.9629119179882406	0.8380784921407815	0.05556047739200264	0.91261333016932	1.896697711103714	0.1617675293268144	0.05920282549204092
1.084712856113115	0.009140291110083078	0.07879158292313782	0.1321933218114502	1.13072881908756	0.8573075589946815	0.02344145696304167	0.925071389935642	1.947136703456531	0.1428663991614112	0.01365216205038
1.101655884473056	0.008285946780280053	0.05322837458508678	0.2023528457004162	1.240973003695435	0.8147708995206304	0.07524221042190991	0.9788337087335797	2.027937299228798	0.09529905466513489	0.01111978423575311
1.116031259413831	0.01175556019781832	0.03443742744718481	0.3371911006860016	1.297570351144086	0.828195186339409	0.1410074612028782	0.9988094415656396	2.092022838173815	0.08851162921145184	0.01573817509967901
1.12	0.01324152486660291	0.02972066958066133	0.3849621169480399	1.306881723310547	0.8408131165075593	0.1624215679390703	0.9997645519259971	2.108997246575715	0.08924061998928545	0.01796040278769961
