DataType=double
version=3
OpenSimVersion=4.5
endheader
time	ground_force_2_vx	ground_force_2_vy	ground_force_2_vz	ground_moment_2_mx	ground_moment_2_my	ground_moment_2_mz	ground_force_2_px	ground_force_2_py	ground_force_2_pz	ground_force_1_vx	ground_force_1_vy	ground_force_1_vz	ground_moment_1_mx	ground_moment_1_my	ground_moment_1_mz	ground_force_1_px	ground_force_1_py	ground_force_1_pz
0	0.07743415679899912	-0.0855059525862274	-0.0187267869657668	0.00258280649069965	0.002872383881423378	-0.003537951653128615	1.335839660800304	0.01929700000000001	0.5979748144310729	66.85930458847581	745.3544143603619	70.72674206396509	5.209579332284143	-3.654093511488224	24.68081347794796	0.8845517624585162	0.01929700000000001	0.3507301479686913
0.009512856113114032	0.0413048935226672	-0.04472901037981963	-0.008587919350911744	0.003697405946726819	0.00539892570652994	-0.006855945303137391	1.335799416005209	0.01929700000000001	0.5960463149610615	69.07537264771391	755.7519937850867	73.11379664980028	5.931497809286074	-4.463492685411981	27.57948045363365	0.8772822018399421	0.01929700000000001	0.3507281492737461
0.02645588447305514	-5.472043721409933	8.174312215034083	5.312295132212712	0.3566586820205538	0.8258214880031114	-0.9043811351015574	1.332076746659341	0.01929700000000001	0.5921656782569634	72.54141105174438	751.3967149751012	78.37000433827467	7.540476763607947	-5.223151909940428	33.94883125758577	0.8647423828037533	0.01929700000000001	0.3508323905085374
0.04083125941383081	-3.518705257392157	37.72725418258565	28.64912158896901	1.291175910935923	3.25628766160817	-4.192835215701335	1.325923619253442	0.01929699999999999	0.5888439400715147	75.48113296251769	731.952678594776	78.75027571371614	8.876313877730761	-6.287212370897288	38.92884805104934	0.8545324327216868	0.01929699999999999	0.3511313549811463
0.04479999999999995	10.2005197017773	51.99589630912976	26.37955535345517	1.651500545801184	2.423112362420362	-5.710681936946791	1.323866758875973	0.01929699999999999	0.5880522352025764	73.99881280413146	729.2212913903351	79.81855994117973	9.177516271029139	-6.466462102284796	39.93816765390889	0.8518150964540632	0.01929699999999999	0.3512631137876245
0.05431285611311398	-6.105954958731962	114.1248260720212	12.4738683778009	2.792191503993402	0.5481272329565147	-11.78608747304897	1.318477200007518	0.019297	0.5865485184365556	79.79975046548755	719.3183978486411	80.26219854431442	9.547121783812397	-6.661996398295313	41.10118431242121	0.8454436179495386	0.019297	0.3516672477938221
0.07125588447305514	-21.26423020940604	325.0813673768652	1.054452103922762	4.926652665991504	1.713613888799848	-21.80838710419841	1.307097165937127	0.019297	0.5849347012491619	81.62268493889941	668.1338299870895	75.39900217987787	9.212909077080036	-5.959319215447191	39.76613779022204	0.8347347761565996	0.019297	0.3527895472924628
0.08563125941383082	-50.58078420625727	476.8314696264748	-41.39016450034032	4.660391336999949	1.125252630432499	-24.25640619870313	1.296239104756268	0.019297	0.5842009163160242	81.6525758069635	591.9539640067003	66.02979618975124	8.037423120659428	-5.278421198339554	36.20258154741907	0.82651279373931	0.019297	0.3541062520000796
0.08960000000000001	-59.02207791159762	497.5602205203754	-47.59362610785444	4.487679104252386	1.229941997286244	-24.43353138170486	1.293215771632939	0.019297	0.584068772683649	78.19696323879114	568.9074037413458	62.35863111856014	7.632664238452838	-4.968274205926497	35.02068671791231	0.8244213010883786	0.019297	0.3545247396984775
0.0991128561131141	-63.15808920352674	517.5076455620604	-27.77168931161163	4.222731573918723	5.05920220109743	-24.87946635388719	1.285694628413108	0.01929700000000001	0.5838262020090343	76.43408554674977	512.2560233831767	55.99283043696251	6.728920867482746	-4.307269392315468	31.73541659594597	0.8197993061157216	0.01929700000000001	0.355592346626432
0.1160558844730551	-82.38403223661048	538.3945848427076	-54.44977972468816	3.991791131576278	1.385107388364267	-25.23502051740652	1.272362317930047	0.01929700000000001	0.5834207663041936	63.74817234336913	413.0400875419884	45.27529569450124	5.471780662082565	-3.311813297362574	24.95018557510956	0.8130882840368593	0.01929700000000001	0.3577900620053869
0.1304312594138309	-88.16386256937477	602.4036008553911	-55.04846695379963	3.576789769429345	0.6459701378822144	-25.02718002895371	1.261467449151504	0.019297	0.5829923383209296	49.48126861395094	318.0708336674556	34.88610082070664	4.604671539688059	-2.513389006270629	18.31686548488165	0.8090204558718276	0.019297	0.3599975032680973
0.1344	-87.09401649577346	625.5315628880084	-59.4456574262478	3.349890861264198	0.3556903014416362	-24.8011468223914	1.258494247228005	0.01929700000000001	0.5828892680672422	43.92437838829071	290.3313331710514	30.27798995349263	4.347337183957118	-2.170516226907063	16.40587841267071	0.8081587077015856	0.01929700000000001	0.3606645589425466
0.1439128561131141	-89.31173449020629	666.637807041271	-60.81804926683132	2.860103332967302	1.63521970539109	-24.75390971082517	1.251273730499136	0.01929700000000001	0.5827107065399419	27.74659806081452	230.3078078068066	27.30328641475858	3.690822582424835	-1.668054273825551	12.17967915415469	0.8065815590619542	0.01929700000000001	0.3623795028656872
0.1608558844730551	-86.34669398350505	710.1572271927503	-71.86572510399392	2.24868603091033	1.222693719274011	-25.13684674572774	1.238151559714473	0.019297	0.5825335595337889	11.36061794869766	124.8351709028452	5.226446723549011	2.170756046654667	-0.617967102750049	5.454096148110769	0.8053027630945588	0.019297	0.3657945435812553
0.1752312594138309	-78.47411697119043	735.3908686729676	-70.44966392521026	1.893090493509328	1.297048912605474	-25.38404213343076	1.226926567268615	0.019297	0.5824336135530251	-27.41615462912401	29.57629121415807	3.152762935451173	0.4944525096281479	0.3376545416697583	1.115244882715985	0.8061913086375811	0.019297	0.3685186914907676
0.1792	-78.38835402077972	743.1179946265947	-74.34125624809873	1.780417624169544	0.7811081838889915	-25.33076743084856	1.223849746775916	0.019297	0.5824169696530967	-13.57607669130611	14.65003047536956	1.615602552400522	0.31195691474356	0.2271452518955535	0.5735073612645188	0.8069473450035286	0.019297	0.3691644442902426
0.1887128561131141	-73.58878127449249	753.2326354689941	-76.61125857689731	1.572859499450479	0.9065309610749296	-25.2561218424166	1.216458911221902	0.019297	0.5824231581232653	0.03852291006851183	-0.04247970265831791	0.0116547303310108	0.00168607825417678	0.003295454950092958	0.01280919102439382	0.8093274181285067	0.019297	0.3707341071799469
0.2056558844730552	-65.77010407928123	764.8088668401615	-77.63851960778618	1.306426801038858	0.7444320029907053	-24.32673716768472	1.203336007817981	0.01929700000000001	0.5825498236241365	0.1670202210930601	-0.1804631030644027	0.02147714104835692	-0.0004462487660047575	0.001473429914902564	0.01624981881356893	0.8172839792835618	0.01929700000000001	0.3732593272725684
0.2200312594138309	-60.26395541434287	771.3934173955081	-77.42492255830786	1.057091424642402	0.6954229763429286	-22.52326738718664	1.192371141938027	0.019297	0.5827104035933683	0.2116388328867083	-0.2275241080539042	0.01686568586318715	-0.0001449594751957156	0.001542044858272614	0.02104443263303783	0.8278843966906515	0.019297	0.3749157246955562
0.224	-57.86240397890059	771.5383944165874	-79.15747181899144	0.9846718450916466	0.2813594294576772	-21.85653759940789	1.18935971792777	0.019297	0.5827554182955658	0.2247438164344324	-0.2414838613307942	0.01630935660025963	-9.973677753044385e-05	0.001555192693623791	0.02240060481558518	0.831396518915043	0.019297	0.3752947824776451
0.2335128561131141	-58.09192280803774	764.8998268422134	-77.89860116327002	0.8879930534174874	0.4940088568334272	-20.40588977870837	1.182154916017671	0.019297	0.582867888088084	0.2514788466119974	-0.2697955438625597	0.01111407606296153	9.876623973005743e-05	0.001364161068855238	0.02521851590421501	0.8408181585446778	0.019297	0.3759986691885093
0.2504558844730551	-53.86028422356281	758.062848119466	-76.19148783495831	0.7163732890841557	0.3974733332209401	-17.38996142749155	1.169342472399852	0.019297	0.583080266902535	0.2861057785928675	-0.3067279473355125	0.003780808458798569	0.00034804317059946	0.001058263528115675	0.02871535440259341	0.8610133787582204	0.019297	0.3766912547700708
0.2648312594138309	-52.56608229874679	755.2329335383172	-71.57623365590132	0.4550588290463504	0.61371326033717	-14.54957179286097	1.158532098792344	0.01929700000000001	0.5832108594564045	0.3058900954856221	-0.327858286052295	7.49951610412774e-05	0.0002536803754412283	0.0005824928626664924	0.03021621740287091	0.8812894102822298	0.01929700000000001	0.3766950663480903
0.2688	-51.06763474328802	753.2393381117627	-72.16264216548285	0.3830030936096173	0.3369470041980169	-13.76942952945452	1.155548464152461	0.01929700000000001	0.5832302545141494	0.3083756116317795	-0.3305080960165331	-0.000527122566772301	0.0002793041979117813	0.0005287781499753626	0.03039455685899387	0.8873275702114133	0.01929700000000001	0.3766040301346915
0.2783128561131141	-52.11905650013463	747.9470928616478	-69.83954684765325	0.2195876758396499	0.6238611934857521	-12.04872060222193	1.14837487869995	0.019297	0.5832825199754496	0.3094956578730688	-0.3317247518787649	-0.004459974933269324	0.0003463614689926574	0.0002048948131029759	0.0302284196381076	0.9025736599866611	0.019297	0.3761437163322743
0.2952558844730552	-48.31963500742416	746.1905300506088	-65.71793894371493	-0.1464857947055357	0.9613091575366098	-9.015277620556441	1.135517347224844	0.01929700000000001	0.5833996899893896	0.2947542822660375	-0.3160911334256229	-0.0110061198725993	0.0004594641538013486	-0.0003180311980519574	0.02815444395925682	0.9322235591406633	0.01929700000000001	0.3744307608557917
0.3096312594138309	-48.14417548700673	748.9820821347785	-61.7048641760915	-0.5458601482048829	1.52856675456631	-6.648337423251654	1.124563157396078	0.01929700000000001	0.5835315225717678	0.2677554749554186	-0.2874014959127998	-0.01563563546403176	0.000426653442998954	-0.0008264390491958494	0.02481064195692363	0.9596756432163623	0.01929700000000001	0.3719282017496672
0.3136000000000001	-47.74708533129775	748.6402678552824	-62.26733005487873	-0.6325350278790752	1.484622331662206	-6.089438443315902	1.121520842208745	0.01929700000000001	0.5835748981425355	0.2578387132887219	-0.2768353767916644	-0.01632604901858963	0.0004381205110696575	-0.0008934770618970014	0.02371633362054123	0.967584188145866	0.01929700000000001	0.3710490306002225
0.3231128561131141	-46.98888856618878	748.7839632972408	-60.75532174042727	-0.8134895050635729	1.75622770846856	-4.854127219079085	1.114186955394685	0.019297	0.5837229280461127	0.2312156362323857	-0.2485279170598092	-0.01832947251352067	0.0004446836132218964	-0.001063841818496546	0.02082273059307087	0.9871010585863708	0.019297	0.3686111152585025
0.3400558844730551	-43.38498741710359	752.7355649084155	-56.70207117798144	-1.073880625610959	2.410566703749941	-2.862920196337363	1.101027504054408	0.019297	0.5841445638327484	0.1785867892325028	-0.1924836580493373	-0.01941896849851911	0.0002574304530539716	-0.001283686600610669	0.01520944506424976	1.023651655782136	0.019297	0.3630819467820794
0.3544312594138309	-41.98774030368714	757.9991027650475	-55.75517776107706	-1.204198175233948	2.987540090889306	-1.549305935366817	1.089795518347741	0.019297	0.584686913833271	0.1345850142923173	-0.1454251098202423	-0.017515652429251	-0.0001075891662094358	-0.001403084642592512	0.01054915423451832	1.056291978628848	0.019297	0.357281475917583
0.3584000000000001	-41.56916368852462	758.3158889268047	-56.06822655263548	-1.198414027614175	3.162350825495852	-1.304963161826971	1.086668924399586	0.019297	0.584873554426825	0.1230408861921278	-0.13301623997871	-0.0164667947023367	-0.0002093560936345848	-0.001398905205718509	0.009373109123636307	1.065539253873377	0.019297	0.3555234865785298
0.3679128561131141	-38.43944308849489	758.9396032857605	-54.44089432355521	-1.126868096080171	3.484993847431611	-0.8392545066887931	1.079132104668422	0.019297	0.5853792155343521	0.09752052988322607	-0.1055685716786197	-0.01399509989692645	-0.0004638248018297964	-0.001377869211420882	0.006738999137783378	1.088021653940564	0.019297	0.3510998999735362
0.3848558844730551	-33.6287810521413	759.6121237496676	-52.96703165459787	-0.8469730849456081	3.9588462645387	-0.3741517570453605	1.06560752223237	0.019297	0.586449304000889	0.06292729502733035	-0.06819157912414306	-0.009447855219225108	-0.0009375106546178582	-0.001339573935544428	0.00293850507498761	1.128740465514632	0.019297	0.3427242041653081
0.3992312594138309	-28.80636865684498	760.6547204029555	-54.4722806399343	-0.500622092446936	4.08170334991929	-0.3159338303378826	1.054068274661488	0.019297	0.5874690130620708	0.04646976307806894	-0.05027794739934545	-0.006400113026908122	-0.001298591727981733	-0.001361310072193042	0.0006680653034745073	1.163241614213987	0.019297	0.3355715956857514
0.4032	-27.83419577932102	760.6841055921759	-54.35027279915023	-0.3873340147191349	4.166108304006699	-0.3525121182221366	1.050866587858496	0.019297	0.5877668405645692	0.04370392330533491	-0.04724013467549315	-0.005684474780994384	-0.001373411230947029	-0.00136840684808434	0.000188968370964404	1.172636703652016	0.019297	0.3336636136574495
0.4127128561131141	-22.63021059256468	758.9785910659532	-52.61401218278112	-0.08262831005425456	4.391959425966268	-0.5882529446219696	1.043178796484909	0.019297	0.5884783570409016	0.04005210431322721	-0.04317974467447119	-0.004306266518782831	-0.001533002010405838	-0.001406267688973603	-0.0007832239043200006	1.194674516877051	0.019297	0.3293473719964524
0.4296558844730551	-16.22348515433142	754.63216721037	-53.90545684366675	0.5086385235131535	4.012004170414992	-1.206177990203382	1.029461892281965	0.019297	0.5897099214971949	-0.3104515377040429	0.3366970738558108	0.0497569477210866	-0.02585846375541513	-0.01878714965496956	-0.03861867427048333	1.231309272091941	0.019297	0.3228913608289107
0.4440312594138309	-9.196559144779943	751.4250691801693	-55.50558795691516	0.9357793230997226	3.637458792568621	-1.576143717767823	1.017853222681947	0.019297	0.590660502934143	-0.7586431918109664	0.818131403682418	0.08829541184504414	-0.05535770518059421	-0.04315341316419145	-0.08303478237630543	1.258635004837537	0.019297	0.3190269457945542
0.448	-8.238316300897884	750.5777320049488	-55.67405572045011	1.034906339187081	3.58275895712174	-1.609390320782001	1.01465688838075	0.019297	0.5909126686006776	-0.5545153967245339	0.5972682457157873	0.05922978514231796	-0.0418886098923868	-0.03352834840728552	-0.06286140686480217	1.265423574166885	0.019297	0.318254672304349
0.457512856113114	-2.537096036840823	745.946546908302	-53.95582225712445	1.268270294582259	3.465086542339542	-1.714947746887108	1.007012166025086	0.019297	0.5914692843732715	-0.0696470325106341	0.07486454179040206	0.009710075012134754	-0.01068878061119127	-0.009365940326802904	-0.01670383375072338	1.280306301534672	0.019297	0.3169080635304518
0.4744558844730551	3.191240383622214	740.5495124244785	-58.29618468136259	1.504541544952555	2.345340680068466	-1.060080129962675	0.9935082020954582	0.019297	0.5923078405834877	0.08022113573026586	-0.08622125794236989	0.00616082514261213	-0.002282617491610709	-0.002544135934601318	-0.005237164062446925	1.301174302705889	0.019297	0.3162674829953046
0.4888312594138309	9.647408415996075	737.576135876056	-56.92460250684852	1.435682571307235	2.432329142974103	0.6055351667609238	0.9822133135842217	0.019297	0.5928478637562725	0.09938940686894171	-0.1074513641051367	0.01330990624724365	-0.002325632375788547	-0.002931445115914092	-0.006341347161653714	1.313168286176131	0.019297	0.3172543644200075
0.4928	9.659247454200827	735.8424835897247	-57.448645236609	1.390879486544281	2.534790220828377	1.198349871845433	0.9791188254784163	0.019297	0.5929864620465877	0.1035863590098596	-0.1123643069570649	0.01629269353083059	-0.002371970673438434	-0.003134538009060508	-0.006687004070868846	1.315654281885668	0.019297	0.317745146579936
0.502312856113114	12.88289840196529	731.4488511010177	-60.18317195382987	1.252803362253329	1.968923745324484	2.79861059766022	0.9717291665838987	0.019297	0.5932854710623624	0.1084269365059972	-0.1189739133495131	0.02383228308908972	-0.00237923760827282	-0.003535823994955758	-0.007191855045155619	1.320188661930709	0.019297	0.3192513481886647
0.519255884473055	15.93338771536084	726.4691588684581	-62.47938991459228	0.7995452782432347	1.765689161372494	6.447540263665838	0.9586771544232622	0.01929700000000001	0.593715939391525	0.1065339104831719	-0.1221056913046073	0.03996629036491823	-0.002347203703402394	-0.00431707413542913	-0.007702071376039079	1.32317068364791	0.01929700000000001	0.3230376252630399
0.5336312594138308	18.19267172855048	726.2556002036629	-63.26071943524753	0.1631865917902957	2.193774893836791	10.2814790427072	0.9477254967579293	0.019297	0.5939794253289198	0.08789038377871049	-0.113934421331269	0.05956128423802948	-0.002569389738290367	-0.006228171293150024	-0.008452651524683361	1.321295878995178	0.019297	0.3271996704982596
0.5376	18.07082971299838	725.4268993537642	-65.01731958083224	-0.0453537443155388	2.325504663719708	11.41583763112496	0.9447197839484439	0.019297	0.5940470721561321	0.07204425424999923	-0.0990744454801947	0.05820009220597182	-0.003030944711544449	-0.007885206599072941	-0.009575558553221074	1.320243773030239	0.019297	0.328462818197245
0.547112856113114	19.44211642497606	722.6645374360711	-64.94168278054254	-0.5753771597648976	2.503586619737538	14.25523494790798	0.9375330251649494	0.019297	0.5942016520303613	-0.06765335486429869	0.2578598399914214	-0.2340510897798733	-0.01640344314684348	-0.04251779931992527	-0.04289894385064045	1.316943200694983	0.019297	0.3316819981447698
0.5640558844730551	21.00261938233587	713.9284308974495	-68.42742862084546	-1.632085756397972	2.826776596788586	19.49490727687953	0.9247889216988168	0.019297	0.594436149113564	5.817313828968746	17.06885287274201	-14.80815641262322	-0.7553854572901909	-1.235683947391422	-1.725836623503866	1.308868362682593	0.019297	0.3377239184652487
0.5784312594138308	24.09487172840677	700.2900431121686	-67.00083388818304	-2.489913862525932	3.705146940686175	23.59676780798274	0.9140355462608344	0.01929699999999999	0.5945857724159612	37.4104193894382	49.36338021558341	-23.14058424803905	-2.201773810008198	-0.7425113977972531	-5.197319025268627	1.300501810103251	0.01929699999999999	0.3422812956263488
0.5823999999999999	22.14811251683394	695.2696164648197	-69.48851686941825	-2.717107020432955	3.758375341276861	24.62941465829244	0.9110882913617244	0.01929699999999999	0.5946276124319172	39.45892601404054	63.56852885076345	-19.11094293386174	-2.740384010829955	-0.1186657729125745	-6.700404549064081	1.298084783490268	0.01929699999999999	0.3432706305361851
0.5919128561131139	26.85625489459294	680.717840917006	-70.13606575297574	-3.241746598830435	3.75389990204418	26.99940248256991	0.90405536869265	0.01929699999999999	0.5947313464923991	30.73427391164917	117.4361739208336	-21.08919603300139	-4.476515831058849	-0.2880854032209278	-12.0729638598571	1.292465740422165	0.01929699999999999	0.3452228894853054
0.6088558844730551	28.74012396730054	633.5256643780506	-69.45443320585987	-3.889238808779239	3.226991423402341	30.14326354663962	0.8917509733591829	0.01929700000000001	0.5948229467093665	24.69898048596221	220.3561769021032	-13.39844815015498	-7.192145271882177	-0.3458203314549522	-21.83161092937397	1.282073016243691	0.01929700000000001	0.3475283423037279
0.6232312594138308	34.11853899900548	584.6980992372435	-65.85669301022641	-4.100282326470071	3.368685460434192	31.09071128555192	0.8816627532837692	0.019297	0.5947643164722645	10.65954223461496	289.9705498442826	-3.014005639939975	-8.645593470033102	-0.7790287410528958	-27.68141655193262	1.2732009946156	0.019297	0.3485506494498907
0.6272	33.75119170702575	570.1447134716478	-65.70879458885749	-4.104939817644318	3.377473527686831	31.04633943497671	0.878946279299983	0.019297	0.5947294527493727	2.881487125024401	307.8649419276997	-1.9880145674581	-8.950902329116238	-1.216194191594264	-28.91932804726576	1.270840241644817	0.019297	0.3487105143919683
0.636712856113114	36.56497202719426	535.3275630376488	-60.507734700694	-3.885207843239689	2.849832916611886	30.25574588759622	0.872575522731409	0.01929699999999999	0.5946067025216769	-13.67268517971416	360.1367069317889	-6.889111003168675	-9.65847137526973	-4.190025961438957	-30.57536978734866	1.264897321401911	0.01929699999999999	0.3489646848914748
0.6536558844730551	37.59124029641017	466.435537746437	-51.19794584046156	-3.134343596737759	1.851090723822617	27.43985557842887	0.8618763190868846	0.01929700000000001	0.5941997388393644	-26.66045718603684	464.1185072944038	22.06638040623918	-9.545602020579761	-2.695921758192154	-27.35248014876637	1.252978145284685	0.01929700000000001	0.3492432639588098
0.6680312594138309	40.28128591329826	403.0135391653267	-40.61931957044244	-2.44854748886844	1.570548958469616	24.08868547189697	0.8535948733965375	0.019297	0.5936667783305719	-35.08503223384514	461.9586751078671	27.11373299363593	-9.264671538224821	-1.613565474815641	-26.0168794368668	1.24191462442129	0.019297	0.3494603421701082
0.672	35.55389574299688	386.0297578345902	-40.28608745762013	-2.340600598158785	1.560902295718038	23.13978558346371	0.8514556995803102	0.019297	0.593496372597998	-37.12123039553748	468.5433052768054	36.42360400151505	-9.200784589033354	-0.1537309985827882	-25.45316597461463	1.238924409523724	0.019297	0.3495159181213092
0.6815128561131141	39.443108945353	348.7281260979969	-33.95576422485719	-2.202773416359665	1.187475370938651	20.74225232419109	0.8466012391338228	0.019297	0.5930604635872972	-40.95237526012336	487.4931714961058	44.13591123312553	-9.051734038645609	1.130480793182453	-24.57242523101436	1.231728016185126	0.019297	0.3496375204739061
0.6984558844730551	33.2787162605	277.9752592384058	-24.02455023830515	-1.976216088495055	0.8518903700169695	16.1991899930101	0.839066695580762	0.019297	0.5921340539401405	-42.65360765092635	533.0754695146784	50.98220426384882	-9.030657794211288	2.114264421839106	-24.43296198482746	1.218639405728136	0.019297	0.3498588258139829
0.712831259413831	26.769035412995	221.6516793263633	-17.42607366933984	-1.869492390919142	0.7987314954107689	12.54267392474982	0.8340082787232205	0.01929699999999999	0.5912158566973817	-40.61084878334896	580.3086018609865	56.37001216288795	-9.155904604615788	2.955005433835542	-25.26330835755888	1.207320186930378	0.01929699999999999	0.3501132271574873
0.7168000000000001	18.62031193604532	205.7435188996127	-17.08973329652812	-1.82709371729154	0.7944880574007789	11.50810284901721	0.8328322121816462	0.019297	0.5909464824762897	-39.79099220541092	594.0365871855408	57.56956880308484	-9.190494007947487	3.10538741833913	-25.55888775870141	1.204183258807255	0.019297	0.3502017875068137
0.7263128561131141	13.56689459811496	165.3669689369621	-10.46200507543413	-1.604800480415947	0.5806734761329406	8.790994308082414	0.8303041511376563	0.019297	0.5903346277695631	-37.90865601605523	623.748617458864	56.46251072223085	-9.314051456394811	2.998345472698261	-26.56782752347753	1.196595454379979	0.019297	0.3504254867729114
0.7432558844730551	0.2361292927548502	84.09341903114375	-1.324944614196971	-0.8722119611450112	0.254598040933016	3.931829929087244	0.8267455071947917	0.019297	0.5893502751734836	-31.94078951987986	666.3916959440711	58.09969770698152	-9.531675329921699	3.549128608432885	-28.43571804583559	1.182976637450282	0.019297	0.350822853199019
0.757631259413831	-8.651386286380863	34.40126501562786	5.196408202347424	-0.3771101036706083	-0.1894496679563827	1.404351387194964	0.8249798648166838	0.01929699999999999	0.5885660014883987	-26.78926839312586	704.1822164243589	60.5614861410276	-9.598240027260012	3.797301774913797	-29.58090111706633	1.1714443047594	0.01929699999999999	0.3510396116532251
0.7616000000000002	-9.992547422710686	24.60447596238329	5.664136933714794	-0.3244539150531799	-0.3048471333569581	0.9830215739659208	0.8247450658521307	0.019297	0.5883345336124026	-26.41241371527242	716.3422868576804	61.49565994174795	-9.577894321531494	3.647849955556924	-29.78702016374948	1.16827524496573	0.019297	0.3510617116292125
0.7711128561131142	-5.086031235768627	6.160835828820018	2.139590623690388	-0.1150580265382295	-0.1761786904176056	0.2437079025748169	0.8247680905101341	0.019297	0.5878340617290964	-22.9289848891751	738.9540633184098	61.83331852497243	-9.546111011390646	3.492705371144485	-30.27789062100069	1.16064319445404	0.019297	0.3510473558094573
0.7880558844730552	0.1341650867621362	-0.144503088085219	-0.01189805148833659	0.002030551532243785	0.001122563741042778	0.0126785302138999	0.8275427011626113	0.019297	0.586870985756482	-17.68975129980221	768.6262948058812	66.64295870527616	-9.410970076288432	3.527387642459418	-30.47394203451128	1.147041995487329	0.019297	0.3507486482880976
0.802431259413831	0.1780393927851696	-0.1912074043455839	-0.01132157758019972	0.002409033926846341	0.001389521125085465	0.01714174632742764	0.8330482396564342	0.01929699999999999	0.5859920005116025	-15.11123416561554	790.6157505998556	68.3450112515588	-9.123162202059435	3.271281946417492	-29.56905216466818	1.135600956585501	0.01929699999999999	0.3502248773252739
0.8064000000000002	0.1902468319361124	-0.2043099832013935	-0.01203805023020651	0.002546448332836385	0.001457452545911103	0.01835074954417101	0.8350962930757425	0.01929699999999999	0.5857522528465391	-13.67548125424832	796.4832135811624	69.07341674739392	-9.001302330078536	3.059376790765346	-29.1515460650963	1.13246707044411	0.01929699999999999	0.350046743221642
0.8159128561131141	0.2227542496297051	-0.238943042138497	-0.009954825716529579	0.002819916005329052	0.001824806743918501	0.02173786418156987	0.840871253633706	0.019297	0.5851921519084915	-12.42143968186875	802.7444078138884	69.20879688374644	-8.734451007029493	2.907055624969435	-28.09945495299788	1.124941035314948	0.019297	0.3495704541594668
0.8328558844730553	0.2780208243787359	-0.2980741922859675	-0.009290098914672843	0.003281459353446515	0.002192227658020556	0.02747852615123498	0.8543283239000806	0.019297	0.5842823426876292	-8.545549240247462	800.6026385271618	71.094133136125	-8.239193066810808	2.842747533587373	-25.80798287494461	1.111548888818963	0.019297	0.348555356651821
0.8472312594138312	0.323420014705126	-0.3466883389354437	-0.00902071097567257	0.003714722849906218	0.00258771704388415	0.03209341563899581	0.8687965255113211	0.019297	0.5836077465977269	-6.681495855387075	794.5946747120092	69.28659638261509	-7.648989072873626	2.286822802509116	-23.15914833583335	1.100242497540594	0.019297	0.3475416741989532
0.8512000000000002	0.3336638275661692	-0.3576567782768386	-0.008896269935045388	0.003800110692629512	0.002674826515516569	0.03314414384701753	0.8732517839647207	0.019297	0.5834381424505165	-4.730137444386238	793.026326953251	69.63487427699272	-7.427061065970443	2.109044788682911	-22.3087868195623	1.097141501533531	0.019297	0.3472530886960206
0.8607128561131143	0.3565893408363082	-0.3821683644520543	-0.006985254559500686	0.003947061268508449	0.002968509243305138	0.03555978527658401	0.8847345029245308	0.019297	0.5831153446468693	-4.577894393252989	784.2990000288993	69.947347422327	-6.89828072042431	1.996275459091163	-20.32292372960511	1.089680740039011	0.019297	0.3465487038866437
0.8776558844730553	0.3825897802067702	-0.4099747830132956	-0.003288134004596936	0.00398903234447655	0.003294998555982087	0.03835800450910888	0.9079435161042898	0.01929700000000001	0.5828782112535238	-1.418680133274118	764.2377285215603	70.1207936005204	-5.855604027201303	1.788542401171966	-16.59065267011759	1.076392186246558	0.01929700000000001	0.3452998103857133
0.8920312594138311	0.3880046703788009	-0.415759406366204	0.00133953620255715	0.003872902702731951	0.00364116281462714	0.03895809131685388	0.9302476928735244	0.019297	0.5830977700544654	-0.6981168925230561	747.8263187891522	67.88284889899253	-4.891195189726743	1.276932770896997	-13.19141463548229	1.06516465366899	0.019297	0.3442779645853357
0.8960000000000002	0.3863530834356481	-0.4139948440929928	0.002574538116921759	0.00380221510481536	0.003701528509421312	0.03882066768612368	0.9367955909105722	0.019297	0.5832370522485953	0.8346531670745415	743.4232672709785	67.53538220569007	-4.615627809234763	1.102962696218229	-12.25664444180422	1.062081844932333	0.019297	0.3440187746251212
0.9055128561131143	0.3776678525662392	-0.4047318298207603	0.006154320716738083	0.003561958855110653	0.003819013475550334	0.03806209042222425	0.9531657578245815	0.019297	0.5837407623497209	1.174727200355155	732.5891105348717	69.15083507173773	-3.962026470819837	1.337273831889148	-10.05433826714413	1.054674494154643	0.019297	0.343423944315446
0.9224558844730553	0.3467701712958938	-0.3718067716045033	0.01241413687028718	0.003063208128325487	0.003957362176944238	0.03503185148716145	0.9845898048192196	0.019297	0.5853036470061379	3.478573076597121	714.2315970366432	66.04370082061097	-2.850986964635958	0.981006397857375	-6.291544702229582	1.041500162918069	0.019297	0.3424907071281115
0.9368312594138312	0.3084727670757393	-0.3309793264959297	0.01610298326042549	0.002681630376649514	0.004005807288278391	0.03108320720462967	1.013342165954005	0.01929699999999999	0.5873075526035438	4.811739242321043	701.130013854809	66.39263404192529	-1.994708921697083	0.9316269526097583	-3.324376684509907	1.030340916367509	0.01929699999999999	0.341817023137711
0.9408000000000003	0.2963978608774641	-0.3180938595030881	0.01668724368427119	0.002577520447764177	0.003979203914946588	0.0298504189999146	1.021586870801042	0.01929699999999999	0.5879598659454333	6.136670195549767	697.973784834102	66.0321265470505	-1.774038144515639	0.7059252470300396	-2.567317131042876	1.027263923421591	0.01929699999999999	0.3416552270942187
0.9503128561131143	0.2650589573449679	-0.2846233087111988	0.01740341640668149	0.002317987493976697	0.003829893812075832	0.02678232951134631	1.041837560884991	0.01929699999999999	0.5896985526786975	7.04424954372728	693.784650549077	65.60620762042619	-1.22781380077881	0.7357961618940235	-0.6810772618186091	1.019879219784445	0.01929699999999999	0.3413008382164539
0.9672558844730554	0.04477730358776535	-0.04833582350201421	0.00621821651840978	-0.001118266389651687	0.001176014716778722	0.03154526728286094	1.079488000520162	0.019297	0.5932968378999173	9.539125733608611	688.2626625232896	63.97220224489103	-0.3491497336558149	0.3347815959168434	2.458539078957656	1.006748697712551	0.019297	0.3408091632519098
0.9816312594138312	-0.4641294097973878	0.4977159572224802	-0.0211028675795024	-0.00965851728772338	-0.005235150001130588	0.06262157174577665	1.112750330068574	0.01929700000000001	0.5966189740273882	12.66705255798	686.0818224419172	65.81047130301499	0.3054894442944396	0.3459477556205807	4.879288462433051	0.9956067419508396	0.01929700000000001	0.340521840483656
0.9856000000000004	-0.4533400416532238	0.4860420822625857	-0.01880320046776377	-0.008674250512589524	-0.004581553347766417	0.06087592906520033	1.122097523619037	0.01929700000000001	0.5975321533524854	13.63612695672532	686.4552031209993	66.54364639150019	0.4774664388537675	0.05865486272670824	5.510504239988784	0.9925304087826063	0.01929700000000001	0.3404590395544478
0.9951128561131144	-0.05198215706306505	0.05541708218167907	0.002362605370380434	0.000253337243753491	0.001799192914357822	0.02522876571940861	1.144615778365681	0.019297	0.5996597601999026	16.12556939544453	692.4449039709777	64.01195151976862	0.9230758192356541	-0.1720606165678493	7.169394722691234	0.9851585073947943	0.019297	0.3403472561995436
1.012055884473055	0.08711808264130695	-0.09360457980092268	0.006343361182346119	0.00168794871005484	0.002132169720037678	0.007269050949123793	1.184411380318949	0.019297	0.6029561341926615	20.58351594161594	701.8922256257151	65.21923556376181	1.666652029118901	-0.3270074561565604	9.926174838554569	0.9720550559341811	0.019297	0.3402889612537691
1.026431259413831	0.06849403443542876	-0.07348959369066269	0.003209929494983871	0.00166547061308958	0.001829791483108489	0.004209934915533202	1.21673096877407	0.019297	0.6048043742745385	25.70502926235681	708.5192134791683	66.93450467904135	2.231345887944513	-0.4077505859951189	11.97467708403044	0.9609117057957949	0.019297	0.3403481900445515
1.0304	0.06451577113784525	-0.06919585991196127	0.002400752969354352	0.001668958544132446	0.001777352574292198	0.003563420768598635	1.225227133440291	0.019297	0.605088790840253	27.63128800152871	711.1302926594	68.27126168455051	2.380212722375755	-0.6649316084348422	12.49532670268675	0.9578271633005162	0.019297	0.3403691882459615
1.039912856113114	0.05766035682578141	-0.0618055567913594	0.0005556917973709751	0.001682412801071087	0.001687029551086417	0.00223357415834445	1.244578163195846	0.019297	0.6053559397550059	30.18071870556181	720.6379810020269	66.06609177777891	2.775918505185429	-0.9722058337991318	13.89154916732707	0.9504369740186018	0.019297	0.3404425419482903
1.056855884473055	0.05343297396734217	-0.05733723035842667	-0.002669439314082899	0.001759508239339115	0.001693452144445934	0.0004460105008514953	1.274665831783791	0.019297	0.604268321540644	36.09872753981823	733.134349736377	69.03421459204131	3.414858258023899	-1.359987500625519	15.99440094568921	0.9372532628918466	0.019297	0.3406223672938783
1.071231259413831	0.05461714329243452	-0.05890775566130235	-0.006239656788403056	0.001870882135534229	0.001851651165653488	-0.0007136208782089815	1.295216445809054	0.01929700000000001	0.601867486056512	41.81934759739382	741.9703234879844	70.67335524200421	3.915189310347832	-1.835021046287777	17.66848438820813	0.9260244620250072	0.01929700000000001	0.3407818155293841
1.075200000000001	0.05500416508369753	-0.05944809222891291	-0.007232938927181579	0.001894218943752897	0.00190544195356455	-0.0009762673944545898	1.300059590772131	0.01929700000000001	0.6009719858775728	44.80070666486765	744.7461234822988	71.53933248146546	4.063913556612368	-2.087503566043631	18.1438968155083	0.9229314291067889	0.01929700000000001	0.3408230882471415
1.084712856113115	0.05515826386126216	-0.05997264436503342	-0.00949188281695279	0.00192074039378439	0.002018215123917294	-0.001510934351826546	1.310217077765406	0.019297	0.5985652519027876	47.28168104162757	751.5523254002321	71.908663574044	4.475210843073762	-2.413908769736238	19.53159162148934	0.9155262298993526	0.019297	0.3409310852889784
1.101655884473056	0.04915296506422564	-0.05447982813984609	-0.01297951714744881	0.002043535294077746	0.002454633006772817	-0.002688771543647978	1.323109315287649	0.01929699999999999	0.5933959338986103	54.29590019346374	755.4371804379675	74.92045718440832	5.145241162419793	-2.914050055235872	21.87937647081045	0.9023663676474174	0.01929699999999999	0.3411199832647857
1.116031259413831	-0.7720145982149821	0.9139009389035716	0.3629303969339862	0.03809359397542599	0.07582731157677305	-0.1113739788906328	1.329097086430213	0.019297	0.5883284626463922	58.68032471219353	749.4665041466149	76.61162454651028	5.750180352727279	-3.608756281068637	24.1533965205891	0.8912111208562473	0.019297	0.3412165476801245
1.12	-2.168505171075035	2.605762824517242	1.100820327439656	0.1030730650087073	0.2125373848246011	-0.3012576997666994	1.330046446202727	0.01929699999999999	0.5868563029435482	66.94629597154888	746.7958827474115	71.06975835430276	5.962640390604402	-3.535912077451823	24.91393414850394	0.8881517938670505	0.01929699999999999	0.341227634564955
