DataType=double
version=3
OpenSimVersion=4.5
endheader
time	pelvis_tilt	pelvis_tx	pelvis_ty	hip_flexion_r	knee_angle_r	ankle_angle_r	subtalar_angle_r	hip_flexion_l	knee_angle_l	ankle_angle_l	subtalar_angle_l	lumbar_extension	arm_flex_r	arm_flex_l	pelvis_tilt_u	pelvis_tx_u	pelvis_ty_u	hip_flexion_r_u	knee_angle_r_u	ankle_angle_r_u	subtalar_angle_r_u	hip_flexion_l_u	knee_angle_l_u	ankle_angle_l_u	subtalar_angle_l_u	lumbar_extension_u	arm_flex_r_u	arm_flex_l_u
0	-0.08203044065214114	1.047761802577917	0.9501080826731328	0.6041339841437718	0.3742862077736544	-0.0383275330932871	-0.384984220347647	-0.02672250977189222	0.1701301947359714	0.2560856641495857	-0.0562624641077705	-0.2017843030184536	-0.210790684386432	0.507375683015403	-0.4558412324223845	0.1736100429952634	-0.2139701837333803	-0.04350479211856301	0.05997950994537142	-0.03793122267288246	-0.3614424597468451	-0.3964643084267647	0.5989735544843409	1.105601152551261	0.7196349379872615	0.7991361166187578	-2.200737624483216	2.246090696168657
0.009512856113114032	-0.08623487362293143	1.049565282114387	0.9481034866131806	0.6031607399566907	0.3766425927985102	-0.03825831912407299	-0.3884247318444641	-0.03026461423390858	0.1767339289134119	0.2659242989289374	-0.04974671527554467	-0.1938373565694986	-0.2313007125852872	0.5282275917789236	-0.4200806521927379	0.2074039782657745	-0.2060054432283896	-0.1729112409326343	0.4325996398624926	0.02963471850342003	-0.3684767750217667	-0.3572636345098711	0.7970713882296878	0.9934624173436009	0.6505450257425978	0.8645570750859242	-2.145170950430502	2.080104828649734
0.02645588447305514	-0.09221864211869452	1.053691955259845	0.9448404765487298	0.5973405664671072	0.3885742490995834	-0.03842980445581559	-0.3950211919842541	-0.03629311828338694	0.1938101788399066	0.2828109956154946	-0.04020841775918207	-0.1788231199125647	-0.2686975574412271	0.5570648529797382	-0.2759599931875117	0.2795185920679972	-0.1774252636305278	-0.5341394507482282	0.9109388547398155	-0.07932682890925619	-0.4004974135624871	-0.3582664844245909	1.229635114797953	1.000064213983711	0.4407263144443321	0.8913774570514894	-2.266137232696343	1.278028114395987
0.04083125941383081	-0.09521405318291645	1.058063294555131	0.9424750212407532	0.5871179896207952	0.4019810280277621	-0.04050398751136636	-0.4002883873910803	-0.04123136968985447	0.2142612317063462	0.2959408239453745	-0.03662004057180382	-0.1662336737559511	-0.3004484206934392	0.5710631134708957	-0.1462867359657948	0.323342472263503	-0.1529172110995695	-0.8876733792197262	0.8599220305549266	-0.1937785936201348	-0.2992908332952841	-0.3105131590498592	1.612198800045648	0.7442805628117695	0.003230697818560113	0.8535512256910227	-2.054874152066761	0.7534655576829372
0.04479999999999995	-0.09573958909435064	1.059358118437201	0.9418781142900035	0.5834082582035245	0.4051627028770746	-0.04129062779245379	-0.4013458275898789	-0.04239338236429474	0.2208578385831866	0.2985604850134381	-0.03696690054415336	-0.1628775912181698	-0.3082618273956189	0.5739773421124497	-0.1274010311600092	0.3313310836954081	-0.149394572239531	-0.9726918015593908	0.7064840247022812	-0.1536770585172136	-0.3027207276964211	-0.2785890321060583	1.723304386861566	0.7691788944662843	-0.08177258655701392	0.8513027020900383	-1.956500150875077	0.6812548586103483
0.05431285611311398	-0.09680923695839176	1.062584802548065	0.9404976729035254	0.5730297952665617	0.4097200413005361	-0.04034855034682067	-0.4061157518205121	-0.04462267411771881	0.2382481819589907	0.3049487500150229	-0.03886576708616954	-0.1547542711991671	-0.3254153830793508	0.5795744446557082	-0.09346385250368566	0.3445241982596875	-0.1390995652664474	-1.169984157436473	0.3500911109932163	0.3800477171444522	-0.7135264548619276	-0.1896625058371854	1.940573428882266	0.579435229969071	-0.3364983551267502	0.8468800783009593	-1.583638338146698	0.4504287215608189
0.07125588447305514	-0.09768795026081628	1.068398778146806	0.938442046012756	0.5534965239290983	0.4177442562804495	-0.02456652921233994	-0.4240149788528744	-0.04613964418670463	0.2753003982174856	0.3121670666398865	-0.04940030928660261	-0.1411268919065389	-0.3420463054273007	0.5809177794464911	-0.0130239757448566	0.3358677203641725	-0.1000007937430741	-1.058367901726914	0.7372993382963156	1.458331376897936	-1.3121463948864	0.03552002508169283	2.46760112648101	0.2687136386554001	-0.899698743541524	0.7539879106459028	-0.319423949279577	-0.3096054186053717
0.08563125941383082	-0.09767076219989808	1.073033302827836	0.9373187175401033	0.5405488755826499	0.4324241593476286	0.0007433399387840045	-0.4422992090782952	-0.04322780297150602	0.315106911481059	0.3137361524388089	-0.06465434322932367	-0.1307699739470141	-0.3392098256917789	0.5729944049535398	0.0002062479732265615	0.3064711576076174	-0.05538451851000444	-0.72757733709288	1.259365585968394	1.947799266184618	-1.058347196893318	0.4075920640489386	3.103864801893735	-0.07153426125878593	-1.159528589899761	0.7009272499128324	0.6294190146670993	-0.6988342668538459
0.08960000000000001	-0.09769770632529838	1.074229477672596	0.9371244261109131	0.5378560349394373	0.4375592868155457	0.008477807165186993	-0.445977889915595	-0.04132418389846654	0.3278422372097597	0.3132172504678798	-0.06925227914976761	-0.1279820076433577	-0.3364090811878138	0.5702341231886965	0.007698898946925034	0.3024956770201904	-0.04358947310910728	-0.6770249968777482	1.336341213892053	1.948336193147369	-1.045751356567272	0.5047314646581629	3.30715243583325	-0.1092009544309598	-1.225928402226891	0.6913990689878671	0.7137791042909849	-0.7998190323195387
0.0991128561131141	-0.09759446655582389	1.077075701221311	0.9368432135856719	0.5317301600194129	0.4508645630585534	0.02772067190620861	-0.4561884070308109	-0.03541015585869373	0.3609040021798985	0.3101184338030374	-0.08206539199344601	-0.1214040264600692	-0.3288204861250245	0.5616731513169753	0.01741632189265084	0.2975328557581923	-0.01547733751545004	-0.6485491100710904	1.392238204228591	2.031466373686583	-1.091767805530148	0.7326278914728659	3.653847459511042	-0.5172475987861918	-1.470397495266619	0.6936637864105177	0.8888440916217868	-1.009334890029062
0.1160558844730551	-0.09687352191236362	1.082150772751985	0.9369943341347811	0.518190485349356	0.4698947788771901	0.05802949352484757	-0.4745212263294159	-0.02005005533628801	0.428524513827068	0.2968822613053972	-0.1107362615701845	-0.1095531700950903	-0.3109361037362025	0.5409209817289662	0.07408936277876374	0.3027259777691669	0.03225794436076003	-1.012644176406096	0.7422575534765063	1.424720577138322	-1.046820886233172	1.069318048733908	4.321432994567822	-1.025901841603271	-1.908553464447216	0.7010341804500124	1.205147413638461	-1.437306871721176
0.1304312594138309	-0.0953383195731318	1.086514810310214	0.937702374927545	0.5003646121503719	0.4748135641108751	0.0724942730435796	-0.4886139810401093	-0.002840552877504288	0.4940066279715155	0.2787817307062248	-0.1405115792017978	-0.09969603980456282	-0.2927059794932162	0.5181679687575218	0.1403470680050297	0.3018743566961238	0.0644352820406012	-1.464544981317882	-0.0479663182734919	0.5746569283113491	-0.8985828891374043	1.323640864497761	4.751029268646071	-1.529776105499493	-2.218760091680025	0.6580740171219405	1.284806063218959	-1.698445960220081
0.1344	-0.09474490824659181	1.087706039177999	0.9379717684490344	0.4943299483019317	0.4742467113071378	0.07431429902065173	-0.4920705358153993	0.002552098867334318	0.5130104256889527	0.2723406009727821	-0.1494529316107119	-0.09713554192704121	-0.2876673950536798	0.5113535267636566	0.1568823089855282	0.2953528636331006	0.07008529162311226	-1.54193635649345	-0.1866256331260321	0.4799767280757135	-0.8344583526748385	1.45809344609503	5.183451979611915	-1.279043926719756	-2.289609599029174	0.6293387714987739	1.298275190536805	-1.786343019891844
0.1439128561131141	-0.09321083225522564	1.090456853286087	0.9387090122956224	0.4790703027018597	0.4713076880569399	0.07955121697949269	-0.4994361573498149	0.01682076261948884	0.5611803704701316	0.2581114715864818	-0.1728722355353288	-0.09121927765701288	-0.2741741393448391	0.4939601010570684	0.1745921367517246	0.280528191613444	0.0843165113385495	-1.668689826579635	-0.422889600504072	0.6097854337871538	-0.7118542900039881	1.584430369509704	5.132092901715013	-1.741035955164099	-2.591235259064711	0.5972504392609216	1.505945553796127	-1.879858520290988
0.1608558844730551	-0.08938490053524301	1.094812976674707	0.9402872257828394	0.4488399163257228	0.4612745762831278	0.09066191332106943	-0.5096371423778903	0.04784536243009549	0.6575144944696694	0.2265469283554976	-0.2189762988792391	-0.08276800594237108	-0.247568066287455	0.4602846291615776	0.2838455922566624	0.2311753712384024	0.09963709223827646	-1.892806926086968	-0.7449591742280157	0.66113159930886	-0.5012332206314607	2.065693556375757	6.195485279803004	-1.491142074798802	-2.858229993969163	0.385293675339519	1.620999098820343	-2.086140704087421
0.1752312594138309	-0.08473086998006515	1.097833989356174	0.9417399036457147	0.4206584035507588	0.448938451917047	0.09925005808631787	-0.5160285157900418	0.07816166277183054	0.7432490790762063	0.2285756796005443	-0.2638106260895883	-0.07842397065823761	-0.22275838339833	0.4298183852033431	0.3501798848441815	0.1918275397229665	0.1004018434645469	-2.01050961446717	-0.9680904072960832	0.5002848275240187	-0.4081057765448713	2.017784121381773	5.154605459369166	2.626757183935726	-3.506671138028834	0.2420431851987859	1.897341794319786	-2.112810327403451
0.1792	-0.08333850507768083	1.098580842663409	0.9421346121102726	0.412653864290944	0.4449768739897879	0.1010806812928162	-0.5176419390812824	0.08583062461867147	0.7617878715654883	0.2431211025153731	-0.2783805348094585	-0.07748330728024425	-0.2149159012918301	0.421509444334949	0.3583064694585626	0.1831527770661046	0.09696136143672796	-2.01555361153202	-0.9903541368003812	0.4583012750510204	-0.3587055857187679	2.026434439142927	5.193046540512152	1.055336712646449	-3.441078906229055	0.212835432750636	1.846431382579582	-2.155310282409176
0.1887128561131141	-0.07989699868819586	1.10022797059525	0.9430400343836849	0.3934264305166312	0.4353227293485158	0.1057475770056702	-0.5202326341740925	0.1047141164119921	0.8075578008323051	0.2450751496332894	-0.3035699717866059	-0.07568617056196299	-0.197111408965201	0.4009764309751567	0.3690580680392354	0.161606521051282	0.09393769292267093	-2.026338091291596	-1.034226037510998	0.5065015455360703	-0.1908519297499042	1.950060375969075	4.441341094035819	-0.4650251493747319	-1.929835958859757	0.155089821971178	1.886042114709084	-2.146179038907306
0.2056558844730552	-0.07327500002519341	1.102526440486018	0.9446213765267044	0.3590978326061252	0.4176172132330352	0.1138382069204542	-0.5214015763513796	0.137290004501527	0.8727242954344954	0.2290797102517673	-0.3215428479018492	-0.07460473535310692	-0.1654789137968991	0.3657632861019006	0.4117968745399715	0.1076760944374559	0.09306724460632415	-2.015555908091841	-1.041643186194803	0.4270545292181122	0.03855868905204374	1.9197361749618	3.296058724701193	-1.076627992478431	-0.4787422963632374	-0.03572889053566676	1.824830248601092	-2.000434282077855
0.2200312594138309	-0.06729073548248084	1.103725008451096	0.9459452634696781	0.3306016192387442	0.4029746195318427	0.1192838516623549	-0.5198422207669489	0.165457981699787	0.9145178020338176	0.2168234712592553	-0.3284500605990096	-0.07621089718684922	-0.140133868354745	0.3376643950035972	0.4091645152592462	0.06002975510763718	0.0901903421461758	-1.934170639343262	-0.9871634164056109	0.3410706609785992	0.169102056739779	2.020336082766089	2.557786433147701	-0.5690521250094438	-0.7305745696714345	-0.1739865026046945	1.694140850731057	-1.934745163814375
0.224	-0.06569541501049242	1.103939992677571	0.9462993375138318	0.3230019389426337	0.3991022204207464	0.1206214089740599	-0.5191172401560689	0.1735738991847872	0.9243437273280617	0.2148811188032668	-0.3319878448945203	-0.0769423270954087	-0.1334920168611637	0.3299579832469389	0.4054373683319218	0.04883310707814841	0.08977035338313427	-1.906472285171116	-0.9648915857686429	0.3400327819625182	0.1960806044487514	2.039455970685993	2.347731364532369	-0.4299120441597631	-0.5999004699612864	-0.207452623853408	1.657818012147714	-1.953548250123653
0.2335128561131141	-0.06188068222878958	1.104285467394282	0.9471505520677544	0.3051279277747657	0.3901189988139749	0.1242900622830286	-0.5168739134010187	0.1931211774638825	0.9441359948044716	0.2124493591578942	-0.3379684666738764	-0.0792345220883155	-0.1179443709676126	0.3112858596642754	0.3970694980222864	0.02229323128060711	0.08930549909739985	-1.849890588132262	-0.919573146993629	0.4178654301899623	0.2763166023402879	2.077627320985054	1.828126992109087	-0.06702108508870219	-0.69932992221455	-0.2812229944186891	1.612743021484893	-1.950935287243674
0.2504558844730551	-0.05528989485383383	1.104171683723622	0.9486647038202661	0.2747230254514011	0.3753749657684146	0.131488464915005	-0.5112001467354138	0.2293482885310277	0.9682210746636077	0.2166520733662793	-0.3531859613595297	-0.08549654315290413	-0.09109003113338654	0.279784478557451	0.3780138201512324	-0.03610921312140841	0.08954245249305928	-1.739300605882779	-0.8273645836190729	0.4098502816022808	0.3736506054924309	2.200688973137328	1.023452366055486	0.490972550445028	-1.057729569255253	-0.457849087288102	1.565321229605409	-1.74445518963941
0.2648312594138309	-0.05011499608823734	1.103344075408689	0.949953252385109	0.2503259277840285	0.3635930350822041	0.1369749753172771	-0.5060977006970733	0.261502850217784	0.9777616535561254	0.2234771240056411	-0.367156959205489	-0.09286449185524973	-0.0686127867082546	0.2560406189179738	0.3360513484596166	-0.07556442224299872	0.08959676151128407	-1.659230645307577	-0.8333670414229338	0.3551212508800801	0.3030981757472428	2.2558917189201	0.2775515549577323	0.3064308852780855	-0.711158267170751	-0.5487762539853974	1.569755270856195	-1.579861001055091
0.2688	-0.04881732842916447	1.103030848866507	0.9503085230514101	0.2437747820816552	0.3602334895993211	0.1383647509633802	-0.5050056612006087	0.2704455621092229	0.9783899787889119	0.224255060145174	-0.3693892004608864	-0.09504882166205708	-0.06236421252393742	0.2498046673998788	0.3252118483109425	-0.08420567356908396	0.0890905320544147	-1.63425910109983	-0.8243135304356425	0.3524532067536839	0.2974146732659856	2.264618706050292	0.0927072921115949	0.3602048997426417	-0.5026829027790221	-0.5711608315618152	1.553041353049681	-1.572387150917858
0.2783128561131141	-0.04584022151950429	1.102141933479397	0.9511543442775902	0.228389591293234	0.352340041120245	0.1419900971887513	-0.5019979703521533	0.2918664266152147	0.9767891477763637	0.227942888865853	-0.372918776506969	-0.1006761637919642	-0.04742529743456741	0.2350930958104306	0.2986203411496582	-0.1034176602312207	0.08847359127086443	-1.597580920361843	-0.8353806800931421	0.3944322635269737	0.3255479051666503	2.238927516351059	-0.4303121828532914	0.4254177443411882	-0.2575492832405893	-0.6124159234071025	1.597088240914733	-1.499213000806215
0.2952558844730552	-0.0413597721229111	1.100068288889026	0.9526203783007792	0.2020520908806648	0.3379090307204566	0.1481955859119212	-0.4967910553425892	0.3293194463866127	0.9615312457438693	0.2361335711516006	-0.3745329542892636	-0.1116077371308442	-0.01907299704224336	0.2122150057001481	0.225789106438183	-0.1405717164374493	0.08392536328801267	-1.509938199118078	-0.8757248656269536	0.3201538279548159	0.2741051543295658	2.175117982470041	-1.371988193088741	0.496980569517919	0.07360717082205515	-0.6708598956734414	1.75687823059835	-1.186340611406326
0.3096312594138309	-0.03865795359993911	1.097885233732573	0.9537826998303793	0.180823391537307	0.3247605492336024	0.1522405021077507	-0.4933965449519211	0.3599048112606715	0.9360587232717186	0.2414123717281099	-0.3704091138524593	-0.1212891494344567	0.007063374012882595	0.1967949615299114	0.1486950217854812	-0.1599191514589186	0.07746466764534846	-1.448784693765234	-0.9651411608229332	0.2558192170403085	0.1999612341223019	2.069149014825005	-2.171015599971642	0.1397531509817167	0.5596175756440593	-0.6636152356011469	1.865425189927917	-0.9931779652028294
0.3136000000000001	-0.03811206229794503	1.097247333877634	0.9540860369214151	0.1750942751578789	0.3208561884439816	0.1532569532757729	-0.4926349152063556	0.3680348817433633	0.9270072788296124	0.2415543075367886	-0.3677837005859175	-0.1238916244428308	0.01449121330313571	0.1928741819655178	0.1321135904819889	-0.1638332095228079	0.07521084764869747	-1.430149903134223	-0.97337616948836	0.2584765750440184	0.1986887276492548	2.03559827353144	-2.367582792928694	0.07434556887014032	0.7695316482312666	-0.6629817596290807	1.883425200194831	-0.9696610751048234
0.3231128561131141	-0.0370439997075559	1.09565113029568	0.9547761104467674	0.1615958761288712	0.3113486432621402	0.1557725088806196	-0.4906014339450237	0.3868317280906169	0.9020088577185088	0.2419898644151474	-0.3590510097532257	-0.1301499208042793	0.0329856004471821	0.1840144221027228	0.08803931283732844	-0.1717388476296691	0.06929606116676509	-1.401918518867072	-1.026322209100484	0.2551845872960045	0.2179735668497506	1.918916850158703	-2.886712276567802	0.03155418035468249	1.035914461684817	-0.6486759676736037	1.999393191829469	-0.8917862673139985
0.3400558844730551	-0.0365192159249134	1.092642047923984	0.9558171893522879	0.1386677553637947	0.2931401636174971	0.1591195321366664	-0.4872404559628484	0.4177283866453694	0.84549960097063	0.2419766198206446	-0.3397708408690467	-0.1405924096259026	0.06807388354809052	0.1699404111773741	-0.0299424239542065	-0.1820228734778892	0.05276892740573361	-1.29971014298035	-1.121098001535096	0.135449667734095	0.1784975014447238	1.727809860669518	-3.772277439669501	-0.0875176155816868	1.198474995541971	-0.5765429208467899	2.125517796347409	-0.7854569472100746
0.3544312594138309	-0.03764461061568716	1.09002237284205	0.9564646174686706	0.1205635901188203	0.276562646925812	0.1607933478715862	-0.4844667290689638	0.4412727604434278	0.7862945266990395	0.2371017070363711	-0.3220007583355711	-0.1483015970290714	0.0989159926247305	0.1585769134297733	-0.1207920867855979	-0.180228028542458	0.037561471934209	-1.227251945764689	-1.179999330479019	0.1315432861369942	0.2363405188008243	1.540103983385761	-4.450469913649066	-0.7149648628429242	1.291123843797304	-0.4953927858596927	2.153516811805698	-0.8238854029764596
0.3584000000000001	-0.03815888800158579	1.089312873950745	0.9566062041250574	0.1157119209668178	0.271859126282918	0.1613949533834396	-0.4834288228715408	0.4472640863643511	0.7682904318558562	0.2336438151705513	-0.3167728750722572	-0.1502239602485377	0.1074549932647208	0.1552239250472508	-0.1378683595503696	-0.1800178655321872	0.03324678400430267	-1.21181443409158	-1.18752730621358	0.153154905529507	0.2610260088122112	1.490189130847844	-4.604692541188576	-0.7969963233810967	1.449568012695082	-0.482580873882541	2.168562596661558	-0.8428989744065511
0.3679128561131141	-0.03965908397427997	1.087612999546308	0.9568712186114535	0.1043093661913846	0.2604083225160971	0.1629722828201832	-0.4807300949055139	0.4607415933785278	0.7226520221328713	0.2252079780887055	-0.3022214774944928	-0.1546221608002257	0.1286061187537966	0.1470476712384743	-0.1792239677549374	-0.1762979809750022	0.02211726180799804	-1.183363249404078	-1.219141212228433	0.169788982115701	0.3007380177277907	1.345392166676253	-4.979753845456902	-0.9589154794443268	1.593286335972056	-0.4392603172421496	2.251722979943255	-0.8998079760537665
0.3848558844730551	-0.04335398110530488	1.084769685982198	0.9570554999885226	0.08474604345107833	0.2393881351579293	0.1655976786684504	-0.4752933494925479	0.4814479984061109	0.63377268974651	0.2071442095726277	-0.2744286155081345	-0.1612555733171868	0.1661679269020841	0.129291555825838	-0.2522435905152077	-0.157322964247007	-0.0005443547568566923	-1.130748402833861	-1.256930179434411	0.1395664104525011	0.345780799491166	1.097290251093665	-5.470676528286531	-1.2021743375317	1.654814335991497	-0.3442885003141084	2.15734554308181	-1.218770764444049
0.3992312594138309	-0.04715707152610744	1.08266303485903	0.9569168564949879	0.06852064664869889	0.221274927079147	0.167763753573218	-0.4696104839313547	0.4955569627474471	0.5534113953632466	0.1864226597071219	-0.2509387369719552	-0.1657680485616084	0.1966871273213219	0.1098811345600958	-0.2649342711306338	-0.13549606260775	-0.01807341416239224	-1.139913298276724	-1.25699554529961	0.1843785428844097	0.4675232553723525	0.8576670965604931	-5.673891732290469	-1.773739024459708	1.606431598583613	-0.2920295825962035	2.121477426699641	-1.453154235894076
0.4032	-0.04818875079383216	1.08213729311644	0.9568371588819073	0.06396175485866165	0.2162990522773635	0.1685734184047253	-0.4676363223143853	0.4988112121504203	0.5308541651960872	0.1788594706704726	-0.2445961890222215	-0.1669183039134746	0.2051716121518014	0.1040595306607099	-0.2632573873456636	-0.1316656997661743	-0.02306036121156689	-1.145871120896628	-1.259722112764808	0.1862171671149294	0.482286244849523	0.8088412777997753	-5.661911737420312	-1.837025885007122	1.677607392772273	-0.2869654160074281	2.155978665745202	-1.48220230947662
0.4127128561131141	-0.05064175095369078	1.080936210514432	0.9565621395624238	0.05299036060744189	0.2043961097576419	0.1707071935728683	-0.4628470733301799	0.5059952848436376	0.4777935700959519	0.1604570292601376	-0.2277101034724902	-0.1695883274772283	0.2262773252386014	0.08968544839149184	-0.2485689667034114	-0.1197353674753627	-0.0342740340975102	-1.167200055434448	-1.245033093182361	0.2537587751498657	0.5253033811746157	0.7045741594127034	-5.452661399205915	-2.001438358160426	1.876081450059041	-0.2774086097638746	2.259561027876066	-1.572257834235025
0.4296558844730551	-0.05437917283756578	1.079168489952946	0.9558446953422617	0.03249860702938412	0.1834546796861456	0.1753793178453487	-0.4533006447968944	0.5167177376762355	0.3919229060764228	0.1263217286669459	-0.193370842008394	-0.1743153245474231	0.2644397561967619	0.05947498094110137	-0.1903267965462608	-0.08762755969815733	-0.05005802863595064	-1.253776623954539	-1.222378839962011	0.2861161475872364	0.5983934635324151	0.5751623151386012	-4.606730046918086	-1.988981102238587	2.128796002360179	-0.2804700151061111	2.21176973654581	-2.021300202408441
0.4440312594138309	-0.05682925556118217	1.078112077677541	0.9550232429818473	0.01413196144129547	0.1663081998756512	0.1795665785328091	-0.4444158554063619	0.5246578160703372	0.3323569452522275	0.098151939352879	-0.1634182490846972	-0.1782333064052159	0.2954595166199362	0.02790035541323313	-0.1574962498923824	-0.06031731214946123	-0.06498109908871048	-1.28740928734469	-1.149864694602364	0.3014901383610045	0.6308424061530212	0.5433987227045769	-3.670214820485373	-1.951324027873725	1.952442340895348	-0.2562821688408801	2.110136459956667	-2.327044602817901
0.448	-0.05745337602780193	1.077884987498954	0.9547552952398816	0.009037983083563017	0.1618143724869406	0.1807868529660883	-0.4419096862374689	0.5268255897431711	0.3183053854411655	0.0903669966869179	-0.155954297457398	-0.1792175501267902	0.3038029513326937	0.01861040125744458	-0.1539252404765659	-0.05459351786416566	-0.07003356638475569	-1.283369210524507	-1.119688840316412	0.3121732164167355	0.618429605729274	0.5425522356928761	-3.428695821123529	-1.909569731910618	1.939528688065467	-0.2422889655577372	2.125571751404848	-2.355797037871856
0.457512856113114	-0.0588978914792327	1.077430921885629	0.9540254811416735	-0.003024084862981946	0.1516598533861322	0.1840171516802274	-0.436247090600529	0.5319779314889375	0.288460067433344	0.07422043154865937	-0.1380453039890771	-0.1813657909143492	0.3243468848716334	-0.004164931979706729	-0.1496240051478938	-0.0399724428228462	-0.08333548359472398	-1.253959520880513	-1.015500153742879	0.3586328237561164	0.5711698760605418	0.5365614689379155	-2.846953772470953	-1.451641248473887	1.801515598703395	-0.2063955122021227	2.184378856379698	-2.453919387060135
0.4744558844730551	-0.06136793032096167	1.077027766406847	0.952422774088179	-0.02383164535710652	0.1361603363714856	0.1903010854588295	-0.4272858842426518	0.5407051231813619	0.2488822860858252	0.05748883715590765	-0.1117988251847516	-0.1841292378119544	0.361533118357059	-0.04845411037828271	-0.1425743833623072	-0.007444551885902803	-0.1053948649350677	-1.19668831318078	-0.8027389971946558	0.3817997868041554	0.4903480305229289	0.4907372029609206	-1.829978271882194	-0.5956222827365677	1.2350691627995	-0.1180883186873556	2.19129179485546	-2.774968737236579
0.4888312594138309	-0.06340716371659787	1.077088364648871	0.9507894685800424	-0.04039462841561048	0.1264074111633621	0.1962275855800557	-0.4205351904780341	0.5475337520818037	0.2286036866804069	0.04969752481257596	-0.0990626001273352	-0.1853415506733388	0.3928839290749422	-0.0894345612093454	-0.1425264667111683	0.01372013493440465	-0.121307439767904	-1.095245600504409	-0.5355185958235816	0.4631688160854769	0.4571650587697271	0.4659253056503395	-0.9968054512322848	-0.6923795583281356	0.5053637241773006	-0.05588846828829645	2.173595469048295	-2.870065920819184
0.4928	-0.06397587416171102	1.077149283656019	0.9503004368675962	-0.04465817225144081	0.1244690181334849	0.1981588861592725	-0.4187205188942501	0.5493857321074646	0.2250926411651089	0.04643735783004262	-0.09751278250376169	-0.185542300404842	0.4015121832257728	-0.1007439930024226	-0.1481981370206423	0.018770508684023	-0.1262036460924864	-1.054201139692734	-0.4496226839764406	0.5004325190304063	0.4464331512207381	0.4678858361668125	-0.7787810067136641	-0.7202514168967582	0.4355164536953482	-0.03139660642395657	2.195997247463507	-2.859398525128805
0.502312856113114	-0.06544275141859175	1.077384334610209	0.9490451465373473	-0.05422142045579642	0.1211773318874652	0.2033345397651507	-0.4146247347835326	0.553785335311503	0.2201429696499765	0.04083401913549746	-0.09378790771026035	-0.1856364527959692	0.4228015513441109	-0.1279240101813788	-0.1657986690768292	0.0309411528094785	-0.1379420002128748	-0.9501190724272637	-0.2405199966481705	0.5898003915270293	0.4113377880591761	0.4598599437866104	-0.2666568897576222	-0.430817711422553	0.3204069783156895	0.01932121110595641	2.269751675591821	-2.856420624393406
0.519255884473055	-0.06891052559859798	1.078108236492157	0.9465210735607662	-0.0683369050624093	0.1203330960301141	0.2147858443039869	-0.4083551921071446	0.5615804149440099	0.2226441354651011	0.03875058062358838	-0.09197716788964594	-0.1840376842415606	0.4616016525538282	-0.1761076331276191	-0.2491196820996417	0.05445348538708215	-0.1597506487684282	-0.7120251790245509	0.1383751866584647	0.7612173773906175	0.3302457087715428	0.4577970386736219	0.5291263212053446	0.1326637802489453	-0.1315568259563581	0.1743738381431386	2.296010806840877	-2.812387001997645
0.5336312594138308	-0.07299687826841227	1.079019584025888	0.9441121175635772	-0.0772146169788534	0.124447704157932	0.2266549285601156	-0.4038977784461343	0.5679270241545289	0.2339310043692716	0.04075902640413083	-0.09651842628671237	-0.1807034187375798	0.4945975419443279	-0.2154129063983554	-0.3130299733267152	0.07145520474413533	-0.1743729985909821	-0.5336420209843987	0.4250081229947139	0.8832901304464897	0.3012869384823882	0.4137889448331051	1.002658764246757	-0.008280535538176537	-0.4658570945601487	0.2764606495662132	2.299596783005597	-2.622392716170085
0.5376	-0.07425757486250449	1.079310419481819	0.943414408673662	-0.07926080770122629	0.1262708527095173	0.230211550188697	-0.4026915367922368	0.5695190242052486	0.2380886433196582	0.04029913049411628	-0.09846207624868053	-0.1795824984409531	0.503741991598175	-0.225642758308531	-0.3221317856886971	0.07643786117859043	-0.1780731717078591	-0.4976547520874967	0.4950048847528407	0.9225183030842267	0.3048447072228438	0.3936876865024735	1.108446710346486	-0.02673222671942699	-0.3939162925034181	0.2963078743543768	2.336342477118014	-2.559399266723966
0.547112856113114	-0.07748370980741692	1.080084504443235	0.9416797141480463	-0.08355076129439426	0.1316593366669649	0.2392760167944338	-0.3999287385691053	0.573008503930091	0.2495637568871524	0.0374869130892658	-0.1028307633929818	-0.1765288001709321	0.5266800130965912	-0.2492533242354202	-0.3595876165087719	0.08640428598773009	-0.1863660124565669	-0.4001325044451439	0.6400655757611609	0.9810260271653449	0.2677858353970889	0.3462418201602837	1.310230923527003	-0.6195337957357183	-0.5031814242386283	0.3485413029827695	2.462342712354184	-2.397027312045782
0.5640558844730551	-0.08432185543125928	1.08171316920383	0.9384300046309689	-0.08867828852207021	0.1447369702898384	0.2564170091034894	-0.3964575753323401	0.5783772321945195	0.2743756740144133	0.01655178958340653	-0.1117987558735915	-0.1697077059105639	0.5683837847681283	-0.2870692306664391	-0.446366796849771	0.1065126137105166	-0.195889787192032	-0.2093469559300265	0.8975716096595739	1.024299802158795	0.1391215625152772	0.276844820487163	1.559545486781523	-1.727349426096468	-0.5564706873553867	0.4540643161927192	2.418410760674439	-2.072976620570927
0.5784312594138308	-0.09106967669359195	1.083390767147138	0.9356012927985095	-0.09087638215440502	0.1588624007163792	0.2707405509031265	-0.395013276612895	0.5812200207760665	0.2955746915178844	-0.00748491985123298	-0.1210723228008973	-0.1627649074674097	0.6021243976157553	-0.3154671098355283	-0.4811601075131146	0.1276690624816748	-0.1962592803962267	-0.1142816567796946	1.052185032939536	0.9460331068866363	0.07959271204191504	0.08489999722161251	1.280347437614196	-1.272572604534838	-0.7931806472800584	0.5001563304796979	2.274138102578009	-1.90781954594321
0.5823999999999999	-0.09297214221067282	1.083910690896775	0.9348250897520244	-0.09131857677435712	0.163088308513883	0.2744046568932401	-0.3946873039177659	0.5813754216473443	0.3002626888348288	-0.01151210847434678	-0.1244896562263037	-0.160781486619469	0.6110792791218765	-0.3230168741458063	-0.4919777924160483	0.1320969220534132	-0.1953216253814156	-0.07609314632075653	1.109814128552986	0.9288392184146752	0.08087811717971655	0.0006338702955394071	1.019290206198885	-1.588437980943763	-1.162941433356717	0.5163889025905739	2.289582805470569	-1.845498544754636
0.5919128561131139	-0.09772184076395275	1.085206866845031	0.9329797181841819	-0.09178887071888281	0.174056210245999	0.2828385153264795	-0.3938705773357281	0.581633161806526	0.3110763137129364	-0.02320842300443438	-0.1377526730599226	-0.155739432130415	0.6323658324183821	-0.3401868563753924	-0.5053929928528643	0.1389873283567447	-0.1911404945590076	-0.01809112118791806	1.204382106737669	0.8317478400757743	0.07786457851426221	0.07581005619669173	1.264885234659145	-1.029219018387195	-1.675968246030458	0.540529717197977	2.123682997165397	-1.729003478159866
0.6088558844730551	-0.1063570199327092	1.087551108674083	0.9299370596573777	-0.09081165795052648	0.1967414143405329	0.2946311337008331	-0.3933076843997325	0.5854203328416588	0.3367105593362235	-0.04256154443732155	-0.1755929393792016	-0.1464940190605836	0.6615151725671559	-0.3649351846750495	-0.5093270578407816	0.1352211400143504	-0.1645086449076407	0.1440990718603872	1.502151653257745	0.5513582750166566	-0.009235291476201779	0.3787008013038236	1.752524409950346	-1.353886487456966	-2.701917739086907	0.5433874689045399	1.257554727299973	-1.133991660844624
0.6232312594138308	-0.1135610652779777	1.089426888295289	0.9278181491089823	-0.08750226876809186	0.2210061934077726	0.3010041926615648	-0.3933309901020651	0.5920826814946472	0.3640667220187392	-0.06143077207590994	-0.214822367720973	-0.1388448306734184	0.6744343030767046	-0.3766537881430293	-0.4890011014108573	0.1256562057951192	-0.1288515763146149	0.3203945616313883	1.896470315086819	0.3552333814204666	0.04448074296253224	0.4997779340063023	2.011125960489205	-0.9976017923462352	-2.47979065191497	0.517596742411132	0.6138643097828655	-0.5001805667208591
0.6272	-0.1154827054086826	1.089920864441857	0.9273286541204921	-0.08612768016089817	0.2287939193052902	0.3023561484442935	-0.3930350149662707	0.5940162187409698	0.3720928480800597	-0.06452097335206591	-0.2239180337918019	-0.1368101524913339	0.6767098648460839	-0.3783178016068918	-0.483081368434259	0.1238001970723586	-0.1189576143985278	0.3793130886084285	2.022357243418375	0.307331408584302	0.0466948739405123	0.4881637238160991	2.053650090302965	-0.5319641413111109	-2.126669878522476	0.5100758916316821	0.5094839695334116	-0.4105410779113485
0.636712856113114	-0.1200814495524462	1.09104758932143	0.9263315073119013	-0.08163655828044558	0.2495806350128471	0.3044953092651393	-0.3928424504198334	0.5986377966886511	0.3927096494677776	-0.0593610403961313	-0.2408066239822461	-0.1320991271277805	0.6801200862618989	-0.3815659172078464	-0.4795746931466635	0.1121729771006871	-0.08917718288430002	0.5654489590794206	2.35769581101482	0.1295722976411905	-0.01224245021364745	0.4790134866973815	2.254623582626236	1.417342803510918	-1.445348943055743	0.4743559255177771	0.1530117214445414	-0.2483779283560925
0.6536558844730551	-0.1277888808127346	1.09274436766511	0.9253528652411258	-0.06932395757488813	0.2952175044691979	0.3031287107465872	-0.3942815896504325	0.6057463897462145	0.4307867935560388	-0.02402820881747197	-0.2578211578976669	-0.1249644680175592	0.674164963184926	-0.3818339524613403	-0.4207100081587155	0.08990821026192698	-0.02657338165014263	0.879864193149292	3.034740895637662	-0.3020390203469334	-0.1575076583494264	0.3136734772956931	2.114733812568451	2.245866288670525	-0.6832159305687456	0.3663397542122472	-0.860597881582944	0.2262592502997342
0.6680312594138309	-0.133255458015332	1.094014752652754	0.925279229784459	-0.05512108181141789	0.3427806012737431	0.2962299012312861	-0.3971708907153279	0.6074870197569442	0.4561804949012439	0.0004408097405316225	-0.2671356569951621	-0.1201648927418216	0.6577238468042419	-0.3763018014135704	-0.3362027035625109	0.09211280127538868	0.01189436447845924	1.081943503807217	3.564418069404954	-0.6405953749178631	-0.2279595056637734	-0.1324079499003198	1.292056257946015	0.8996833555254697	-0.7438581562753366	0.3153352323228822	-1.286813833955415	0.4935788430509735
0.672	-0.1345377075062785	1.094393433490843	0.925337132111532	-0.0507474653861491	0.3571727226016276	0.2935458108762191	-0.398075343419061	0.6065873739409078	0.4605974308909125	0.002814061851104305	-0.2703946394620648	-0.118908108442212	0.6527144241044578	-0.3743166527665541	-0.3197134382661236	0.09417749900314527	0.0200423642456377	1.161486702003229	3.733133214587196	-0.7458539392237196	-0.2673665316630789	-0.3084085360366257	1.091253700388662	1.516003350096279	-0.531642679567199	0.3140844213105839	-1.327973185787732	0.5754349535600677
0.6815128561131141	-0.1374150779071324	1.095298899621602	0.9256111517609877	-0.03879255266317688	0.3946071562658512	0.2854869075834005	-0.4009525372600117	0.6020437382235009	0.4683817019046174	0.01699353156443073	-0.2746254189017028	-0.1159431718582112	0.6395783433177211	-0.3683621151575361	-0.2777464206325101	0.09608413455586293	0.03825938659956771	1.344732204053178	4.132454696764951	-0.9669799456464847	-0.3543710510306921	-0.6503633050671891	0.5508342470980212	1.449730874823928	-0.3750320061435767	0.3006096395458937	-1.472567010441964	0.6854829440148585
0.6984558844730551	-0.1410014007253206	1.096931653815141	0.9265700034939616	-0.01379129632609882	0.470014270606095	0.2643872430283751	-0.4092010589165562	0.5859883597666801	0.4705071599006179	0.03969495699269072	-0.2801347838689579	-0.1116566901291482	0.6099110938410153	-0.3545995906182736	-0.1411031261449096	0.0952921244278698	0.07464743788626188	1.596164084819244	4.741099348621217	-1.548125834106024	-0.6171466743372152	-1.220400408830786	-0.2521310589504644	1.231225431772231	-0.31594971280814	0.1971063664872352	-2.053854300423597	0.9370438810947976
0.712831259413831	-0.1423247913308811	1.098244101117082	0.9278240345070765	0.01055918397211292	0.5409167152970785	0.2383456521864574	-0.4188721218691935	0.5661437442762456	0.4637600608813265	0.05676415151244862	-0.2852952496245967	-0.1094351599133262	0.577457767621645	-0.3400627337489587	-0.05618881343129662	0.08545340758217362	0.09751498371623105	1.794892607671383	5.092474153077525	-2.06333412022915	-0.6794626815853053	-1.492583994557336	-0.6263054545483736	1.187059634352039	-0.4194361992727814	0.1223738268140168	-2.394811203244344	1.05782085362604
0.7168000000000001	-0.1425336224718319	1.098573893661716	0.9282182221956646	0.017802221172523	0.5612554039748812	0.2299091457942044	-0.4214883372309223	0.5601766505021889	0.4611972918667127	0.06155319819010673	-0.2870456462849032	-0.1089634825100166	0.5679303425736315	-0.3358627655741289	-0.0410280194565973	0.08123455959440036	0.1025701244616105	1.875178194269555	5.227738629737191	-2.142666110625194	-0.6927493819561221	-1.545606860801151	-0.7107236041173264	1.170215196989112	-0.4412936795593821	0.1068394775774337	-2.484456187523466	1.081962411115625
0.7263128561131141	-0.1427449595155143	1.099310063994308	0.9292415333847485	0.0363981716825309	0.6124215514192015	0.209693919129319	-0.4279628671300162	0.5450055652423749	0.4537812516010271	0.07265828833540988	-0.2913424852093896	-0.108080008907902	0.5433646233513119	-0.3253770615342512	0.0007481036361528387	0.07233844502754061	0.1125265587738028	2.034693998795579	5.542652122400306	-2.092608507747957	-0.6673140601704435	-1.643428744784362	-0.8454638810998878	1.130132240982353	-0.4712862703072881	0.07077360405246433	-2.691167353923352	1.139466855214128
0.7432558844730551	-0.1418776843446741	1.100308055861876	0.9312740700914852	0.07306136471422284	0.7110315069578497	0.1756643342705258	-0.4383829263441106	0.5159185058954914	0.4378584279063517	0.08898263869773451	-0.3000573346442931	-0.1079356875075002	0.4944531016973355	-0.3039273749829893	0.1006747257934138	0.04358410598181034	0.1257665799420837	2.275708152881693	6.037064551090056	-1.937541927891678	-0.5296850599173825	-1.774845734239285	-1.014058180511878	0.7774975985003718	-0.5387016699609587	-0.05727607391485819	-3.050366403221117	1.416105543622932
0.757631259413831	-0.1400368110531657	1.100731001940825	0.9330961447461382	0.1065043910083065	0.7977372133725217	0.1475755500820304	-0.4438207240761832	0.4902191274955769	0.422968777042802	0.09865338818929603	-0.3070361562457198	-0.1093443758744543	0.4502213915738364	-0.2816078070093788	0.142718507123766	0.01554480141213821	0.125290490489527	2.349119430765838	5.895482259735103	-2.031163277708045	-0.1780790482044231	-1.778185560719269	-1.034011269356864	0.6305712255797358	-0.3779021068481185	-0.1222952399105	-3.023549645253089	1.680561784764695
0.7616000000000002	-0.139477049865645	1.10077856229033	0.9335878577277245	0.115806849349056	0.8207676210604402	0.139323773238947	-0.4442296799103349	0.4832085086939287	0.418903520623079	0.1012286442182555	-0.3083253896734581	-0.1098256455975852	0.43841513898222	-0.2748203847160652	0.1533199467097531	0.009716950292395513	0.1250280406693082	2.35804109206969	5.847118879187395	-1.870359914840469	0.1361120239661086	-1.77541356192687	-1.032620242964877	0.5810615774320613	-0.3324267380583779	-0.1331360693951522	-3.054024049770383	1.745546053845693
0.7711128561131142	-0.1379792318763659	1.100799871816981	0.9347762677790167	0.1381880221569426	0.8743940402271232	0.1236949625122508	-0.4394113031788414	0.4665259076678697	0.4093420140834781	0.1068967485939151	-0.3107895945155306	-0.1111539441475319	0.4091172145414952	-0.2574323439271899	0.164722188895133	-0.006177798823696845	0.1257241962609329	2.353313120383693	5.425070901384507	-1.454366960008123	0.8026025672848631	-1.734734936658291	-0.9799146398290495	0.5980587366036771	-0.1754800296899328	-0.1524989079459923	-3.118054029834113	1.933858521997027
0.7880558844730552	-0.1348144007145669	1.100399934312127	0.936979876871432	0.178404525189836	0.959689787360622	0.1021620143151498	-0.4225577394994408	0.4374983620575579	0.3932548435056606	0.1162859620862258	-0.3108196129052147	-0.1144523557700466	0.3547241997468649	-0.2204748664568288	0.2105913615408932	-0.0411647512063234	0.1352787934253817	2.399937995776542	4.634338090736647	-1.159189074442068	0.9931693393142931	-1.698687089882029	-0.930253716906692	0.4887938426043843	0.1715406987654047	-0.2413141812738153	-3.294213940648365	2.428548390720598
0.802431259413831	-0.1315676093053426	1.099629065624716	0.9389818630436575	0.2131907238585246	1.021203106405319	0.08593230205637215	-0.4121045215046827	0.4131249962184353	0.3798124858285489	0.1222758640988271	-0.3066845951029564	-0.1183805330163083	0.3071743752497782	-0.1835568631776717	0.2353581935019127	-0.06374881296479723	0.1422098413565144	2.433229887814032	3.915750608400083	-1.106442008471751	0.3575779880520255	-1.695717559172741	-0.9513042230434503	0.3447342302135004	0.3756305728275229	-0.2949887171304342	-3.274391224705687	2.643397526112377
0.8064000000000002	-0.130634057082564	1.09936922971154	0.9395473410151846	0.2228486863148452	1.036333729777039	0.08157316448655849	-0.411220476243712	0.40639075712165	0.3760020022333279	0.1235718384950312	-0.305148126928661	-0.1195553032350426	0.2942978968306498	-0.1730997040985061	0.2371952744340934	-0.06969899654553566	0.1437796723509165	2.456471826973674	3.735390656802576	-1.136850540908259	0.5087346298516153	-1.691564517453009	-0.9643393516943908	0.2708549213454478	0.4125384713143165	-0.3084688044451304	-3.279978406058739	2.678345478634995
0.8159128561131141	-0.128349556789269	1.098646788630724	0.9409333326418791	0.2463044153090012	1.069501689149256	0.07173633059960925	-0.4069719378040944	0.3904063837085885	0.3669570325561302	0.1263586206855956	-0.3005502444738312	-0.1226266643790237	0.263106976031895	-0.1473313237711091	0.2463757339652285	-0.08253201253183676	0.1481041522579225	2.475519433097319	3.24364595880393	-0.9364384230611025	0.3751924680194526	-1.674893021353032	-0.9429550953492174	0.3063975539702961	0.5576338016224487	-0.3422536220887241	-3.26798345557271	2.749324444291541
0.8328558844730553	-0.1238396296342432	1.097041733561403	0.9435366649610785	0.2885368691113542	1.117352029662413	0.05807244462548997	-0.4029358503480617	0.3618299850250826	0.3507816133263875	0.1313700893934308	-0.288852099627222	-0.1292302339204451	0.2088602033992836	-0.09919400868600586	0.2867668491852552	-0.1064397659243283	0.159258322459031	2.507223249423495	2.403601371469773	-0.7162787386286185	0.1181945294137287	-1.707039660288265	-0.9814359502544916	0.2683203467970516	0.8127323331872542	-0.4380125292070663	-3.105973412200325	2.926087187966878
0.8472312594138312	-0.1195767996581947	1.095401079324157	0.9458757691513648	0.3246419131792602	1.146490952319851	0.04766641649709512	-0.4016986680615832	0.3369780177836714	0.3360482919257569	0.1346536000987811	-0.2762029097648755	-0.1359314551074797	0.1660268298095808	-0.05676650079347201	0.2986820356323761	-0.1201148019952992	0.1649394737084104	2.510377935705956	1.633090791597036	-0.7800497106769428	0.1057098272270621	-1.748330772545362	-1.076636726360271	0.1853878694596769	0.9211050192662451	-0.4820068324055869	-2.833109340504461	2.938709023879622
0.8512000000000002	-0.1184030708612946	1.094920752442089	0.9465305589566497	0.3345942740459883	1.152509700253348	0.04443298661492011	-0.4011690051973937	0.3300244820556903	0.3317081805935921	0.1353415490596134	-0.2725460650420193	-0.137839319142537	0.154971303986925	-0.04518412129393198	0.2975200801142894	-0.1238560428846913	0.1653937115636515	2.515879842515008	1.434955904585723	-0.7841737166773242	0.09558352544437193	-1.753594161796763	-1.102366857910466	0.1492474287584633	0.9373819430098536	-0.4936111599173778	-2.797112504555524	2.929228765392404
0.8607128561131143	-0.1155767421879485	1.093708349743397	0.9481089442310364	0.3584587294205779	1.163746129372937	0.03751512929224592	-0.4002437407864464	0.3133121179557316	0.3210917821687927	0.1369544404778311	-0.2632705650878945	-0.1426343272524955	0.1289999839243756	-0.01736925179648838	0.2984707485194358	-0.1311095910587399	0.1665953307190559	2.4980330936982	0.9259138729447327	-0.6679845864036873	0.08637891062693481	-1.764874317126311	-1.135895783569983	0.1799486096089027	1.008752566523542	-0.5168404392688795	-2.641597281317757	2.915975971136435
0.8776558844730553	-0.1104242139964105	1.091379310609942	0.9509485921479685	0.4002336888500604	1.171661056253028	0.02780802567215339	-0.3996158244245626	0.282936186960849	0.3008671454146271	0.1396393376052495	-0.2456189932079677	-0.1518439809157811	0.0882096817408905	0.0315283405412774	0.308214847964438	-0.1433875439589247	0.1678884376878776	2.426659997848525	0.007867804776184262	-0.498408285224815	-0.01072979019004078	-1.822883564678647	-1.260285247119435	0.1171510542727058	1.052924057358084	-0.567932654164361	-2.14386848298619	2.844149415053852
0.8920312594138311	-0.1060737154279902	1.089264064839043	0.9533336813060546	0.4345518623643357	1.166217192261811	0.02071904407288536	-0.3997661399772788	0.256494011572978	0.2818861763646897	0.1405268519669321	-0.2309678007989414	-0.1601216885286448	0.0607538974129824	0.07158927412861879	0.2898394094225933	-0.1500421391318505	0.1624201373155655	2.346818848813073	-0.7620207220560714	-0.526271684682399	0.02619115111589565	-1.846177475707059	-1.377427388807897	0.00191358070263481	0.9616384162938167	-0.5736831618276687	-1.687793518940506	2.717876626897823
0.8960000000000002	-0.1049500321167167	1.088666834759838	0.9539719165875145	0.4438213744193601	1.162778922865736	0.01853071728027897	-0.3995567379105918	0.2491778468686953	0.2763651280257122	0.1404667671189883	-0.2272509310934225	-0.1623786959119238	0.0542687785939924	0.08228300036645891	0.2825484864503364	-0.1520680864377064	0.1595832240786171	2.321888251354648	-0.9653340043434995	-0.5568155430304021	0.04773267408572351	-1.84335145826869	-1.397439359400904	-0.02196875412524812	0.934038453106562	-0.5756784007797883	-1.604619856159475	2.68923495006809
0.9055128561131143	-0.1023400819258568	1.08719992233569	0.9554555427079013	0.4655348117913117	1.151274510339014	0.01403476821551412	-0.399006567353095	0.2317017784083497	0.2629652947724915	0.1403138192042155	-0.2184276369005015	-0.167862156985946	0.04015567885589894	0.1076685548405285	0.2646791241472715	-0.1566548628878346	0.1520565823934894	2.242540558704905	-1.454298012162978	-0.3863567276313328	0.04779975587139779	-1.828048903226712	-1.419415011569422	-0.019004640157813	0.9116631111843545	-0.5770465884489838	-1.349413605259868	2.636216105237712
0.9224558844730553	-0.09826330740411544	1.084460618941144	0.9578872277930918	0.502255003886567	1.119243219593761	0.009765314395546787	-0.3993740514092363	0.2012191452524701	0.2386750508675179	0.1394521309899473	-0.2040000213501872	-0.1776077067525448	0.0218466653294053	0.1506572192203754	0.2125553476917574	-0.1665353143492559	0.1338481206839466	2.088885502797051	-2.323792264291123	-0.1488502452397635	-0.09341522626431267	-1.762684833895997	-1.442539171790774	-0.08886390638842356	0.7801320941174394	-0.5699630049967215	-0.8152755137476645	2.422252053213078
0.9368312594138312	-0.09563031838109361	1.082026665425578	0.959664396041125	0.5312425770738863	1.080699021895811	0.007675307449464999	-0.4008196283449438	0.1764756208004781	0.2180059663421813	0.1378635631040267	-0.193666352343431	-0.1856213875010139	0.01268372540423252	0.1839934948057549	0.1515137230518811	-0.1709783522812808	0.1123729108715309	1.940892959210613	-3.031575829269032	-0.1966000847969536	-0.05678473380438531	-1.675553879226878	-1.425652542858683	-0.1179847725678956	0.6650320690177975	-0.5399850815881436	-0.5004445843856842	2.222024107443058
0.9408000000000003	-0.09506656276619452	1.081348239370356	0.9600965174918312	0.5388578545786731	1.068295727043503	0.006749313217598057	-0.4009043263169826	0.1698813084658298	0.2123731072350876	0.1374145347403444	-0.1910691400940888	-0.1877373154251716	0.01077472145129024	0.1927220183667348	0.1369917567623301	-0.1720595880303702	0.105779670257458	1.892315781146215	-3.220318067096847	-0.2192505718485173	-0.007775557940142508	-1.651208506268544	-1.422191760738832	-0.1708218083185072	0.615485703785926	-0.5349555249062878	-0.4460528750109852	2.183822841360962
0.9503128561131143	-0.09392465415640637	1.079700443674912	0.9610249241897756	0.5562305157459537	1.03551150236146	0.005377653518231038	-0.4008909999948774	0.1544714787999564	0.1990406393543483	0.1359012308722183	-0.1854620313071031	-0.1927626557828453	0.007250718240684711	0.2131876418750422	0.09987665067194815	-0.1741636016244663	0.08891825343612644	1.761865668215542	-3.669625329379059	-0.08858514164394532	-0.004848779288947669	-1.584174953789681	-1.379935381220994	-0.1538854463236082	0.5541705612068977	-0.5186459991358588	-0.3124691521656188	2.104931088719187
0.9672558844730554	-0.09300672498378822	1.07674309432023	0.9622392086769035	0.5841840445079736	0.9668441862351547	0.003830243711966247	-0.4015479256807345	0.1289519243779179	0.1764259724750991	0.1332080865528959	-0.1775272632066761	-0.2010844047317772	0.002394478972267911	0.2467185594530283	0.006116996631736177	-0.1739363107257414	0.05367958346129549	1.535743637830736	-4.425904367159193	-0.1627250481240106	-0.05295606088788896	-1.423811314380987	-1.283826294926838	-0.1615910599209094	0.3820931916924948	-0.4597325217669697	-0.3040063841440497	1.842160256738069
0.9816312594138312	-0.09345389581317652	1.07427680503404	0.9627857472039326	0.6047209097734049	0.898920836966241	-0.001020031491762219	-0.4011206931094638	0.1094606698943585	0.1587586147790985	0.1312173346734573	-0.1727106460294164	-0.2072926483682431	-0.002993088203850747	0.2717280967168962	-0.06336873498849062	-0.1682029127082983	0.02252594871474946	1.313529757587922	-5.015330432085727	-0.5674057509051295	0.1851299378368025	-1.292925602909129	-1.16763652266205	-0.09385684058742449	0.3122839556026037	-0.4057366852977393	-0.465855024381276	1.657844672711445
0.9856000000000004	-0.0937310738354275	1.07361442606528	0.9628586917832863	0.6097941109048668	0.8787109378097547	-0.00360370733583612	-0.4000900194494496	0.1043880559715162	0.1542019375269351	0.1309319210401217	-0.1714522688302177	-0.20887858238547	-0.004965701747774554	0.2782582212362104	-0.07777753620963376	-0.1669739538110449	0.01428022325104997	1.243672993638225	-5.180945623396698	-0.6146041274732886	0.3038218326040666	-1.258547037176061	-1.135745575968925	-0.1071777905441079	0.2700275823205441	-0.3958523662103733	-0.4913369384959358	1.626937210685378
0.9951128561131144	-0.09461985522506672	1.072044157533429	0.9628970938604077	0.6208174240671647	0.8279200465468431	-0.00955874219077163	-0.3965928276451332	0.09276381815449822	0.1437554359081532	0.1299702572239851	-0.1692929961487654	-0.2125093859882712	-0.00976999960520672	0.2935940581052089	-0.1101569251690285	-0.1623446312368649	-0.00647032246844767	1.075290060752102	-5.484832645858583	-0.6402349917080232	0.4122187481354612	-1.182307750966819	-1.055162818231868	-0.09002233802203385	0.1775084584772735	-0.3642343266186666	-0.5543757377371775	1.591779340640346
1.012055884473055	-0.09699182828363853	1.069433184926261	0.96246156204776	0.6366730689248699	0.7320608704466146	-0.02128545236447851	-0.3893143664632793	0.07405195886818053	0.1275792619573195	0.1292744141179443	-0.1678211929994012	-0.217968057551658	-0.02255704338336992	0.3197511465307617	-0.1664862202966986	-0.1441114122707391	-0.04477188880302462	0.8037318983111446	-5.759775291672505	-0.7689895049041688	0.4284236116030684	-1.026798006451404	-0.8408195956741512	0.02953045608157157	0.01340685579468659	-0.2763785329102053	-0.985986450162077	1.498349885079254
1.026431259413831	-0.09954242786254662	1.067511600320532	0.9616026392646081	0.6468214545209438	0.6500276952728227	-0.03405341604923168	-0.383021274524027	0.06009783520336137	0.1171381288548409	0.1311260528982115	-0.1676355440394796	-0.2213861507478075	-0.03915341291202618	0.3410582867057524	-0.1801955373202043	-0.1226912198993742	-0.07374824301408357	0.615992119747754	-5.575871915543405	-1.03895235520418	0.4699341645247788	-0.9233132409644902	-0.6051569448740314	0.248645623735964	0.05682070516274251	-0.2020980514027028	-1.275293416416093	1.484853877143177
1.0304	-0.1002468192174664	1.067037164750426	0.9612963334300224	0.6491795403145876	0.6281606046548542	-0.03839166156131291	-0.3810742727630768	0.05646969208132496	0.1148772451663785	0.1322749599794034	-0.1672867359623516	-0.2221555322043903	-0.04425168987987585	0.3469874682934583	-0.1795316461927987	-0.1166007864946768	-0.08078919545892121	0.5740918261687569	-5.460019420213245	-1.070158831667475	0.4948085815527045	-0.9007957418603243	-0.5454875267426371	0.2870091609541878	0.05395513760332094	-0.1817889758052364	-1.288524841507515	1.493164910856152
1.039912856113114	-0.1019507182477255	1.065995848661303	0.9604495542963093	0.6542840765497449	0.5780912951908554	-0.04812699324104358	-0.3763297441027893	0.04815575227473651	0.1103369630518806	0.1353272492748288	-0.1670106977436517	-0.2236341325321951	-0.05652118179714721	0.3614464795057551	-0.1794923381773651	-0.1013193412781552	-0.09714327592197612	0.5048575117245928	-5.038594304269798	-0.9597468178959216	0.4835595398504239	-0.8465996821660537	-0.4048876479836361	0.3701896616974316	0.0199085208361629	-0.1249218844634377	-1.332455952002573	1.551457430428556
1.056855884473055	-0.1050373475172801	1.064584953519508	0.9585786011661894	0.6622824884469145	0.5014582994826426	-0.06208869773205875	-0.3696434282249277	0.03459998550183044	0.1057904135261672	0.1438227445693984	-0.1659505821695044	-0.2245820244080105	-0.08240343295672534	0.388999500987278	-0.1849241208840139	-0.06388981637174049	-0.1224818267365629	0.4514280895029167	-3.94860513216844	-0.7131968285541264	0.2871483522085748	-0.7581301977752677	-0.1353160588311862	0.6390798941517375	0.1304401455220122	0.01860328865252551	-1.743959800460997	1.70982186389752
1.071231259413831	-0.1076978762869246	1.063908225944687	0.9567108208962741	0.668711563533228	0.452622854462644	-0.07259577472728368	-0.366682963794484	0.02402621184937012	0.1051644583574277	0.1542646231542258	-0.16301293236651	-0.2233811061867133	-0.1091200424737549	0.414715709875432	-0.1831808763112491	-0.030884880942181	-0.1357065416986196	0.4465229552295453	-2.829158374360363	-0.8333108979635964	0.1472646015356937	-0.7216172522128077	0.03139512073744485	0.7819403180497759	0.2751067917919493	0.1460117468016445	-1.89440158531411	1.869104200669091
1.075200000000001	-0.108419081140062	1.06380187013683	0.9561685635694956	0.670485664911051	0.4420296161100089	-0.07616093461534898	-0.3661165948559839	0.02116327096780293	0.1053417736556767	0.1573695801931764	-0.1618567222021073	-0.2227392724153544	-0.116529372990091	0.4222209727571914	-0.1815501587372453	-0.02211700958112861	-0.1378278807656371	0.4420621260197867	-2.529589844571263	-0.8663421620450151	0.1099702171301658	-0.7145445741678389	0.06770533996836944	0.7826571836085603	0.289408260533865	0.1785329502953618	-1.868106546130401	1.909204614703932
1.084712856113115	-0.1101778732189865	1.063685337800633	0.9548371573076407	0.6746192006012359	0.4211981627284149	-0.0833363785533571	-0.3651582735342992	0.01452511145126104	0.1064611984517944	0.1651125461545574	-0.1588864333770055	-0.2206332553991661	-0.1339671425520093	0.4410171772603125	-0.1919606878120157	-0.001309191715572769	-0.1422541845097283	0.4290087865790431	-1.841381275207562	-0.639572866206036	0.07283761488512491	-0.6786916516664729	0.1678194567759206	0.8483510076760126	0.3475795660608989	0.2715016121629303	-1.833049128719869	2.044023279360959
1.101655884473056	-0.1138101283714172	1.064063646551942	0.952360620975775	0.681654591849255	0.4004869631309685	-0.09097363605670644	-0.3658781913170122	0.003586209395508133	0.1106321758377721	0.1805497551195849	-0.1511397522592184	-0.2141554595873123	-0.1668166421903914	0.4776775054793607	-0.2375154321175928	0.0478766272362791	-0.1493366912888945	0.3899680198934711	-0.6329997504111656	-0.2902577564492295	-0.1826552512846492	-0.6213865210173894	0.3099490504849211	0.9659423709714905	0.5869898833645788	0.4977442419356898	-2.069076809675745	2.276637226140228
1.116031259413831	-0.1173740518083077	1.065086626613833	0.9502089597456311	0.6864537129218593	0.3971476612422571	-0.09431729209574866	-0.3703144917042297	-0.005468219140585484	0.1153347843781433	0.1946868328036387	-0.1409257992292236	-0.2057351659897059	-0.1975459048153736	0.5114745077965939	-0.2493377559772938	0.09454860438063049	-0.1483986996546548	0.2541557986408098	0.09847729218861463	-0.2266365196518254	-0.4231234189571607	-0.6586348793168264	0.3209089819303095	0.9799816675837496	0.8318759293072051	0.6613288432133817	-2.150041483817211	2.41070648740796
1.12	-0.1183487125957039	1.065487109722197	0.949624109825036	0.687335875554729	0.3977832103435727	-0.09529533910099	-0.3720912539244759	-0.008147810955067281	0.1165635715305153	0.1985368794229843	-0.1375011830221698	-0.20305150225423	-0.2059837486659765	0.5210827508689491	-0.2424433335995037	0.108503351646644	-0.1480392876001713	0.2041511142549634	0.2618077751696088	-0.1214722872638162	-0.3818189357773462	-0.6874760847202503	0.3329410567644494	1.232074596850725	0.6110893549755554	0.6966253479259139	-2.137148300769999	2.453687824907758
