DataType=double
version=3
OpenSimVersion=4.5
endheader
time	pelvis_tilt	pelvis_tx	pelvis_ty	hip_flexion_r	knee_angle_r	ankle_angle_r	subtalar_angle_r	hip_flexion_l	knee_angle_l	ankle_angle_l	subtalar_angle_l	lumbar_extension	arm_flex_r	arm_flex_l
0	1.748781523697412	2.64789759519987	0.4535599318698499	-10.42620415819374	41.86460512930864	10.70056846644436	8.200355076470762	7.785663393841272	17.17776945414415	-40.73199150029131	-16.87193490951419	7.946651260342907	25.4599048181653	6.460606092561499
0.009512856113114032	5.765084632603265	4.185480807867218	1.210171620037154	-16.74788474241	36.39858733616401	2.433780543022424	-5.64355468491595	1.311265333624098	23.6082437814289	5.614781593748159	-3.127434956610006	5.322915430706526	-7.263071605659309	-36.01930410004002
0.02645588447305514	10.19651222005908	3.835017754031691	1.957562789523861	-24.67850877178425	16.17336399365875	-12.6026498804397	5.057200120762205	0.5111615122746747	26.29949989711724	-14.61883034610626	-25.56612140051057	-1.864303312462553	2.371676334537348	-47.72925690322308
0.04083125941383081	6.204786096847062	2.222443959105719	1.157573668145894	-22.68715794394462	-29.18185575343941	3.808060915206827	3.133913956038134	6.871512686866403	27.44383618512004	-5.148866562619549	-26.67588372421602	-1.628093657060351	24.16847686384446	-22.49922951823599
0.04479999999999995	0.04059705509364431	1.649270262956374	0.6071795303728517	-29.50801286090016	-72.15891329098385	44.78301599478506	-13.44354138110291	14.02348842769781	21.39803716741763	-29.37440389844197	-13.19751322256649	4.162387612436605	21.51647034697928	2.113076744900755
0.05431285611311398	5.66931120627376	0.8898620710719737	1.558981719908982	-10.96524802643302	-7.685447831214915	64.17715950090025	-57.63979996692981	7.539915704699443	24.96095081954563	-14.8083023809503	-35.30008208968679	-3.882924719452972	55.84391433278348	-42.22742797314412
0.07125588447305514	2.37144554974207	-1.827830511527742	2.922203987634772	21.1348410968708	40.16788755275165	54.32014277580199	0.04041387207612512	21.4360547825655	38.12499612948196	-24.50243448504875	-25.14037849972866	-5.169916129878342	82.72125378208599	-36.57441485715108
0.08563125941383082	1.035032989168157	-1.495952893750481	3.069593887762795	17.44248366532498	24.96413589706683	8.754249160260887	14.48569636177779	26.34269856213299	49.93251367627212	-15.37443369402543	-15.18076722503138	-2.474897319033738	35.30702035147734	-23.16747856266649
0.08960000000000001	0.04623994704964496	-0.8405257896710285	3.016767630117704	12.66405554642089	24.69012368807804	18.4820259681867	-8.466512118734055	20.23609775495017	0.4895027474169418	-90.99876713764998	-24.3900841630641	-0.4121583122518653	11.28728733505712	-13.86892271725443
0.0991128561131141	1.969272330063382	-0.1740361429322711	2.911925637853379	-6.794983587598677	-12.50930180783567	-5.06127173586788	-1.648808224641069	24.95904182183978	55.03009853961537	-16.31415923149995	-26.50262027673391	0.7008784531569581	22.34167628763552	-26.94325437291697
0.1160558844730551	4.407659185018995	0.5179810688761932	2.642258155823945	-32.30148604936261	-56.74928620877552	-61.59610081247132	6.588503547421333	14.60492574781204	16.45949278562121	-53.64250431880258	-24.16405557436625	-0.6326659920226523	11.38385880143638	-20.46576155704809
0.1304312594138309	4.392990075766759	-1.137387702291444	1.658141761395576	-24.14855091085357	-42.6132590186457	-37.89961550041996	14.65151717864482	27.84363499487289	78.76764593002744	26.14209935174379	-18.70134059570247	-6.098086779090597	2.609332433578654	-19.72676358411697
0.1344	-1.990995272411763	-0.5609909741212602	1.801555870389861	-12.91136397556985	-31.00338339049815	13.67286399365315	7.66613773806988	-19.37227492306357	-168.2550615739655	300.8891084581076	-83.51694968686043	4.543329992484409	52.55081636776848	1.217996057286985
0.1439128561131141	4.806563977780363	-2.348360911388703	1.242064250085636	-13.65428171218699	-20.64063904808384	11.73880169989951	15.5287409120833	33.54499506297286	93.40769574452368	-214.4184178602199	-1.92319143234943	-9.325761917946776	3.100711181030675	-16.07111506130646
0.1608558844730551	6.354327036075342	-3.056223250715675	0.549254233615952	-11.76625687721927	-18.60496406415087	-6.519513808774729	7.53166092289538	9.751109527969097	-29.3614438637857	333.3865570557562	-45.38976671974878	-12.42290540746862	19.89828891556331	-4.303074425031676
0.1752312594138309	2.59995894543217	-2.316738216400053	-0.6093908269908694	-3.20751760296085	-9.039075057626977	-12.10087952758011	9.571109534764023	-4.170547209939818	-38.95707905929495	-116.1517145231782	-10.11596932583934	-7.67339246797315	0.9396903198459832	-6.153802279360743
0.1792	-1.301890256432616	-1.77747958101203	-0.6525837004365376	-0.09201098320019696	-6.149410715816368	10.13818128771837	19.15503531980861	-7.147624382554561	-78.17894034539431	-217.6359750551793	139.7006173283832	-1.351098576057627	7.247060066539959	-4.247074654920546
0.1887128561131141	2.707475600904619	-2.700436847920654	-0.09104184833263673	-1.407567652111159	-3.071992793815475	0.4897417130973345	16.14043000603377	-7.361059552307243	-77.42289172107377	-106.5836456934859	155.3656778989231	-9.567070452330938	1.117245320643466	5.299806048449383
0.2056558844730552	1.21418584439845	-3.455339606827728	-0.1359594446902932	3.487627269594745	2.050336446232425	-7.627214908622783	11.02358037581035	4.48322606809471	-56.55999747440546	17.73532378519182	6.485369829940613	-11.02952913981177	-7.566737711728138	8.983806422059088
0.2200312594138309	-1.03546023894815	-2.983508398753605	-0.1678742492371079	7.028860921699462	5.293328237601553	-2.148993318675943	7.255030082231132	6.430441055657682	-50.84325261965533	39.0727462404579	4.895052200579368	-8.479086780176059	-9.494156555307541	-2.092000864633463
0.224	-1.79638429013906	-2.052045503027124	-0.05887511865469053	4.667034263537246	-0.15897695807638	12.09106305711905	3.1494357862219	-0.02050091595430725	-64.80644620347162	6.275868291854824	14.51113892079528	-3.455526577774602	-2.883882709306526	-6.353553925805125
0.2335128561131141	-0.42997299358893	-3.316020036952921	-0.02996632933710641	6.731329428274618	7.501890992076055	4.475227203466781	10.75784601831604	6.801957172540886	-47.93720500291721	54.01230890189543	-26.37335854150517	-10.56833379529538	-5.318282178407536	6.145565258915994
0.2504558844730551	-2.253379626907258	-3.217110142424189	0.04291524662127144	5.852410731675207	1.429478147385126	-3.946292898153319	-1.594492835214842	5.89757949233995	-50.62181300204861	-0.5599935296767882	-1.609061222040367	-8.391777346122081	0.2275851550520365	14.97501875885622
0.2648312594138309	-3.004291585433043	-2.277248753409574	-0.08300764777972691	5.892485721765002	0.5713938797441216	-1.896822731252453	-3.871880839454219	2.272717837253702	-49.30559774542761	-1.3605869269566	47.90138389416545	-5.304975686586237	-2.258809908431882	4.858060065346178
0.2688	-2.626511014901452	-1.513108691464049	0.03534528825289662	2.102786120353993	-3.892957294826999	9.617028421668467	4.82920775075242	-3.564253596965857	-56.64610866036119	-10.96364769611407	32.34155515309659	-2.621225112880117	0.7371755760032421	-1.253740376413914
0.2783128561131141	-3.174265242435046	-2.330971430727355	-0.1530809412820938	5.030410992174463	0.02504003855580361	-0.05596204168907981	0.7953673083650683	-2.402557777731623	-54.29220771765872	15.8890642847847	20.76622954093894	-5.102395962767899	7.642969415134317	14.57976949742906
0.2952558844730552	-5.331980486462556	-1.786391376437056	-0.3682676385785937	4.651373199141435	-5.691709437428743	-6.393533283869473	-5.922723914567731	-5.762599439290014	-56.98190703189697	-15.12395460388196	23.19070428850786	-0.9460383931940619	9.429074465771386	18.14687740361515
0.3096312594138309	-4.682856665146824	-1.010780403331871	-0.538525735621137	4.375942554900243	-4.004001678727425	-0.9000466983100868	-2.122444955134959	-8.446918959912356	-51.72369118013349	-22.90446406724783	47.83115618747645	0.7229907458994077	5.238601938822551	7.679738582154093
0.3136000000000001	-3.096536126782508	-0.558727722883126	-0.3748271689644853	0.3295505365428255	-5.449415557270232	7.004196126928151	8.464928015680973	-14.26767053368712	-56.40233183272539	-31.98066567586793	29.11726593337949	0.9539861160546664	12.14959017250307	5.250678439739033
0.3231128561131141	-5.914155126364105	-0.9375251828630473	-0.8176487982451361	4.959973204204127	-5.672924252688583	-5.619357073490207	-2.27023710754725	-11.01529811436941	-53.31978827223021	9.526258367459125	23.53973459509743	2.332651800150484	11.33886359414167	9.475129182833426
0.3400558844730551	-7.245014465645515	-0.1362260707831738	-1.050492615200186	5.982673405471287	-5.197743172427064	-4.927196850720083	0.5485002025881167	-12.34975482739427	-50.88370645161424	-34.08794245137283	-1.411895293672636	5.871743380502569	3.33606346088467	1.261778272127537
0.3544312594138309	-4.87859430205302	0.1580213752493581	-1.073188981234133	4.079923293088701	-2.523479902374351	4.408496614885108	6.332284983903717	-13.00072884761557	-41.38445148064171	-33.34241951968268	27.9718437815792	4.176360303422159	2.637938285432877	-5.009079413209307
0.3584000000000001	-2.839765705427061	0.2329632020219247	-0.9529324211325843	1.019740270215494	-2.661861817888665	8.393138543327607	10.46935157244773	-18.41603427937266	-45.25654588393033	-42.43175144969254	12.71296447564525	3.393609023585651	18.09215587280577	2.642854578993214
0.3679128561131141	-5.180327723721525	0.6156719113132415	-1.316497265022023	4.093900536152173	-3.475608093429182	-2.428280579677205	0.5817595052611733	-13.46652292716892	-34.72338046752746	-3.213044163263973	13.99118702118093	5.410612840107513	0.9427091415019966	-13.08927837546174
0.3848558844730551	-2.563608458504229	1.546474749662608	-1.27465581195254	1.087747976299489	-0.6575681867599075	1.386889883913252	7.020144241939047	-16.7617059464313	-23.02023415349901	-34.47044558355883	-6.311211597809304	5.058129306884047	-7.55362940577319	-20.51247639522184
0.3992312594138309	0.3507201367605723	1.188129268678379	-1.222712650577515	-1.63428193781207	-0.2128582419647786	2.148079845049272	6.20527037217525	-14.16333858503324	-1.88339609861301	-27.78330085296599	9.727985507125357	1.866686552211352	5.491253994173096	-9.834782641530161
0.4032	-0.1630222925417681	0.9031698873995014	-1.356671850019919	0.4934490480624287	2.968008051877188	10.21225165838195	5.397153931623218	-11.17359786683536	9.919535657999116	-33.4860069888524	6.589547564047821	2.393161556064018	15.55943900992723	2.331889900292939
0.4127128561131141	2.828711668171596	1.565916933406562	-1.034468640590078	-4.291555308758989	0.6907464341496139	4.46597567542196	4.107189180270775	-10.29210701345595	33.56300253911588	-5.456650754730092	27.37881586001303	0.009777374275952155	5.734458303447223	-19.12505742262151
0.4296558844730551	3.235535968200031	2.058706295600732	-0.9197357332000349	-4.477489641737223	2.948310329374985	0.5716792016576058	4.271291794401234	-4.554970132444385	62.48765782238949	1.760812530146222	-3.760312465057826	0.4055139888233017	-9.041969443799424	-28.08720302646507
0.4440312594138309	1.199384251737861	1.586638617152176	-1.20883534030401	0.2240359960141687	7.114957804229601	2.189583239756228	-1.393078772316534	-0.4213482999591349	63.20491439662023	7.186927021019045	-9.5663949431639	3.116345792936636	-0.1220221017483638	-11.1274860223117
0.448	0.747830817948842	1.038350262579607	-1.317079824741851	3.841195863277957	12.09888933199824	8.89888324041244	-3.549833399501072	0.8248725852629217	61.92860256080554	12.90008146092052	-21.14192164081783	1.444766792234158	7.436064735583265	0.5376721613028252
0.457512856113114	0.3111725631112215	1.878410576733827	-1.422965598505916	2.678225384894374	10.56155306963013	2.019992323705374	-5.693845868795918	-1.824741881988379	60.5870048722158	67.64793737563319	-14.86048773166736	5.256141487549696	4.356890624081338	-17.88746957392631
0.4744558844730551	0.4862089957876691	1.734104421493959	-1.149225119448422	4.857605195166341	15.60443838706356	2.760484165151414	-3.203734946155523	-2.808983444116185	59.36580119161392	16.84814155734869	-52.82636225384168	4.409991985255498	-2.624986463565456	-14.49741284156807
0.4888312594138309	-0.9524207384970809	1.278315798098069	-1.167651777741631	9.565694523216779	21.18279334476571	8.664393946090854	-2.273787098933259	-0.1257821452520691	55.83831266333979	-13.81166294580962	-31.10145602109653	5.337597043730961	3.145697834834852	1.067233295078159
0.4928	0.1315987003189145	1.046713903218773	-1.063564576060547	8.661349340706922	21.07467972282868	7.370363134087498	-2.219921699964583	-2.430752830416034	53.40074125292959	1.182619929767359	-13.03613449167307	1.804637318056696	8.794564109134583	3.729999881315927
0.502312856113114	-3.505352808126539	1.423290674537097	-1.337157859703751	12.78674973942337	22.58059592481197	10.5937883355285	-4.73121564839518	0.1793980461439189	52.96521962606025	46.67124996380229	-14.91429802960825	7.955781504948882	5.92925145780664	-1.17957433087328
0.519255884473055	-5.399284820591559	1.259945466036772	-1.150795577425842	14.10734851587198	21.47203986125126	8.910437516271681	-3.890201777917733	-1.353545622848722	39.41026218404245	6.831093220262467	-35.18729666209328	8.754930341690514	-1.796053278589874	8.51777896028023
0.5336312594138308	-2.912018191235675	1.200452513975995	-0.9293249384961741	9.980601721774201	18.17755047183415	9.154535843381476	0.2008193695391665	-4.707578220976583	27.54192796983873	-11.76136216471291	3.921740356625197	5.385149608131577	6.034872116882514	16.07820752470164
0.5376	-1.298889575725292	1.228148696541834	-0.9006933296944089	5.660504977279578	11.36188369436501	3.981897012053304	-0.4855124530668649	-8.316191966114456	22.9406678214871	36.20098787565284	1.203918685521625	2.820295882824205	16.71318937641087	9.461594685052928
0.547112856113114	-5.570660765702605	0.9809555125156368	-0.8058734540140875	12.86296353429372	17.27775130403858	6.667525322781238	-6.477325945603003	-2.886527988261622	19.95046878838442	-114.2263340875913	-15.51257931315586	7.051886709560002	8.312236966961414	21.47756634845029
0.5640558844730551	-3.560930945426842	1.447761198963184	-0.2735580890341938	7.928316059959153	11.72171246400883	-2.769436816883841	-6.879375403602614	-7.753095843136325	4.167066891815581	16.59364788317233	6.766458657397383	4.307420841940774	-11.5648048664855	13.84956424389213
0.5784312594138308	-2.248977812638596	1.274764352165551	0.1927023126759899	7.930804519291845	12.61585953549983	-5.557765399748632	-0.763619604237058	-19.481076413777	-52.62633768184475	-27.2197658199261	-66.97953382934719	3.380030196837302	-1.507592617590589	13.17617292648032
0.5823999999999999	-1.425012050995404	1.15754498754443	0.05404703767299968	3.955784678154458	8.029708051326201	-3.962442562338984	9.874452897811425	-1.623145515748756	19.70961971064286	114.3862118019239	-30.28561654930748	3.334564578135229	6.824945996126615	6.693194424747537
0.5919128561131139	-1.194825906225682	0.3184477336042917	0.8487117911236193	7.826749479893991	12.25246928834081	-14.73961508935938	-6.633812998214047	15.03094007480996	29.77949001108132	13.2132502558689	-69.21809625359768	1.688152602342599	-36.87743939625257	19.6897443896692
0.6088558844730551	0.8357210648424959	-0.6164275157427438	2.212525333588307	10.91603623248395	23.17215194515452	-15.76051618173411	0.3858571048491446	15.71167727162485	24.26988771452537	-20.85440107716234	-32.41884121044338	-1.191836687906775	-54.57283602363609	47.32969113779024
0.6232312594138308	1.615398835093564	-0.5577731797490353	2.554605334682382	14.09205279906648	31.03922523379691	-12.06611038331413	2.955301883114969	-0.2639925097293219	11.98532384218079	91.54996225087694	71.34018804191564	-2.003980107657833	-31.06724323939017	30.68116900873376
0.6272	-0.1167540453530525	-0.4217504499385464	2.302147375373	15.63180014741908	27.63576671632945	-11.04721225404215	-0.3555101976151409	-1.580388444051216	13.84010996246062	159.0658133096713	43.89995019130517	-1.141055247384948	-8.698517138022474	2.00266154252863
0.636712856113114	1.212568520894054	-1.678575661015295	3.690270806336082	21.41205353923431	40.10851010269154	-23.97289648387976	-9.6898862397609	-1.948498132618059	19.7469204124692	197.6548251267012	80.88351747098631	-5.692379844381077	-57.35936741324295	27.10082055464644
0.6536558844730551	5.57016960734189	-0.5336718863490082	3.281047948417436	14.46500582110376	37.28908435361117	-24.30015859703961	-5.497417385929653	-20.22971574040664	-41.49057286022902	-105.3680488073983	0.5206118981526409	-5.658556226548995	-48.27310213332493	22.98893376481636
0.6680312594138309	4.957098876558106	0.5637994646822748	2.139087251592943	17.35350444053712	39.89297503682113	-24.95501164099984	-7.563900679676902	-41.6763508044865	-57.76210939462037	52.96811863690138	27.4847799659643	-1.06581668551644	-13.01541052621675	18.35744249446686
0.672	0.9509494120336067	0.161305440067003	1.514940240084163	19.96049248110728	36.73268221028508	-20.86219625422849	2.148984646312559	-31.18786131739727	-53.6049065804901	3.956266782229175	20.07017280094589	2.436610088237641	5.961834644770313	5.98801398769101
0.6815128561131141	6.970260177794054	0.184558604721299	2.178512197659452	17.98716529409938	43.57227649920192	-26.77696829406718	-16.40778983969773	-38.21492756653884	-56.96059993438618	-13.91161144598842	12.18001544273744	-4.357493881771883	-30.06588301284978	15.21267528812462
0.6984558844730551	7.585867200263555	-0.3636743559256199	1.909249249507988	12.4058371836602	26.41268050712567	-39.75582721051162	-9.68804151071072	-25.94485168773548	-34.90824209940955	-7.356328780026402	-4.425122418752022	-6.287614387787761	-30.04207538984531	11.84208226934637
0.712831259413831	4.192590447857787	-0.9911064824420623	1.314984037434482	17.92706675559508	29.41188714869552	-25.56696412640996	-2.145590002222983	-13.7366346931246	-20.82025604870847	-2.428166889611433	-6.918157608861211	-4.10294073392701	-21.03687088627877	6.044322640503505
0.7168000000000001	1.533488228862416	-0.6406120412967907	0.7962859164244164	14.50605185729368	14.3068191700539	-23.67835641395158	-11.56221447055251	-8.25463612960727	-13.1730593952153	16.1290621058616	6.267624821496034	0.376940952656068	-5.309373233476265	-0.3071992855739536
0.7263128561131141	6.210702686960153	-1.238299990924698	1.135789759442471	17.5938024631196	42.6295444138547	20.7851200288605	10.37342299280379	-10.95041780235728	-13.98496350242344	-18.13108499349461	-8.405524337368185	-6.747866879802776	-30.35773319663396	11.34305226526916
0.7432558844730551	4.329692256799516	-2.024879778025876	0.2811369990252617	9.216868392981459	6.187393073976402	-10.23026258083727	6.159850254417115	-3.267032351570423	-4.869007275543367	-15.5617875561931	4.879178399553229	-6.503394563528754	-5.34930905539407	18.95346963628817
0.757631259413831	2.354910031192627	-1.646921391409471	-0.1411065192302906	2.304301127389685	-15.82635548812758	21.29350425383402	60.87915989249801	1.159038591617237	0.5765886908298936	-9.777313756112328	13.19220576842834	-2.88749190395919	-1.461463883559173	16.98079405235146
0.7616000000000002	-0.143835502474209	-1.090748897713604	-0.3388672042201399	-4.62102498719865	-46.0575298503995	60.89197423299569	55.86352156981906	4.586582049383287	5.719972526287894	9.37566548663867	11.35929958028821	1.306401206534772	4.081705832533814	6.084728978299436
0.7711128561131142	2.215399687603507	-2.056141527543059	0.3848259827962483	2.24889058600936	-43.93937374382948	29.97551037668958	65.86100093388356	3.71234548524085	5.013266186162316	-3.62913082305176	20.07451479134638	-4.419392346029146	-13.18622826538613	28.99591323917815
0.7880558844730552	2.54261365979995	-1.824318665800104	0.5799678831264364	2.006555841488766	-49.85975519034893	9.353419704530786	-45.36658876083479	0.6031526705801751	0.4874309435149207	-7.418657233068316	18.20997452070442	-4.718368174859632	-3.131444425567729	22.9761473679071
0.802431259413831	0.7514178255060338	-1.45225126519431	0.3994100575379296	4.38833443115076	-47.41742453101467	-4.17751438875529	3.533468046906973	0.5898762611753687	-3.044389606157409	-15.58970785835436	10.19833798826028	-3.222300154903677	1.148005823388825	9.011922911522873
0.8064000000000002	-0.6872861131342974	-1.033732147245691	0.2364863584543577	0.7301616991749356	-57.04097759103748	16.18736932355549	-4.184598625129308	3.573249882197616	3.295991308084301	7.679285259732261	12.24042419954113	-0.3966017333921175	3.589829528167105	0.6498555967124052
0.8159128561131141	2.131285531168842	-1.530902860125566	0.6138141011607703	2.647163412291953	-48.48761147361344	22.21892716928071	-19.5442750889984	0.0921791638405054	0.877038316280075	0.6001264506709632	16.91018182304362	-5.634584768010537	1.647526545226746	11.73478922151957
0.8328558844730553	1.841764171216776	-1.145985650924875	0.583447337293582	0.620084886017545	-52.58598439918326	1.155168428943902	-6.41674888042448	-3.156186524758152	-5.300343437447415	-4.147177212613308	11.34293180279544	-4.338942591318704	18.11778230501818	5.765554049191278
0.8472312594138312	-0.1194342572817293	-0.8888667412856059	0.1784256284665824	0.7675651682080877	-51.82528799568877	-4.057189086022014	-0.1933283450184007	-1.873427604897564	-6.884721572994594	-8.082334588062977	4.473148759501399	-2.58821627432538	13.51210196715869	-2.438566748535898
0.8512000000000002	-1.166381626574235	-0.6233132754260317	0.01845846191072587	-0.5206587922401344	-53.42698872078471	9.055424894550349	6.698469547700213	0.8417534657690195	-2.024212533507575	5.584171044896994	6.428370701586781	-0.4170011214480294	11.04864117511664	-2.310489776617267
0.8607128561131143	0.8798469911785394	-0.830318929298924	0.1818239107571741	-3.011140504822834	-53.71724165239657	13.63612675910441	-6.014170892914837	-2.721927565114885	-5.068897520171692	0.6866546736350188	7.22744761213786	-3.638234744436703	21.71844110550931	-1.428700694608608
0.8776558844730553	-0.3561769922426896	-0.5553456614418256	-0.1248877813286668	-5.062253655916301	-54.39097086175528	3.998084975375981	-1.883614537044326	-3.078999008921491	-8.863051155470716	-7.347084655092189	-3.023633709543077	-1.494278093755056	34.36593282983576	-7.545959400615143
0.8920312594138311	-1.870414018203454	-0.4633393286275514	-0.6448414615436686	-6.088562776073155	-51.98116920682454	-6.927255792069069	5.543712388095205	0.1552059705260325	-6.134701018386188	-7.005793372175312	-7.617427349255234	-0.1329645458327764	24.69803191671732	-8.225840255266236
0.8960000000000002	-1.80515048199729	-0.2538679507030149	-0.7484175661069914	-7.781657971415865	-50.84502333601403	11.78217626244277	9.601078884931741	1.058394320604842	-1.48129885747364	9.105230384370991	3.447553964795972	0.6670344137931958	20.3319106213158	-2.178499605737372
0.9055128561131143	-2.140899929281811	-0.6243454546707675	-0.8616322108947267	-8.738362641192889	-51.71650866916225	20.59314273181006	-6.841346190817452	2.303878392749212	-2.586002200574866	-5.035087439378866	-6.371886913060766	-0.4687637665898077	31.3236986611944	-8.738777707494634
0.9224558844730553	-4.011382838505146	-0.4380478467679233	-1.312312293820429	-9.43109399933779	-50.44869674318638	3.902878515936711	-4.827359107169448	5.356140649422601	0.2960226841910534	-0.7804447289201697	-7.41232879675449	1.640686473583736	28.07136670451892	-15.00706508673785
0.9368312594138312	-3.968919819410911	-0.249531917483634	-1.63938374603204	-11.64674688702007	-47.92711167669025	-6.751558843001249	10.362758471156	6.286426070239301	1.249875346743915	-8.767789517873588	-10.67415637216521	1.744288242006114	15.38759899629156	-11.0949716933009
0.9408000000000003	-2.605400950079594	-0.1534148345830167	-1.607787068129879	-14.48158796981699	-46.94116138027835	8.673962922599101	9.437266601399209	5.046845416694833	4.875142693353058	9.454378432317718	1.687171425064193	0.9070169766998143	16.36503433197045	-2.700130504560817
0.9503128561131143	-4.914188848290475	-0.2147071750579491	-1.917738291993106	-13.19358705554443	-46.91601375491649	12.97723823674364	-5.4318189807971	8.565999130947539	4.426381666807031	-2.627584914012306	-11.40391688222608	2.4866640613914	10.29842794672519	-12.69045016924756
0.9672558844730554	-5.536541428778454	0.2835001110803643	-2.179885636509241	-14.08848585151221	-42.07980176877387	-23.76281220984621	5.412928867592032	9.572917792555153	7.22607118332103	4.196195099706749	-6.068300491564674	4.086580329821821	-8.800278384183997	-15.6997346316988
0.9816312594138312	-3.927510096659661	0.3794727047373747	-2.109463408671398	-17.08156706174305	-41.12730459391235	-20.00298098047268	27.4442902775731	8.692250532707757	8.293881826034584	0.294189135354614	-7.759965200217888	2.921967942631374	-9.089941381772036	-9.044669186987932
0.9856000000000004	-2.480632626263108	0.2379771890830724	-2.060136302985685	-18.20123369476993	-33.46629047749739	-9.140967732060993	19.72615022236498	6.462223656588804	7.772726756483216	4.329908826275553	-1.015411613467776	1.83238148473572	5.715999297635118	-0.6359799623723128
0.9951128561131144	-3.909601872063547	0.7249715400021139	-2.265296441913197	-17.1775910309939	-28.62793154653662	-0.2671562635980234	4.973046168900135	9.088326106724367	9.613989733933167	1.465498402322453	-14.36869752593938	4.462115955310191	-16.94997251605239	-5.729142211521686
1.012055884473055	-2.160057693180157	1.366190895702817	-2.176339198905375	-14.66885630928035	-1.206562785739897	-17.10932073517239	0.3871835057872981	8.450496537549457	15.55858667665718	13.63576792503433	-1.314014185550452	5.357564360911163	-27.77250703663679	-3.642173587157624
1.026431259413831	0.03589322219583796	1.545744842395969	-1.830500506083975	-11.18252251579445	26.05811570789437	-13.00786155552539	5.645196904176611	5.953668959867291	15.82293761349345	12.48721805255762	2.157167316838557	5.06464962462638	-8.149309357008999	1.594939032142911
1.0304	0.4207979427998565	1.202645176750769	-1.6997727113804	-8.678772515440578	36.92771681900066	-4.147202603899132	8.164840262492438	4.783106816630798	12.21957464137544	3.002678848960169	-7.355252323607651	4.436922398124908	13.2261077424277	4.894426017372954
1.039912856113114	-0.2842116615364353	1.933402996268144	-1.696890102801623	-5.774525472183022	51.88578686884404	20.65902464421312	-8.095087667702698	6.121343427389925	16.41048851866134	13.28989664111538	0.371437250961268	7.266148731856694	-18.07153825808577	7.38352392252362
1.056855884473055	-0.152836704618211	2.335535656795165	-1.219119198044481	-0.9306602089646097	74.74443017522414	1.228879402957418	-11.52344914233129	3.75547113501732	14.00022889140683	15.17741105790598	10.99146979619655	9.082256929846436	-21.70231315581842	10.8891151225792
1.071231259413831	0.3693859626065407	2.229040839203877	-0.6154449886639382	-0.6553146739183231	77.22750369907834	-11.16729465911846	-8.913515264363562	1.758258588155414	9.490624235018627	2.784266894303418	6.016412111988416	8.393673978374119	2.738317724211274	10.54868141972075
1.075200000000001	0.3713391530636581	1.716393705499739	-0.230219473328084	-3.674825210910032	64.68842180790307	9.158046304728652	-5.485382468979454	2.2502108254883	6.987023930847207	-18.76554716285691	27.10868709195994	6.620067515393276	19.5613960001032	11.42596178274781
1.084712856113115	-2.216247308305665	2.564388839115495	-0.5846700851803099	-0.2342266669485431	76.48321259895947	30.82355707553153	-5.511029366740054	4.606123641639515	12.02061187789002	19.69871595591228	-2.537796141921369	12.15909255326028	-8.192182306042564	15.55412347387109
1.101655884473056	-2.29763360233391	3.113038955382543	-0.1326264918992532	-5.92697434855365	61.26582192623253	5.81127978921992	-23.11842552350774	0.8424205939288982	3.163761576153282	-10.49079479704493	32.73968956295241	13.06536791068058	-12.6080921113056	10.74259892992392
1.116031259413831	1.080889762073933	3.4319367377633	0.1370107973417382	-12.26060568034559	42.3242341547761	16.61114286062773	0.6898799450979314	-6.251187379261951	1.372977210889915	39.91220313630043	-28.97868596408544	9.436851799174415	1.634511742028682	9.77232588908525
1.12	2.396439942912193	3.495335262794276	0.1923755247480906	-14.23845823275851	36.19150170969574	25.15005933440425	12.94279352049277	-8.757308748015243	1.581159607113876	64.6114329431571	-58.92704621850736	7.880590722054397	7.893452655086891	9.885048958610607
