DataType=double
version=3
OpenSimVersion=4.5-2024-01-10-34fd6af
endheader
time	pelvis_tilt_moment	pelvis_list_moment	pelvis_rotation_moment	pelvis_tx_force	pelvis_ty_force	pelvis_tz_force	hip_flexion_r_moment	hip_adduction_r_moment	hip_rotation_r_moment	hip_flexion_l_moment	hip_adduction_l_moment	hip_rotation_l_moment	lumbar_extension_moment	lumbar_bending_moment	lumbar_rotation_moment	knee_angle_r_moment	knee_adduction_r_moment	knee_angle_r_beta_force	knee_angle_l_moment	knee_adduction_l_moment	knee_angle_l_beta_force	arm_flex_r_moment	arm_add_r_moment	arm_rot_r_moment	arm_flex_l_moment	arm_add_l_moment	arm_rot_l_moment	ankle_angle_r_moment	ankle_angle_l_moment	elbow_flex_r_moment	elbow_flex_l_moment	pro_sup_r_moment	pro_sup_l_moment	subtalar_angle_r_moment	subtalar_angle_l_moment	wrist_flex_r_moment	wrist_dev_r_moment	wrist_flex_l_moment	wrist_dev_l_moment	mtp_angle_r_moment	mtp_angle_l_moment
0	2.807498064286264	33.77701967695748	2.429519331285371	-4.32031982928563	4.431463788184715	-24.49276098197053	-30.43356777266457	-2.478587519719743	3.716760883320725	5.399167684015621	-76.05711377322928	-2.139139141035867	48.55254947540092	9.508652929027045	16.50669537983815	22.54714924923052	3.220654126591168	-0.0189794621324673	10.8624627649014	-43.92445566163479	-0.03792841499643784	17.52515936906319	-1.652630070203388	0.6214331305420897	6.3907359029546	-3.447979609167414	-2.101209452736053	-0.03242165573225139	-78.79593266524891	7.212826298261695	4.229329141603879	-0.06675431887931893	-0.1475250940827361	-0.3260083871100515	10.00029833870525	0.4477474438747125	-0.8618176469118395	-0.1179931495852749	-0.4748444058462397	-0.003837545627062262	11.78214987315872
0.009512856113114032	3.109174105317102	29.54428636575142	5.511220964926072	-4.871777504941177	4.880001014308107	-31.8322285300786	-22.81757584837959	-2.158962421902339	3.281954835848976	6.937638046995033	-82.84775863077164	-2.433689817126491	34.35382351725602	0.9350272608110439	16.75879781682447	19.87390219638805	2.87695534499873	-0.0200067326967738	11.52251745612198	-47.59392347127356	-0.04374224652040486	5.982768044448885	-1.256757163280388	0.3876948887093825	-8.776752611081482	-2.470755912738016	0.08252288777046424	0.218859161185229	-85.25277976858223	3.161814681043712	-0.3832099196436444	-0.001356131554403006	0.00375108389071745	-0.4593533320648765	10.1872134990427	0.2378289101414562	-0.387364191036747	0.04121197513729118	0.2172496741226448	-0.01435659471764125	12.98789156142482
0.02645588447305514	4.390208641975992	28.26767512982369	0.882795321292239	-4.890325620115911	4.892789102475319	-30.26963972214675	-18.28276812486226	-4.540947662064542	3.71468356368351	10.37786755901816	-77.9104403639015	-2.630518342259677	25.29512973335244	7.636849247632126	13.23029586230462	15.60741645611832	1.604789385814715	-0.02145806330129324	13.03664222243686	-44.69620275154983	-0.04770858765800665	-1.635859110250747	0.9708970030238195	0.3661793632932892	-11.04202998122578	-2.257376254103867	0.338457441751737	0.5849011396363818	-93.91312116764347	-0.1983845647643024	-2.071745962309921	0.0639048573649698	0.04106776870850765	-0.4504346839122197	10.7404714448199	0.1539399682547503	0.07997262594215268	0.007085294992665803	0.4667178853414531	0.007239447659272466	14.3447109294429
0.04083125941383081	4.041439250363066	15.28733257205316	-0.6035122851909009	-4.809694056846887	4.79987718635914	-9.593742790432309	-16.86968685470594	-7.473381581383463	3.839426232240547	12.03909774030111	-62.12290111004932	-3.997788598091396	24.77677325753584	9.807705374969494	9.898379490679613	10.51099107003806	0.9199172226775304	-0.02124939819706144	12.45278625628161	-35.72358097049439	-0.04293601291601366	1.440010540214776	-1.657504323488789	-0.1396805119795184	-0.1249529140646194	-1.831280118896845	-0.3700730373720937	1.136820062200426	-96.75262073226583	0.9001869194090195	2.045162949489954	-0.03916101982417305	-0.05361464665135206	-0.3108847857864737	10.76668746105294	0.04113885364859077	-0.07301998675550347	0.03553902569742092	-0.1453771420646415	-0.06475117358556345	14.92813890503751
0.04479999999999995	1.313395413090451	21.66304326832341	-1.520872316623772	-4.391591243227229	4.258110832472653	-13.55499415459064	-16.323870900792	-2.034563465250058	0.9010610874060276	12.75704989610532	-60.44472803238238	-3.994473554093453	25.03966797121203	10.03741148954715	8.961477628581608	5.76735292753816	3.180426410909015	-0.01725030752607713	12.04412813025295	-34.50797522703041	-0.04132092320272861	2.223999071254261	-2.265351040233232	-0.02568228514770982	6.872061376328795	-2.642524301375594	-1.659598945594038	1.913236186673112	-97.87880064447742	1.613244991941719	3.723929762607847	-0.02883735895228476	-0.1224318229565572	-0.4787183660825481	10.93692302751175	0.06778089134664947	-0.1971767194128438	-0.08727001549728546	-0.4157067915236976	-0.1298110901552882	15.14407752291284
0.05431285611311398	4.386572665032588	7.07049139123917	-3.490110331647216	-4.871763201262432	4.854994149449965	-1.901393586838179	-14.45063147271859	-5.988858994028789	2.294449567842046	14.77199653987351	-53.68283858376574	-3.89130933746139	18.46885963233739	3.192557197417773	5.749498130880772	3.932286772984634	-1.387121318620457	-0.03706524573294095	11.37084266249401	-31.20693122494387	-0.04308494036758258	12.21059886519266	-0.3145951945567478	0.1593398682089151	-7.805829983081328	0.8580626730638998	1.882741234565575	2.91368570300782	-98.48961412407371	5.024517361885305	-1.338149555742104	-0.108179160367057	0.06284130768534418	-0.4949199718692242	10.98726055336214	0.2939988937872253	-0.5787145802944439	0.1955256271416613	0.3862812590162752	-0.1041990030402674	15.36987837583954
0.07125588447305514	4.578851420612963	30.63906364816961	-4.247616367433327	-4.891686654744884	4.863339745319138	-28.79214690812397	-22.05856477173995	12.21108865561901	-5.340837350750504	19.15108367709145	-45.4724966238506	-2.571749100875891	21.33348122471414	0.6464595692718622	2.698328203746392	0.3778827687730872	3.705959603684245	-0.06858711477669052	7.691796925329923	-26.39315449411473	-0.04962208458537112	22.84005091663397	1.551469098167392	0.4403464488348456	-6.585197823005227	1.429703922777774	2.137266673118671	-2.779560815031601	-94.59678807508647	8.797910593670951	-2.078793371954281	-0.1754310704535257	0.0758095162193797	0.8466336754629513	11.19367608989956	0.5228702879274701	-1.009738623397866	0.1822517205000976	0.5116723149125832	0.05982497280261978	15.00520000997365
0.08563125941383082	4.421290111003838	0.6299801428221705	-7.090214787830274	-4.809405968632934	4.739229821155845	-2.898046578016073	-34.5540300735524	-15.13351735933083	2.169153083423199	21.90939871996748	-40.51612202756075	-2.510070721362249	26.90722502007717	-9.334784149821045	5.032505381245055	-3.068361415870672	-13.97155228873145	-0.06718372343508368	3.796360842523191	-22.50897649159783	-0.05171535591281429	7.902242344827019	-1.498144695907266	-0.1226313457453092	-1.182509550220959	-1.688740824056374	0.03581310666368909	-8.17900996501616	-87.04372170267597	3.972158028278507	0.6865262019095173	-0.1116867296505692	-0.02515161670258895	2.545786638835147	10.51771258618982	0.1557932140029401	-0.500171324771863	0.03062909498626572	0.07243937603055178	0.3984012791037006	14.07742400699975
0.08960000000000001	2.022394436425593	11.75899447625925	-4.93117610608839	-4.409014345503927	4.042783879631486	-13.87564506436889	-36.36390266156094	-13.60209934277624	2.540827719015968	22.24828291897801	-39.86941411901361	-1.793352518730333	25.26172786585106	-5.477347243428549	6.113591410939401	-5.007176364354023	-16.0137663796754	-0.06244624507756977	2.352197633628254	-21.55143893330563	-0.05030517906781614	-5.685234201402944	-2.037661908606438	-0.3166412257687399	1.580014777118599	-3.730149286208604	-1.628932369457492	-8.651078140262962	-85.65475827172087	-1.290310244439969	1.528254495795519	-0.0039313410107438	-0.08214121054339632	2.609878678285334	10.49492807736818	-0.09302311354215455	0.1617989580755798	-0.147348087923576	-0.08370138994630437	0.3997505726608164	13.91378720635032
0.0991128561131141	4.371570861228015	26.79509556727599	2.275508364436045	-4.879551913238956	4.8042758736716	-34.33800429420637	-43.14204458839052	-2.350272868211789	-2.485305337017088	24.26673827463555	-35.96723585229046	-0.972192470052021	32.54301393430251	-10.12618203377556	16.39849475239655	-10.75739633869744	-9.505505239843711	-0.04940599474042993	0.1781701918455294	-19.20042677695056	-0.05403252034797078	3.571214221280651	-4.257438568384361	-0.4545931235158841	-2.338724690241266	-4.214093236920585	-1.56422054548853	-9.094010544706682	-77.57858599732549	2.112352731045863	0.6358380039073668	-0.1011014998807289	-0.06368799034877727	2.989033777108415	9.649544632070885	-0.05131846558077001	-0.2684178886589828	-0.1582863757197611	0.05113688641690319	0.465693141114894	12.86942999208684
0.1160558844730551	4.318740421771103	10.15562189706353	-0.7404047019119095	-4.901092549449373	4.818340430504236	-21.61128337275933	-43.82558678751688	-21.78286727084111	3.981388232988964	26.59550617339823	-27.018267557568	0.07047012708023659	30.04669980920322	-7.498032831095598	18.41573295433998	-20.9806625033181	-21.98730229616627	-0.03103343409284889	-5.563546556621278	-13.85077798077079	-0.05095847913659707	-1.628906356420303	-4.460200405195312	-0.5233297853838171	-1.011027869487576	-5.630744438858359	-2.620868967221591	-10.78284099796232	-65.09692284254767	0.07557885451110627	0.495951687410719	-0.06118970707799899	-0.08395731531187127	4.463794187719724	8.763499037960958	-0.1469128297649668	-0.02027813879908614	-0.2889618816136829	0.04800691447035677	0.5602531511418476	10.96168294228645
0.1304312594138309	3.886537224076388	0.8292176488432973	4.289968604463382	-4.830552246607922	4.659944475356554	-10.34821012212472	-40.48781771629612	-33.89528183612746	8.006318788531647	29.37087085771654	-19.81921570862271	-0.4784292489743489	20.18752522783067	-6.650880544296099	22.72972475697216	-23.84868376817573	-28.83804169690096	-0.03620408255846615	-7.793549967310279	-8.607942457738822	-0.0581201862611616	2.084683787298494	-3.645565279777726	-0.1262819331379222	-3.985033521539294	-5.580348705712784	-2.048345085182975	-15.40198144676523	-50.0042796680095	1.926831046930848	-0.324568754046388	-0.04049756946880634	-0.04414388938819534	7.281389333059952	7.345087857502682	0.00102958537344415	-0.2936907093036366	-0.2209148832956085	0.1756930385553547	0.9109240935533107	8.922147863524669
0.1344	-1.379997617652901	12.70417211882756	9.815393816653396	-4.442908734226517	3.903286829308684	-23.19307997946561	-39.04568277681334	-35.76058977300139	9.301811674821291	21.58272838621138	-27.66213468702818	1.020639159946377	34.3759666202535	2.815759262766688	24.30331349872252	-22.96525636101967	-30.67888621958559	-0.04292678683926857	-19.07646941545073	-11.71107853308816	-0.01816085485656658	22.97901141294296	-1.054441067540144	0.4421452624489057	5.634189337904634	-5.273519711386118	-2.735504401765589	-16.73379524838346	-49.0763632670831	9.117098825521754	2.252929245480237	-0.1429134010840438	-0.1143823388248378	7.871845030768756	7.680209494629398	0.4343428460519961	-1.099471156145648	-0.2517413346576521	-0.2111860101171547	1.0384240051672	8.957669898996951
0.1439128561131141	4.307343403338658	-3.234216425532717	1.228618794395233	-4.884820864058973	4.75278975294799	-9.065468416921679	-38.59642842529809	-34.7203145585481	8.019999904404973	30.79957301857713	-9.712124718330443	-0.5504190673357354	14.01727706345698	-6.984593940933513	18.10632050126208	-24.51167882569346	-31.16564680358691	-0.04396030169310593	-8.802342485902761	-3.690053920057013	-0.06248406806328256	2.19226053550573	-2.837532983884739	0.01882382477236844	-5.591918013874562	-4.638869652783109	-1.368706582896772	-19.61953243378905	-36.9473882520106	2.228347318336394	-2.12498305764367	-0.02553521361860533	0.007339963960374257	8.83080918688632	6.090972301951874	0.05346794647955119	-0.3568095205017264	-0.1989779734397085	0.4460861851222788	1.365661923793744	6.69119360513065
0.1608558844730551	4.362976919303275	1.40497182168188	2.852029857549009	-4.904233027096893	4.766575473982471	-12.00232519239812	-36.54514853195087	-45.10971473055885	10.17604370069541	30.71315269845593	-13.64587073021335	1.152973182355554	13.44261424801857	-8.037697033468381	20.46053254097941	-26.05439708789275	-38.12319416421095	-0.04275497537435816	-11.44985525681075	-2.97925893477225	-0.04440283051763935	12.36413202059549	-3.922225354370014	0.1075924255278262	-5.687727108029735	-3.825918490293581	-0.9357149017340254	-23.26464422733928	-18.65420717360971	6.181607908042827	-3.440145515171797	-0.1012136618456964	0.04374949472296119	10.22702153687007	4.179193242667961	0.1760748441293174	-0.870170715362359	-0.193139564388239	0.6387253892126205	1.709974044332018	3.982497000256918
0.1752312594138309	3.296395096388018	-3.651974173189919	-2.138260398376442	-4.836961365387246	4.546589556080107	-9.081496710157808	-34.12262654774545	-47.39443647324278	9.768452224242029	31.67203481154664	-10.28109321786315	-3.406747341968339	8.936913667467499	-17.22934745924969	6.808667794305117	-25.91790230416908	-39.6998487323236	-0.04012801520246648	-16.31356074947359	1.934718026692812	-0.02581471410040968	5.193397569562624	-4.783126680616022	-0.2014776889775662	-4.800660934861074	-0.994979597218514	0.875185942686916	-26.21028607875824	0.1245266123418963	3.877525655521279	-2.042247087499861	-0.08946541601080027	0.06155581264704021	11.6186680482433	-0.03851791693508369	0.02501020084696701	-0.6254671611143205	0.07035994077381406	0.4597624729977682	2.001984385248639	-0.03859007317715923
0.1792	3.073189053133428	-4.281236246435344	5.348724842317644	-4.437661228304128	3.504776013442267	-0.2555116995401505	-33.98213057977994	-54.88850196667838	11.74382774121657	30.05959631847891	-11.25163244846865	-1.423674625413167	13.48853871913467	-9.403773879202031	15.11024135629041	-25.07134222918011	-43.70428307643171	-0.04109655139131981	-19.36697985675449	1.340732230806399	-0.01804200263955907	5.491060014459434	-2.621939222611663	0.0382407331357052	-2.719597746372455	-3.122982555206876	-0.738832288832949	-26.91819147647951	-2.197002480380817	3.150148538694518	-0.3871063079025772	-0.04598090805693528	-0.008418461799677902	11.90423434481463	1.397841344804044	0.09196843986722826	-0.4411808373599116	-0.06952729503645541	0.1960640154454647	2.062238756599793	0.2806691842274789
0.1887128561131141	3.812123514402259	-23.80274474305624	1.966105462310221	-4.891169871448355	4.660719326914545	19.72696495126759	-31.40785484547537	-65.62748564014892	13.92097908944846	32.80920380913329	-4.218597681993346	-3.26907245543424	7.230432285884906	-14.15480974102395	10.2212937447671	-25.06769224605141	-50.47847670793746	-0.04148376225565108	-18.57911015542772	4.591340793050908	-0.02135123569513642	5.8769841409579	-6.013463071961653	-0.2898012579952629	-2.430529688126498	-1.546922139359479	0.18744447009869	-28.80452933115014	-0.6452751904069799	4.064120852573005	-1.314503969417874	-0.09780218398164808	0.02936539274047464	12.3947615898399	1.348495880103154	-0.00933940311689041	-0.6417267242913005	0.001124965041718808	0.3498636099579034	2.259599219119469	0.1165614742273963
0.2056558844730552	3.339610850770573	-35.88794164181576	0.08299049722546839	-4.90819857914191	4.672221954559575	38.80424602342675	-28.31161160957169	-85.30848708701639	18.02774519127995	35.43913514731236	-7.107808905243821	-1.524455228663049	-0.9135191501977161	-15.01895093515888	9.893796196432598	-23.84708933674685	-62.31152332603182	-0.04160726503872193	-15.74143380318345	1.761487091939917	-0.03048497560917294	1.8319041505913	-6.666164973500507	-0.4623520910506495	-4.715625634050374	-1.460801705051541	0.307576753027903	-32.4889110278427	1.562719089976069	2.688125787525729	-2.37401466248297	-0.07547439672722522	0.05502300779482508	13.43329205771454	-0.03414142605153544	-0.07720960175548974	-0.4735738801326924	-0.01096182015305784	0.5126329296165905	2.625684961614672	-0.04164107754090235
0.2200312594138309	1.299676683157493	-59.42199680691092	-1.090017253833365	-4.840087206593299	4.390180210748667	64.54740669039796	-25.94277001531386	-103.9610763784211	21.85986284966524	35.01582889866103	-3.218994626220572	-3.51250969539983	-6.784187543730124	-14.49344561130377	6.148558538527165	-21.86622943315166	-72.73415864967609	-0.04265699158143678	-13.9294086401116	3.665035743751754	-0.03016886418872814	-6.879923564213251	-2.223399860167604	-0.2100348363258309	-5.886525037872432	-2.194860793716573	-0.02681609498991322	-36.24887949578077	2.205150484306964	-1.275182688448551	-0.6393422916090751	0.03105415955581675	0.0185659854348062	14.47682950001381	-0.3041457772944849	-0.0486189771604215	0.1277897979011036	0.0268707525784221	0.2522480694550798	3.05245126029632	-0.1921170199409832
0.224	1.431907105752025	-56.29458461854905	1.360520612202395	-4.447899332548662	3.20090964877528	64.96772221606463	-26.71759937607514	-109.7388636685949	23.09048020138691	30.15237832081974	-9.219867243720063	-0.9656968789570648	1.520742662912841	-10.47081081864298	9.028040534527397	-20.50239630763365	-75.58307231914368	-0.04304121969163682	-15.45246036995952	0.691867176990529	-0.02268463622858936	-1.709676983007766	-1.323542518467854	0.03776086151319286	-6.29066441476811	-2.03201054742854	0.1826567732814806	-37.13091660393831	1.315719522153828	0.7691359492060216	-0.5091161408220751	0.01290301379819209	0.02343726951452294	14.66515095762621	-0.01304434764678061	0.08539775633610597	-0.1192558404117858	0.06042629119380355	0.2516359005645633	3.145516730808844	-0.07106688545184062
0.2335128561131141	-0.4987989770207761	-70.35341525973904	-0.3208824168510566	-4.892261600938262	4.520096008717019	79.9184145137796	-23.64491768403497	-118.9246198865043	24.45128602288627	33.88148690505682	-5.075970259090177	-2.798748428751257	-9.297098020884036	-14.53446103395821	4.994916078858341	-20.3188268938319	-81.10891574953246	-0.04172235411216746	-12.56594514235102	2.656963619928283	-0.02997356492450363	-5.536644148363714	-3.322458445871914	-0.3805405227622425	-4.983605806733611	-1.540697849371842	0.2194965332156947	-38.7739221071911	2.484802851231412	-0.7075982798463172	-0.4833889828300568	0.005040622844795499	0.02105520575236029	14.91246946749414	-0.555835261373908	-0.07042520848203936	0.05688151561304935	0.05705908550538406	0.2415415723422818	3.3644769097587	-0.2097498273129478
0.2504558844730551	-2.721752943500228	-84.10852658333665	3.422172539155103	-4.907833091864539	4.523591238491861	99.01982828646736	-20.94197798784057	-134.8141279720656	27.45750814371202	30.51034455419195	-7.199560776685931	-1.666028086369528	-9.213208359326755	-16.84558363971694	4.426664263234278	-18.69024426992338	-90.21233599302177	-0.03909128466296415	-11.32534705931215	1.647707259604036	-0.02806933582107952	-3.545479646047558	-5.348132850178325	-0.7808456520336048	-4.194057789710087	-0.913037700255358	0.4276136449682014	-42.19700509952938	1.572598555932499	0.1004754951906001	-0.245600933992971	-0.04403238301170728	0.0218445455201547	15.57852947593032	-0.1804141593708829	-0.1386766679578887	-0.04970044279554672	0.08897288181275138	0.2221391954248011	3.769675360987031	-0.1517743943477498
0.2648312594138309	-2.026074658147643	-90.13854605351358	2.060818916261535	-4.837200006060804	4.087996131471414	104.0771471250239	-19.57049771769491	-140.2344566686044	27.68591537633387	27.24609510743548	-9.716523676436005	-1.125526591292526	-6.812243463883072	-15.41247059340512	1.260312534028384	-16.79149371961549	-92.01098959715233	-0.04114796403204214	-9.844182326141452	0.8163650773933644	-0.02420320245982953	-6.498608481781123	-1.612516532255504	-0.2964521631400314	-3.615469014592787	-1.381618892014843	0.2554735561103588	-45.05750218530491	1.188112416147252	-1.213542306724357	1.659400439478599	0.01460504881113749	-0.0131073556609469	16.35180289250977	0.09250876089483913	-0.03284555895359352	0.1766370153464964	0.1519870228822255	-0.06380009523200943	4.172712515107706	-0.1029017113382293
0.2688	-0.6857551134631521	-91.06095605372587	6.154433871688324	-4.436062649801485	2.739411121937678	107.0476948362822	-19.89567165134214	-142.9665980476674	27.96289526975187	23.73195712902877	-10.41054646871757	0.1108561156475667	-0.835896779157427	-14.32855097875256	4.907209187911166	-15.76825878331259	-93.16957987404973	-0.04026848255785617	-10.00996499643227	-0.4689297163630489	-0.01928472508540635	-2.294205379816878	-1.384512241596254	-0.09734494263542781	-6.15657758943138	-0.8919177272940759	0.7254065124131037	-45.69581999178481	1.111442496670408	0.5790314106145118	0.8409766275207065	-0.001937640947806227	0.0176507762173126	16.4843860358891	-0.0180748134732473	0.06067691918916514	-0.0529946085786145	0.1916729646406931	0.06858045129480415	4.268202132613906	-0.08848335100323794
0.2783128561131141	-3.086356149051646	-90.64499785753813	5.632095532640218	-4.888838489676969	4.266571261509114	104.6479188169258	-18.11044389374833	-143.7955166424698	27.35962225837165	23.60757500617878	-12.55634369902221	0.5206946592289809	-3.0339891170994	-15.66111884734229	2.598439447280477	-15.40167727635841	-93.35541672752025	-0.03977733201125436	-8.962346034741184	-1.3089640472148	-0.01929143479425666	-0.815478453967276	-2.288297476329995	-0.3895667834905916	-0.9171826860444935	-1.548940861051077	-0.06264928469359246	-46.94199490542612	1.68839310638573	1.036535010449822	2.316635417887689	-0.04075819004411968	-0.03488079196851641	16.70521709323366	-0.366128858551666	0.005549091804940742	-0.1104980736193107	0.1284850018643454	-0.1556271153202798	4.497809227377292	-0.1351101243933333
0.2952558844730552	-3.281534288779891	-81.57344030347657	9.591173262375547	-4.903428266042111	4.224768065734452	98.29648529497716	-16.64818024648226	-137.1881673362668	24.88748793209205	19.24390166250126	-14.70952070917513	2.200237760783674	2.591141223999571	-16.94936644793537	3.644757418619205	-13.74149502866407	-89.43241417088343	-0.03804821330263086	-7.265009251722633	-3.101435635461048	-0.01587265600342079	2.048629334620051	-3.588955635194101	-0.7489497025090153	0.2105832640075133	-2.155696117866557	-0.4959085118758027	-49.59015180168726	1.287955394888449	2.247015356173493	2.537634555036965	-0.09154865837275505	-0.05269754355920198	17.42257262609963	-0.3171388075856831	-0.03771758109162296	-0.2749012261311778	0.07875777455870302	-0.1958700772441475	4.953389245392466	-0.09195895155582139
0.3096312594138309	-2.36692267286432	-72.71497105396274	7.193473996329044	-4.827510375684511	3.497643522858766	83.819401428909	-15.71810854545647	-126.7600305087626	21.1873783183704	16.69444082819819	-15.40569487945298	3.102816467990543	5.649459105049604	-15.56064494636973	2.288150702243673	-12.06766262795763	-82.42610325060046	-0.04044432749616399	-5.433221633731458	-4.13174657199499	-0.01428340499799515	1.401386298880139	-0.4277842919024482	-0.03129300387740069	-0.1330782885149801	-2.2888781429351	-0.379604881499915	-51.36193033639879	1.09073143899249	2.288916936395242	3.20740516875429	-0.04739303490379609	-0.05645820943209604	17.96030619792596	-0.2173203160818176	0.1180447606083285	-0.2530348680913474	0.1334349777194935	-0.3097158319808799	5.348136034645218	-0.03176159970733189
0.3136000000000001	-0.9263189580981717	-73.29308061711822	10.52660470630986	-4.41719491343791	1.984511465711364	85.94138550484659	-15.40890183822683	-125.6440093041897	20.55018548588868	14.13930753022118	-14.01757838270679	3.179232407909025	9.62216139662784	-16.54793769819873	4.538598366505815	-11.44460169445559	-81.67350725798933	-0.03947365155576255	-5.157857158872313	-4.139756173807002	-0.01109281212145292	4.82042725737984	-1.010808065243675	-0.05817666369279295	-1.694031933182647	-1.22347506814708	0.1827469857411204	-51.65868122508421	1.167624799765902	3.620681186536514	2.656260741540311	-0.07191355712041247	-0.02716130550262732	17.98973257449942	-0.332923428367247	0.144227529016811	-0.4220307146023867	0.1944237150171534	-0.2176590826481171	5.433147121081336	-0.05478373576508896
0.3231128561131141	-3.153713740254886	-61.6962752030927	9.62422863521582	-4.880531419575163	3.802635428130202	70.37481058101824	-14.22382843383504	-117.7447830155382	17.95022348277823	14.65805310023215	-14.91420990815831	3.691829893430089	8.662280353819579	-13.68800936691802	5.282933859182139	-11.12186407250627	-77.08068500228154	-0.03918169334469156	-4.433369287322607	-4.971460551410583	-0.01172136753435607	5.681431697174926	0.01550521635734586	0.09475520980254704	0.8600702900334414	-3.943507829005139	-1.117743778487761	-52.52429740193486	1.884173992356741	4.122296997322543	3.180965142366783	-0.08294101288484812	-0.08131741478042384	18.1902273314093	-0.6933420649717259	0.1885626437050958	-0.4845991872448319	0.02618326798616391	-0.3316718668664435	5.643123808762248	-0.09772199212578464
0.3400558844730551	-3.590985233483355	-34.4452730819894	8.201531558385282	-4.894691873216596	3.867382425006667	45.42035465422639	-12.2663992058685	-93.52513741838226	11.4193156362621	13.2324744011913	-13.00303615309557	3.866322710646408	10.51805140804469	-11.06726374396287	6.223393957375995	-9.622186053000982	-63.64130197625678	-0.03915773936306848	-2.671269396580327	-5.033271588569378	-0.01320345490945348	3.957533491194217	0.221922067116924	0.08489693933426889	-1.916896495335188	-5.988457359048997	-1.650164458070145	-54.18009601165728	1.450388736509213	3.808625584646466	1.918455469668368	-0.08045527180989548	-0.08048715764330956	18.6911493415004	-0.6523160876735099	0.1795032181478963	-0.449483949868395	-0.09468556972528347	-0.2000917172031263	6.066483973177739	-0.04544371591482115
0.3544312594138309	-1.064281284514081	-26.24920947839407	4.010054173667145	-4.807459653171966	3.218401416473682	30.32091368940198	-10.14643387793738	-80.08169391499365	6.957640876846208	12.97035942578304	-9.072319643770467	3.204875217126748	11.11524837262262	-12.03438980658499	4.795135180266357	-8.223840760643739	-55.66110587646263	-0.04024165954528496	-1.074905153563861	-3.645757576827171	-0.01585427468525399	3.203245325398956	1.715447972372317	0.6689354230366003	-2.461559724060328	-4.237576599544806	-0.8248438445144946	-55.273189963194	1.43122380712988	3.673343347949553	2.026626367201391	-0.04231839454142505	-0.05052176471296805	18.76963485923211	-0.4255044835470708	0.27290841940524	-0.4024823950236404	0.03607048396978971	-0.2196077635125698	6.42318826714201	-0.03313848666991071
0.3584000000000001	-0.8417960152170672	-25.49612992829472	6.240238995597413	-4.372064697974393	1.167187172344484	30.94524029126045	-9.867660870740112	-77.5653002482717	6.104028080181712	9.235001426712461	-8.265900246729311	3.144127279679412	16.19212883374124	-13.03267100754588	5.95994301238211	-7.550165103096568	-54.31944520889643	-0.04016016401145261	-0.4971702628040904	-3.571207918393809	-0.01257628942252321	8.103354655721162	0.8625249706461001	0.5061942353351436	-0.5559499193757779	-3.462585320455148	-0.6518255592833428	-55.37792717252592	1.489657138554002	5.495414459450354	2.419243399711419	-0.08772941471029494	-0.05210136037580262	18.6246288706941	-0.5088734940108027	0.2859753248092979	-0.6371720563736712	0.06448533934369165	-0.2521826284851674	6.495771978491692	-0.0464526787896721
0.3679128561131141	-1.316241642394424	-13.76053796177843	3.393643605250701	-4.865050795683279	3.742173122535178	15.3259769312909	-7.267752627812147	-68.77674999866194	3.622664738098851	11.68537107408058	-7.894693171992444	2.908719206043806	11.19188357039669	-10.85920326789011	5.591717099266125	-7.238300910695832	-49.59805406385174	-0.03956392827876654	0.2668639856687309	-3.345984779440552	-0.01632554071459568	3.510960457982602	1.955126213862603	0.7364495301078262	-3.917660458884519	-5.554279022648593	-1.08781643603964	-55.9939468804893	2.154276945657021	3.987041519975635	1.345334921338371	-0.05138218673664763	-0.05273260920247953	18.6393849024384	-0.7477575988135297	0.2843259445123045	-0.4394498381206322	-0.03353597071487696	-0.1700298315723604	6.656394219468395	-0.09827768071317308
0.3848558844730551	1.005012160124281	1.585709086700884	0.09947287074558156	-4.877551567372748	3.785306128367552	1.0125635711318	-2.981170697219463	-52.473123647234	-0.5925408842749642	5.339144795142552	-5.234546299531402	2.394987649336539	16.31542224743985	-10.07058383384987	3.538766211030706	-5.6350732082653	-40.77359259948025	-0.03964222047742592	4.239389825890204	-2.246643508221651	-0.01737466656756298	0.8372083730810927	1.589515558216991	0.5545627114449778	-4.270060759333362	-6.290116138600812	-1.149181159286657	-56.58780793263108	1.640522122971926	3.237478377065658	1.114348986997421	-0.04819285359956171	-0.06045285770831907	18.40992783822154	-0.6555773096913404	0.2275030153953548	-0.3474513609423667	-0.06799706671182212	-0.1855246537782201	6.813737245537581	-0.05110488127055861
0.3992312594138309	3.264596540347597	-1.721374067135023	-0.4866413134184378	-4.773250678334821	2.255989689384478	-2.452398549269979	1.409035696602762	-51.81810651667114	-1.723363955678227	-1.437980800435002	-3.700516195055208	1.900998155391134	21.13664582219675	-12.60808217679782	0.5520380482664584	-4.093601591889748	-40.49390551930894	-0.0395421713276048	8.076738014117385	-0.8655497269336921	-0.02026325815919092	3.161863421342855	1.08315618798499	0.6189313606720523	1.046071980580567	-2.602395090460995	-0.3300956059324921	-57.15289351162794	1.743564587461847	3.985590874951077	2.898949542318458	-0.05388791587732744	-0.05292284481196292	17.96268225127147	-0.585875150579102	0.2483245057654444	-0.4241499662705755	0.1224639844052349	-0.3911372236628026	6.880410183526585	-0.05689761722333125
0.4032	1.31570975666045	-2.067801990366061	0.5106146724692274	-4.243393284496321	0.0355456602547406	-0.7666831296354246	2.004393248020531	-51.01246432631363	-1.879668353687659	-6.338252711984089	-2.217067157147435	1.482230117283702	25.14348141795117	-11.62780061658542	0.6348539940938315	-3.477313748599467	-40.39562425766499	-0.03972359604270186	10.34077780745974	-0.1381469735833474	-0.02102977476086339	7.602031481577471	0.452315443353223	0.4264825246230792	5.296370163301725	-3.154145950241103	-0.570227409483085	-57.22975750680128	1.987950514395689	5.799739614053824	3.905163378719358	-0.1011974769013992	-0.09069406272129232	17.80200314921224	-0.7194553040089079	0.262886640385309	-0.6728441930353513	0.07407205847962799	-0.5077266520774918	6.887782848248402	-0.07104407423170912
0.4127128561131141	4.606836739876627	-6.047227200927304	-0.1942228529371392	-4.826304191513298	2.549929175145678	-1.011930850515846	5.864455435774586	-50.52881257609443	-2.654983007249718	-9.03197842821397	1.230402766883163	0.4137392371569699	24.27863938063088	-12.08090068765474	0.2764106733280132	-3.089347273179965	-40.06582419298536	-0.03933753491044054	11.9399104751795	1.922631946495405	-0.02522562017570294	3.655218868132186	0.4806873742815401	0.315431186917998	-0.06719677592526674	-3.144214159935776	-0.3684746670272022	-57.44214666059483	2.519645528244347	4.267599601243847	2.495993453134651	-0.07645541067772565	-0.05012069178637384	17.51956131594153	-0.82497136383375	0.2025532280073515	-0.4632751162032627	0.09599775152540077	-0.3848136560974352	6.888664727243964	-0.08363335731616914
0.4296558844730551	4.644818535431263	-11.76237860906846	-2.143446426817736	-4.841057192058758	0.3830140454298885	4.856194266366849	11.35866049287316	-53.49640424283263	-2.788487018332227	-17.90899504964582	3.60326561189618	-0.3502491583650844	24.11174520782481	-9.232095513794226	-3.614639583002753	-1.402201337673463	-41.87103466252493	-0.03991896944984012	16.34083313256264	3.286393604693216	-0.02916972473593823	-2.505292463123903	0.1513740502271842	0.04674838861050545	-1.630430398759707	-3.204357130809588	-0.2945763868964242	-57.47805079900639	2.687252196182441	1.998283208616066	1.994738227121833	-0.04021190309281927	-0.03948645021506814	16.86397547585858	-1.030992280381299	0.1047757931631021	-0.1642658319041004	0.0894115569257479	-0.3688265405841386	6.702266943004971	-0.03662529568760679
0.4440312594138309	4.458857588209611	-8.360617245719228	0.9756584638572159	-4.699522155386565	-0.4931925152353074	4.848922696764596	15.68320296770533	-56.12048422331976	-2.897514572869444	-25.11362825372077	1.506777557837377	-0.5274677603728559	29.15382385006423	-4.961836542438343	-4.157624419418087	0.09402973476235399	-43.67620728636693	-0.0402160193733174	19.60980776557338	3.026937119575425	-0.02675869194716573	0.9232991114690685	-0.6525967061960101	-0.0932347549263168	3.1701293813681	-1.508089216617388	-0.07556412928370029	-57.60034910985503	1.757935439864643	3.127683792671994	3.134628017086369	-0.06458123413300586	-0.04759359962221725	16.31193005399843	-0.8436466361006658	0.1130219695111534	-0.3122467687337683	0.1366322607788152	-0.4682493981316636	6.586620579908611	0.004018821047030243
0.448	1.931218586424947	-10.10004834060146	-0.2908968828804405	-4.083090112596691	-0.5008368755272841	1.323493841001586	16.08520958290471	-55.27972948255676	-2.97398906012537	-25.60529514757442	0.3525799447761306	-0.1616887974008172	28.02280133137329	-7.689502155319087	-6.119019362559083	0.734485790592208	-43.42918804619755	-0.04087696752749558	19.9024667768904	2.285682151947143	-0.02666276193459021	3.501307956420201	-1.029141194563871	-0.2456881622384891	7.644008223173032	-2.359489325545286	-0.269904524847742	-57.54591801506253	1.69182851241231	4.398644348829103	4.349937848187537	-0.0952821895909821	-0.09505089237656308	16.09885865002278	-0.88538711244427	0.1265339695428126	-0.4930428692472332	0.08812370175265012	-0.617592113241304	6.548315105167073	-0.02007507611096789
0.457512856113114	4.628206398106116	-5.512093231975768	3.177429931044381	-4.780410185084475	-2.108800654726679	6.640193573921419	19.00000080788694	-52.02461917475286	-3.492718339717144	-30.01544438396293	3.278731849573489	-0.9204213327675026	32.03698404405524	-4.217585059460326	-2.903839423156607	1.414747135230146	-41.80386485235351	-0.03973840484073453	21.69342041850696	3.427520961228287	-0.02166107498197055	3.02666013312025	-1.153400202554392	-0.4097259951678296	2.386161778524126	-2.078299997218017	-0.112626919811035	-57.76423561296263	1.775989880676003	3.625020249260446	2.938158251625529	-0.08940788941445536	-0.04871578652040955	15.99345732100965	-0.8884133016471054	0.07174902943542547	-0.3765981911413392	0.1073577430206449	-0.4830588116949843	6.493395765307286	-0.09049186587917681
0.4744558844730551	4.691758942893848	-8.447696051675685	0.8898605220975648	-4.793926073728292	-2.846351940571537	7.538224471221547	22.96599951956093	-53.2896429110112	-3.305849357932247	-33.56300353013345	3.181179384997106	-1.034818474987252	31.02668024799907	-3.663920085416942	-7.250943792696314	3.245959976182242	-42.57428320270046	-0.04118435430068594	23.21879785445307	2.777317559504754	-0.01918007702680542	-0.1207664919407471	-1.503653673449444	-0.7523504003314128	6.129273893191202	-2.084116416485831	-0.1181944344836672	-59.18023459528886	0.4937703352072082	2.083834690972171	4.406042764157097	-0.07001771304885129	-0.08404517514123144	16.04739357465335	-0.7951485376499968	-0.01931104941246144	-0.1659948607543038	0.1184353261822479	-0.7039296512350293	6.585813499915028	-0.01076975523592697
0.4888312594138309	4.485392455305437	-2.040120336031602	0.5041589672066324	-4.606332647946012	-2.172997049325375	11.80151212147618	24.31426103030778	-50.3209488811481	-4.394745253042602	-33.66449848754722	2.864852438481702	0.0656031333162348	31.7923400897023	-1.340065122128638	-6.350531915319934	5.095923345640945	-40.59566153226157	-0.04308756339582619	22.84003353604369	2.405439575305999	-0.01880528847552608	2.940262670602053	-1.548855148717233	-0.5067967744278358	6.768857027700143	-2.142477945087965	-0.1352646099433157	-61.35851532879231	-0.2880179915986153	3.393280119951845	3.792562411216069	-0.08508421391526201	-0.07957297091276543	16.24384022242853	-0.3775865561908035	0.05205070185512126	-0.3393678422816646	0.0603207674332213	-0.5599730206869484	6.978669115105616	0.05301513236307166
0.4928	2.793704482213066	-8.637622676107823	-1.505554449458236	-3.826391549776908	-0.754126081814718	3.208957458664599	24.2487958417617	-50.76022908737207	-4.50207445409962	-32.71000307849398	1.26846156728087	0.4982635150379569	29.31110124589733	-8.252852133621921	-8.969390242653272	5.407937318528893	-40.65476513680977	-0.04258621731571222	22.31748319986257	1.749101298938238	-0.01936849969196911	5.192204689389526	-2.162542273818698	-0.8331123961284512	8.684948888755699	-2.452396361409765	-0.1787327794665357	-61.94515633751303	0.138691454003532	4.617074905420615	4.40730608149105	-0.117455293065673	-0.09859387706240161	16.20235830837082	-0.3947557172495555	0.04581522183719117	-0.5181654174359591	0.05516677903673689	-0.6418746147642994	7.088522933081673	0.002293023928818042
0.502312856113114	4.651204219343988	-1.704260829748449	0.6861567997594187	-4.707181787181906	-3.191294883358012	8.750324289834026	25.521075533237	-48.96892008781827	-4.633835341013905	-32.59987779447987	0.6297922197282926	0.4185703165572585	30.88815435383374	-5.735298578000208	-7.546901144243161	6.356216098380518	-39.62358926025961	-0.04217293925628569	21.65980164378599	1.300957832693517	-0.01882624749458751	3.596500978053491	-2.105221170000463	-0.8419246328212499	6.312534883266515	-1.958054785582295	-0.09464007832631882	-63.82711455151559	0.6423377389603452	3.310389111527363	3.686020005517104	-0.092758880753467	-0.07300221885290953	16.58721228634424	-0.5733960157373502	0.003513574584860027	-0.3242872600234475	0.07091791410465338	-0.5535346353116667	7.412969127226749	-0.03836945872475322
0.519255884473055	4.693507207731116	-0.3381424495084645	-3.764415719124807	-4.71958533927711	-3.505856112103061	5.434096552771507	26.33726246033918	-46.90040461687956	-5.029045236664913	-28.54977122097374	-1.142279132253286	0.6955560259850495	27.02519958889728	-8.990718676097817	-12.48327731763065	7.29283357198633	-37.94061832614847	-0.0416628026096811	19.10471352237201	0.39736952648674	-0.02163398954765076	0.06606809426998367	-2.413401689659344	-1.106496837007614	10.96573107873466	-0.8850764375184117	-0.03544789104333002	-67.81629332369451	0.1896135509401681	1.563184789116156	5.430886868411867	-0.06338500884398011	-0.1048915033001064	17.3423392135979	-0.51278926264616	-0.0759171686598	-0.07852698596759854	0.1352940792598637	-0.7693973789820399	8.265099195509912	0.01278963965320741
0.5336312594138308	4.456064063282888	6.191302595772735	-1.423889654918027	-4.460821457747912	-2.636220200684193	5.238502676981035	25.56946681738726	-46.33529123456475	-5.830232747066999	-25.26414822386456	-7.977526664902576	3.088992779664184	26.25110670758378	-10.544756962066	-10.54518644406011	7.970240117946926	-36.09451575982977	-0.04182519810455813	16.84159153412364	-2.572029820813274	-0.02344361179033635	5.102478645739432	-2.917571637372538	-1.290999114350419	8.487435308899911	-1.320090050756896	-0.1153445555441306	-71.78201020658935	-0.341419113327274	3.877630676605833	3.866387554538412	-0.1131395742360579	-0.08540207352009922	18.08277139643156	-0.09320590847940594	-0.03426502119259137	-0.417668859843683	0.06223314800767893	-0.5162305712345232	9.218908569670258	0.05163120417944404
0.5376	3.077116617873735	-0.2372847561038436	-0.05707291182612914	-3.408926818906131	-1.11747889747943	4.090084951793941	24.7843169781173	-47.00583100255079	-5.929392959871993	-23.38717302558379	-6.027655083576623	2.275393450548766	24.30809457570262	-13.59953778333477	-8.605852590017882	7.776656274037604	-36.16187919672528	-0.03997779936394784	15.50286423632307	-1.865622370130697	-0.02332996960682513	8.832767252523864	-2.933407903491964	-1.315734099389778	7.1778959329298	-1.712051479622996	-0.1168431606646533	-72.84363572623565	0.3912381384137895	5.064964906162403	3.635026707132244	-0.138844008279417	-0.07724311657940075	18.18632467346143	-0.303495568250771	-0.01416165018214111	-0.5881130738594144	0.06037698189189261	-0.5138695569400931	9.495767156375118	-0.01587393413311576
0.547112856113114	4.595696925370554	8.329482731819891	-3.407821048677285	-4.595909687307994	-3.381295110312067	1.222924994488213	25.31560685840493	-43.76700199770352	-5.905063231485659	-22.66110980440987	-10.91839151269364	4.242629627745565	25.03203653842901	-14.60817464818724	-12.25708897818189	8.107454301691428	-33.93095304382784	-0.04059973282517088	15.19677204393819	-3.787717658366966	-0.02754295256680516	5.2435629187784	-2.922835990390515	-1.227388488286524	9.903459393289546	-1.244599287544049	-0.1497589616526738	-75.41701660353944	-0.8095687131638499	3.790209264486631	4.197386493891131	-0.1073350914028426	-0.097018058824653	18.85728232722729	0.1378638855144145	-0.02630738183454681	-0.3948904459528808	0.05693052469814528	-0.542417352164241	10.12075182067457	0.1063023546543361
0.5640558844730551	4.63724758549403	-6.919796557347629	-10.67425319785589	-4.604435697954948	-3.791387850972228	18.13283633785095	24.66824360302882	-40.20106703049441	-5.672518414530154	-17.75965727791935	4.748374940240584	0.7983570570385128	15.29353644223817	-14.47212704569338	-13.58217257081859	8.18358582924955	-30.64225536050612	-0.04036848258223006	11.55623714831394	4.898271627311556	-0.03128903046904636	-0.9002541101755498	-2.660596783993181	-1.073648580247031	2.941494737732493	-1.205336844088048	-0.06803723437992304	-79.47883630368622	1.668407551161925	1.581446318287791	1.443417836878672	-0.05506895307469628	-0.03042604351378419	19.90888712341772	0.02260432671895418	-0.05552486979347181	-0.0755583566448377	0.03034116442863852	-0.160574332651463	11.06780909775504	-0.02212803959237782
0.5784312594138308	4.465123651987781	-8.702809069371471	-10.24230628756785	-4.133973423782358	-3.105862430467482	16.30763097928234	24.04430969392256	-37.80107272187514	-5.828382940057588	-17.93791243505116	7.063884178674711	-1.203498691464276	17.07386537779902	-7.772455543005869	-11.66114974905916	7.884680572730026	-27.53797389914172	-0.04297631884061933	5.294996996911704	6.095984663521897	-0.02168147927525848	5.135881596127534	-3.034805528842739	-1.46569510518513	-1.013407567686707	-4.064227042403591	-0.3758619090968526	-81.60014455936495	2.606038280486804	4.229620061653568	-0.4110950458329792	-0.1219183797180378	-0.02252359170646126	20.4456836389802	-0.1103807632519823	-0.04125819045586675	-0.4847785639477409	-0.1308008306448137	0.07422874603457395	11.60287738954138	-0.0757797742276279
0.5823999999999999	3.629095712835241	-16.82434269772232	-7.678932350424046	-2.124814805484881	-1.507803815558191	22.37199063966002	22.75895484787061	-39.83044457549579	-5.408855114271688	-21.58014001947642	11.44616839405683	-2.116246898666739	20.58504337401977	-8.571649380318885	-7.977650904585493	7.621010856534115	-28.28862680652545	-0.04048981206763028	8.677443689032682	6.506782207284915	-0.0324295447382277	8.545257517698573	-2.851612304214069	-1.557991018210074	0.7066440249468765	-3.646192393591546	-0.3411234301269069	-81.8240199428738	5.269820117498059	4.719598573089289	0.7752902829019229	-0.1385950484135321	-0.04081856328461009	20.42320688636097	-0.3921809298695245	-0.05846801675725246	-0.5670153486759567	-0.0821417940032998	-0.1223264758748925	11.70163353107677	-0.1830678258645702
0.5919128561131139	4.603860186919448	-8.078427865822137	-8.26847253615753	-4.433888846837736	-3.982962209732989	19.76143046048743	24.38812437548667	-38.5847936582642	-4.659827127677699	-17.07692678888373	11.45016704177121	-3.987673073304379	9.606179811265058	1.661874194957942	-7.870667286625642	7.649633427760874	-27.02927615106401	-0.04496077417237257	9.945627944812877	7.214568400292181	-0.04794955888246771	-7.185934931441026	-0.6740294854913278	-0.01996632390476938	0.5888250801312005	-2.262404173233616	-0.2920674075778834	-82.76692910371324	4.524633505458461	-0.5563596728254917	0.5909000554938397	0.008354104972210813	-0.04227203220203134	20.72263078089284	-0.0338945347677751	0.007230107680945091	0.2398144695762242	-0.05403100837056207	-0.06300605152167403	11.88109368042662	-0.09271649094844774
0.6088558844730551	4.73295711672721	-4.766036295854779	-2.913782934197733	-4.166898869360406	-4.222030223673755	8.589847107537793	25.16014118349598	-38.63076398647416	-2.536120162137318	-23.34539421433861	-0.1139491647217494	-2.215441889078886	13.97238319214925	3.499488514462196	-8.562192882570933	7.28257751832128	-25.97217989917095	-0.05059759472692483	5.987769082521282	0.1995991934922814	-0.05653388949727679	-11.15037658700445	0.08464863319274274	0.3242394215177211	12.06815933630506	-0.5484538560173264	-0.4202408086794187	-81.58120533660161	5.276616750227522	-2.954020524830022	4.890754158135561	0.05714921640828269	-0.1547590947002889	20.59153379099258	0.3081155917084518	-0.03825186026205915	0.596926145786454	0.005469906060420762	-0.6158311243106976	11.58018306182819	-0.04922909793812701
0.6232312594138308	4.424822974220429	-10.38637522831246	1.424781467520108	-3.631900576754639	-3.918320608276701	18.31013169454076	25.30500192900756	-35.61069256084366	-2.124163623886327	-32.20610387369494	3.244414176668226	-4.278595806123464	22.27299474115303	8.664828912972631	-5.075426220227	6.474788878802524	-23.41762165918787	-0.0529974220480754	-1.373378464192097	2.346869347882158	-0.05053966272623085	-3.54084313519604	-0.2913273929615336	0.3075023480110699	8.802355504453173	-0.9701554179845162	-0.3749822591567784	-78.44200775591136	6.708953265833197	-0.3653395867406594	4.466297532130128	0.002376929549928603	-0.1345886278610728	19.62086516365856	0.3574419348387032	0.02165828691929828	0.2109917609871773	0.01542984791676461	-0.6317064772661993	11.21898515233604	-0.1873861237595144
0.6272	2.601312711441047	-38.52074094309031	0.4375097889486939	-2.281362897577312	-2.173695639144796	41.25501720541296	24.08182453669438	-34.27430938048497	-1.555021714562581	-32.67437506980422	22.77069724489079	-10.52374604481354	18.28901785242311	5.888033264319898	-0.4264284403701625	5.832189011704707	-22.77937736198791	-0.05169202404083734	-4.07999206401559	11.93123451603229	-0.04834631662567793	3.03804733802128	-1.869354565090313	-1.027397409218989	-8.696638437969481	-2.631252896746258	-0.1226162042933749	-77.1402444470088	4.762032211742786	1.525849671552685	-2.005713062528542	-0.06983087005412084	0.03518587481368485	19.23029851475118	0.2330637559380546	-0.1040739074252952	-0.1087230138618871	-0.04798744086219174	0.2117766712023086	11.05420333293534	-0.3116054773795519
0.636712856113114	4.584096407188184	-81.66967033262736	-12.91635033992405	-3.872006652748208	-4.284027048705639	84.32885194010143	26.16857080279935	-31.03089071517315	-0.7344054531534674	-33.78128050589874	60.05874630369735	-24.78100163705464	9.560005240804159	12.83704170805216	-6.532762387150523	4.235591191100058	-20.58829799764798	-0.05871039459713226	-7.410962688138799	32.39280357903238	-0.05796191720475113	-11.90324074075341	0.01943881764608379	0.7179698378135693	2.162605056475583	-1.244809821830412	-0.2568842377656919	-73.43767889207969	-1.479238869282134	-2.754653520567439	2.156772734535986	0.06195881996047864	-0.07291113730458884	18.51228812267008	0.2463856932660442	0.02218575147090499	0.6002801228333692	0.01237638735141811	-0.332634026790654	10.51228249325582	-0.07872440836886707
0.6536558844730551	4.631689084317451	-34.44252842950286	0.6692083086903492	-3.724652773827522	-4.452301586742067	34.86571552906979	26.44916332177322	-24.14460431782756	0.8038925031086519	-46.35493167831475	9.633632757303767	-7.986475780053614	24.98728653536687	7.616033755479561	-6.768078513363491	0.9309971121298548	-16.04421203712217	-0.05520790225672416	-8.17956457137524	2.407501236277606	-0.04463250495727977	-7.388424864975057	-1.340167390111905	-0.4254464387563666	1.871612012679214	-0.4768819132262094	-0.1790528169488038	-64.65703293905401	-7.275985943025729	-1.685797651934305	2.098594960280106	0.01065795177715739	-0.06546451216217597	16.76379575783369	1.815807692579418	-0.1045589352263428	0.4167997279035008	0.0404954402408891	-0.323234955204145	9.112976340972237	0.4146976949298742
0.6680312594138309	4.390061710927931	18.56136001381202	0.6054430965413442	-2.096069871656823	-4.088979335557156	-24.16763553591991	26.99134832207227	-15.33896903548935	-0.05832849840253118	-56.07678513903389	-39.85897873439431	10.6912582365505	41.90744374166054	7.431355404386932	-15.76672553195417	-1.557973255310162	-9.866057428570247	-0.05359341403611167	-17.03398645576027	-27.7359898089875	-0.02111052518520833	2.994555967980175	-3.313203338749739	-1.725335336469711	4.770072627141077	-4.922881268862913	-0.6230670702371859	-56.08140118717969	-6.693062601542338	2.636023796175483	2.548474824639612	-0.1054188810343749	-0.1098367108419377	15.01326766662057	2.864051673135721	-0.147875483427138	-0.2629080037804603	-0.1574246002449839	-0.4186693267149549	7.973438528635162	0.2905893716645765
0.672	3.259990511180749	16.83677455599845	9.198734249309734	-0.6935962068850365	-2.501909959966099	-20.36433071925836	24.92544826165085	-14.41930090684208	0.5383010883485557	-53.44448342605613	-41.43317505757854	9.872269677706811	40.88055855057933	3.611854222060157	-8.25578628636368	-2.63369517169784	-9.513232048152092	-0.05000394058845928	-17.55561687875871	-28.03601279373681	-0.02641512745058176	7.980774127186287	-3.557760472872098	-2.173171048169721	-1.345664289586638	-3.482703741469563	-0.3254685077741751	-53.84176833697031	-8.820922981106241	3.57225730242952	0.6627284842731501	-0.1379844591048623	-0.03906319669717399	14.54338555903382	2.990995699263524	-0.1979096401811319	-0.4353762133006001	-0.07905411358434999	-0.1689440525080522	7.662922603241131	0.5271648083893268
0.6815128561131141	4.467719431086433	27.53523140590623	4.083044245565025	-2.858465901306104	-4.402176139038829	-37.96819246723244	27.33063154877505	-11.90935110172378	0.4451952922106597	-55.99706972450353	-56.2606305376063	15.48611353394869	38.06789709667847	3.610392070516182	-15.95314404931588	-3.520099221325955	-6.731549314025251	-0.05474011966395526	-19.56502046853766	-37.46747152312625	-0.02572514444162136	-2.891954710820315	-2.523585399594651	-0.9405348246217171	4.862996477859609	-3.448644420013244	-0.4550395041860413	-47.95666708775151	-10.93919285333893	0.5355867687100291	2.960250799509918	-0.04021665212212674	-0.1009503873163411	13.52767022032857	3.719676738548753	-0.09544942233544716	0.08833385298310198	-0.07288316435200616	-0.4815979010046924	6.922216060642791	0.7189130754486808
0.6984558844730551	4.452411542167006	49.83550651974036	7.128487873380017	-2.580808547193492	-4.460929613573967	-64.08801998164128	26.76580910499265	-5.287668350070046	0.09187813114434151	-55.45212261576184	-81.4145282862353	23.15329276764282	37.56463633192129	-0.01403726597203336	-15.02147919967264	-7.158795828480717	-2.039217391661824	-0.05059062493573784	-22.11749300239395	-52.38037509055536	-0.03433497335222763	-4.152069084013734	-2.507207977677395	-0.9051298752998065	5.6176537857347	-1.637695062057879	-0.2907942978293543	-37.33018468395841	-14.70368787858926	-0.4042148857571904	3.64997047998391	-0.01914506470538853	-0.09865164595470644	11.79618484539036	4.918738284428553	-0.1169755636034241	0.2383295293552959	0.0212183340205931	-0.5765767881680313	5.714278693318827	0.9914710311786025
0.712831259413831	4.076337145639659	57.1049959315665	5.838788069831541	-0.772567963288779	-4.028580514562577	-74.75934653947633	27.13621366975652	-4.498960662636676	-1.071909832128898	-55.4055595244559	-92.82299960092058	25.88252516675842	35.71402341434079	4.082730929941695	-13.48358954124434	-8.409447142641501	0.7142466309025137	-0.05214635507725443	-23.87984824313265	-59.07169584665435	-0.03893687603556104	-2.597744775107877	-2.128435409239235	-0.561835231140464	1.237866130794288	-2.99851975969834	-0.3019001792957837	-27.83597143862894	-17.72536622104894	0.9433440691641548	1.821071280617002	-0.03844248579649216	-0.05484620086030757	9.919134608173469	6.127380089454029	-0.0350341012173131	0.04746279979576522	-0.03386235680915382	-0.3304485767121139	4.55800091931209	1.20736578441501
0.7168000000000001	0.3597438979413923	60.04319916320817	9.135755851157343	-1.159929197301075	-2.166146380900784	-71.62982024299605	23.89940833174162	-2.033667686466772	-1.034072825199555	-55.11127405155508	-95.89768003955976	26.07996288218999	37.75295753677047	1.13797437322514	-10.16488743424338	-9.924078589877814	1.248506962990505	-0.0457125107577115	-24.0331913546519	-60.37816267160319	-0.04036771588996941	3.007285014585131	-3.284415991279507	-1.660388552955744	-2.966438461864334	-2.317958340115049	-0.1092683874256776	-26.34069297310984	-18.05269932186048	2.541568062151053	0.2811175337264668	-0.09902987538140329	-0.003475693690268154	9.600202779776351	6.33903828989741	-0.14508467815616	-0.2365591822119781	-0.0004222411914199999	-0.10701326908813	4.349052722824036	1.229875877889334
0.7263128561131141	4.173326180204015	56.33581247637616	4.786473634023468	-1.111713714113812	-4.304895032104923	-72.98175455712986	27.45317175172236	-3.544575322791379	-0.5610790527467096	-54.6155038554687	-98.73726422465178	25.91125590953108	32.73132531059384	4.266653311545218	-15.8690987579182	-7.670629727067572	2.020996953923608	-0.05448739177800017	-24.96155104846783	-61.61042723003214	-0.04222696832733389	-5.302861765890182	-2.264081526522985	-0.7525092316105698	4.785567525816054	-2.579772978059962	-0.389473132230617	-17.49767646011334	-19.13410489947952	-0.114954351225335	3.090081142696409	-0.02115484007993722	-0.08964905777231125	7.474136154885912	6.896620758199024	-0.08438527678710925	0.2094388212613752	-0.02589629279293543	-0.4925308194841288	3.119982151908357	1.293994022608378
0.7432558844730551	4.010260273651467	59.20780428466249	6.239571286310606	-0.91150417664646	-4.421506555672238	-75.116754286873	24.68010419513201	0.1157990575262522	-1.397891880956946	-52.80660593339474	-108.6436473774859	26.98244811872952	36.44551655429328	-1.159970907004768	-13.45171741101665	-7.605113114594694	4.579771884617177	-0.04143354741295495	-25.91359572911223	-66.17738564813737	-0.04264377456288472	0.6865845761522202	-3.120446253597643	-1.558925863591279	9.255723146209004	-1.565180663167154	-0.4808811604173553	-6.00780968139347	-20.22420489133256	0.435354135389856	4.816860735954744	-0.05296898184017478	-0.1334861186808056	4.214400805132271	7.872580759692781	-0.1906021094399697	0.07942485478574797	0.005326289710582292	-0.7106871213622316	1.233323827151083	1.280147232771569
0.757631259413831	1.359562124272543	56.44782801510994	7.69849236660509	-0.8556213711391649	-3.919874144815594	-72.7606355382963	24.51354138455908	-3.370540964603222	-2.48980244038644	-51.11984581407841	-111.8383805137297	25.94152483209354	32.74612716926442	3.170291280643448	-7.904284614420404	-7.983026795192655	4.771452187075482	-0.03233748535095258	-25.53479592629024	-67.122924401321	-0.04105618674443816	0.7291549057312706	-1.852877379527793	-0.4984080702880058	3.539742787726281	-3.475579303661438	-0.5959302443208956	0.7183408672633053	-21.51591350992421	1.271813405678304	2.249331569989805	-0.04409770900645915	-0.08561275603948966	1.937854684362574	8.499355283739508	-0.0291922436074503	-0.02029495367903646	-0.08537224949850698	-0.3449141046916205	-0.04712156314734064	1.329113717211139
0.7616000000000002	-0.7004714353716288	50.86613453582479	11.87456690134849	-0.3636726786699001	-2.352862109112209	-56.17931338913392	22.75401091541904	-8.862729512944753	0.08242735732611894	-49.43832275175556	-113.106838523207	25.994328036118	32.40616340533892	0.8637294019419985	-5.268766472112547	-10.94667084456113	0.6594478303106645	-0.02329590254457085	-25.47730322599126	-67.96666331522418	-0.04209298201608719	2.966152059336522	-2.51061455427629	-0.9675122568712387	-1.01799017020782	-1.679264878463202	-0.1485699025280685	1.582901268793487	-21.55075313061933	1.907319884507398	1.055688188677776	-0.06772797454740478	-0.02214452713420009	1.035464326128761	8.526175003429083	-0.07329093959331914	-0.1290970017072774	0.02892160402892519	-0.1750807117337581	-0.1418919878481486	1.318866510018075
0.7711128561131142	2.003188028742258	45.94099599937761	5.609363201956651	0.2889365833373958	-4.178337557758198	-55.88618062356038	28.61010102391556	-10.32273754469604	-0.3640096147151524	-48.79529891152177	-110.57295091637	24.3389768102154	26.98023157457848	3.991917808808239	-11.27261329259557	-9.679024728367516	-0.1540933844342001	-0.03359529700971815	-24.7788459275842	-66.42521016856678	-0.0437546675376571	-4.658703495814041	-1.279564777027431	0.05279280705696721	8.164593024420409	-4.53445604960367	-1.010056457306527	1.803418053857689	-22.51072702805121	-1.236300073282915	3.66380663249509	0.02166500856958284	-0.1452433745004096	-0.1647961829036781	8.853726315542914	-0.01598372379934421	0.3914856012541388	-0.1543767645687214	-0.5243228103751678	-0.1447020082995713	1.384255871886372
0.7880558844730552	1.91178191208127	29.82409787987125	8.4324371793087	1.779282589776713	-4.274278080115209	-28.74287418212559	29.91599370976532	-13.78716096255132	2.17550785117951	-46.57771253977378	-102.0813076664831	20.53504872373449	23.13428392235036	3.154980945226086	-9.678189447954333	-10.10319301325692	-3.546453855458316	-0.03474773487895253	-24.20929015890963	-61.65456815615365	-0.04215128247994259	-4.921136868969772	-1.886155854577784	-0.4759419674909745	4.285547888117165	-5.385706458838282	-1.082879962713879	2.077750698037317	-23.73772231809286	-2.256353602017028	2.220491007011065	0.03185591574488994	-0.1169048838840987	-0.9386454704280919	9.08513096994902	-0.105917338679832	0.5332660977271376	-0.1800045128228917	-0.3213078537518739	-0.1435883472475271	1.45295079801154
0.802431259413831	0.5806341179248946	21.09024304159991	3.40782597262954	1.617511228876246	-3.65635054953907	-24.60300291219179	30.58199150500813	-6.885980755632611	-2.201500905235515	-44.62899076561086	-86.24137343949349	15.69819848126954	19.60760396939908	3.771128382056008	-7.575807757851321	-10.04609217409069	1.197273149651976	-0.03345796243544966	-22.83799731692955	-52.72605096671487	-0.04134319284284681	-2.835955728642776	-2.344794745492017	-0.9843892122217119	-3.736698495849118	-3.771887813515358	-0.3865626046189512	1.416947355667271	-25.71364875920708	0.9995789909310316	-0.390786202184817	-0.04256353349597025	-0.008287780963180216	-0.2439322427794982	9.482702375375267	-0.06622302550127014	0.04142113928153356	-0.0550823852620134	0.06796854425080068	-0.1119164475753073	1.642783185685116
0.8064000000000002	-0.3836677442320457	14.81644830499032	7.534562225814054	0.7334592231546537	-1.290928143815108	-7.63649378167587	27.2258588078356	-11.99827113254621	0.7892267483816173	-42.81006313857769	-85.78404781484014	15.12682718755215	20.90232906635966	2.864789638068712	-4.715600889174158	-11.26015218109491	-2.099097363044303	-0.02730319350640964	-22.26653152463071	-52.37215972684818	-0.04306534762249701	-1.316284846930097	-2.41537421233931	-0.9464365311449807	-6.116841715070313	-2.902498123692522	-0.1101733615712999	1.712552729740329	-26.12029187743626	1.59874773088632	-0.8366189515888871	-0.05350026564146756	0.02032263829247669	-0.4802851982919446	9.442110562592774	-0.04486559012369044	-0.04544604466564167	0.01062120729765321	0.1216395962380242	-0.127112862765126	1.689446583593887
0.8159128561131141	0.4443730836169379	4.69757081121768	2.32286947454023	2.665049335157445	-4.015143480109828	-3.730648541407827	30.79284847548081	-9.930541646774786	-0.7692290113093634	-42.15382864432543	-74.93475597360626	11.99801756657418	16.16390541799218	4.606651014134866	-7.79699221255574	-10.04203682875194	-0.5101715502032609	-0.03139215460156593	-21.19392876463055	-46.47235315893933	-0.0426946071492924	-4.964533650173697	-1.960827490684012	-0.7262007653736172	-1.898473399923647	-4.579006787251427	-0.6633129284390555	1.914925032558477	-27.47024190441237	-0.4802815024201603	0.1482492206839982	-0.005185936231548949	-0.03833295520123921	-0.6025322070101615	9.651197331086497	-0.06964643623526773	0.2682491907952487	-0.102913301751103	-0.005991388813725605	-0.1531472382607985	1.870533916546935
0.8328558844730553	-0.9030168489448656	-10.5326412313315	5.276506739965549	3.24791188662876	-4.075584611328225	17.85826860668966	29.03514440939094	-10.78730764915427	-0.06382475162677892	-39.81784435475644	-61.80426542691378	7.638416980027465	15.22356767482816	4.826583781957204	-3.838636835837755	-9.925060042751015	-1.075615730985265	-0.02794452529483295	-19.69812445679706	-39.05992904074373	-0.04090036936976027	-2.827842658299971	-2.189795990701075	-1.000936059684774	-3.980823923447237	-5.337292483566291	-0.7477158440048706	1.551496907763913	-29.39541499048439	-0.8913949495458252	-0.6412766761259814	-0.003430042487236468	-0.02915446330127179	-0.4193438835855502	9.625514382488772	-0.1196539816117989	0.3100119352260076	-0.1331094100737149	0.09780850838510219	-0.1339640056207558	2.187192195916439
0.8472312594138312	-1.261737754630108	-18.07195880921544	2.971323233448463	2.592224245617292	-3.250928831390354	17.11422598035115	27.27231273385425	-11.84778904472996	-0.6407841668366117	-37.35006031777883	-54.29785197375335	5.479117421199978	15.28773309385278	5.412480927628399	-2.649374615191924	-9.043955684299055	-0.7005155712430924	-0.02473137291435046	-17.57270721550563	-34.93688767955865	-0.04081803139923258	-1.653476383662739	-1.612248653926448	-0.6176003898342415	-5.259994141192504	-2.866237672474512	-0.1208440301788378	1.30451112302037	-31.70491546548214	2.354053763814466	-0.4296764491471203	-0.05531637631986758	0.009619027214805852	-0.3167731581608597	9.705111075551873	0.03771973328868589	-0.1597025852553369	0.02376757290686717	0.08359972304405187	-0.08174278365499307	2.585855107357684
0.8512000000000002	-1.040355145405918	-14.70446060082917	3.172306207700508	0.955102646595261	-0.9356113106014163	22.48452150202481	24.83173263555993	-12.17427813538313	0.4409345925519252	-35.75158612467225	-56.02095073621847	5.355224975843626	16.88120396036562	6.819040631930447	-2.851872602628095	-8.702787248888594	-1.571706342512748	-0.02201591177502274	-16.81526061910721	-35.79815348086217	-0.04210111494837539	-3.29274025600787	-1.158820684795943	-0.1946188951312204	-4.852525725613087	-3.15420217179416	-0.2073177795154226	1.464174267938581	-32.2248627001895	2.065623973582015	-0.3619458440541182	-0.03695968527998938	0.003291845575543569	-0.375011025224216	9.582964048535146	0.09133237623598288	-0.1018012806661086	0.004069132288986277	0.07471459128841802	-0.1070929726277408	2.712778891259035
0.8607128561131143	-1.610937740049373	-20.17105986050352	4.816762700893793	3.342220759105709	-3.454582820480539	18.76557764895946	24.82003398333768	-13.3080897815738	0.5505371441326474	-34.70670133562223	-52.78755596385792	4.438957837321639	16.4354510585189	5.971228642340985	0.5684486260108288	-8.268507090184388	-1.866121560521403	-0.02064240612207648	-15.39556408965388	-34.20622238330439	-0.04121076959006369	1.68625291197756	-1.430923644582962	-0.4676212140623716	-3.255702675319798	-3.377053397497405	-0.3792499937730925	1.658896983193708	-33.80080432899556	2.329324581116827	0.3992904851301976	-0.05362828433452213	-0.0243608586709336	-0.562801121946531	9.659034346374964	0.04088300538696023	-0.157160120389262	-0.006611606564282189	-0.0467116533200945	-0.1116249048468575	3.046429540582413
0.8776558844730553	-3.062299930490029	-17.67409309135153	10.32384556955492	3.581359433633983	-3.284328857549781	17.75852343610742	21.46173405538925	-13.45326798533076	1.43303063534143	-31.6521967289135	-53.19767905116807	3.727478638545218	17.92659748833358	5.498776922508364	7.03242193969708	-6.85041522088769	-2.527909879698111	-0.01665054849662781	-13.03287197212499	-34.32979367210758	-0.03986952490664222	7.976608827426661	-2.120322025485227	-0.936865159889293	-5.347890057917636	-3.047827323456891	-0.2205655696597726	1.504702756660064	-35.87963957247421	3.223892842207786	0.004482860162281416	-0.08863331996950768	-0.009044699543430918	-0.5575253487272985	9.524589116515305	-0.01496414161826707	-0.2966740562345535	0.02846624557741256	-0.006403906626983966	-0.0942272545063392	3.568730231141862
0.8920312594138311	-2.41360990708532	-16.00684909734591	8.291089601350677	2.894061974610848	-1.649545177310756	10.11839646253166	18.99590456556887	-14.86070831193586	2.386345209716296	-28.54208838274228	-54.13454585479513	3.697609480279045	19.38444109660789	6.146417525512089	7.111966133165274	-5.287954538025438	-3.397146667504995	-0.01403342468683901	-10.29023960943806	-35.00564553758924	-0.03983230442783314	8.287883540077221	-1.169160295681902	-0.2097714353458358	-4.351090421010257	-1.593281816363665	0.10153816106323	1.338384079623047	-38.27941663917169	5.786292311345622	0.6504757920111833	-0.1163148488078228	0.0006632586992626893	-0.543934193604812	9.599832787012026	0.1715226969017486	-0.6566373796102785	0.1132031157348672	-0.07696728263660006	-0.0557747684801729	4.122981468129193
0.8960000000000002	-1.876078860934392	-8.654415164947599	2.893559669715592	0.8593688215369983	-0.198018554524765	10.74959069449136	17.42638690492619	-13.98367502616862	2.598875928200751	-27.1715733498033	-57.72180565925176	3.849926261139414	20.1990547483234	8.971035370830524	1.919178933258801	-4.555916249850721	-3.425497055277396	-0.01217335346087708	-9.486338164401696	-36.76841957837777	-0.040438223740172	1.712116335770366	-0.1829296856431159	0.4405061982768975	-0.4768743101026103	-2.306071071914851	-0.3080758331881539	1.621494840249848	-38.92775417945343	3.7806772847672	1.644008712413964	-0.05184022231905611	-0.04167300989484485	-0.651874381200529	9.561312935778592	0.2197516219912141	-0.3591843417811601	0.04550729259607334	-0.2023999986830376	-0.09911522511044675	4.30939337179626
0.9055128561131143	-2.847381825148517	2.394084862060049	-34.13323356353587	3.498064403019704	-1.118209435261747	23.854698874153	17.03453555674514	-15.77699893221487	4.029814045209051	-25.20389952148179	-60.19924056019764	3.883537961828822	13.78206819179349	23.86593111076911	-34.54245097863486	-4.212816092296825	-4.985270488756815	-0.008024159450370761	-7.488064414332674	-38.12726189228266	-0.0381270172025189	-45.37235228344377	1.632491060344558	0.7368267475385535	14.451832065998	-1.443955902418003	-1.159513306600455	1.788374369554362	-40.43634290687782	-10.33414100761133	7.278672286237515	0.2701394269023953	-0.2065161372288182	-0.9098093200576862	9.620860933798628	0.00490181748826183	1.562794176069006	0.02404891851308585	-0.9624449527050595	-0.09682943095723515	4.766502258160306
0.9224558844730553	-3.491725692349688	-4.391420203473881	10.0810761565205	3.644694105345337	-0.4563442366152799	-4.756776788708471	15.22407638466803	-12.98883887350514	3.55032172051878	-21.2887189213579	-62.21124725976387	3.255429295238211	18.07920879190199	1.863118090796835	9.569155544404472	-2.774526185553083	-4.225049600507901	-0.009894791552314869	-4.182233298796857	-38.522337660445	-0.0413365750425933	12.17782177484679	-4.206943613137962	-2.015217766496308	-5.126635574209851	-0.07892976219912251	0.4409525157011054	1.657202337384126	-42.94950785366621	7.359174425482376	1.431642582839893	-0.20882823581558	-0.004582905182352381	-0.8519173700444094	9.707006882822066	-0.01237471521083872	-0.8657112789919327	0.2200629081983125	-0.1961049895103048	-0.08212224124319431	5.3849787718271
0.9368312594138312	-2.643330586036095	-1.076500808316923	5.118572821832848	2.88772876255824	0.2263079168048421	-5.178927223545287	13.56962459439321	-12.41948221463641	4.073985020839842	-18.73285701620195	-62.21331613875528	2.805027958289624	17.73480059024414	3.436473711594251	5.161828357205898	-1.437272059762205	-4.444618925917024	-0.008510570009465607	-1.9379800038096	-38.4106185374564	-0.0390691136601208	5.590945195108224	-2.453303665898936	-0.8683416246303992	-3.177873312690919	0.1333138324485995	0.4688550619377262	1.536491012103972	-44.40474978934844	6.229996038552843	1.55671477623417	-0.1442940865664739	-0.001504319997600478	-0.7805729829204312	9.761029345389199	0.1433598565058288	-0.7453229705578253	0.2071698249733477	-0.1692830616722266	-0.06977456124287579	5.773098858796002
0.9408000000000003	-1.847793702210753	0.4177134314074937	-0.7024748109098108	0.8483198311396833	-0.02621699274794764	-3.083535179888067	11.82155034085494	-11.54234603673459	3.952610591411512	-17.89658780630661	-61.29531238605428	2.27395232738796	19.53014817288748	5.749084051607006	0.06812685803698715	-0.5713258320831189	-4.161123405516376	-0.007091499251322037	-1.34117007363865	-37.8940846616778	-0.03822229821312642	0.6674126775112482	-1.533108028011444	-0.4369180215774434	2.250960280964906	-0.51988501681058	-0.09027747978610079	1.77493457891988	-44.90241283178076	4.253215050829562	3.286831726207257	-0.0860597747105134	-0.06222596487037918	-0.8714212110104395	9.706678837612278	0.1583246852941236	-0.4634749567392116	0.1445981070075732	-0.404255881864276	-0.1003041581829141	5.896938656548549
0.9503128561131143	-2.625583460571178	2.337690936874024	4.017934434036295	3.473900745473792	1.286795646482517	-6.917587859694045	12.38268139757121	-10.89768420263818	3.898392500606813	-15.91876679227509	-63.63781435726469	2.241372388156232	17.00868725456192	0.9863878770564605	3.762474847511562	-0.8916698205382589	-4.259100076682915	-0.006410276144476354	0.5687319798201962	-38.65891670548449	-0.03946506497046787	4.40146534169616	-4.529430687216967	-1.736340456179805	-2.4125341988978	1.139233951866184	0.6286814351564111	2.016242685067559	-46.7785183452963	5.557743942561071	2.244262258379303	-0.1694949824146061	-0.01505154681855614	-1.057909451200327	9.881373860565891	0.0001823219211161548	-0.6922969094910103	0.2509922534027953	-0.2599895672098079	-0.1183184661896813	6.257716519875682
0.9672558844730554	-2.621684993236645	6.061024809360107	0.03557903814435065	3.625048437387017	1.54183526884367	-8.919048609057	10.60405088932856	-6.224975392607934	2.407974985203806	-12.9134521274844	-62.81238595871779	1.339082059797171	14.97470168431856	-1.822421068898095	-1.319366738430996	0.3134789961401179	-2.088871174344432	-0.006279146021273078	3.382372217080976	-37.75866481718661	-0.03932383678748256	-3.812490535641749	-5.75076005952996	-2.061058580899925	-2.099512789979986	2.198839987004436	0.8893262731885162	1.412638078373429	-49.23316453205467	2.456379960912353	2.710258638383659	-0.1304465565827816	-0.02043788840772226	-0.6570365579468868	10.12907734974241	-0.1274113735336446	-0.3342696307397663	0.2964879840042047	-0.3122991342568283	-0.07554422299412358	6.74650278584499
0.9816312594138312	-2.304840350256789	8.019464600831547	0.6061169090802074	2.581712194441257	-0.1280090395238744	-8.277434453765878	8.258741450228898	-3.510282692736912	1.520946082461172	-10.6882716295353	-62.53406156529103	0.7444839963124582	15.30429398539292	-2.149334002636159	0.5423414969901359	2.047626482509254	-0.3221103134805786	-0.006452488754820023	5.832271717643245	-37.74079279041501	-0.03759505654395204	-1.763266947930816	-2.148461594148115	-0.4115708681874022	-3.078551526393447	1.580506191597589	1.013369397198984	1.529358731757432	-51.5313079816104	3.281427613989078	1.466806161205646	-0.06791455435537737	0.0161790589747299	-0.5847852359898159	10.24232871222783	0.1776431476421192	-0.4237249071452148	0.2610387881429314	-0.09932738645646957	-0.08602176010373237	7.10593372131813
0.9856000000000004	-2.1551154462976	11.20836087853623	-0.7871645402124028	0.4122286803413324	-0.3287760441794489	-14.65841754780985	3.380299712645305	-2.458379731466045	1.39717422714666	-10.4395068932778	-63.85646916979057	0.689792022451079	21.65849645436215	-1.31815025452511	1.176771480156575	5.344200650778395	0.4157577906813876	-0.007349925291030138	5.854785994937727	-38.68147785076231	-0.03648723287022101	2.67511873714251	-2.416558971943822	-0.4572869171450671	2.323441475010911	1.13364021971356	0.4094888554744445	1.593571468372004	-51.81825323051788	4.227999034604331	3.636347212181037	-0.09888420439111409	-0.05147931627889124	-0.6697395998405061	10.14100981959566	0.1756623108223476	-0.5198507533585879	0.2238620368215872	-0.4147901238949113	-0.09477339682455613	7.191012316316542
0.9951128561131144	-1.915581004604313	8.431487205304325	-0.8961438112328587	3.106800397844916	0.1933854543574967	-8.664008989986478	1.421108136737293	-1.130231208134414	0.9221061196601604	-8.229374837529097	-61.72514332609824	-0.0523908011990607	20.40107039955158	-4.682818142849886	-0.04661444177209995	6.620552864257538	1.258693715958689	-0.006594021671363989	8.01544743859896	-37.09048726350061	-0.03877506803030653	-1.865546520455761	-3.560398767560344	-0.7200431508146738	-1.365903890580987	2.010193362122456	0.9288890014227027	1.796755689192145	-54.5675393757228	3.113102234785835	2.25099412545855	-0.08386573192418784	-0.01303142718829992	-0.8200972260961922	10.57095027470221	0.1198239586068378	-0.4517942492377582	0.2533900302423194	-0.2041020116339125	-0.1166865224409002	7.679445644543257
1.012055884473055	-1.934860251304471	10.30484096602045	-2.631857099842917	3.003613749284298	-0.4742954223892752	-11.90584346821473	-9.58195720505474	2.869711154985541	0.1202869728053031	-5.132430557479879	-62.10623637039339	-0.6140559704174521	27.18303286399471	-8.491535589095644	-0.3823512049268669	14.24370031954106	4.389823150473259	-0.01062000006060377	10.83506792657056	-36.99645617678494	-0.04036038599695577	-2.338849911341616	-4.8863809440896	-0.8218621935393176	-1.27919425289551	2.243566454810058	0.9539375958956411	1.201956264395571	-58.34498230768279	2.839796921276556	2.185059388684744	-0.08668646330180028	-0.02053823619428155	-0.6203417069481798	11.16279614558454	0.07415447528025128	-0.4791948420822816	0.2326246835839645	-0.1865329732100369	-0.07809856716781284	8.303894930279213
1.026431259413831	-1.74376432730952	11.17693675183715	-1.251821642274051	1.637180380796499	-1.17261487414163	-9.034514743446763	-19.44858632393704	5.466691032700774	-0.2430426712201657	-3.294137988976182	-63.12664853757738	-1.291474770341221	36.11765114248459	-8.314529571567052	3.98729861618401	20.87483688849836	7.50028150608818	-0.01851037416268606	12.59744210432611	-37.91929520034546	-0.03889911526349794	5.998399336381037	-2.364143767415605	0.1608926449240242	-0.1114556203563684	0.9614721971278666	0.6476969412338087	0.701483334557327	-61.48473346600495	5.126576472104247	2.136785011103234	-0.0588493394520217	-0.02182543173984357	-0.3746976275870403	11.52842500321446	0.321836377067092	-0.7099698957714571	0.1855868944933865	-0.170429466541677	-0.03764874040136384	8.821489151359506
1.0304	-1.654383641931268	12.60991872590151	1.166792042404013	0.009385755835065623	-0.3880074075903508	-14.50152284486878	-24.08318044001743	5.376932562519339	-0.1129573777758939	-2.731650811688865	-63.5181088409511	-1.548769432847738	42.46905058254744	-8.616692197086032	8.054328995208817	23.45457445132954	7.962524512213538	-0.02096585677750338	12.19809320228373	-38.1307232268341	-0.03856807028416272	14.85390787504586	-4.224927863401731	-0.07504986447602424	3.233879278328467	0.8494782550634014	0.2631326096087581	0.661947049441326	-62.33026714213436	7.975063234828346	3.876088867691749	-0.1577548098295241	-0.07051122015741085	-0.39397830142485	11.4705204321639	0.3285099198896222	-1.053321080937664	0.1824910140146598	-0.4287488697696673	-0.04260660305822919	8.978428976077801
1.039912856113114	-1.699815824849551	9.332054812687806	-2.990090787629694	1.942560186743265	-1.943232661449258	-8.596802100963288	-27.38022519529193	7.810395302232168	-0.9994883276413935	-1.3029263240542	-60.68019237798831	-1.914998069387807	42.29117326901804	-10.11900813537032	3.058564898648152	25.44315180507219	9.68365950364857	-0.02230828675282959	13.80478284160575	-36.51393571883556	-0.03999653554764181	5.169008002485525	-4.19065765151948	-0.03865674528396135	2.151368048260958	0.5738292114520418	0.1755841809441335	0.7781377013378014	-64.80457131975065	4.973878364261815	2.938946394889888	-0.06685494175292239	-0.06087707311233911	-0.5370905075451206	12.03941555161312	0.2398484415316865	-0.751497911862769	0.1308883667873273	-0.2856998152089844	-0.05889488663649921	9.399474993757318
1.056855884473055	-2.020127179994773	12.182006729171	-3.382037652516428	1.458340503430541	-2.999809287503354	-10.15514864467843	-35.11808312386124	7.368591654230551	-0.5792800630882349	-0.2009298808005446	-64.50506428597443	-2.191029773902707	48.89505845513241	-11.64158268238	3.504352617121324	29.52838425621123	10.22467527266181	-0.02411116687413321	14.0868234091818	-38.10235406213472	-0.04004178401427489	5.722690109605543	-6.914520294515038	-0.168916927165774	3.318584895948352	-0.06890226062028382	-0.2875550457821858	-0.1461673892585482	-68.26956898371608	5.485700164851196	3.051380457774671	-0.08789835999811907	-0.08381291021528826	-0.3191645761401093	12.46709371923001	0.1318865318374138	-0.8877658256501922	0.05878811557723199	-0.2992273528523128	0.00919807495883063	9.952333123258864
1.071231259413831	-2.632525207158089	12.95219161655692	-4.102863425808748	-0.2322209741257204	-2.49726560156563	-11.65278407523998	-37.20751916910381	7.951288128824809	-0.2892149045894179	0.8988025355991878	-64.26113987932914	-2.490914804924439	51.09708402195241	-7.872085653365184	4.654856860879873	29.59462966380852	10.52145193014435	-0.02473384353839909	13.92070653222533	-38.34260477758755	-0.03897981556412219	9.054444556116032	-5.008395136701392	0.1751543075154662	5.863362653155523	-1.262792246938218	-0.7565959833476248	-0.5724717244089075	-71.35319635083607	5.758425349018096	4.356532711824675	-0.06810202148130801	-0.1124736914619657	-0.1507942957657662	12.71730062530935	0.2172935983004129	-0.8398002504784341	0.05524593669728685	-0.4860035588495608	0.05127015012729549	10.38987613689982
1.075200000000001	-1.206640137048744	14.72297562146371	0.7514860295150008	-0.895122171403596	-1.53606273689104	-15.82974417107273	-36.17147886094349	5.014180723463157	0.7575369234576961	2.039923835927286	-65.81145480851853	-2.712662243926757	51.99884072365418	-7.383169445592543	10.30883686682531	27.71994460439333	8.50339099194886	-0.02306804107180686	13.42721767582613	-38.67568485575087	-0.04146438545007632	17.11979447660136	-6.932259422252635	0.04247903179062051	6.427191653469855	-1.103184049586849	-0.7799779650275696	-0.284802419573676	-72.73720194952874	8.619139382939194	4.960597267216781	-0.1610398474489629	-0.1261617808299315	-0.255671665451093	12.71060981278596	0.2704139163382481	-1.188253441952561	0.07025245092200286	-0.5729121121182661	0.01522392982899008	10.58562058416223
1.084712856113115	-2.290894326419583	13.07370194871141	-7.209307222882041	-0.1962878655432974	-3.249860618900072	-10.34176663003171	-38.90866705132288	6.413777291722209	0.427507413582175	2.152724911496768	-63.65321762207695	-2.598240725192651	52.22567003244357	-5.68631584284222	1.848745894659472	29.28417159152042	9.235970427609589	-0.02092754315821234	13.52404753603264	-37.55917216949022	-0.03954122734871211	0.8610618603122531	-6.086797220829123	-0.04703067865122315	8.294019212099572	-2.06937808778871	-1.547639715354852	-0.2019363570055819	-73.82009802917976	3.072402473838717	5.227259854198216	-0.03181984973503432	-0.1570448361924334	-0.3475277905249303	12.98551657267971	0.01574944192936825	-0.5597714000704208	-0.0273995649097768	-0.6170886951883585	0.002340539282765572	10.77746588527193
1.101655884473056	-3.005153882123217	15.67926606282234	-8.646831845002525	-1.183857819624721	-3.521912441957681	-12.88191886256596	-37.62259451900501	6.720468546817869	0.6507211585671628	3.0649667498749	-65.09728902301508	-2.633120527368998	48.64790839776532	-4.563388806174969	-1.041791472997812	27.11290662909668	8.474230479859013	-0.01576949215861975	12.33897676684609	-37.71465341349015	-0.03790275327605305	-8.880823970260014	-5.976515881057207	-0.1873718361069361	6.900795044923569	-2.620723279116949	-1.77455578811342	-0.6154806100813754	-77.32202013945891	-0.3247244681947691	4.449201629664379	0.03090664709980432	-0.1497258041691258	-0.2212925116573342	13.14975935184004	-0.1747256210054385	-0.1691898023909366	-0.0795107522721481	-0.5014549793914241	0.04031712213565836	11.09296551781473
1.116031259413831	-2.913325400527668	13.73654715454038	-10.88242509959358	-1.075189295237182	-2.560611429661435	-9.906591092233377	-34.07915241482954	0.1141303261317267	3.579787389728152	2.890079034483321	-62.31715772085337	-2.614731697791646	45.57158420614232	3.003669173300381	-0.9864607909567682	24.1519112341589	4.295343312262783	-0.01316755275115847	10.85997134129342	-35.8772383341956	-0.03715079395038281	-7.59867594283613	-3.152368916132704	-0.1690165819347618	7.990826882789219	-2.717353367374249	-1.687101116562817	-0.07123623511321772	-77.71798025871863	-1.021461321904283	5.231183569231866	0.02977035576572036	-0.1515568877503589	-0.2931082502977083	12.79032293192791	-0.1012328573603295	0.02898375797962292	-0.02693659959964682	-0.6058074895239114	-0.006442881108404396	11.21777310241026
1.12	-29.10568814664416	154.6242620946979	-3.285548835612507	-15.79880160267205	11.4863714073536	-161.1719167915109	-28.80512689266756	1.238935454957181	3.174004723763645	-19.90362538907576	-189.5000658489172	-13.41322478099669	44.22088771008404	3.528931190933198	2.50839696137826	21.39557737709795	4.403061835915969	-0.01255732270358308	10.6977148017444	-103.6402058243021	-0.03688860069471711	-2.221150194521297	-3.037770203169385	-0.03025721042393958	7.812686738026503	-2.703852102035656	-1.664797196800621	0.2589832228396929	-69.63702942967885	0.7821990757433415	5.167399197206714	0.004755333793845989	-0.1490177365092916	-0.2969302593874404	-7.338386213557352	0.009873564252581013	-0.170910336195505	-0.02447539656612399	-0.5975630692449039	-0.03510830471911004	10.39608402469133
