DataType=double
version=3
OpenSimVersion=4.5
endheader
time	pelvis_tilt	pelvis_list	pelvis_rotation	pelvis_tx	pelvis_ty	pelvis_tz	hip_flexion_r	hip_adduction_r	hip_rotation_r	knee_angle_r	knee_adduction_r	knee_angle_r_beta	ankle_angle_r	subtalar_angle_r	mtp_angle_r	hip_flexion_l	hip_adduction_l	hip_rotation_l	knee_angle_l	knee_adduction_l	knee_angle_l_beta	ankle_angle_l	subtalar_angle_l	mtp_angle_l	lumbar_extension	lumbar_bending	lumbar_rotation	arm_flex_r	arm_add_r	arm_rot_r	elbow_flex_r	pro_sup_r	wrist_flex_r	wrist_dev_r	arm_flex_l	arm_add_l	arm_rot_l	elbow_flex_l	pro_sup_l	wrist_flex_l	wrist_dev_l
0	2.559884354332189	-5.652803280204736	3.223198620963686	3.104639243765428	0.02326561920695501	1.333343200845147	-7.225359178421909	10.53640775077819	7.285918872624508	47.01188403684962	2.512657127188725e-13	74.7257901311319	2.752646822674926	-6.443190748834528	6.291674091433198	5.514288286078193	-9.635595003067326	-1.876612263638774	20.07440776709558	-1.140600133795222e-13	31.4073209881029	-12.35042651947718	-10.00895107614321	-0.3260002231525977	4.880879112448915	5.549571525349652	-1.566070547986941	-10.09139198354199	0.4573046112974959	26.86775530267491	7.508664739118873	9.097922977115988e-12	0	0	-19.79629471990303	3.256948844318363	0.09164542413936383	-12.54212403509699	9.097922977115988e-12	0	0
0.009512856113114032	2.778063602811334	-5.675620132975078	3.393361897437476	3.220298952110183	0.06180500847092386	1.264115482578345	-7.872967395754049	10.25254859634597	7.370185913070366	45.39323044729237	1.541713083588347e-13	73.8546280888566	3.971127531353127	-7.615896415095534	5.494055712158001	5.017109670102315	-9.561392811896415	-0.3080601021316881	20.03500966647641	-1.166247080301655e-13	32.17969159083218	-10.70509166263943	-9.564170713765897	-2.239233410087651	4.697716868328166	5.932153922623815	-1.614570158798984	-13.15216486143095	0.5047851157828148	28.73078519899517	5.592623517664716	6.178028807346909e-12	0	0	-23.41416209807673	3.558396206808776	-0.5816974796340277	-14.93066935837542	6.178028807346909e-12	0	0
0.02645588447305514	6.497843923851319	-4.780233789231928	3.737760988444926	3.42958861150369	0.7113484106688519	0.6474722381682009	-14.31293043682223	7.01545966143168	33.38798527582072	29.76084978052784	-2.340277279284687e-13	63.42599325792921	-22.44216899936863	2.858123146326896	3.806743807887927	1.526969734962343	-7.096626241026502	10.78269839620847	21.55193874721159	-5.001801976351185e-14	39.94623260663251	-5.412547218795385	-16.90805599817056	-7.077830675713689	-0.4479380831794372	8.044994139924755	-2.12223438324931	-15.94285500743861	0.6932453199495741	24.13568766947655	-20.47973025937008	-2.134401930755797e-12	0	0	-46.01772403624067	5.155639489879579	-3.505355825860383	-25.36172478286367	-2.134401930755797e-12	0	0
0.04083125941383081	6.591454022429684	-3.413225195569465	3.46669050251294	1.934805009697287	0.8609925993834949	0.5795995094306062	-19.36513086263986	3.11463296069181	63.93270819145953	-1.080802788825604	2.829944226410011e-13	50.4015670086437	-23.9913178836895	18.93100689660175	-0.01129428865341509	6.750994165113489	-4.580567574211293	9.510852218454369	25.57821446810664	2.416628187771853e-13	45.27898507234818	-17.08673496689587	-32.18823263689642	8.968133687116906	-3.857897935424855	5.434065360735492	-2.068657959544954	17.51347690295528	-0.3797258294932585	-9.702411012902054	-24.92638571190752	9.149636257153693e-12	0	0	-19.99993044531194	2.770869117644323	3.040452919042203	-1.551922168249288	9.149636257153693e-12	0	0
0.04479999999999995	2.463131519685242	-4.687317676002548	4.926774029363561	2.195332337287578	0.3490280281998566	0.6822083361524236	-20.57281934316371	2.263871719816049	32.38853625374782	-21.2492922858976	-2.244387040727489e-13	45.99865966599285	56.51671415985295	-13.61539381073507	-13.64664782492924	10.2694944061052	-6.535918124773566	11.98664264251814	25.6985657492284	1.828217991167295e-13	46.88267116023037	-8.690065683477247	-21.15708270519349	-2.725244806641233	0.9941033170983488	5.572959251517352	-1.84398850009658	0.0655915399369722	-0.7130741213360599	5.19872317798196	-6.420661971009878	-1.738488141361145e-11	0	0	-15.23243324222179	2.834645581387804	2.472904516629693	-3.097857155379779	-1.738488141361145e-11	0	0
0.05431285611311398	3.144731952530267	-5.044530468267345	-5.615302481805289	-0.03393329188374511	1.88879691049547	1.655589596203588	-10.07569746373678	9.423139623987353	11.78413637418773	-7.906907836279973	-3.788378514821488e-13	34.84408492191351	71.03591106331628	-42.92464490687117	-10.63478973716087	18.20957903495351	-5.941664721708433	3.13889941518807	38.35531383805314	-1.106710825387856e-12	49.88574893864686	-13.31016087834765	-31.82364895046108	-16.37888065209101	-4.363333557982742	5.598221700935148	-2.6924027817196	68.26009685159987	1.148516387328036	-10.51510367397048	-13.90064330549007	-2.443632216186871e-11	0	0	-29.53905431205546	4.106638915798154	-0.9527793428108997	-17.32435975098407	-2.443632216186871e-11	0	0
0.07125588447305514	1.399400119815347	-8.105275877970382	-12.564851798303	-2.382665926054407	3.452856857360655	2.29026332280421	12.74826043513089	16.20500371877809	-13.18266693154403	23.99613880575091	4.903400326252798e-13	12.99818594767666	52.23983159685412	-45.90354473892458	-0.5638863983125031	29.51377123695985	-9.280433703581723	-3.260782196828684	51.30165330794321	1.16922439315982e-12	53.16492693390302	-22.05416836261011	-35.06094190096928	-29.40519773642429	-7.059463971077423	8.317316138853979	-2.07084296196906	104.0958346581728	3.02915030920329	-15.42410471574607	-20.02439299206847	2.10112211017545e-11	0	0	-40.42534705653268	4.572569456762833	-4.422574391889105	-31.59123726729567	2.10112211017545e-11	0	0
0.08563125941383082	-4.12791693609586	-9.156563235396584	-7.300541317434146	-3.234845984689585	3.727682864554312	1.809403794595354	23.95327923453745	14.7679798849884	8.353018458146305	25.36203045544522	-5.393773103087394e-13	-5.390508099525595	44.22147643206391	54.33684968846958	31.18949129888062	40.90134487686957	-13.04915913366027	-14.26968551377564	58.60061377144432	-4.983791341953141e-13	52.76202292256221	-32.37196263384413	-14.72790126264567	-5.175564578169184	-1.370964415181869	7.814634328346979	1.762254115013791	65.95618755893139	1.835358316713111	-13.63207228985859	-7.251424014988437	-3.30897250724838e-12	0	0	-15.52611022450637	0.8173072482953756	0.4881265207176628	-14.08520772481666	-3.30897250724838e-12	0	0
0.08960000000000001	0.8882756492275196	-4.495484514973232	-1.962393456071346	-1.039399445110421	3.591748466119373	0.9085448865592771	4.881049707239541	9.004357311769072	-0.4593903765367979	14.0005497041676	-4.912392548189072e-13	-10.10413958021312	46.62390067756344	-25.1868671806589	-21.78447294114321	28.09694048482855	-6.611822350758563	2.250231393331867	45.93396929978976	-1.333065247451099e-12	52.01552822087918	-38.05088273808415	-32.68029909974568	5.597120999178028	-2.417377075877503	4.206935162033688	2.884992412074916	17.2883171654593	0.7539784702598418	-4.922012757139467	-25.12283670565694	-1.073454104395527e-11	0	0	-32.13691850940865	0.7270891350980888	-1.943347831276284	-13.98137257374356	-1.073454104395527e-11	0	0
0.0991128561131141	-0.7715385235213013	-4.484458320142656	-1.366334932921992	-0.7212453797165921	3.468400707570658	0.5195779938703903	-10.5385716564672	6.028271470755225	-0.3258512690323184	-25.39428311625567	3.46461886794922e-13	-20.23669676441391	-15.5632877461098	-4.01705761233381	2.204498217019708	30.2089805003884	-6.762194401087486	-0.05853526628655459	46.26655868379495	4.389729098222044e-13	48.90980206611009	-41.72760059438301	-28.60558890002246	5.752553081789687	1.447125071424149	4.140026897122253	4.911119387815072	23.11601776023439	-1.128201391264709	-17.33479731609361	-21.36928627647514	-3.240627536630766e-12	0	0	-25.93784282868466	1.813733143721187	-2.102293113576926	-15.51718830691673	-3.240627536630766e-12	0	0
0.1160558844730551	1.556058764659656	-2.90255412642947	0.5517361245155644	0.08924157398950229	3.030423263301389	-0.5978449966491723	-32.85283236388329	0.2017138283597253	-5.42013422255856	-62.97711171987401	-8.293362116601324e-14	-32.6529334059982	-49.85996059835932	-4.824078140460269	-11.76918967223239	23.23586835131625	-2.276719606442359	11.56795875301669	35.95023482961479	-4.004079746548089e-13	38.55577839399867	-45.62351257640083	-33.34051687983445	20.49600984218073	1.043573044736155	4.822560112722756	7.543660294901557	9.259476221943393	-2.502980267012602	-18.87138269766076	-21.74082628863119	4.322129976732427e-12	0	0	-29.49560425804812	2.384298336868668	-2.934755315803485	-23.61966725566539	4.322129976732427e-12	0	0
0.1304312594138309	2.317933476011352	-2.071678036547523	3.311057735225508	-0.8429608562384252	2.224372833135603	-1.300582296585324	-26.58868792192265	-5.234183675645626	-10.01991723066085	-48.32404494955902	-2.777609651312616e-13	-36.3839484013078	-34.38732627928904	13.91726678857591	-1.872161238564301	21.35367171896997	-1.801519962095512	5.608728486496157	30.58320013992503	-3.121486401088965e-13	25.14985143560341	-30.40180127622397	-21.47616198980064	43.48598826030506	-3.136926383495855	5.109303805232629	7.34141942526959	-7.386533783096654	-2.572297590189704	2.268340799346818	14.10812315803315	-1.315114007299679e-11	0	0	-15.14184939000843	0.2126599284018207	4.002261084283177	-24.07441494273879	-1.315114007299679e-11	0	0
0.1344	-0.8691672370012784	-4.859246390005421	-0.3216510363969038	-2.058171956228507	2.020449960105677	-0.9767490654643107	-10.09085797375031	1.737936182623975	-3.452391191061796	-26.78799206089049	6.492406627009934e-14	-36.31855189737697	7.429063063753407	13.23745730464794	-6.891050518327836	25.29421376674689	-2.403633164624082	10.90908665030997	26.27180057079796	2.836981181366146e-13	20.82518086385643	-41.28683653629608	-38.51724875862453	35.62897950989094	-1.579183898589723	8.316599742341733	5.460190327065729	19.7028198550931	0.3790580688540621	5.390596026781407	5.704337661972452	5.635065234096975e-12	0	0	-18.87514124608323	0.1095090461066016	0.1791075864766833	-21.20380361614579	5.635065234096975e-12	0	0
0.1439128561131141	3.030271174795351	-4.241660654115008	2.443330017376763	-2.228651169032246	1.702875188176345	-1.568045797267836	-12.45024150392402	0.3313551026187278	-2.644237823414017	-23.24224921615756	3.172124533823711e-13	-34.46223708466773	2.679529323640049	7.549109929328676	-17.0858629754357	21.43050321355337	-0.9244696268690132	15.74945587177732	27.7945180849315	1.035093814892806e-12	9.646244390746064	-10.38843534389959	-23.48603836072065	54.8690309203669	-6.562694439975947	8.647067074752576	6.035150819222352	3.103818009939687	-3.445330266832381	10.67719979376686	30.11979913616463	1.369183953909615e-11	0	0	-11.9205841171002	2.13673759400394	5.484268017671829	-44.17375715712148	1.369183953909615e-11	0	0
0.1608558844730551	5.723759885004799	-3.964637937527697	1.659740442511983	-3.212979745785024	1.182386044429656	-1.678190074860337	-8.804728280571787	1.402424165092536	-0.3346979372857845	-14.50772476843436	-1.504792806681425e-13	-26.70207174524888	-6.774142197774031	6.122752770748258	-20.47038159866194	19.62618582765968	-1.728748083703956	18.80933601656214	26.73030132696357	-1.297337784526734e-12	-11.70364187784575	26.87702169480726	6.923723701519053	48.36948481776004	-12.25699154076431	8.474142937566171	6.509378904427642	4.80458046747974	-5.904794894854241	13.45185237307674	47.9476914952665	-1.731690064947275e-11	0	0	-12.54748194064952	3.761723625521963	8.671494222470102	-65.86813879950697	-1.731690064947275e-11	0	0
0.1752312594138309	2.450659546077593	3.082713964937866	0.3164168040372278	-1.961477878104356	0.003510153187886353	-1.375394712055893	-4.790000283600632	-6.235120178094091	-0.7851246367000779	-12.48415357193561	-1.997982596018153e-13	-18.01726122090442	-13.56837212864127	7.65144938179784	5.932530072424901	-19.80157253347229	-0.8158174165276187	-27.4527604406174	-68.54077357990235	6.521775604189309e-13	-29.23124917750585	215.2278682468376	108.4795566251044	-70.1802719508769	-5.306033369552927	-2.223898023081452	1.115071400844316	10.25173159835702	-5.719217838571623	8.36501015609816	53.44020955698529	1.379126399509803e-11	0	0	-1.869200219233105	3.289409105680608	13.67360086670108	-45.36962491892521	1.379126399509803e-11	0	0
0.1792	-0.03878533355973435	-0.2040958785881525	4.318076817219031	-2.267217716868387	0.08652119837432658	-1.74356124711862	0.8473600858572333	-4.911183857300168	-4.675122826863611	-4.581167631571741	-2.872766684233615e-13	-15.60715560690729	-4.014712498664524	11.3711341983039	-4.235014212682183	-2.529251260557517	-2.353248621259514	-5.235235821235706	-44.53786679389169	-2.049920278287115e-14	-33.70310354363505	-161.821847681633	21.63611472027424	135.0926682592042	-4.168982576967046	2.455880727536784	2.647545423641907	-6.17386575707158	-3.210698861454233	10.03150179121611	22.4445293138124	-7.672437594031983e-12	0	0	-7.800546052699106	1.92179883202096	8.3580133574113	-33.29184878990502	-7.672437594031983e-12	0	0
0.1887128561131141	1.675451396051751	6.76064894461576	4.146828090027139	-2.527624692017536	0.5062633887930181	-1.956674378129776	-0.5230690538899452	-11.82401866154152	-3.047373684344425	-3.7508643128232	4.613934080339862e-13	-10.17301469578312	-4.310356134856952	11.60933181970657	3.028523198390923	-7.419663183469146	9.225170306715873	-4.812675591276361	-81.5583096352731	6.165922916921594e-13	-43.46875882022394	-60.90209222609111	74.4217974011565	81.27240181123989	-6.699576648513778	-5.48508080859547	0.9231745466548563	-0.6299886307524161	-7.920932578679849	8.613759408569823	49.89486597391508	1.540925843428335e-11	0	0	4.910864968833688	4.387588511382056	13.05332428804076	-50.01958536139025	1.540925843428335e-11	0	0
0.2056558844730552	3.024547330263914	10.96514835673732	6.408830970554503	-3.062387290838258	0.685434814569318	-2.360077701462511	1.070836429848158	-17.02103461305551	-4.849472232686534	0.9987791765110796	-5.651013489616996e-13	-2.669032167074058	-12.07346363094873	8.440739606315773	8.876444454335747	0.2093726953847141	19.88572118677553	7.299380323152719	-65.67038258069834	-4.480522105324008e-13	-56.69903233444172	-33.89762860958626	16.10411871626588	74.13557330636678	-10.78672516974324	-9.646473907676141	0.9140611435102313	-7.099351078573253	-9.942897201656855	6.305797752110779	50.04570173005525	-2.055213530076218e-11	0	0	7.383172668666851	5.06738932872564	13.28855000598175	-64.04329758916785	-2.055213530076218e-11	0	0
0.2200312594138309	-0.2776852168150278	8.934808495641349	4.485180414189935	-2.562587841431773	0.1876216621475245	-1.785462114308197	5.28059309983565	-12.50177221064335	-2.351342533169286	3.927811286487227	2.980368499957875e-13	0.9060252219074001	-5.344352063707697	4.217608449808492	22.04619985407415	2.412203987572667	16.17185109163783	-6.954774640162762	-56.89378593112962	5.46184552774482e-14	-63.2712543696707	79.02963673501303	-24.58460236964886	-57.58355944331645	-5.775418227774834	-8.368938326758407	1.30320447433753	-0.82285489284198	-3.508054986232516	2.854643688298371	12.4675101024618	1.491600092204611e-11	0	0	-0.5231521142149769	0.4959183891423479	6.485434879491528	-32.84870239966472	1.491600092204611e-11	0	0
0.224	0.4115751143655816	4.158740442787704	3.871051615605526	-2.328445319516501	0.3499746425600716	-1.754587391802287	4.536390010299336	-7.00626550693514	-1.555818308997786	3.367212990164555	2.425419260578575e-13	1.439634851242128	-1.265598084929823	3.732326872601268	6.435420329459481	-1.425160642906989	9.177114609450944	-3.7195451608962	-68.40241165702423	-6.698530827943424e-15	-64.35500540453573	26.72991721189234	27.98365186364114	17.03553973683589	-6.352249938812841	-2.134983586152787	1.472262047138094	0.5262879959847671	-3.64769664746776	8.206609704350061	19.74081456439647	-7.472757353395628e-12	0	0	-3.380950487361068	1.347912846925035	7.666715431364385	-33.96540488684597	-7.472757353395628e-12	0	0
0.2335128561131141	1.67805851036426	11.27839754105461	6.555077995155609	-2.54364623700086	0.3067664010356124	-1.97259896486265	2.464960551482328	-15.27035772346266	-2.749289052801375	4.009324663479143	3.080894787086279e-13	1.997900265600094	0.5134038565068857	4.33099656701838	16.23256484844	-0.5472738521343969	19.94055521380143	-4.961458656251241	-59.06724229731613	1.134698344014576e-13	-65.80544690659019	34.74234562847991	-19.35101805399535	-52.94932826138789	-8.350273335479148	-10.90694452086037	-0.9288932286991991	-0.3190446082130882	-5.299147337145903	-1.271200763128075	12.11840915750577	1.133917582165197e-12	0	0	8.206863787116545	1.828571140884902	7.444641359515822	-39.81159910815624	1.133917582165197e-12	0	0
0.2504558844730551	3.035656429847587	14.90689201667612	7.825058294063894	-2.492134130728317	0.2760330420663585	-1.895436755135836	0.2454174720017215	-18.64969527856796	-2.780707442419597	3.627121837826916	-2.136322862682252e-13	0.9406986170477298	-5.267079607623803	2.493246002896781	18.18664285501321	-3.265156122102049	24.51448349819781	-3.358265818000494	-56.87140671948794	-3.545528874670064e-13	-65.21308199111697	16.82529378779466	0.4786694757695509	-69.17400277638676	-10.67289904521825	-15.79443872811789	-2.756883924067953	-0.5588686809584535	-6.803398949877224	-10.05952490961676	10.10467223770241	-3.338074605549387e-12	0	0	15.34583354280676	2.405293896205056	7.47233279988238	-47.8083325925408	-3.338074605549387e-12	0	0
0.2648312594138309	-0.4814484050471854	4.835046745006765	3.357464765494585	-1.549537738623793	-0.1012626070283502	-0.8872237422722613	1.248792073927668	-4.965439818515623	1.200510330160554	-2.149516522040237	2.751656361433789e-14	-1.337611005778304	0.09625668135338578	-5.909692781571023	13.20031152708226	-4.821057968574579	5.992302545241534	-14.00628944544539	-57.87606591765591	7.57938748774407e-13	-62.86949697809679	-20.82111428879315	47.21287126715893	-36.25546935405961	-3.538679633499061	-5.545486888767078	-1.058905680139722	3.034337989476707	-1.097241738054819	-7.68116059867617	-4.488015484841464	4.646318583644907e-12	0	0	5.610961908940349	-1.045173400723709	2.777729795054261	-17.23994633766276	4.646318583644907e-12	0	0
0.2688	0.2167227385233034	5.068796714678024	3.426912986568196	-1.667990694162318	-0.262097984339018	-1.158694153186537	1.961801296201428	-6.319009595104697	-0.9080500018593052	2.026203300887569	4.364615171506857e-13	-2.100157466584419	2.356425408037685	4.878098751864817	9.997684567405541	-4.904756527914142	9.221291652938389	-8.923850388306626	-53.11981464052938	1.440919931521463e-12	-62.11797890681031	41.2199393872143	27.60580120324405	-26.01860003882309	-5.117343740824932	-4.99288480326236	-1.016373067537277	4.380796371329582	-2.281488873024736	0.01172754937232678	5.597771698144475	2.435564970159574e-11	0	0	4.002169283674252	0.2896316993155325	5.684089312010214	-23.28780237272072	2.435564970159574e-11	0	0
0.2783128561131141	0.8754238252534619	5.769335644591854	3.389668753728923	-1.415491118506358	-0.1494970336849603	-0.9008076173188846	-1.626893034719351	-6.654795406430763	-0.9454075603908302	-2.712024024452988	-1.023602932053192e-13	-4.055731191897802	2.660820191951544	2.724738821406997	10.16472923067099	-10.59481749860959	8.195612627015166	-12.54007228183952	-59.64271934988462	-9.363542029717943e-13	-60.35797563822945	1.663543293638421	20.3372638045149	-36.98701447863434	-5.048549417499642	-6.535706528360703	-1.760682009245687	5.435490101617685	-1.421471308164263	-9.553082672760112	0.9678625381520023	-1.186151088299428e-11	0	0	12.39009738204274	-1.215620990781382	1.384208422798602	-22.80748221601111	-1.186151088299428e-11	0	0
0.2952558844730552	1.321945254301421	6.678468644377151	2.815886614136765	-1.154860235718951	-0.2621533482680153	-0.7039996281271849	-3.204268775959123	-7.446080715269201	-1.669906774957144	-4.139317487262154	1.160311171916618e-13	-7.630451827160346	-0.6454839582574188	3.473813684272642	8.807274408645659	-15.07327463334272	9.77855770640701	-9.194393798462681	-58.67777513440423	1.018062875129354e-12	-57.98432196366767	9.371139201517863	24.34601261189052	-34.51985271424589	-5.377179561981361	-8.220517834108389	-1.827852651221603	4.634572597403665	-1.096492396141829	-16.18061516986083	3.200716011253375	1.349810484360525e-11	0	0	16.50885147915326	-2.262737796135033	-1.807379789880539	-26.41046950282877	1.349810484360525e-11	0	0
0.3096312594138309	-2.283543116478359	-2.214895755487346	-1.454285586029336	-0.4847571435494658	-0.6091173013527319	-0.1412752731907635	-0.7473059621835172	3.360254547290615	1.217540917942233	-7.608149526470859	-4.429633900508645e-13	-10.33735255709827	5.349493380015526	3.945036887843428	2.268844668204407	-14.15855222597358	-3.069014935350399	-8.839549046711163	-56.77790361853128	-1.086542724058052e-12	-57.0453453070407	-25.94423548182942	41.2409164900855	19.09648941902645	1.167503942077685	1.446497822722762	0.9322596720171166	4.209436233314511	2.023354214823511	-6.172665258253081	7.401803260291436	-1.115292881221618e-11	0	0	4.316369402156158	-3.67848810635768	-2.331061914462927	-5.254758540310556	-1.115292881221618e-11	0	0
0.3136000000000001	-0.907903204996965	0.01669162485671893	-0.147197292337518	-0.699600090411806	-0.6779601048919008	-0.4700252744511926	-0.6040143372004937	-0.0463167878401366	-0.7949456552365008	-3.328702135182442	-5.495405988065337e-13	-10.97824959260326	6.24527981896181	8.022124483137375	6.451918919186257	-15.29600502272167	2.49321209469698	-5.615222067270746	-54.66651073527606	-1.48136303370846e-12	-56.93012417420319	14.43302569776773	30.73196855738087	-6.028166852283507	-0.8508145540040586	-0.6183988851595391	-0.3424509737725869	7.683852716989348	0.3983187452609162	-1.581744967481582	9.439344592882589	-2.613399225561452e-11	0	0	8.649790237456415	-1.856713817600394	1.234319539059078	-9.385543190714499	-2.613399225561452e-11	0	0
0.3231128561131141	-1.806428409132021	-1.785864420957837	-3.107016555878315	-0.3476625349206317	-0.6645294278899119	-0.2177558957215029	-2.050494722583188	2.054316939584456	-0.2600726433947874	-8.269397898232615	4.365845423404524e-13	-12.25579662922216	2.590345111732594	9.756603576403245	0.8846164522840988	-18.21104864902066	0.03749485034440891	-5.484457296379142	-57.6705338887364	5.607552630471315e-13	-56.76810913575684	-6.95274385608474	11.50208333865228	3.877983201988917	0.4741054535143027	1.554551412561207	2.242847186696825	4.266565088202442	3.135329203051897	-6.907724333859982	14.61072555665023	-2.49183161828252e-12	0	0	4.345188296359725	-5.615081555986855	-6.451261063874312	-6.9915335946401	-2.49183161828252e-12	0	0
0.3400558844730551	-2.168089421617929	-1.368547656013268	-5.176827257958565	-0.0932032817514484	-0.7890321066593775	-0.1560889954395179	-1.854269857837805	1.346514700977588	0.1517648657017919	-8.766189659531884	9.727580438277361e-14	-13.3693131742015	0.79039761275708	12.09313189045868	-3.595121013836385	-19.52288166299075	2.270020189319915	0.4301795737217978	-54.32024720381898	-1.394332592074889e-13	-56.05718417990808	-7.13014470068297	7.510948331540506	2.292985551977996	0.7650585607828885	1.030096501623492	4.176238485793558	0.4868966856003862	4.778542044691248	-10.65156420392259	18.59925569800077	9.068724023028927e-12	0	0	-0.7476051486321916	-8.200821509823893	-11.82745948576082	-6.164116442684864	9.068724023028927e-12	0	0
0.3544312594138309	-3.977565428798637	-4.194370565999334	-5.451179985193616	0.1244900243581867	-1.023644809244114	-0.2694608112726116	0.6826472034250003	3.923463120289171	0.640849532329488	-6.644173658507157	-3.81846958598561e-13	-12.84692685003577	8.336545830454064	15.35176150677955	-5.882655101100464	-17.20396220702843	0.1720387026829326	8.289968636624472	-48.58227510297142	1.504468096980846e-14	-53.65008546312976	-35.24238360652359	19.7207621224872	17.87211377541188	3.661658008533426	4.10499871993696	4.368420064087447	2.037391257373877	4.495132631346196	1.661240648124399	15.58459049821046	-7.733412702616286e-12	0	0	-8.257413208195633	-6.270134932230482	-6.086867301502186	7.960342687609563	-7.733412702616286e-12	0	0
0.3584000000000001	-2.539198333402335	-3.380041886646592	-4.448871161269256	-0.1439458829336707	-1.026643689397247	-0.4401699891649331	-0.2653243336945407	3.098525614215841	1.027843225246987	-6.276751713873149	-1.631664077800994e-13	-12.43433695720882	7.814305187123556	11.74108265522333	-1.096871555120947	-18.05687715981729	2.169439491485783	9.934668605616388	-46.23082244621112	4.172921668397506e-13	-52.48615083582515	-0.18499102815837	23.85567018518746	5.058557926628126	1.692641430651291	3.684198992945158	2.893936751535698	7.53773426690242	3.197211233399407	4.247524161387791	15.85926276133891	4.765700178201309e-12	0	0	-1.240430753937043	-4.756177083741005	-3.902321023137099	0.3554511644430297	4.765700178201309e-12	0	0
0.3679128561131141	-3.425841947726302	-3.71761494928994	-7.089218699236453	0.3776956707081324	-1.16173888350614	-0.2268546746574179	0.1747756195862535	3.654790673699925	2.832503748534185	-6.651124934849112	5.547872765457599e-14	-10.95408058658447	3.619982930275136	11.96421307346871	-13.78708873177331	-18.54615274341966	0.2226436799232948	10.45801682818144	-41.94696228334656	-3.519920653657562e-13	-48.55779775033454	-18.10499565864962	7.249969488042794	-2.091475147318194	3.153410058322926	3.564334339870999	5.457151731859968	1.644898071896595	5.94321984769995	0.09792074449108845	16.860493344995	-3.268378925900211e-12	0	0	-12.72063205898613	-8.419364626800098	-10.2222361825005	16.1547732452269	-3.268378925900211e-12	0	0
0.3848558844730551	-3.556588120381727	-2.370975108176054	-8.391872654547619	0.7713911487417497	-1.376938142693281	-0.126466203819064	1.372257727834852	2.555404484135579	5.424844551023837	-4.257103497354531	4.827615416211246e-14	-6.631269918166836	0.9443645841637704	9.081463346204671	-22.78843009250579	-16.01634556204346	-0.4446231906484496	13.56470949335237	-24.9383445542166	2.957218771561081e-13	-36.82025192616998	-17.60724550338608	10.00938061630605	-11.8458240919246	3.814994058165502	1.420959822065315	6.543880993585134	-2.601173856229073	7.482123622754232	-3.987681562380917	15.20725441297482	7.417358925939301e-12	0	0	-19.67584036131056	-10.6019861724771	-13.84709799948764	29.16025024191152	7.417358925939301e-12	0	0
0.3992312594138309	-3.338412073258954	-1.95013183935407	-5.296524410702494	0.8954894178306685	-1.504681870543605	-0.6020100845967679	2.297503279788985	1.344501713469477	4.04586229100079	-0.4008733863340492	-2.949379513733965e-13	-1.488745530675544	4.005136776939945	6.530151082591209	-12.99489774029772	-12.99595515299044	-0.7174785814433499	17.82179447196305	-6.657132901788101	5.758027216111365e-14	-21.67919010815563	-39.5599668606085	17.54119715199995	-2.798846517596521	5.703850632869467	1.444681482055656	3.221136430226447	6.068158576250768	4.438835241016226	6.350269331588562	7.080991262120538	-7.723059617315422e-12	0	0	-9.114066931264542	-5.67111745942495	-2.951098185760118	33.67422032079695	-7.723059617315422e-12	0	0
0.4032	-2.379371108536836	-2.190589282995097	-5.507708670150524	0.6447867803390596	-1.491830758401159	-0.6371708312539194	2.153380813196995	2.178778445055669	5.959723305113051	-0.4193605155447036	5.571533400877731e-14	0.1152042244514262	2.85523134306915	1.577816069531846	-9.446818987346573	-11.00845074989999	-1.442573436523925	15.80465450762616	1.458090910893388	3.308904384067429e-14	-16.70153871637823	-15.1157204554026	15.36922204637357	-3.024711088542037	4.191319351426493	2.515894771709367	2.945049092450333	9.003552162401739	3.930726057504476	6.69190907342871	13.24218620934693	-1.351458853975542e-11	0	0	-3.904511903092001	-5.406239580697001	-3.694141923241633	21.87451512003306	-1.351458853975542e-11	0	0
0.4127128561131141	-2.766489209569194	-1.115439467844921	-6.084565562880898	1.273384996463681	-1.570186102728966	-0.6463031077529541	3.063033412398575	0.9184619350282258	6.999699257565203	2.419882377865721	3.759518915849774e-13	4.179033210526293	2.352248245564464	0.3524070572485898	-17.67827224964583	-9.287969587128615	-2.666033719622406	9.711641288560381	15.8166906008226	-4.631744772649245e-13	-3.583738351949265	-10.64798700214584	7.755293779249284	-14.7357704621887	6.201060842128712	0.9203824426311249	3.401976005711203	5.10703437325239	5.36760866821692	3.424652414529138	4.217531829659908	1.420586252544867e-11	0	0	-14.9944425254732	-7.070010265585079	-4.798025746857904	48.57384411976842	1.420586252544867e-11	0	0
0.4296558844730551	-2.721014882478489	0.4390415463666426	-5.976220110337735	1.708560940969731	-1.53652258446268	-0.6951085688113123	4.496838023281483	-0.5683386416503833	8.229523744223087	6.211679017989658	-1.815418126725956e-13	11.69860585104949	-0.8353420498423697	-3.57870013744988	-19.12909948852813	-3.201154161655848	-2.865391294289488	-0.996583064838038	42.17054179227553	5.867778890132534e-13	22.5473291731743	3.35653143183549	0.64481773120455	-18.79591756183095	7.25635679916809	-0.9135922650404444	3.443587491123256	-0.6216363333355589	6.204763154433149	-1.451589126668601	-3.348907686736569	-1.268464216267285e-11	0	0	-23.70183855885911	-8.087222098596246	-4.931031560425295	66.17145299082	-1.268464216267285e-11	0	0
0.4440312594138309	-1.289368571486567	0.7618383172294995	-2.241475645670313	1.579432108564147	-1.301609599404893	-1.376156323428376	4.803955651611962	-2.011629997684981	2.661417044073184	10.85962425226617	-1.673772583925655e-13	17.64339407237552	2.534578727515107	-2.544628492949651	3.446871348538959	1.102502461028067	-0.6999393455372204	-14.45534825008579	64.37600040468519	-4.996501302974683e-13	44.94798042663255	-2.225440899262565	-8.110523141936424	6.082626792181025	7.087576279756343	0.9501639718037237	0.2893597219344904	4.900854184356706	2.66838983813008	3.876297864420073	-3.930185875682252	-1.489152758608423e-12	0	0	-6.267430206968324	-3.050538937552903	5.149433943702684	46.21132008123755	-1.489152758608423e-12	0	0
0.448	-1.887923397619862	0.9366575058071174	-3.699444122702245	1.271764223690788	-1.33839380934123	-1.056775963105526	6.950985598628733	-1.281954063582776	6.340642517146739	12.10758428749503	-2.332485889798428e-13	19.11225682195894	2.531161885988944	-8.000450908434791	-4.386501117715057	4.059443418265689	-0.9533656451267002	-13.49354075457408	68.00621848923744	-8.495034510784508e-13	50.74750982459968	-2.327971540922636	-1.020605107211602	-1.27509344026122	7.004930683572307	0.1337269027783919	0.97405019974933	8.596313641716584	2.996401984836924	4.476584660386008	4.633863916671787	-1.423452786759046e-11	0	0	-3.046541627282285	-3.962019886471619	1.895091286369622	38.73328442271277	-1.423452786759046e-11	0	0
0.457512856113114	-2.143559465768014	1.661313867120652	-2.941261170819666	1.620537658851982	-1.243568702569659	-1.376564264894853	7.997419172797318	-2.794545780996592	3.672139643541145	15.03435617194288	8.759349181973641e-14	22.2014863379386	2.266247094350264	-7.433731415145949	5.594327159638215	4.478775045654206	1.755303892775716	-29.56215502380844	76.33702862781934	3.577250665629704e-13	63.36552461490115	30.43393271158856	-14.93217199049188	2.959093552483806	8.10109924570077	-0.00801761095166699	0.5326545012807842	4.155977034741315	3.532987219496107	2.907654354023636	-9.803312376998703	9.560259043759468e-12	0	0	-10.21256502767757	-4.248796542461309	5.402673142175742	58.40859813707218	9.560259043759468e-12	0	0
0.4744558844730551	-2.769410931335972	2.946228805922413	-2.665545774526644	1.709736349893506	-1.0433224109607	-1.429551976379612	10.43035452419142	-3.980340726965133	2.956547505359955	18.71692933848598	4.399980749272738e-13	25.7945922673561	-0.7634931354992325	-8.138883384226958	14.36791262350323	5.437722538589841	4.835589626853871	-39.43424578891937	80.25194800799812	-1.246780204431856e-13	79.19487614205696	31.05715643120535	-24.27457536530699	4.304292631369976	8.900400043691567	-1.609613012656336	0.4075927960265707	0.6630198083641501	4.098232475000893	-0.7146672862235215	-19.86966901941048	-2.758091470239113e-12	0	0	-13.60698693910691	-4.636174134127486	7.3683394403759	71.93324790436844	-2.758091470239113e-12	0	0
0.4888312594138309	-0.7003920094259775	1.30039478983975	-1.722631987301093	1.150101857689131	-0.6340039635564471	-1.478740570275343	11.04171509887288	-2.538699882862645	-4.400935466167032	24.10452510388606	-7.853020743939973e-13	26.60802792470103	7.507065363038972	-0.8327978505237608	24.04171186871773	3.284787210248083	4.343214705625983	-23.36982417106409	73.71052808280643	6.911011823338149e-14	83.80274750668966	-15.42505104823812	-39.42987381652371	21.57377281421478	4.942644779485771	1.214924850782	-0.02486994689559992	4.938919159228297	2.021107122307242	6.410776058113083	-11.95828929027162	-2.746947670863479e-12	0	0	4.3665396220226	-1.736962246986215	10.097556452534	34.04893757105297	-2.746947670863479e-12	0	0
0.4928	-3.172051443899463	2.456334153461794	-3.755681851123753	1.342010591878837	-0.9477735635497888	-1.128080466941822	13.77754800212692	-3.343296406714674	1.025408293251156	24.28384559649619	-5.51505098739557e-13	26.46249150918699	7.963199636504545	-4.015496197175246	10.35361541417388	5.431039991370698	3.354315950823628	-20.07881454602432	72.09787322623652	5.741680867029205e-13	83.49427815198621	15.50079963866725	-8.211088514747942	11.00058569950005	8.463455083696326	-1.422138457499911	0.2309135456326703	7.814521181632502	2.376457659488473	6.697870071881384	-2.884934146136974	-1.103142386932381e-11	0	0	1.054571522515193	-2.791640860269127	7.368907400250517	36.40906565449268	-1.103142386932381e-11	0	0
0.502312856113114	-4.470640936545271	3.49123285250426	-3.794180875200058	1.306488011124388	-0.9120723373053246	-1.105691949083923	15.39641773029606	-4.789321253374883	-0.3597853339613233	25.11911762225206	2.263567461955259e-13	25.50750068273065	7.41617910803472	-4.260828431080329	20.92884531770918	3.805922712497828	4.603368728990822	-21.50724102757522	66.00164547416598	-1.222845507607546e-12	80.02901493312164	33.64274776019687	-29.17690873917172	18.16809361131247	8.677042914937481	-3.205592700287299	0.4400506712724367	2.441968256604063	2.915947304318927	6.076237133318971	-17.91137333101371	3.991993561695925e-12	0	0	1.774287931602582	-2.547336663301575	10.17290628219521	37.54569134765619	3.991993561695925e-12	0	0
0.519255884473055	-6.879054123908079	6.402125640688445	-3.904338241629199	1.322700407874882	-1.001932311722524	-0.8865285302923274	17.34757224689712	-7.832126706281846	0.5531565297290284	24.22227084930107	5.263275630628034e-15	22.06242098318669	7.635002224862344	-4.474898842762447	22.75364040422055	2.285229251856726	6.151071473630312	-16.34651780283319	49.79753476630545	1.409128016171657e-12	65.53216332788496	22.38849859856209	-31.22963573435445	20.24338571712028	10.73578712854579	-8.232831868528104	0.2585019624089371	-1.815690537777636	3.307165516517045	0.9798328044710947	-26.02684082695966	-4.057186768846022e-12	0	0	3.602612389941926	-2.217367749419412	10.79731618785974	40.18636476421559	-4.057186768846022e-12	0	0
0.5336312594138308	-2.236081380223563	3.283656412861586	-3.194507543062011	1.015018677957264	-0.5311991816366284	-0.7268133837721326	9.819837952670653	-4.445720345891889	-3.850299069339156	18.60375871605892	-1.920748324844893e-13	18.15942217713623	5.528802115414774	2.634508483246742	10.06811994837468	-5.3902492632271	0.5292686350876273	20.67223252928886	30.93407941690447	-8.044837813065501e-13	47.80822172558268	-37.6899071463076	-13.30023632813019	20.74815489770533	3.68745964826031	-3.988309031872726	0.3858951250361053	3.7418359104582	1.651700203420337	2.941843533903849	-7.681995217540147	1.4043838299914e-12	0	0	14.57741861455483	-0.3085241814962689	7.272050729248296	8.206116800173648	1.4043838299914e-12	0	0
0.5376	-3.467333047481629	2.428010321859633	-3.590256105519318	1.119225940114058	-0.7912173162668046	-0.7345135921090068	11.05787728592949	-3.50609351647239	-0.6567800389229594	17.93130822797714	2.315016429815899e-13	17.05963024779748	9.406788383979395	0.9490323708972236	11.75961009313445	-3.98410876313851	-0.3162486131768433	11.02147266024692	28.03901994300501	1.82204448331503e-14	42.57422037302426	-20.0290546472109	8.48932700744701	10.57053693830475	5.906118106860125	-2.818628382879473	0.349670666271223	10.19139630947395	1.929875069654888	5.909382546541224	-4.928100608976855	6.0394871655908e-12	0	0	12.35291810106829	-1.437725937795375	7.700202434798268	21.26512349975212	6.0394871655908e-12	0	0
0.547112856113114	-3.154043501098496	5.681875838694834	-5.709824593295833	1.276737607304823	-0.6008883254975731	-0.2210255946958947	8.744348465717737	-6.717210063420644	2.290279750504656	14.655082637202	2.670157419111919e-13	14.59311717171874	4.75110834390312	-1.202112986819746	-2.793406343345171	-7.470648150557508	0.6742593208105718	40.92126809162942	19.7879218217752	2.82660137680997e-13	30.20252361771155	-49.39667833491561	7.288302046082238	5.595544888394745	4.317348793936101	-8.597622038682156	1.693578855686077	1.74875592206755	2.555543691935411	4.207865996962327	-9.997900894366726	1.141536248124436e-11	0	0	13.25435791709156	-0.6452652396111824	5.612068596092605	0.4490385345654269	1.141536248124436e-11	0	0
0.5640558844730551	-2.059653121633782	7.578202628071149	-7.046780834365148	1.708788975240314	-0.4603810127679574	0.07023003176133658	5.513970452278421	-8.264164982411264	5.004374553236536	11.69297536630964	-3.706287587825024e-13	11.59555393932885	3.76982910871464	0.4965019885606858	-16.80905984936605	-13.10580569393354	1.24410681136944	56.2857226658805	-7.005243052604224	-7.137663625647011e-13	11.40424375909078	-25.46428455438453	14.39694636602148	-3.34355702583085	3.310662363768191	-11.89028006228614	2.436393406919067	-7.594928313079711	2.835180272437272	-0.7935544097366721	-12.51980793714471	-1.859082477006417e-11	0	0	8.491727303152384	0.1945210765858597	3.396086552525375	-15.80723867516148	-1.859082477006417e-11	0	0
0.5784312594138308	1.831143563470702	0.4160235993651015	-6.331286942655669	1.999666342644969	-0.2302065353405174	-0.5337442543273841	-1.843325057116459	-2.018703086086731	-0.9983421748233321	4.097525126547751	1.703689524910724e-13	11.36436405217701	-3.849609070390439	7.225640149741275	-21.43722186598139	-24.94297804681354	-3.263075440412915	53.42783034410178	-56.54957727581079	8.832570827088774e-13	0.8547604230036993	84.44590731148212	-8.781640205134906	-3.170932655843574	-0.06902308162246129	0.04952029283419201	2.155082562968833	-5.589355591258967	1.217374555485295	1.064726453153098	7.33530225434852	1.13493466754027e-11	0	0	-1.653980060245875	0.935659148912231	0.6736655477086116	-31.76991979336339	1.13493466754027e-11	0	0
0.5823999999999999	-1.660480032819231	-0.2816692424546321	-2.944770803595587	1.522209843825943	-0.4921054363394023	-1.019322013723341	4.734509733824619	-1.76622740732349	-1.56679019549765	9.137874969192698	5.098973429028217e-13	11.76177844153374	0.5216604592857205	5.143832129328563	-6.917403829746843	-16.08880282075146	-0.9030473959633998	10.46838059060015	-52.41625344394351	1.072960961974912e-12	-1.12017386311065	32.08285430451063	-38.4793770230307	-1.022782260970461	4.604576137160164	2.008455220369792	0.9575106344176821	0.2209852973743491	1.272435106986585	0.4150449656490016	2.52811233748003	4.211405126108677e-12	0	0	8.552231703712017	-0.1368411057440546	3.775953191269359	-7.884974960832309	4.211405126108677e-12	0	0
0.5919128561131139	2.004539972602637	0.01259960614185637	2.109434300065248	0.7691848435048987	0.5341252857904177	-1.322667347964676	1.216778803823973	-1.318306848179094	-7.17132146238	8.453751156353691	4.408214525601693e-13	13.56439087853018	-8.422340661765631	0.3705936552696465	-28.33582734610662	1.243694510926889	-1.613411625117029	-18.20708658699796	2.955640229004457	4.82292310932975e-13	-4.444380783608896	16.78658421824244	-69.52499194649923	-20.69637408576456	-0.9937363765451568	1.99894088197542	1.323883483721649	-31.70976631799785	1.177333370791527	-6.923109065952189	-9.537843521380317	2.015974934452887e-11	0	0	20.88435306676982	2.760588344585085	-0.2272490229662044	-25.12829780489298	2.015974934452887e-11	0	0
0.6088558844730551	3.417022048638732	1.667014697286717	7.755813476841666	-0.2267637590555856	1.701537859060593	-1.726094747640902	6.057821297277863	-2.422318550968397	-11.49522616072015	19.23570647667914	-2.734051076966054e-13	19.56908224114431	-11.83574190507852	-4.218980538953319	-28.60033770144386	9.111968228264798	1.719049743818775	-31.80722365035261	19.81888769715649	-4.916082868906338e-13	-7.199513072814866	-21.70197291329033	-64.51529783282511	-30.36894564488846	-4.086439792003719	0.7250632150287994	0.3961817421728431	-56.81562101787581	0.9861637484946245	-14.61124708886725	-22.58132764150994	-2.280949300971937e-11	0	0	41.23960302929341	4.796920240732907	-2.592544860751096	-23.00497688668462	-2.280949300971937e-11	0	0
0.6232312594138308	2.136945467709656	1.793809780155208	6.832602407054384	-0.8682517288687598	2.02195494099985	-1.906228132442382	12.22790443826212	-3.737663607871485	-20.60043157063162	28.4729299218429	-3.95127316756328e-13	26.73119194823266	-9.566182510629529	4.16668011124007	6.932409575280792	2.744267676018543	0.7293927124536148	-18.765598889862	3.25133868687757	-6.993946273361862e-13	-8.952238535927453	-7.079719001525575	33.39832773234053	0.0002837664502305937	-3.092832054453113	3.210153598357365	-0.8544902909258525	-32.79216115362961	0.303088047597739	-2.490475642154245	-11.96091404147771	-7.209255493008588e-12	0	0	46.83941758807619	2.792037620514328	-0.7703052746536403	8.921573358734546	-7.209255493008588e-12	0	0
0.6272	0.8685586229768715	1.407452332326022	2.531636734648129	-0.3500395811465351	1.540965854586437	-1.498114368809743	13.70444145002782	-2.898372101315623	-8.344256193252241	27.16738456697034	1.724209489615795e-13	28.87919062178556	-8.437137020459907	-4.499066219101309	-8.441389879317011	3.856778737152401	-0.4538115761914305	-22.06838354092466	13.90323846044481	4.779407635173666e-13	-9.626200818968787	33.72392607116129	3.006517717135073	5.336333784324873	-0.9690765884976338	2.692735266438131	-0.3971720493248351	-28.23002145781987	0.5217893681828032	-4.56811994738547	-7.372101979525078	2.674300589537215e-11	0	0	22.97495107378957	1.457675754694585	1.866928218128805	-3.997243398673124	2.674300589537215e-11	0	0
0.636712856113114	2.615078979502623	2.808680320318509	6.780511923425799	-0.9989745305429415	2.374986471337696	-1.759438584542514	15.0257271331614	-4.455795599058399	-14.63233686861013	32.57469739109199	3.292769931716844e-13	34.04017292192123	-17.20634990988063	-7.044471630807601	-9.245214129103324	5.006132394512866	4.768574689860415	-1.925743005120333	20.06825416413789	4.665011565009099e-13	-11.72375360471991	76.01933565789729	40.29874760026351	5.093464596332497	-4.186046654629857	1.276435055035832	-1.536021149250804	-44.49841348444628	0.3216009609345956	-5.936512023665048	-16.04915159910767	1.867065807511306e-11	0	0	39.68854875345682	3.074363801183319	-1.52888696627038	5.485624076088749	1.867065807511306e-11	0	0
0.6536558844730551	5.503167712203919	3.310211932170879	7.51552539208739	-0.849344946250653	2.933990286726432	-1.47652923159912	15.52850048175871	-4.699007338268461	-8.732070749505491	39.2821171544763	-7.975746285345905e-14	42.0519415520384	-20.93125609192781	-9.271769153360101	-3.994632553442834	-4.882266735003121	8.099494014194427	13.94500972163108	7.537837203077862	-1.704548063547392e-13	-16.81286620332509	77.17564497728769	47.06150428086688	3.302717800878012	-6.500726680245021	-0.3591533350825699	-3.353095574913342	-56.9125946171379	0.09783990743229246	-11.02760679952221	-19.23508418113421	-1.068865120553605e-11	0	0	36.02741247441531	3.434332927143779	-3.85991507043969	6.363369125144192	-1.068865120553605e-11	0	0
0.6680312594138309	5.218419854386156	-0.5605996598567762	-0.5780716005236062	0.3865511544138602	2.189245386634033	-0.8661202653835887	15.23310417894524	-2.643302280190154	-9.636778891780168	37.86976139592718	-1.345370885240096e-13	46.08033719566792	-15.09025338076413	0.7983527252971359	29.63471135356883	-29.25123970013919	3.026450783743019	1.908874646311651	-50.48589972960156	-1.664178735167629e-14	-21.05622818716725	-63.65600335689422	-29.40566909118079	6.517952609508308	-2.814990117360103	5.168467467618352	-3.657647487418203	-20.40983154495225	0.1470933075773553	-0.8885284032899249	-1.35803887513798	2.020350044084309e-12	0	0	1.906624110027108	-1.335529427165524	-0.6623572802367974	7.704169052842268	2.020350044084309e-12	0	0
0.672	2.530556322775863	-0.3485777133133551	0.792220718812236	-0.07846956906658924	1.683331901964749	-0.6887136842564933	22.92637334063199	-2.123623079051651	-0.01994635211973073	46.16160964514076	2.230883933442997e-13	46.55802140302452	-17.52863522348872	-8.417739173892356	12.92880307813645	-31.24871977439781	2.871448615800395	2.857868020371948	-55.33084266752201	5.568097599977007e-13	-21.95740503960202	-17.53386616231806	27.7201730453673	16.18572050601857	-1.154608139411128	3.68097068100218	-3.149017161042271	-25.3577140172073	0.4269230997305167	-4.611283865575317	-1.173145678755855	1.693351019414117e-11	0	0	20.95150837020463	-0.8841255167180038	1.012490354040551	11.16246420304007	1.693351019414117e-11	0	0
0.6815128561131141	6.175247899422784	0.2506233364454028	0.2572856412255531	0.09202018349203592	1.765668610774382	-0.2756363393065875	15.95113772183153	-2.932410657472262	-2.48759141959058	38.73343652271922	-1.494670523069529e-13	46.41955892599262	-23.94634010223833	-9.703464171563965	28.22273185271371	-29.99156283340758	3.203290697337423	5.007440840815299	-43.74518086941685	-3.050781003940323e-13	-23.3438734636055	-4.908854637216256	4.986624919178446	0.4522929258128494	-4.948374170628947	1.78723105020238	-4.048807976666351	-28.30275881985216	0.6448325158531931	-0.0508282478654376	-13.60298006272462	-4.710360132164623e-12	0	0	7.879338220699051	-1.921067481847443	-1.637271866061469	21.18898324949357	-4.710360132164623e-12	0	0
0.6984558844730551	7.466500244866938	1.664959390240357	1.883605440394138	-0.3246078955958847	1.507602150324967	0.1057838880409271	14.90691453894996	-4.238898093159708	5.42306043254014	35.31231932533658	2.796167755560253e-13	41.43447095403339	-27.21963984026196	-12.30189768202634	37.9461171034117	-30.04486435352124	4.978485183370347	6.529480116266377	-42.65641974860443	4.529596919485724e-13	-22.43760501498052	-6.342406945460109	5.022166325082428	-4.465631655270291	-7.890236378274915	-1.520410470157704	-5.250370290376388	-33.38378689735937	0.6731252090451134	-1.676674566288647	-25.56904941237248	1.888468729117518e-12	0	0	11.081576901813	-1.772538079901805	-3.17365213100355	34.51825504443419	1.888468729117518e-12	0	0
0.712831259413831	2.01349663413816	-0.6303838371969654	-1.933738358945377	-0.9730092085346571	0.3798875944513374	0.2902931297707693	16.51464315981276	-5.500440398211871	-1.169828562142152	23.93554749243197	-7.167124160124061e-14	32.69787906928442	-22.94180691953012	6.300162561513421	41.31568722266296	-12.84427375049695	1.516096148193783	7.134158312553311	-24.4625410470541	2.970047565935079e-13	-18.35645615326222	-11.15163592270767	-10.565520584701	0.8930320877562401	-2.921408116945139	2.139090410485453	-2.597387484985965	-6.930858202310464	0.8148835439992458	4.829608537773368	-15.75939281831536	3.516507786879782e-12	0	0	3.516185241564396	-2.254617579095466	1.334470739410128	24.84956552059073	3.516507786879782e-12	0	0
0.7168000000000001	3.122445587377106	-1.023400856295858	-0.7873464952567224	-0.9500506748957994	0.5108848523446992	0.4928326180094887	21.93541161813243	-2.380902031513414	10.24564557640225	40.52402545741325	-2.330054300373479e-13	29.66101075809093	4.869718981024651	-1.492190455170842	30.3582816417906	-15.01844635263115	0.1846648757042012	4.602073035694675	-24.93711731505872	1.018805902657906e-13	-16.8253938950343	-0.4689437735085933	1.217074931030708	5.804066026119066	-4.201848446240675	1.590338820981434	-3.603849436649372	-22.2637178472019	0.6661036271990616	-2.015164200319605	-9.941055121141806	1.454512273031979e-11	0	0	5.265482650384832	-1.525264995719978	2.431916303140963	16.54823920173753	1.454512273031979e-11	0	0
0.7263128561131141	3.13720956577491	0.5032264049300748	-0.7512218289054422	-1.701090045893694	0.02215398439915778	0.7088469159404455	21.87164518918249	-4.24652869476825	9.183635836934329	42.10616236272539	1.427387271125694e-13	21.49522479280233	9.031631584756104	0.4315631357495942	55.27764808511456	-8.884264407574001	0.6936243637772367	3.520823958323255	-15.52965184491526	-1.060427462258914e-12	-12.73495269037299	-4.671431615157466	0.9647372067108634	0.8518572663356611	-6.183342424172161	-0.2489805564579345	-3.636061116440017	-11.44395563181605	1.050435894075456	0.8484867685094949	-24.31396726666921	-7.242341661713606e-12	0	0	8.61037887030937	-3.319648298132332	-0.7995120711677859	27.33423488375843	-7.242341661713606e-12	0	0
0.7432558844730551	4.028140329054834	1.33772554215612	1.422986443277491	-2.272920104829733	-0.2968978621872089	1.189684378759764	17.99146960321992	-2.098555999898394	18.91142107500161	30.5599963160587	-4.467464148590395e-13	4.839151766581811	11.44035865329721	5.054726740931495	56.57350208969959	-4.209658371276934	-0.5685574811659	-1.677783145921707	-6.531067862880409	5.293734824343142e-13	-5.259332245303584	-8.449511194150825	5.833273349351266	-2.475042716160188	-8.80065495414564	-2.924385038666167	-4.808294744981147	-11.34995702207906	1.071122077057728	-2.537574264709308	-37.2318798576328	7.071440306715815e-12	0	0	15.83329130217572	-4.170591896181548	-3.729404801220173	30.69469862370297	7.071440306715815e-12	0	0
0.757631259413831	1.162728003827167	-3.669178381720609	0.6268039686250884	-1.47938596083553	-0.8722362279054259	1.132612697277526	0.617264598516666	-0.1505927129568582	4.398457020920439	-21.91108425956185	6.273092020949109e-13	-9.990665121579763	-27.95560060692734	21.16576964783165	4.092272742211687	1.853006743700289	-7.493566799920085	-6.072984600906284	0.6645602359411357	4.60594071174631e-13	-0.2477072665354831	-4.767020184468547	18.22586309791062	4.402080975440231	-2.384806351070291	3.710616659699665	-1.756363514648792	-0.6909845742690396	1.278447091575524	4.763618120072887	-26.32550263452029	-4.50494743038418e-12	0	0	16.08597733565234	-4.15077771185411	-1.20314762605862	5.154904518760924	-4.50494743038418e-12	0	0
0.7616000000000002	1.512245540810759	-3.256163392591839	0.659147102159501	-1.619127512392553	-0.6088261932017635	1.359705251609713	3.991862895160452	2.764319740266111	17.01691469288474	-16.40208138572695	3.863855226788782e-13	-14.00128393822829	25.70138150119958	42.50846358355973	1.122532049304301	4.103236880408466	-7.028654538352226	-5.327434821118889	6.72459581904514	2.049118602005577e-13	0.7666748772095733	6.989245041898208	13.09037057513651	4.078944705930276	-3.905266436965993	2.130126358611149	-2.310605883198704	-15.3887848956043	1.159875090851975	2.572257944112296	-24.79730084764231	-6.952204503713253e-12	0	0	12.50344353068669	-2.771664090011121	1.172280054427806	10.0611782584261	-6.952204503713253e-12	0	0
0.7711128561131142	1.70917982981972	-4.980761071503117	0.5744141398558883	-1.909543706835204	-0.2635314075802091	1.695770510406791	0.6142545440969291	7.271377100575897	13.49431810685748	-39.02937563948454	-1.169333675758696e-13	-23.22852817119551	12.58239721139433	33.10206305034193	-17.23594156846656	5.212438882323232	-9.972828190674541	-7.690704014386666	8.009411543979301	2.942286625610748e-14	2.451060142263077	1.792897147943564	19.90301196454888	3.809250566075955	-4.666092037773676	3.614272853932548	-1.275486350986445	-8.505795533490787	1.800976924639074	7.397491411446227	-48.27789250845456	1.159947865218116e-11	0	0	22.55818427954599	-5.802573205739194	-4.453783126838483	-0.8019476525331592	1.159947865218116e-11	0	0
0.7880558844730552	2.61895183331576	-5.563221880379777	0.5644759147294699	-2.254895744672982	0.3500068974026421	2.165666371020378	4.817053857069026	13.0831686223469	17.24257530028752	-39.63331369932646	-2.496828786552584e-13	-37.58100801941963	9.569928993478015	8.092259051852398	-35.19697108333046	5.093021031120582	-11.54680610045828	-10.809410326402	8.646539951307755	-8.899389284258935e-13	2.869304506762493	-2.465808749810229	20.68211111745178	2.160227764637128	-7.455379155254738	2.801446045631434	-1.817873652225603	-11.40476427245972	1.701692406605845	5.152475500834334	-68.81262391760286	-2.628304680916751e-11	0	0	26.61781113013597	-6.859002833907963	-7.783922579040798	-9.156195006239926	-2.628304680916751e-11	0	0
0.802431259413831	-0.04077443748180299	-4.618659605378109	-1.964075167039366	-1.267798892409796	0.3011940889067557	1.66163719997903	-0.7609453043605716	8.025600512407999	1.005858549688864	-58.03155521221267	3.186594981041345e-13	-47.03862858369238	6.927031037964185	-35.75645770468504	-34.28476913490521	3.94413179962313	-9.143934674721761	-9.509554109158708	3.169159973534676	1.447529653648916e-12	1.156643333749305	-7.285469259205232	11.12995962710074	9.627600797996157	-2.558490452349347	3.394768321449558	-0.5936954683258419	3.200190932721417	0.3887842252187191	1.392229563864383	-34.80134598914562	3.544829330386569e-11	0	0	8.707255556610624	-2.376868810185723	-0.5992071673082787	-16.98619331156005	3.544829330386569e-11	0	0
0.8064000000000002	0.5969298770574029	-4.106508230273809	-0.9770600104279923	-1.554019170439717	0.4125112683204204	1.721764675417844	3.292264513251184	8.041146189253599	6.941731305034278	-46.99850648702134	6.349268552105703e-13	-49.17135697405568	-0.9111661512560365	10.88966041362713	-21.286812059442	5.581481779436612	-8.518331897282131	-9.079147325593674	8.416781044898292	1.850257334037585e-12	0.4670413641936967	5.986292124139227	16.82554750141836	5.835841380156826	-4.902323100458275	2.376056855316612	-1.188459665020047	-9.240913310385023	0.7846925353483479	2.506044951250206	-32.88090225888749	3.264920452323097e-11	0	0	9.89944798699231	-2.81457765516488	0.3777255381803779	-8.081268919711906	3.264920452323097e-11	0	0
0.8159128561131141	1.753509558498528	-4.151648666355479	-2.755243655337325	-1.399669675107421	0.70303340577823	1.841555637947538	-0.7150808157213279	8.274898070176315	1.645713748474477	-54.55129915450033	-2.090101902228097e-13	-53.45144968863151	18.95800260149941	-16.07943945288245	-41.40326206637407	2.614537523487983	-8.905550820742581	-9.829884821620169	5.082671462835957	-1.159807034790656e-12	-1.384865678946014	-0.1514386448536742	15.32670598233562	7.41008983761628	-5.481295986120912	2.564292026681966	0.2296947490163471	5.739455567717703	0.5401918067821569	4.21353628359803	-53.19936877056789	-1.946043207952733e-11	0	0	11.55254377873713	-3.721389636774186	-3.613908043477832	-17.37049729774617	-1.946043207952733e-11	0	0
0.8328558844730553	2.952570948866695	-4.257274750467011	-3.427403227281866	-1.296747444023467	0.8823631764098882	1.92937630308235	-0.6254334009447406	8.948934926392464	2.016537296294133	-50.73437556741205	1.151339040126311e-13	-58.39270467639967	3.472462973818546	-7.600865495843976	-50.21668930265987	-1.117494353534485	-9.124439213722598	-11.59201957056355	0.8010098572982299	6.175667661497102e-13	-4.703486757235548	-1.807871846691985	14.12211285783616	5.165923820610331	-7.039708578550405	2.493237490090555	0.7664011088925732	11.36889162491084	0.3512755846868362	5.21681551430089	-74.35346936633422	8.45139206343682e-12	0	0	13.09304895744056	-4.690740449347075	-6.944643967634656	-19.1145525611638	8.45139206343682e-12	0	0
0.8472312594138312	-0.6064799991070255	-2.969533954715295	-3.478619380542564	-0.4954804629256216	0.3756664616784727	1.094705067986408	-3.518479568879853	2.112732567076251	-6.905880361312757	-60.77692475621298	-7.551136304954807e-14	-60.37001082427628	-6.276283488134503	3.951112938776487	-9.166449669520645	-0.302045058987634	-4.534245787342714	-5.404455594180261	-4.155751358820361	-2.343266892972955e-13	-6.821544724605752	-8.706821398008248	0.9566454040823508	9.131322416338971	-1.051728997103279	3.153355483959375	1.311557622023002	17.66957060074743	-0.3348073731953169	4.515114500187193	-33.47848075164813	-3.477884561312707e-12	0	0	-1.80150763895616	-1.128573070069991	0.2553175041171998	-5.218950166563951	-3.477884561312707e-12	0	0
0.8512000000000002	0.05237705096199689	-3.152400838515686	-2.998676626680732	-0.8534553218403618	0.3239901996225016	1.281622616866227	-0.997378279982878	4.325326470381468	-2.676767780442726	-51.95055730511187	-1.205591900797705e-13	-60.63755428960568	7.804953300495766	-2.506822563383954	-17.92556163562043	1.213503471370711	-5.288858228766259	-6.30373404407506	1.048662986806081	-3.783711203958164e-13	-7.225411406159283	5.589791912605866	8.943119854452828	8.392166160727541	-3.502038381090435	2.994799891458771	1.168160816494053	8.195055448380085	0.3193952905737199	7.443727826433124	-33.60139306091598	-6.991160075245254e-12	0	0	2.639351551377805	-2.183025168602659	0.3631162982149272	-6.828674281344008	-6.991160075245254e-12	0	0
0.8607128561131143	0.6260612070468323	-2.811066674975086	-4.63871463212015	-0.5163782485153968	0.3343559945291453	1.158563819504069	-5.362315799398367	3.088730659314121	-4.966095828987496	-57.81467656868823	3.06648421015579e-13	-60.90042047087023	9.872107823658114	-2.651014950173013	-12.06766775998144	-1.625843601635231	-4.141247019099266	-4.80798231782128	-3.33166713023171	1.735042827351323e-13	-7.828772302164705	-2.750070626181773	3.193959153436325	6.477032242699819	-2.648802951982192	3.136086456351976	2.567643045191977	25.02528278755585	-0.3207159641594449	7.343187779424928	-50.39538244810358	1.132015190822184e-12	0	0	-1.590176563391431	-2.289664560435933	-4.024199778150562	4.024461611914373	1.132015190822184e-12	0	0
0.8776558844730553	0.9198475065293241	-2.612266121916059	-4.853854279021311	-0.3800803655284888	0.07583642732696724	1.103047696838703	-7.447722315262746	4.103282261554901	-2.899962422859195	-55.44509007135013	-3.801527606669524e-13	-60.44567014161713	6.70254942446295	-5.902961799786569	-7.447379876181683	-3.395958869199097	-3.227265056991446	-4.195200018964682	-5.913109800638056	-2.906333971000425e-13	-7.601532875950978	-4.510844273123674	-1.287282407882546	0.1118436298632597	-2.798191321093384	2.870053298930023	2.96895532530377	32.45755634345269	-0.848683382737965	4.502574139210707	-66.25185191127244	2.072639921582171e-12	0	0	-4.089864400853599	-2.386226496658863	-7.862372047978709	14.05377830610337	2.072639921582171e-12	0	0
0.8920312594138311	-2.657317670032393	-2.453700351707533	-2.491652117359809	-0.04217105129448153	-0.6117926537175006	0.4341884586619484	-7.276771725608365	1.224916202869732	-5.19639946013457	-55.18490910909922	1.069715796569612e-13	-59.56184862074476	-6.343199853835968	9.113510475901258	20.27886240505756	0.8580890835791348	-0.07812498695770158	4.072328294383406	-5.716226298890062	3.815810279340048e-13	-6.237287339001938	-8.42800173867801	-12.16772598813746	-0.7736269824778086	1.968197299862653	4.217624095764859	2.030293858854376	26.32908731752692	-0.7892607253366369	3.155259355536892	-21.82508312465599	-2.177435941779907e-12	0	0	-9.511265382863039	-0.1877358112502814	-1.380860725784318	19.26704733197327	-2.177435941779907e-12	0	0
0.8960000000000002	-1.210856232081542	-2.542563345247324	-2.62397221268293	-0.3005675829102736	-0.6334899711186648	0.7497036190671179	-8.684366121913454	3.707376509452601	-2.834327510396402	-52.74765822647162	4.342974016373531e-13	-59.27765745497258	11.8402561005784	0.1444292713198458	-0.4515781405076269	0.6475690515162766	-1.527523839350642	0.7820538225718365	-1.967267300790348	1.135516971486495e-12	-5.707943868240167	2.355576507441148	-2.043568082982751	5.401808286061334	-0.679901408360763	3.729158651587196	2.193003352927337	22.8340154810406	-0.132008655635154	7.164875638248271	-24.39132123504363	1.011004708456399e-11	0	0	-3.211934200505483	-1.351742833979769	-1.018511982500579	11.57667425970772	1.011004708456399e-11	0	0
0.9055128561131143	-2.560673885440442	-2.080456816929058	-2.025630301082156	-0.1518592760435245	-0.8757358502611934	0.4555087099545195	-9.137654925425876	2.741337647202344	-2.562900329116905	-52.80278785919335	4.595896637854691e-14	-58.54509965542859	10.57566372072154	-3.070766976591817	9.632701849269196	2.065253610377181	-0.04566267582042621	3.460092052642981	-2.609481784538352	-7.29803600236623e-13	-4.236246346027327	-3.864822993648462	-6.835541905559016	-2.965555324972851	1.253549405958859	3.538425848842903	2.025823455694447	28.88612750490934	-1.455007477634741	-2.545043890494847	-31.08437500733352	-9.257529074269637e-12	0	0	-11.05659184668734	0.006090148797068401	-6.233553632359456	32.14920160131527	-9.257529074269637e-12	0	0
0.9224558844730553	-3.472765726184766	-1.118395452667381	-0.7598668103022908	-0.08250264621401589	-1.277421358996951	0.3322101606100494	-10.10613368010293	3.115963099046408	1.273789351238322	-50.00374682597271	-2.041348758342239e-13	-56.99546212468611	4.255211644732818	-4.330260148898871	10.51715798924514	3.894719728120448	0.9710903019315427	3.556494939298546	-0.4987200675507959	3.545324990818775e-13	-1.186491535486732	-1.272081022138929	-8.719515700393158	-10.23899368800077	1.980542861104704	2.24452870454696	1.199726864423786	27.05566445016994	-2.608339219281278	-14.03038876232369	-37.02880905143807	9.573433832560566e-12	0	0	-16.35989579044303	1.317075757836535	-9.99549978322743	43.80753171702086	9.573433832560566e-12	0	0
0.9368312594138312	-4.961311725533408	-0.5318155393542129	1.239565961282919	0.1321879985898967	-1.687994841806722	0.2210940088163475	-10.08066141445389	2.865855218511022	4.517425552782649	-46.63081911785642	1.592778468366461e-13	-55.1134557109274	-10.08274450174985	11.24939289014892	14.01862872601233	6.655794086723722	1.921892586217238	7.053493702618681	1.899548361736223	1.138770495337041e-13	1.464796384557463	-0.9240389429911875	-8.620035085697078	-4.600495126786593	3.846915472279386	1.992206318811762	-0.2572966652815296	12.24857070877775	-1.776165135850321	-12.3882473356365	2.941903670450786	-1.680151112779602e-11	0	0	-12.32154553367881	2.227266640209303	-1.587602026495901	23.65002619634015	-1.680151112779602e-11	0	0
0.9408000000000003	-3.277194318383496	-0.7641899378267653	0.3995154961485659	-0.06063531762058096	-1.633930653998592	0.494859992731413	-12.63967523681024	4.835830006403533	6.072534976551837	-46.29508889621496	8.998034767247183e-14	-54.42641715149498	6.963104900057299	2.217733632742181	4.579302636516582	5.429564689034862	0.8248985004044996	4.298734661763889	3.2774390574112	3.684357615419124e-13	2.161843431899843	3.185043613721534	-7.341056319093564	0.9345857867061053	1.502767020279773	1.780525880219529	0.4065395118230818	16.15738735469798	-1.218866598598628	-8.293237338499488	-7.097733512921592	1.86869848291585e-11	0	0	-7.635808789381548	0.9410533942770996	-1.35818934145993	22.70361515315353	1.86869848291585e-11	0	0
0.9503128561131143	-5.287463849938644	1.992190225664257	3.00736070497595	0.1641437702133792	-1.882780862770955	0.1589680301973798	-11.86393572444114	0.6664679149133884	6.541429764574074	-45.71242026891718	3.211505123411045e-13	-52.34342262088639	0.8355562001689243	1.426542713623897	0.1028256141707842	7.946948584763715	4.308100447109965	8.541749355406949	3.759956637938868	2.409574428085186e-13	3.72545489023174	-1.194590782850549	-9.330220191524251	-5.622566886840888	3.906383965702568	-1.261643278643988	-1.65820303682308	6.601961835964582	-3.006613976720866	-25.05170645903795	5.84917091098474	1.359648236217636e-11	0	0	-13.46960408313246	3.907715625302694	-5.315785200756913	30.9900197231339	1.359648236217636e-11	0	0
0.9672558844730554	-6.152991353714544	4.351511849203201	4.976126970334541	0.4150964637444453	-2.101197810539169	0.1191203358633874	-12.93929029476832	-1.912264902727542	9.214710797090985	-43.48173193752054	-1.248335060867051e-13	-46.48872320693837	-5.67034798291541	0.9070559935175609	-5.43476348421312	9.756687866969958	6.309869850204725	9.600929114625142	6.336589277492459	3.961953010480022e-15	6.036710783564807	2.950831407692643	-10.74673364395035	-9.522683997661723	5.199572381560964	-4.455701118014542	-3.526325718528842	-3.620055419277469	-4.475663557796733	-38.26138584789773	14.66252472884745	1.624266257271259e-12	0	0	-16.8806158927222	6.330750209325227	-7.298528274822504	34.2110249296642	1.624266257271259e-12	0	0
0.9816312594138312	-4.617959830357648	2.275043097047992	3.718988944537606	0.6206788859878631	-2.028237209341706	0.7246508437071336	-16.03393829923185	2.38672183225869	13.6797422515618	-40.83899825205106	-3.69747387413506e-13	-38.55953785893638	-14.98790609557623	10.98341272283808	-2.014131217663098	8.352982098871164	2.402587373540084	6.68145262617465	7.489702828358337	-6.736937404417915e-13	7.511530049105834	3.483716038311039	-3.858410192705714	2.678268610014114	4.649618076264963	-2.812248290803834	-3.052778158767879	-6.985403235137364	-2.44778862196923	-19.02191581084681	35.38275549725823	-2.244565227033267e-11	0	0	-6.152845579669732	4.697581384067907	3.029225121973651	5.754059646830307	-2.244565227033267e-11	0	0
0.9856000000000004	-4.058444925714506	1.643138912577525	3.384691381392625	0.506552160411081	-2.009335910127672	0.8062852350876258	-16.55027202754926	3.461262456601991	13.8225751517424	-37.32185352841312	2.780335194039296e-13	-35.80181171923637	4.714814931327087	4.201493176372816	-4.11963212701396	7.952780428308877	1.953306445022009	7.13634507533219	7.269391633860707	-1.464775670948553e-13	7.852358145106378	3.774589347824755	-11.03704620496296	3.044908068373192	4.036161396332894	-2.447605517466232	-2.373892950725516	1.383033540879335	-2.380320509724687	-21.96934101152044	20.67188816400155	1.566558005049623e-12	0	0	-4.92907020445431	3.679579388651377	1.967375113455422	16.92089199465855	1.566558005049623e-12	0	0
0.9951128561131144	-4.147525287230689	4.714505792753712	5.909923616858858	0.9822293457038365	-2.080102491167804	0.6730265765550381	-16.34163449917713	-1.911233463382809	12.86365168299528	-28.36933350815524	1.420021659332645e-13	-28.13845931608096	-1.860433964585011	1.694216253867386	-15.11995261834998	8.264475585066172	5.031629429241379	11.29819392930702	8.569545602703325	-1.39089032607952e-14	8.579492095078209	2.240002095236359	-10.1349233278695	1.89571111358661	5.591992242306691	-6.028413319343811	-4.770018838629379	-14.08358526882865	-3.48634554362727	-26.04240911413381	49.98136731446227	6.880554626064455e-12	0	0	-5.339862317000365	6.807016825511074	-0.1128015456478687	6.412167937265943	6.880554626064455e-12	0	0
1.012055884473055	-3.123460164499416	6.2931449418239	7.438422599794373	1.580630452345985	-2.001368984230702	0.752058581952584	-14.22127169241039	-5.554065585203313	9.706822250358062	-7.001521889053677	5.683886536597782e-15	-10.9534443988456	-8.720967441403371	-0.7957392267884583	-20.23460271588103	8.091795152746228	5.854101541089194	10.87842253702882	12.67819756512185	5.53362309813217e-13	9.681114535209975	9.732076338620772	-8.260429717092757	0.0006378348214014506	6.674076653096791	-8.54256013137492	-6.34594417703021	-24.45057672030197	-4.459121269372278	-25.82156713954458	69.54644970498248	3.295027560733159e-12	0	0	-6.985577403263138	9.145782524614475	-0.7461480559889502	-0.7324298125432038	3.295027560733159e-12	0	0
1.026431259413831	0.3074670372913628	-0.4108919781876932	3.974778935907887	1.831850571488181	-1.70655752084839	1.714598479468765	-11.70697507356923	3.938921896652446	5.483142118665904	21.80648680980832	-1.170986683254018e-13	6.366354786696422	-15.06526569067729	7.768182136083372	-2.016552364279711	4.034562058161224	-3.794937112936684	1.042946795299882	13.68721311928858	-4.212665034736004e-13	10.5616452579805	11.15118710071888	6.19471207172306	6.903670366801995	5.488828695211872	-2.774922467172767	-3.323948346049858	-7.927109719196412	-1.939166386286078	4.753854482995153	60.29927443412818	-3.16366204828193e-12	0	0	2.691404786502573	5.032304455235187	6.561638592371882	-11.27042751301943	-3.16366204828193e-12	0	0
1.0304	-0.6425742268132878	1.140372925062868	3.984215764254582	1.672925054437025	-1.72012288417696	1.589698547821294	-9.359583497067041	1.581795724526509	2.485366273075291	26.1264419900492	-2.285925941939872e-13	11.3937289013535	6.037604760374135	2.212812619609974	-8.463119825311258	5.733544450020906	-1.170794361740883	4.215918349320501	13.54717241109413	-2.16795624390223e-13	10.81260920749907	8.94916517493982	-8.109641547326627	7.262220200316668	6.270808061073425	-4.661429757859969	-3.432021750372243	0.522708318537638	-2.490805838218334	-11.16842816368566	50.75325276072581	-3.931247016036584e-13	0	0	2.782861748469598	4.768156878244195	4.903484070293692	3.35267594102478	-3.931247016036584e-13	0	0
1.039912856113114	-0.5016803371256222	0.3062777704654798	5.199849592762477	2.114242016666459	-1.643832323544272	1.671267726363875	-5.196559021462059	1.563107309519405	-12.82174043929734	46.88770499747609	1.619605411586592e-13	23.52928799417548	4.716868090058743	-3.986547439024443	-11.54530697267212	4.855841534651281	-2.762159023724234	4.458864224709966	13.65235820711568	-3.213392249990732e-13	11.43288067100439	9.009432462101788	-0.2059507872884092	4.151000283730045	7.875143975267795	-4.156650162682083	-4.11102914806644	-13.40468252042603	-2.517247494210013	9.0691581033822	76.06126320989452	1.589461182092742e-12	0	0	4.872424058921441	6.615704965474426	3.753156313335438	-12.05841026401664	1.589461182092742e-12	0	0
1.056855884473055	-0.6973222225255081	-0.1769181505711215	5.96063199518567	2.563508548549066	-1.37536276485326	1.647938380409447	-0.461895958570937	1.747279207339886	-30.42030557304697	67.01912818993679	-3.429267783296131e-14	43.83169250844924	4.315543779888636	-7.751451677214512	-11.50469403739326	4.285889197758526	-3.825650631165376	0.8733812404256419	14.2424809667373	2.964059487374988e-13	12.66645563863462	14.03319092800255	5.98194470288019	-1.572623031569883	9.673852742422802	-3.927268368519673	-4.578020125586928	-22.45760076066136	-2.933652185734613	22.39707890453854	92.1715234892809	-1.851099585379789e-12	0	0	5.479905922627814	8.202787679120405	2.447815060222585	-19.3694704181979	-1.851099585379789e-12	0	0
1.071231259413831	0.3462165201343866	-5.843482787447764	1.25555103880806	2.336476005141069	-0.9579756393488708	2.238038430764933	0.9822915940199312	12.55764491341957	-34.51778822494614	74.65439256730095	-9.805706011061079e-14	57.78126625510957	-7.69656322550362	-1.193509416363628	9.510828156238055	1.679759067218072	-10.49769239048769	-4.545554891015681	9.829037002070324	8.019514225349748e-14	13.82621554401295	3.389239472781539	6.310154095230084	-1.623613564012568	8.726165980305199	1.652405691400057	-0.9009227088956886	3.813096634872186	-0.8870939346472293	33.10482144038556	59.47440927621873	2.614342362174125e-12	0	0	10.53141373039134	3.199360677090451	5.680434444721362	-7.543972419343602	2.614342362174125e-12	0	0
1.075200000000001	-0.3324613930693056	-2.018430051434126	2.88092839816223	2.292681616214629	-0.9106497379352299	1.867822151019318	-0.2368711965699244	7.69671191535153	-23.59937035410558	67.27634344289949	-2.840603521274664e-13	60.84054025751689	12.69345668518622	-3.307706542858381	-3.814187069322332	3.827103012498307	-5.695800711786894	-1.40242909382512	12.64929742763073	-3.079337111927986e-13	14.18844767670661	7.741297426005516	1.280388843233097	1.897367051287924	8.694323687382216	-2.007644612494652	-2.401722460864502	3.967553132328713	-1.75231519118282	13.4828638352778	58.27806974801884	-1.165027006934696e-11	0	0	9.908105579097306	3.945899284588975	5.627324309565923	-0.8525966981062716	-1.165027006934696e-11	0	0
1.084712856113115	-2.588367283083211	-5.614087478287305	3.847541226460423	2.725870420546538	-1.00074843715335	1.849359323187344	1.273537157350542	10.88187514475055	-36.35826488667013	70.81567568052917	3.114256189082929e-13	66.68855925234526	19.5065319266774	-7.328694028695533	-2.059029695712153	5.077474265071889	-9.960675927216	-1.133797489684349	11.0460732138052	4.472257503619806e-13	15.05924343837878	4.207356370124403	5.871613504308053	-8.935179855084135	12.69453878135221	2.042923546991407	-1.506808404574059	-8.195749708329377	-1.500830888869777	37.74140178712453	65.97000545830099	9.989628357743812e-12	0	0	10.0295952843063	4.829915263520915	2.654739638736527	-6.620942797952233	9.989628357743812e-12	0	0
1.101655884473056	-2.713605268653581	-6.606181834966041	4.554165764844742	3.496474782721871	-0.8568002688781697	1.637004311732694	-1.918115112086336	10.81925133247884	-35.20963958142514	64.21829409090785	-3.037459438726635e-13	71.09970146545999	16.63469288644734	-15.3580426956324	3.747901807395993	2.610270454134454	-11.52557276413788	-5.64213701706044	8.565007417081222	-6.028853059565532e-13	17.10454241809313	8.492000105785555	13.57332991058837	-11.95807233644839	14.33071337636383	3.883783149681368	-1.399284265638176	-21.25687752875104	-1.644001821380252	47.24994935834851	64.24202681152464	-1.354243595278903e-11	0	0	3.313201190653179	6.12895276148333	0.8167284860356427	-14.08625710226785	-1.354243595278903e-11	0	0
1.116031259413831	2.084788565011286	-6.118502610483638	1.056166991119637	3.509071900495771	-0.2000696537944611	1.622775057601479	-12.3089118737249	12.68791688928291	6.525699193150203	39.18866703936531	-8.913082522318603e-14	70.33057243206277	3.541359979959482	-14.83494104238151	23.25467832004639	-6.088635008522014	-10.7532322065538	-7.582994220527302	-0.1240248449872479	-2.461791670450626e-13	18.71115601786182	-4.99540189192186	10.0611194701046	9.340509699249955	8.096032838287615	4.648628146653166	-0.218003282416028	0.2079250791069569	-0.09372623158174714	24.87793791971373	21.91653448340103	2.683886612460363e-13	0	0	-1.417770661727984	2.348862188938851	4.209939333854872	-4.263826511515499	2.683886612460363e-13	0	0
1.12	2.254619143759972	-6.125977134323327	0.9187953312353239	3.505378042016806	-0.1775438950968285	1.625429205453885	-12.65441125891472	12.79418581752813	7.955345096030321	38.36371939383586	-7.209290671705186e-14	70.28526163967288	3.038068612440879	-14.75937103126969	23.99045716618765	-6.391995577129006	-10.7525890865869	-7.627532292641809	-0.4446720948177864	-2.186308677190238e-13	18.75665629985756	-5.568518189239885	9.90837550397293	10.08602597489259	7.871894049657873	4.69708456718389	-0.1642885988352623	1.054179587973186	-0.03015934442297481	24.16990973099763	20.40229448309075	1.14901271497912e-12	0	0	-1.532252978062381	2.198774529465	4.336482472306608	-3.88993440351095	1.14901271497912e-12	0	0
