DataType=double
version=3
OpenSimVersion=4.5
endheader
time	pelvis_tilt	pelvis_list	pelvis_rotation	pelvis_tx	pelvis_ty	pelvis_tz	hip_flexion_r	hip_adduction_r	hip_rotation_r	knee_angle_r	knee_adduction_r	knee_angle_r_beta	ankle_angle_r	subtalar_angle_r	mtp_angle_r	hip_flexion_l	hip_adduction_l	hip_rotation_l	knee_angle_l	knee_adduction_l	knee_angle_l_beta	ankle_angle_l	subtalar_angle_l	mtp_angle_l	lumbar_extension	lumbar_bending	lumbar_rotation	arm_flex_r	arm_add_r	arm_rot_r	elbow_flex_r	pro_sup_r	wrist_flex_r	wrist_dev_r	arm_flex_l	arm_add_l	arm_rot_l	elbow_flex_l	pro_sup_l	wrist_flex_l	wrist_dev_l
0	-0.4558412324223845	-0.1467847770927911	0.2361944140736198	0.1736100429952634	-0.2139701837333803	0.1869449288747941	-0.04350479211856301	0.4102739935336476	-1.264189230821716	0.05997950994537142	-4.066623667251007e-16	-1.742563521828008	-0.03793122267288246	-0.3614424597468451	-0.4469846940555099	-0.3964643084267647	-0.5003651823872245	-0.04346077868674907	0.5989735544843409	3.810308149280355e-15	0.3222893037747587	1.105601152551261	0.7196349379872615	-0.2144075814309379	0.7991361166187578	-0.1630788803979084	-0.4712331693187111	-2.200737624483216	-0.04245529445363198	0.4432249311655473	0.9028644286710013	-4.973519903545247e-14	0	0	2.246090696168657	0.1960513197012656	-0.3787116330761497	3.315487722660792	-4.973519903545247e-14	0	0
0.009512856113114032	-0.4200806521927379	-0.2006133446924573	0.2672609234700427	0.2074039782657745	-0.2060054432283896	0.1994641925631051	-0.1729112409326343	0.5098302465927741	-1.194678927876907	0.4325996398624926	1.752680930012193e-15	-1.033779642161637	0.02963471850342003	-0.3684767750217667	-0.3890298109319035	-0.3572636345098711	-0.5918507425236729	-0.05758236837626721	0.7970713882296878	2.719172260944688e-15	0.6228994918354087	0.9934624173436009	0.6505450257425978	-0.2220588526511685	0.8645570750859242	-0.1093767421636526	-0.4862463155594958	-2.145170950430502	-0.03799210268465864	0.7032447052767815	0.9697365198242297	2.986789989841251e-14	0	0	2.080104828649734	0.2277511117713015	-0.3794411768824823	3.190495829367085	2.986789989841251e-14	0	0
0.02645588447305514	-0.2759599931875117	-0.2938058830413974	0.3323511862999553	0.2795185920679972	-0.1774252636305278	0.2157732009512083	-0.5341394507482282	0.6595893868432099	-0.9565611401313489	0.9109388547398155	-7.816198643110825e-16	0.1419461760653826	-0.07932682890925619	-0.4004974135624871	-0.331860331067324	-0.3582664844245909	-0.7407331295104657	0.04075226576622884	1.229635114797953	9.328199163394646e-16	1.228876852872951	1.000064213983711	0.4407263144443321	-0.3495020690217586	0.8913774570514894	0.01388081053204352	-0.5175017057188346	-2.266137232696343	-0.02692866097559576	1.237765405175073	0.8849463593775926	-5.985126716386151e-15	0	0	1.278028114395987	0.3056796049009087	-0.4259677078527392	2.807188853832432	-5.985126716386151e-15	0	0
0.04083125941383081	-0.1462867359657948	-0.3450080853440111	0.3735223066327352	0.323342472263503	-0.1529172110995695	0.2239586768998836	-0.8876733792197262	0.7345035883829212	-0.06925028252866569	0.8599220305549266	2.074003161698089e-15	0.9645412816101985	-0.1937785936201348	-0.2992908332952841	-0.2374050597482709	-0.3105131590498592	-0.8115988186467884	0.1772776953973036	1.612198800045648	2.279202188640683e-15	1.842487625955602	0.7442805628117695	0.003230697818560113	-0.2746496495600458	0.8535512256910227	0.1098045056780002	-0.5493201662968362	-2.054874152066761	-0.02296818156400693	1.23809262243197	0.4445793806585027	1.745048119133162e-13	0	0	0.7534655576829372	0.3622815893009862	-0.4253022687661807	2.625132206364969	1.745048119133162e-13	0	0
0.04479999999999995	-0.1274010311600092	-0.3610704262869249	0.3909099313752135	0.3313310836954081	-0.149394572239531	0.2264037883581235	-0.9726918015593908	0.7445671541749042	0.1226723091466703	0.7064840247022812	2.213083382791467e-15	1.155928025329121	-0.1536770585172136	-0.3027207276964211	-0.2655993016411254	-0.2785890321060583	-0.8336975254241681	0.2205741339711757	1.723304386861566	3.240908369353836e-15	2.025377118995442	0.7691788944662843	-0.08177258655701392	-0.2613017398051628	0.8513027020900383	0.1315534869329419	-0.5570132725768305	-1.956500150875077	-0.0253037866708789	1.229677857142478	0.3834989887644816	1.58521344024568e-13	0	0	0.6812548586103483	0.3732375233342586	-0.4139453004585816	2.617585392983972	1.58521344024568e-13	0	0
0.05431285611311398	-0.09346385250368566	-0.409686468119395	0.396435227294045	0.3445241982596875	-0.1390995652664474	0.2372223062177921	-1.169984157436473	0.7946226530477445	0.2858400666558391	0.3500911109932163	-1.938396717067538e-15	1.541091239998905	0.3800477171444522	-0.7135264548619276	-0.4027015485334209	-0.1896625058371854	-0.8975450343168644	0.3000400406568315	1.940573428882266	-1.34785711603414e-15	2.486568306150561	0.579435229969071	-0.3364983551267502	-0.3668215282351325	0.8468800783009593	0.1848701662623305	-0.5777197915875888	-1.583638338146698	-0.02502756094344992	1.243025040493162	0.3310069005799352	-1.030956187129701e-13	0	0	0.4504287215608189	0.4056239096426827	-0.4054221991599285	2.526283359417119	-1.030956187129701e-13	0	0
0.07125588447305514	-0.0130239757448566	-0.5087728731251157	0.2136985786276661	0.3358677203641725	-0.1000007937430741	0.2721227080205073	-1.058367901726914	1.023438176296677	0.2370329339181002	0.7372993382963156	9.784772224709764e-16	1.948671996261044	1.458331376897936	-1.3121463948864	-0.61319633359028	0.03552002508169283	-1.002681123466175	0.3183561843166999	2.46760112648101	-3.91253676330335e-15	3.363794173169425	0.2687136386554001	-0.899698743541524	-0.782688610592896	0.7539879106459028	0.2959994242276449	-0.6249726554953156	-0.319423949279577	0.01573109809748402	0.9643690736376915	-0.06430256365357682	-8.552090385235269e-14	0	0	-0.3096054186053717	0.4876605363197525	-0.4699768552925881	2.054362213483844	-8.552090385235269e-14	0	0
0.08563125941383082	0.0002062479732265615	-0.6590967027921778	0.04769834501080045	0.3064711576076174	-0.05538451851000444	0.3057581413198697	-0.72757733709288	1.274430033493906	0.2406148966049961	1.259365585968394	5.876691599291441e-16	2.001607842733069	1.947799266184618	-1.058347196893318	-0.09942396723323282	0.4075920640489386	-1.200919026969113	0.1021224583860525	3.103864801893735	6.843599670378239e-15	4.12931604876136	-0.07153426125878593	-1.159528589899761	-1.077896032135837	0.7009272499128324	0.4315165131558588	-0.6290907899571436	0.6294190146670993	0.05517211583022159	0.7173724595835496	-0.1570636756012123	9.256696751172064e-14	0	0	-0.6988342668538459	0.5248111491068655	-0.4842769208204435	1.730899056646868	9.256696751172064e-14	0	0
0.08960000000000001	0.007698898946925034	-0.6860176689861381	0.02965885459518589	0.3024956770201904	-0.04358947310910728	0.3111206498285691	-0.6770249968777482	1.321517911377055	0.2569018811868219	1.336341213892053	-1.558768621203744e-15	1.970784332042585	1.948336193147369	-1.045751356567272	-0.08356239592198686	0.5047314646581629	-1.239736335677948	0.07881987979210509	3.30715243583325	2.963100571731507e-15	4.337333203573983	-0.1092009544309598	-1.225928402226891	-1.075695713075665	0.6913990689878671	0.4552137241999679	-0.6198270690062475	0.7137791042909849	0.06035485663246036	0.6816621858299647	-0.2220205140238454	6.290495335975417e-14	0	0	-0.7998190323195387	0.5276759410077763	-0.4871053502842349	1.675938127621569	6.290495335975417e-14	0	0
0.0991128561131141	0.01741632189265084	-0.7194858363903506	0.02396236328659262	0.2975328557581923	-0.01547733751545004	0.3164908823459109	-0.6485491100710904	1.383109888419217	0.2337452548767984	1.392238204228591	-2.358378158621332e-15	1.824990924267385	2.031466373686583	-1.091767805530148	-0.2889676247683203	0.7326278914728659	-1.291296370419351	0.1198319763024733	3.653847459511042	-3.343622295078738e-15	4.81889366726488	-0.5172475987861918	-1.470397495266619	-1.002976039717778	0.6936637864105177	0.4874045209371556	-0.5820568888453368	0.8888440916217868	0.05728253491057217	0.6001654007515305	-0.4764949996186136	-2.419406363265869e-14	0	0	-1.009334890029062	0.5391017875352199	-0.5102109496305538	1.536499624512012	-2.419406363265869e-14	0	0
0.1160558844730551	0.07408936277876374	-0.7979408555807104	-0.002859004129401546	0.3027259777691669	0.03225794436076003	0.318440570803884	-1.012644176406096	1.461245183193145	0.2245288380859939	0.7422575534765063	2.964722778833367e-15	1.365513558189463	1.424720577138322	-1.046820886233172	-0.2190188750503602	1.069318048733908	-1.383992580590638	0.1941678067960601	4.321432994567822	4.283528801824618e-15	5.56858224892437	-1.025901841603271	-1.908553464447216	-0.8520444194357907	0.7010341804500124	0.5754011531307691	-0.4766080931236095	1.205147413638461	0.0295890318142035	0.2155952504172239	-0.8686122160614962	7.501817977666766e-14	0	0	-1.437306871721176	0.5803196619788683	-0.5662264211135086	1.212033036753502	7.501817977666766e-14	0	0
0.1304312594138309	0.1403470680050297	-0.8164028654548354	0.04816789140881044	0.3018743566961238	0.0644352820406012	0.3017078940278362	-1.464544981317882	1.381923312822569	0.07175434975032204	-0.0479663182734919	-1.972552936060206e-15	0.8616771764597502	0.5746569283113491	-0.8985828891374043	-0.3253089706181771	1.323640864497761	-1.404275395954464	0.302244422191203	4.751029268646071	-4.930826378832765e-15	6.031074541913939	-1.529776105499493	-2.218760091680025	-0.3253453553644976	0.6580740171219405	0.6302137981341434	-0.3590225423688497	1.284806063218959	-0.02338365250604062	0.1014482515243152	-0.8597368007966313	-8.733439551258132e-14	0	0	-1.698445960220081	0.5988266536181925	-0.5348631934922053	0.8426178510341082	-8.733439551258132e-14	0	0
0.1344	0.1568823089855282	-0.8303424189182897	0.05384461077378746	0.2953528636331006	0.07008529162311226	0.2972251327209217	-1.54193635649345	1.375255009457894	0.04513729835037144	-0.1866256331260321	-2.403351908345471e-15	0.7172594011429451	0.4799767280757135	-0.8344583526748385	-0.3415525572421022	1.45809344609503	-1.41280962306379	0.3347696011832357	5.183451979611915	-5.024615292181263e-15	6.122383278138614	-1.279043926719756	-2.289609599029174	-0.1682191694535752	0.6293387714987739	0.6570264059649094	-0.3337267893096967	1.298275190536805	-0.02736016804815389	0.1171080155065619	-0.8211038237677923	-1.031648070536821e-13	0	0	-1.786343019891844	0.5992525351481957	-0.5268372870943436	0.7543419874368772	-1.031648070536821e-13	0	0
0.1439128561131141	0.1745921367517246	-0.8784298659265903	0.05510573065945799	0.280528191613444	0.0843165113385495	0.286126869407031	-1.668689826579635	1.398630091305739	0.02882247575168503	-0.422889600504072	1.105232482637307e-16	0.3788130007048182	0.6097854337871538	-0.7118542900039881	-0.4586215821340081	1.584430369509704	-1.429832089365279	0.4635635765209449	5.132092901715013	2.881461906010447e-15	6.268107380149067	-1.741035955164099	-2.591235259064711	0.2057704393975895	0.5972504392609216	0.7424077817703588	-0.2837380537230522	1.505945553796127	-0.03423883434860123	0.19484853710037	-0.6804050448088863	3.660486097191635e-14	0	0	-1.879858520290988	0.6087916630167917	-0.5098900715487148	0.4640040614290529	3.660486097191635e-14	0	0
0.1608558844730551	0.2838455922566624	-0.9584254403207476	0.114220061217257	0.2311753712384024	0.09963709223827646	0.2552524267019524	-1.892806926086968	1.410206157169687	-0.01427850814140223	-0.7449591742280157	1.449391196129152e-15	-0.1455568789549272	0.66113159930886	-0.5012332206314607	-0.8524007701802083	2.065693556375757	-1.452496767771273	0.8689949281390834	6.195485279803004	-2.195088373526653e-15	6.251673282597604	-1.491142074798802	-2.858229993969163	1.713260507350263	0.385293675339519	0.9079546765785822	-0.1611531134017065	1.620999098820343	-0.1243659266315185	0.4194466332781912	-0.004599706908515258	-9.352570536702537e-14	0	0	-2.086140704087421	0.6619927050079345	-0.3859285204614874	-0.5397331657741269	-9.352570536702537e-14	0	0
0.1752312594138309	0.3501798848441815	-0.9428932296021406	0.1046426231074402	0.1918275397229665	0.1004018434645469	0.2355506030479507	-2.01050961446717	1.365724695353647	0.0007623336529454719	-0.9680904072960832	-6.755151453416473e-16	-0.4677510222529171	0.5002848275240187	-0.4081057765448713	-0.887746075127229	2.017784121381773	-1.460337569680723	0.6701025486516582	5.154605459369166	-3.828947416131336e-15	5.955511711823344	2.626757183935726	-3.506671138028834	0.4253636387774082	0.2420431851987859	0.9213381887247735	-0.118215048309723	1.897341794319786	-0.2209325107115195	0.564816654935133	0.8896991060327186	-2.232143989955005e-15	0	0	-2.112810327403451	0.7202071068454647	-0.1956977675930581	-1.396627815267526	-2.232143989955005e-15	0	0
0.1792	0.3583064694585626	-0.9375164422734457	0.1140143055647955	0.1831527770661046	0.09696136143672796	0.2293645304130588	-2.01555361153202	1.343797587288445	-0.01041227736790195	-0.9903541368003812	-1.70783008278294e-15	-0.5344569257685367	0.4583012750510204	-0.3587055857187679	-0.8844068010814431	2.026434439142927	-1.467379746437319	0.6045717816234115	5.193046540512152	-2.56768631745327e-15	5.830558176661789	1.055336712646449	-3.441078906229055	0.5625557543187498	0.212835432750636	0.9221388028909415	-0.1107531220284035	1.846431382579582	-0.2382652628746404	0.6013162936108686	1.037509876158468	8.268838345397386e-15	0	0	-2.155310282409176	0.7303255738302319	-0.152294357684573	-1.550523384136966	8.268838345397386e-15	0	0
0.1887128561131141	0.3690580680392354	-0.9168578427110143	0.1616671909719961	0.161606521051282	0.09393769292267093	0.2112512675902781	-2.026338091291596	1.271301297839024	-0.05483607952204823	-1.034226037510998	-1.036365299469831e-15	-0.6565816742206276	0.5065015455360703	-0.1908519297499042	-0.9136375692515755	1.950060375969075	-1.444641088337898	0.5994815586371018	4.441341094035819	-1.20503983937179e-15	5.462332339190416	-0.4650251493747319	-1.929835958859757	2.009632056894401	0.155089821971178	0.9214319399101978	-0.08964094277002316	1.886042114709084	-0.2832412941379903	0.6938626724893527	1.304290929002796	4.571206551110974e-15	0	0	-2.146179038907306	0.7559946414882844	-0.06409740860702713	-1.911394047318716	4.571206551110974e-15	0	0
0.2056558844730552	0.4117968745399715	-0.7479071705119261	0.2438448683394763	0.1076760944374559	0.09306724460632415	0.1741157551017843	-2.015555908091841	1.009860696094923	-0.1116681229653455	-1.041643186194803	-8.990371328455645e-16	-0.7607609023756499	0.4270545292181122	0.03855868905204374	-0.8220333327216061	1.9197361749618	-1.173620508871508	0.6003827037792233	3.296058724701193	2.788732350583458e-15	4.60566116203066	-1.076627992478431	-0.4787422963632374	3.116789473996938	-0.03572889053566676	0.7727906911750358	-0.08219224831853431	1.824830248601092	-0.4618781630596838	0.829314095998721	2.358552492206627	-1.937776164790238e-14	0	0	-2.000434282077855	0.8538297269119568	0.1952234467742154	-2.991711282725285	-1.937776164790238e-14	0	0
0.2200312594138309	0.4091645152592462	-0.5812288552781757	0.3277437904253565	0.06002975510763718	0.0901903421461758	0.1441407496640102	-1.934170639343262	0.7702617887247548	-0.1693531087297119	-0.9871634164056109	-3.057305887502657e-15	-0.770281615335686	0.3410706609785992	0.169102056739779	-0.5133278960589274	2.020336082766089	-0.8765966663767838	0.5931125797969213	2.557786433147701	-6.204833051481167e-16	3.738255063665774	-0.5690521250094438	-0.7305745696714345	2.845059040075789	-0.1739865026046945	0.6123234121092097	-0.06633782715060572	1.694140850731057	-0.5531283415662582	0.8630001910386238	2.725634169641316	3.371918084391109e-14	0	0	-1.934745163814375	0.8859673516204769	0.3237642603005153	-3.664612049678409	3.371918084391109e-14	0	0
0.224	0.4054373683319218	-0.5559267582564782	0.3440367728989117	0.04883310707814841	0.08977035338313427	0.1371526926186294	-1.906472285171116	0.7324285871127346	-0.1768880117495926	-0.9648915857686429	-1.951909078924837e-15	-0.765564793939325	0.3400327819625182	0.1960806044487514	-0.4575887494375385	2.039455970685993	-0.8273662786539486	0.5715262580930124	2.347731364532369	-5.081031867719174e-16	3.484897850036002	-0.4299120441597631	-0.5999004699612864	2.766593400785739	-0.207452623853408	0.5922874820879909	-0.0606762604164939	1.657818012147714	-0.5670416736809329	0.8856568130079576	2.78935439520372	4.87837616396241e-14	0	0	-1.953548250123653	0.8894968261144509	0.3517370401928463	-3.795924594591522	4.87837616396241e-14	0	0
0.2335128561131141	0.3970694980222864	-0.4965477668982163	0.3908081538956606	0.02229323128060711	0.08930549909739985	0.1196292416567269	-1.849890588132262	0.6425873281433145	-0.1949653918564968	-0.919573146993629	5.387261507429058e-16	-0.7484478386470659	0.4178654301899623	0.2763166023402879	-0.3862795970462273	2.077627320985054	-0.7099270579819328	0.5366551414943221	1.828126992109087	-1.199676626609512e-16	2.86458220118034	-0.06702108508870219	-0.69932992221455	2.789484979073694	-0.2812229944186891	0.5481673816156107	-0.0561901793868321	1.612743021484893	-0.6086277059314773	0.9347836408018712	2.95870466026124	-3.344924217826251e-14	0	0	-1.950935287243674	0.9058030699165562	0.4256837500693009	-4.143601746805433	-3.344924217826251e-14	0	0
0.2504558844730551	0.3780138201512324	-0.2310067387673471	0.5276765698098972	-0.03610921312140841	0.08954245249305928	0.0841712547080202	-1.739300605882779	0.2995362042124157	-0.2563128152371066	-0.8273645836190729	2.27397800209774e-15	-0.7203827793781804	0.4098502816022808	0.3736506054924309	-0.03502291535268767	2.200688973137328	-0.2570979620763845	0.4807134957278775	1.023452366055486	-1.665425112966383e-15	1.749947643165755	0.490972550445028	-1.057729569255253	1.378914378981059	-0.457849087288102	0.2723206207404729	-0.09639310857620045	1.565321229605409	-0.7256430328973613	0.8154206119888096	3.151276247256334	4.824057496013157e-14	0	0	-1.74445518963941	0.9487799366889142	0.5616868046506377	-4.953647300023635	4.824057496013157e-14	0	0
0.2648312594138309	0.3360513484596166	-0.09808332514085215	0.6045986647320883	-0.07556442224299872	0.08959676151128407	0.06635685377892532	-1.659230645307577	0.147488805325815	-0.2540313440369362	-0.8333670414229338	-1.583702626756777e-15	-0.7221419974982874	0.3551212508800801	0.3030981757472428	0.1958676749879183	2.2558917189201	-0.06896763181746311	0.3257307944185477	0.2775515549577323	-2.847951250592453e-15	0.8282096900375213	0.3064308852780855	-0.711158267170751	0.6297338807547459	-0.5487762539853974	0.1241297990258928	-0.1234123264570545	1.569755270856195	-0.77327529774496	0.6475720295347673	3.135551712750611	-6.373983754353688e-14	0	0	-1.579861001055091	0.949849002328041	0.617228118952057	-5.37618581851199	-6.373983754353688e-14	0	0
0.2688	0.3252118483109425	-0.07875837618832869	0.6179282996549195	-0.08420567356908396	0.0890905320544147	0.06230077368983462	-1.63425910109983	0.1254632669935142	-0.2534205247417666	-0.8243135304356425	-5.927904930288165e-16	-0.7289501253936953	0.3524532067536839	0.2974146732659856	0.2417069530445852	2.264618706050292	-0.0391179191291558	0.2803100948315499	0.0927072921115949	1.774694466982181e-15	0.5801849289541481	0.3602048997426417	-0.5026829027790221	0.5077341789913049	-0.5711608315618152	0.1036297720589309	-0.1274291296218159	1.553041353049681	-0.7798935386258797	0.6333429404991474	3.137914226329716	-2.195729839439724e-15	0	0	-1.572387150917858	0.9483830584536447	0.6342525490733546	-5.455866441253649	-2.195729839439724e-15	0	0
0.2783128561131141	0.2986203411496582	-0.02761179804073141	0.6504127211472387	-0.1034176602312207	0.08847359127086443	0.05183241042482276	-1.597580920361843	0.06182106510385171	-0.2660168765073775	-0.8353806800931421	1.915575025289119e-15	-0.7581219987071315	0.3944322635269737	0.3255479051666503	0.3306254317313252	2.238927516351059	0.04965813530474164	0.1894991426503061	-0.4303121828532914	5.815528115242545e-15	-0.002243944599148208	0.4254177443411882	-0.2575492832405893	0.2384665607649479	-0.6124159234071025	0.05133379289530995	-0.1399581503973363	1.597088240914733	-0.8002355271150718	0.6088763503560367	3.191841496160456	1.037003172510352e-13	0	0	-1.499213000806215	0.9474040232342401	0.676024680132548	-5.686386316459142	1.037003172510352e-13	0	0
0.2952558844730552	0.225789106438183	0.09629118119946059	0.7117813777190609	-0.1405717164374493	0.08392536328801267	0.03801524281525683	-1.509938199118078	-0.07778029146303674	-0.2918671001798091	-0.8757248656269536	2.710784409963112e-16	-0.8573012425930844	0.3201538279548159	0.2741051543295658	0.5163987456340488	2.175117982470041	0.2212896943642954	-0.01061821740177248	-1.371988193088741	5.550244314006618e-16	-1.002999401243888	0.496980569517919	0.07360717082205515	-0.5453185339683285	-0.6708598956734414	-0.09671967493333607	-0.1791706732053817	1.75687823059835	-0.8245782625619004	0.344891978240166	3.189928663546144	-1.696284630057879e-14	0	0	-1.186340611406326	0.9170672097830042	0.6634464614518756	-6.127341792107583	-1.696284630057879e-14	0	0
0.3096312594138309	0.1486950217854812	0.1118637115239333	0.7112907697888692	-0.1599191514589186	0.07746466764534846	0.03392739155913507	-1.448784693765234	-0.08399660616281235	-0.2843856673704958	-0.9651411608229332	-1.031662303804021e-15	-0.9870601912376618	0.2558192170403085	0.1999612341223019	0.567501347980728	2.069149014825005	0.235960328845097	-0.1507100009151965	-2.171015599971642	4.090687021360163e-15	-1.828684155915717	0.1397531509817167	0.5596175756440593	-0.4862604392213798	-0.6636152356011469	-0.1290934539445557	-0.1765334012448004	1.865425189927917	-0.8076616352619621	0.1674054043273676	3.26672003913763	1.063085901690954e-13	0	0	-0.9931779652028294	0.8636261959529433	0.6137942895677077	-6.325716563101142	1.063085901690954e-13	0	0
0.3136000000000001	0.1321135904819889	0.1074104004957435	0.7082122887411231	-0.1638332095228079	0.07521084764869747	0.03270473527801893	-1.430149903134223	-0.07732448475182636	-0.2835436767202564	-0.97337616948836	-3.100954214157934e-15	-1.029376885684971	0.2584765750440184	0.1986887276492548	0.5851428930007533	2.03559827353144	0.2347535653158328	-0.1792993771679806	-2.367582792928694	-1.273302215239211e-15	-2.054838312712737	0.07434556887014032	0.7695316482312666	-0.4603218115350432	-0.6629817596290807	-0.127352042689885	-0.1754903673372988	1.883425200194831	-0.8029855423178767	0.1528424439588319	3.29996724873207	2.894793071489276e-14	0	0	-0.9696610751048234	0.8529016183473563	0.6122176555142562	-6.354362873864466	2.894793071489276e-14	0	0
0.3231128561131141	0.08803931283732844	0.1043724167074588	0.6971842991931011	-0.1717388476296691	0.06929606116676509	0.02863112831763648	-1.401918518867072	-0.07570059959851631	-0.2930896960731381	-1.026322209100484	-4.185583341707337e-15	-1.140202176351669	0.2551845872960045	0.2179735668497506	0.6312960633937476	1.918916850158703	0.2588668114168727	-0.2265319936844881	-2.886712276567802	-6.92473324671968e-15	-2.595572443951996	0.03155418035468249	1.035914461684817	-0.5249271437667745	-0.6486759676736037	-0.1281511920627005	-0.1704985961707374	1.999393191829469	-0.7910191210637798	0.1247395206955915	3.414878265651864	-1.494803721758365e-13	0	0	-0.8917862673139985	0.8232259817941646	0.5991877341552041	-6.441086079436721	-1.494803721758365e-13	0	0
0.3400558844730551	-0.0299424239542065	0.07345745543118744	0.6190055275806874	-0.1820228734778892	0.05276892740573361	0.02666518578662795	-1.29971014298035	-0.03903722966368245	-0.2886755253847538	-1.121098001535096	4.374539651446666e-15	-1.359644444796228	0.135449667734095	0.1784975014447238	0.599035660957519	1.727809860669518	0.2664417883775893	-0.2856452575724128	-3.772277439669501	3.556198466795103e-15	-3.553176383034298	-0.0875176155816868	1.198474995541971	-0.4389077957784577	-0.5765429208467899	-0.1009085517769904	-0.1100175434433291	2.125517796347409	-0.7156434766304396	-0.05974295961473378	3.710778424667902	4.468345921298389e-14	0	0	-0.7854569472100746	0.6929683987148793	0.4132836633812876	-6.573686025445202	4.468345921298389e-14	0	0
0.3544312594138309	-0.1207920867855979	0.02943951411977829	0.5369288014815571	-0.180228028542458	0.037561471934209	0.02428342866446061	-1.227251945764689	0.002115865596825695	-0.2847643819422145	-1.179999330479019	3.409367558428838e-16	-1.549848967182293	0.1315432861369942	0.2363405188008243	0.5024097859938983	1.540103983385761	0.2766046264798641	-0.2214225773130363	-4.450469913649066	-9.941782903143806e-16	-4.34466353049247	-0.7149648628429242	1.291123843797304	-0.2363238973485937	-0.4953927858596927	-0.06210861813820265	-0.04052476829025035	2.153516811805698	-0.6423950959194479	-0.1302327552868907	3.954657815795677	-2.741812062110965e-14	0	0	-0.8238854029764596	0.5818151811110313	0.2757821963535826	-6.511350285008147	-2.741812062110965e-14	0	0
0.3584000000000001	-0.1378683595503696	0.01435177981643677	0.5174734851361702	-0.1800178655321872	0.03324678400430267	0.02285389916682759	-1.21181443409158	0.01609809334709482	-0.2815072785434618	-1.18752730621358	-7.541838551485414e-16	-1.600056051034741	0.153154905529507	0.2610260088122112	0.4894580181577262	1.490189130847844	0.2813317623031004	-0.1850062116934851	-4.604692541188576	-3.774439371283664e-17	-4.555361585282441	-0.7969963233810967	1.449568012695082	-0.190213362907658	-0.482580873882541	-0.04654111203225002	-0.02632338216856667	2.168562596661558	-0.627357053019469	-0.1177573795505692	4.016912156988128	-3.267020899425088e-14	0	0	-0.8428989744065511	0.5602821303409644	0.2566162927100345	-6.495688878985842	-3.267020899425088e-14	0	0
0.3679128561131141	-0.1792239677549374	-0.01765539634389225	0.4662962714792634	-0.1762979809750022	0.02211726180799804	0.01919675719255894	-1.183363249404078	0.04616183000351384	-0.2641143969940983	-1.219141212228433	-9.688899871124439e-16	-1.711853961614279	0.169788982115701	0.3007380177277907	0.4361194689768403	1.345392166676253	0.297927691290947	-0.08560402499396971	-4.979753845456902	1.160837800796531e-15	-5.037331257160229	-0.9589154794443268	1.593286335972056	-0.196904956297235	-0.4392603172421496	-0.0127351622789473	0.008883521916467621	2.251722979943255	-0.5881466527017174	-0.08930081087716182	4.17185930416741	5.247261344017327e-16	0	0	-0.8998079760537665	0.502906162416966	0.1978650195252425	-6.441021558636791	5.247261344017327e-16	0	0
0.3848558844730551	-0.2522435905152077	-0.07346818957020622	0.3211416371138235	-0.157322964247007	-0.0005443547568566923	0.01776288776044316	-1.130748402833861	0.105893624782431	-0.1849269957888889	-1.256930179434411	1.179681599017005e-15	-1.863757608042546	0.1395664104525011	0.345780799491166	0.07619793710652908	1.097290251093665	0.285926309856472	0.1064655430052528	-5.470676528286531	-1.90225063183144e-15	-5.769723708050472	-1.2021743375317	1.654814335991497	-0.3191316754768412	-0.3442885003141084	0.03277834855254119	0.1247692656199286	2.15734554308181	-0.4611157422560629	-0.151763330593405	4.470503273338651	-5.536405108475592e-15	0	0	-1.218770764444049	0.3224853588529347	-0.04436492467483317	-6.031987107160498	-5.536405108475592e-15	0	0
0.3992312594138309	-0.2649342711306338	-0.1014136029434597	0.226031127441354	-0.13549606260775	-0.01807341416239224	0.01233453966626467	-1.139913298276724	0.1273590682143537	-0.1259379462155299	-1.25699554529961	-2.439628962286868e-15	-1.923513098813741	0.1843785428844097	0.4675232553723525	-0.1945843112065688	0.8576670965604931	0.2816838141197998	0.3450874035448324	-5.673891732290469	1.291336662210382e-15	-6.19580957334839	-1.773739024459708	1.606431598583613	-0.4291015175507751	-0.2920295825962035	0.04601303193909465	0.193699252613459	2.121477426699641	-0.3747722051692049	-0.1317155543617041	4.590796140436677	3.817413857996717e-14	0	0	-1.453154235894076	0.2071314286867485	-0.1544049336534568	-5.510778750499718	3.817413857996717e-14	0	0
0.4032	-0.2632573873456636	-0.1097037311637752	0.2047102345138987	-0.1316656997661743	-0.02306036121156689	0.009861964383780408	-1.145871120896628	0.1344390320442745	-0.1061011210462275	-1.259722112764808	-2.940234426427637e-15	-1.926260478837609	0.1862171671149294	0.482286244849523	-0.2381793546594984	0.8088412777997753	0.2774237979192526	0.4122485423610664	-5.661911737420312	1.497139176722071e-15	-6.272077372527242	-1.837025885007122	1.677607392772273	-0.4395740951054471	-0.2869654160074281	0.05402091233226997	0.2057974722050702	2.155978665745202	-0.3583668181094055	-0.1052774752386133	4.631702456943836	-7.175713811985125e-15	0	0	-1.48220230947662	0.185417496504526	-0.1672135658892179	-5.4025434002554	-7.175713811985125e-15	0	0
0.4127128561131141	-0.2485689667034114	-0.1266998362292054	0.1496505567955162	-0.1197353674753627	-0.0342740340975102	0.003638109582753917	-1.167200055434448	0.1515327853345326	-0.04218396623712089	-1.245033093182361	-1.579020175789372e-16	-1.906038860130873	0.2537587751498657	0.5253033811746157	-0.3542073230419408	0.7045741594127034	0.2572808615781604	0.5329985793266142	-5.452661399205915	-6.543705996070277e-16	-6.369788675427323	-2.001438358160426	1.876081450059041	-0.516508107007565	-0.2774086097638746	0.07379310923576034	0.235106741790786	2.259561027876066	-0.3160740336079438	-0.05434169100379588	4.731935015316616	-1.630863282647196e-14	0	0	-1.572257834235025	0.1277250559634371	-0.2080893175740339	-5.107168158672756	-1.630863282647196e-14	0	0
0.4296558844730551	-0.1903267965462608	-0.1295669788528086	0.03804349643182197	-0.08762755969815733	-0.05005802863595064	-0.006044619851910643	-1.253776623954539	0.1533541956968328	0.1011494971528672	-1.222378839962011	1.610419595450624e-15	-1.771481829098757	0.2861161475872364	0.5983934635324151	-0.7444221094103662	0.5751623151386012	0.2044197997601854	0.6205585091758924	-4.606730046918086	-3.179887079310372e-16	-6.212294905967561	-1.988981102238587	2.128796002360179	-0.8825338648799168	-0.2804700151061111	0.06344747691856925	0.300766968189329	2.21176973654581	-0.2075521371342549	-0.05239462972260737	4.72171010851704	4.468746469543671e-14	0	0	-2.021300202408441	-0.01452544176340081	-0.3130105107183651	-4.027451279577771	4.468746469543671e-14	0	0
0.4440312594138309	-0.1574962498923824	-0.1209284419314429	-0.01104138898239103	-0.06031731214946123	-0.06498109908871048	-0.02307366055981339	-1.28740928734469	0.129665378158685	0.1577199707022752	-1.149864694602364	-9.005508877414487e-16	-1.559626077970486	0.3014901383610045	0.6308424061530212	-0.7979257008137325	0.5433987227045769	0.1823014813573346	0.4865042327664539	-3.670214820485373	2.782939433417501e-15	-5.725497962315068	-1.951324027873725	1.952442340895348	-0.9188164442360871	-0.2562821688408801	0.06871355618282017	0.3219691167662143	2.110136459956667	-0.1475075029766055	-0.03713545501879759	4.622279170587699	-1.020771220148838e-14	0	0	-2.327044602817901	-0.08707753466193288	-0.2880690740397014	-3.191294807496587	-1.020771220148838e-14	0	0
0.448	-0.1539252404765659	-0.1175767444488369	-0.02281924257094482	-0.05459351786416566	-0.07003356638475569	-0.02788923404341344	-1.283369210524507	0.1231985404275474	0.1757438576898518	-1.119688840316412	-1.707703829101833e-15	-1.486658221691598	0.3121732164167355	0.618429605729274	-0.8000505197768416	0.5425522356928761	0.1789184050611805	0.4316776179695463	-3.428695821123529	-4.446872618996561e-17	-5.535518731139792	-1.909569731910618	1.939528688065467	-0.9090897559652145	-0.2422889655577372	0.0708792971280484	0.3244260030840571	2.125571751404848	-0.1364020330629763	-0.02026734559737173	4.624923687626082	-4.294774834220318e-14	0	0	-2.355797037871856	-0.1008471585533207	-0.2741102273616478	-3.024834164148344	-4.294774834220318e-14	0	0
0.457512856113114	-0.1496240051478938	-0.1057550605118329	-0.05763229348586853	-0.0399724428228462	-0.08333548359472398	-0.03868027752503275	-1.253959520880513	0.1064651471271935	0.2310902354398093	-1.015500153742879	-2.887086231489681e-15	-1.289626182048406	0.3586328237561164	0.5711698760605418	-0.8151511549703774	0.5365614689379155	0.1803000448299601	0.239683919235964	-2.846953772470953	-3.408068348699444e-15	-4.99109433992971	-1.451641248473887	1.801515598703395	-0.9167310502855497	-0.2063955122021227	0.07068679098440464	0.3333199949249991	2.184378856379698	-0.1050174724977128	0.01771795557221581	4.625299096571759	-9.783993103825961e-14	0	0	-2.453919387060135	-0.1414871474878345	-0.2479280406440736	-2.591154503885125	-9.783993103825961e-14	0	0
0.4744558844730551	-0.1425743833623072	-0.06079770655949684	-0.1051437090046828	-0.007444551885902803	-0.1053948649350677	-0.06327651172385104	-1.19668831318078	0.04011267541114467	0.2937934735498146	-0.8027389971946558	4.723076687863552e-15	-0.8792484760034762	0.3817997868041554	0.4903480305229289	-0.6445381546759059	0.4907372029609206	0.2424104359719719	-0.4080621613115288	-1.829978271882194	3.467004198607563e-15	-3.769388679089063	-0.5956222827365677	1.2350691627995	-0.8742573510766277	-0.1180883186873556	0.04969270015848297	0.3396380525066386	2.19129179485546	-0.03614676972253321	0.02169958222274235	4.325821188050172	3.698317039974915e-14	0	0	-2.774968737236579	-0.2217026690315772	-0.1328988299724288	-1.360461200203356	3.698317039974915e-14	0	0
0.4888312594138309	-0.1425264667111683	-0.03617051103247246	-0.1265912914595519	0.01372013493440465	-0.121307439767904	-0.08575408934934767	-1.095245600504409	-0.002160389185793962	0.2532179297083599	-0.5355185958235816	7.088196181230105e-16	-0.5000607803810165	0.4631688160854769	0.4571650587697271	-0.2919878326495686	0.4659253056503395	0.3142023980711885	-0.8660062110767994	-0.9968054512322848	-1.053328027930968e-15	-2.587240933099672	-0.6923795583281356	0.5053637241773006	-0.6262199185414665	-0.05588846828829645	0.05998961294068975	0.3412871815590209	2.173595469048295	0.005290943871237175	0.06360719851953582	4.053588966055145	2.145860517229128e-14	0	0	-2.870065920819184	-0.2609118409780765	0.00748478803215067	-0.6341361750288499	2.145860517229128e-14	0	0
0.4928	-0.1481981370206423	-0.02877881149063878	-0.1375017790683552	0.018770508684023	-0.1262036460924864	-0.0909179540410051	-1.054201139692734	-0.0137438817792146	0.2465789680315667	-0.4496226839764406	-2.033638314084817e-15	-0.394697551251283	0.5004325190304063	0.4464331512207381	-0.2245907948127304	0.4678858361668125	0.3293511120217373	-0.9515542039515635	-0.7787810067136641	4.1976357282972e-16	-2.255033913593879	-0.7202514168967582	0.4355164536953482	-0.5618656878125693	-0.03139660642395657	0.05966684762300154	0.3416694275641251	2.195997247463507	0.01392568614776711	0.0899086688556188	4.025685811984064	-7.06429873372746e-15	0	0	-2.859398525128805	-0.2698560021312524	0.04197161812867878	-0.4954557170004269	-7.06429873372746e-15	0	0
0.502312856113114	-0.1657986690768292	0.0006485568234687426	-0.1773861728465831	0.0309411528094785	-0.1379420002128748	-0.100882899179236	-0.9501190724272637	-0.05262200602612389	0.260696728781993	-0.2405199966481705	-3.355020949733855e-15	-0.1468528326669483	0.5898003915270293	0.4113377880591761	-0.1098147373373391	0.4598599437866104	0.3640108602498946	-1.1400644590072	-0.2666568897576222	-1.874724648690209e-15	-1.474260626542336	-0.430817711422553	0.3204069783156895	-0.4477260269367613	0.01932121110595641	0.03434504314711422	0.3453892335951643	2.269751675591821	0.03947195290292589	0.1519876940221366	3.953614875510011	-6.168285170877749e-14	0	0	-2.856420624393406	-0.2974417485861901	0.1180995244700557	-0.1417988034577791	-6.168285170877749e-14	0	0
0.519255884473055	-0.2491196820996417	0.08715339911383464	-0.2401858766052704	0.05445348538708215	-0.1597506487684282	-0.118752344450176	-0.7120251790245509	-0.1643072757036937	0.259425131655211	0.1383751866584647	1.299703283175404e-15	0.2587494964436318	0.7612173773906175	0.3302457087715428	0.340382351460071	0.4577970386736219	0.4670363055212745	-1.548690938031455	0.5291263212053446	-1.91665369299584e-15	-0.2280776647262242	0.1326637802489453	-0.1315568259563581	-0.09996155149081148	0.1743738381431386	-0.06474100146237471	0.3509589948640008	2.296010806840877	0.09570329283884745	0.2136652760452856	3.50225175229009	-3.852987966261986e-15	0	0	-2.812387001997645	-0.3399910279230083	0.3152653273716149	0.5870390048998836	-3.852987966261986e-15	0	0
0.5336312594138308	-0.3130299733267152	0.1621068655403478	-0.2902239589001364	0.07145520474413533	-0.1743729985909821	-0.1298047260332045	-0.5336420209843987	-0.257964283764932	0.2209747961703876	0.4250081229947139	-2.633420356917664e-15	0.5483186616994857	0.8832901304464897	0.3012869384823882	0.5481835424902299	0.4137889448331051	0.516446228875747	-1.432543022991803	1.002658764246757	-7.894911427499615e-17	0.590139977241392	-0.008280535538176537	-0.4658570945601487	0.2393665682427764	0.2764606495662132	-0.1611932876599643	0.356160976052914	2.299596783005597	0.1293407247803277	0.224572614177961	3.259127355568508	-5.378123627543314e-14	0	0	-2.622392716170085	-0.3513545555682138	0.4385954444357656	0.8463553897923213	-5.378123627543314e-14	0	0
0.5376	-0.3221317856886971	0.1730819934133238	-0.3035220719432871	0.07643786117859043	-0.1780731717078591	-0.1327356702903351	-0.4976547520874967	-0.2733732304005543	0.2117983068979817	0.4950048847528407	-2.549443928204267e-15	0.6181997495295698	0.9225183030842267	0.3048447072228438	0.5921847198345288	0.3936876865024735	0.5165935239516241	-1.370898773723759	1.108446710346486	-1.749180424547717e-15	0.7695038410903844	-0.02673222671942699	-0.3939162925034181	0.3014848049441594	0.2963078743543768	-0.1741155928714151	0.3575330919736696	2.336342477118014	0.1363618375665705	0.2424294407762284	3.235074581348005	-3.922944532224963e-14	0	0	-2.559399266723966	-0.3548491010586316	0.4683669165811913	0.9056575990752215	-3.922944532224963e-14	0	0
0.547112856113114	-0.3595876165087719	0.2078838853260601	-0.3476866782290771	0.08640428598773009	-0.1863660124565669	-0.1375858700873789	-0.4001325044451439	-0.3182069180131109	0.2239023543269683	0.6400655757611609	8.135052589734825e-16	0.7684864816144061	0.9810260271653449	0.2677858353970889	0.6461206115812159	0.3462418201602837	0.5158328131581762	-1.157294401502003	1.310230923527003	1.786231799033837e-15	1.115185876288448	-0.6195337957357183	-0.5031814242386283	0.3619045500123569	0.3485413029827695	-0.2224783155588937	0.3665450869270672	2.462342712354184	0.1578968120210827	0.2982821187876772	3.173175795940458	6.073589169871122e-14	0	0	-2.397027312045782	-0.3674605895995275	0.5335304820917349	1.045487184428133	6.073589169871122e-14	0	0
0.5640558844730551	-0.446366796849771	0.3397616088952241	-0.4559460667380247	0.1065126137105166	-0.195889787192032	-0.1374235785237873	-0.2093469559300265	-0.4642606211266736	0.2954848284215375	0.8975716096595739	-8.65325430258595e-16	0.9870262079649768	1.024299802158795	0.1391215625152772	0.4748670363186547	0.276844820487163	0.5472102712649431	-0.3042256905821932	1.559545486781523	-4.776048160023411e-15	1.459618107667897	-1.727349426096468	-0.5564706873553867	0.3949967648830326	0.4540643161927192	-0.427743699881097	0.4033466467776017	2.418410760674439	0.2071352513033624	0.3147319621406034	2.927209790959093	-4.833224802555518e-14	0	0	-2.072976620570927	-0.3703475904198919	0.6137930017581292	0.9035582513542229	-4.833224802555518e-14	0	0
0.5784312594138308	-0.4811601075131146	0.3962822745926632	-0.5671867883908444	0.1276690624816748	-0.1962592803962267	-0.1388006212593341	-0.1142816567796946	-0.535091761772551	0.3231550742617411	1.052185032939536	-4.019127675578772e-15	1.149062128374436	0.9460331068866363	0.07959271204191504	0.1154418929433338	0.08489999722161251	0.5176986518648572	0.6828358180949823	1.280347437614196	-4.279922268445669e-15	1.541265513376402	-1.272572604534838	-0.7931806472800584	0.3244293671109458	0.5001563304796979	-0.515099612304261	0.4422267221199739	2.274138102578009	0.2350367275380294	0.3171781724387862	2.92306998451041	-6.225862665985921e-14	0	0	-1.90781954594321	-0.3556580538545028	0.6241943922472951	0.429755119717335	-6.225862665985921e-14	0	0
0.5823999999999999	-0.4919777924160483	0.3962632832324271	-0.5857585478873771	0.1320969220534132	-0.1953216253814156	-0.1419021960212265	-0.07609314632075653	-0.5424113383874207	0.3182478509212487	1.109814128552986	-2.631813671122001e-15	1.194883798894883	0.9288392184146752	0.08087811717971655	0.06093979878869443	0.0006338702955394071	0.5094417951107888	0.8097774108422087	1.019290206198885	-2.896587696075126e-16	1.540611111405201	-1.588437980943763	-1.162941433356717	0.3175074674683677	0.5163889025905739	-0.5105435447593407	0.4483202151085285	2.289582805470569	0.2399301687561518	0.3205817004188296	2.943870941577279	-3.174933525071471e-14	0	0	-1.845498544754636	-0.3542725480480002	0.6333203399122739	0.3524787069605933	-3.174933525071471e-14	0	0
0.5919128561131139	-0.5053929928528643	0.393668606310005	-0.5860988713633926	0.1389873283567447	-0.1911404945590076	-0.1538002820873727	-0.01809112118791806	-0.5571690398365535	0.2771802240409812	1.204382106737669	2.641874696033885e-15	1.314394317356814	0.8317478400757743	0.07786457851426221	-0.06402304143601328	0.07581005619669173	0.5020393832043776	0.7047120080198683	1.264885234659145	7.682528115161734e-15	1.512710513270522	-1.029219018387195	-1.675968246030458	0.2307991005781773	0.540529717197977	-0.4878917159116044	0.4567220523405059	2.123682997165397	0.2518089336448826	0.2943133305651336	2.908049905482465	6.869580775452972e-14	0	0	-1.729003478159866	-0.3456737435994545	0.6585906449361218	0.2548395225871731	6.869580775452972e-14	0	0
0.6088558844730551	-0.5093270578407816	0.4081658065493641	-0.5032658748375458	0.1352211400143504	-0.1645086449076407	-0.1784216702365615	0.1440990718603872	-0.5837369527788107	0.1423262014394256	1.502151653257745	4.602379371324162e-15	1.590476246350237	0.5513582750166566	-0.009235291476201779	-0.7158484209526333	0.3787008013038236	0.4941488663802058	0.2606828297908086	1.752524409950346	8.400643520379744e-15	1.410472251812943	-1.353886487456966	-2.701917739086907	-0.2942276052745999	0.5433874689045399	-0.4721522434641912	0.4776641591841503	1.257554727299973	0.2711526413612124	0.07257661107911551	2.609467521522571	1.543053668395326e-13	0	0	-1.133991660844624	-0.2715229978292729	0.6203953970809678	-0.3216869773671261	1.543053668395326e-13	0	0
0.6232312594138308	-0.4890011014108573	0.4363257241204197	-0.3734329515446392	0.1256562057951192	-0.1288515763146149	-0.2070571208829898	0.3203945616313883	-0.6344183675218136	-0.1581648449418573	1.896470315086819	-3.415102900233489e-15	1.921702736491298	0.3552333814204666	0.04448074296253224	-0.7603367137891557	0.4997779340063023	0.5220253621477292	-0.08288444504199861	2.011125960489205	-6.532021521977315e-15	1.295165180746824	-0.9976017923462352	-2.47979065191497	-0.5192922867971682	0.517596742411132	-0.4405556778085546	0.4698697609295676	0.6138643097828655	0.2788093349348598	-0.0353434306277455	2.336338341903865	-2.627368864532214e-13	0	0	-0.5001805667208591	-0.211189539213369	0.5841106272247135	-0.3203635522244122	-2.627368864532214e-13	0	0
0.6272	-0.483081368434259	0.4425760755267263	-0.3553437111160143	0.1238001970723586	-0.1189576143985278	-0.2137803445786249	0.3793130886084285	-0.6474863947691949	-0.2149075828076574	2.022357243418375	-3.847931878911231e-15	2.032042842433723	0.307331408584302	0.0466948739405123	-0.7629015880175022	0.4881637238160991	0.5221279949267287	-0.1647034236149134	2.053650090302965	-6.931450178391537e-15	1.258337426065734	-0.5319641413111109	-2.126669878522476	-0.5074170836269005	0.5100758916316821	-0.4287067145790521	0.4674409222575607	0.5094839695334116	0.2804442205025767	-0.048969029283084	2.29912277347472	-2.213097208688065e-13	0	0	-0.4105410779113485	-0.2029705396675621	0.5866570215028292	-0.3108071701961361	-2.213097208688065e-13	0	0
0.636712856113114	-0.4795746931466635	0.4608146359928061	-0.3222284103135492	0.1121729771006871	-0.08917718288430002	-0.2283823791510387	0.5654489590794206	-0.6799117898761324	-0.2992576665042372	2.35769581101482	-3.524630498310879e-16	2.331412248735118	0.1295722976411905	-0.01224245021364745	-0.8757163222834521	0.4790134866973815	0.53708828958818	-0.299785120408983	2.254623582626236	-2.569295304937426e-18	1.157335082642153	1.417342803510918	-1.445348943055743	-0.4497578060114881	0.4743559255177771	-0.4094262021867295	0.4600276785017021	0.1530117214445414	0.2850486924990024	-0.1008691254581936	2.201715515310899	6.944329477926455e-14	0	0	-0.2483779283560925	-0.1851466034731075	0.5954142531858004	-0.3355298409926304	6.944329477926455e-14	0	0
0.6536558844730551	-0.4207100081587155	0.5233673147335126	-0.1664325486827145	0.08990821026192698	-0.02657338165014263	-0.2580251420945575	0.879864193149292	-0.7654701039529037	-0.5207666728419228	3.034740895637662	1.960761592993689e-15	2.979469931085272	-0.3020390203469334	-0.1575076583494264	-1.042483136559237	0.3136734772956931	0.6693225528511569	-0.1186110583081955	2.114733812568451	1.238275611263972e-15	0.9171008524069963	2.245866288670525	-0.6832159305687456	-0.3725783901066516	0.3663397542122472	-0.4149637350019522	0.4163742367818065	-0.860597881582944	0.2880315428967771	-0.265178790843982	1.846098989233077	6.770369303675022e-14	0	0	0.2262592502997342	-0.1149654952982445	0.534374758789278	-0.1790350068955794	6.770369303675022e-14	0	0
0.6680312594138309	-0.3362027035625109	0.5395695498976247	-0.1310472347698354	0.09211280127538868	0.01189436447845924	-0.2748370335335498	1.081943503807217	-0.8191821234048522	-0.6922508439161905	3.564418069404954	-1.722270898163853e-15	3.616893009504742	-0.6405953749178631	-0.2279595056637734	-0.7510992465070339	-0.1324079499003198	0.746861969525337	-0.0144887430348158	1.292056257946015	-3.284950767581235e-15	0.6436522076854592	0.8996833555254697	-0.7438581562753366	-0.3534311732424111	0.3153352323228822	-0.3709051360322464	0.3624457161070145	-1.286813833955415	0.2885063632620223	-0.3281885398776621	1.706604767274484	-7.644997337981332e-14	0	0	0.4935788430509735	-0.1061203880024477	0.4951937788308746	-0.09918486400290479	-7.644997337981332e-14	0	0
0.672	-0.3197134382661236	0.5376164310819846	-0.1307567864501082	0.09417749900314527	0.0200423642456377	-0.2779247428626609	1.161486702003229	-0.8284951510390736	-0.7108906994480314	3.733133214587196	-1.502299928100539e-15	3.80082214264526	-0.7458539392237196	-0.2673665316630789	-0.6671356200508227	-0.3084085360366257	0.7583809496104471	-0.005582663216333125	1.091253700388662	-2.117259321434098e-15	0.5582426784736029	1.516003350096279	-0.531642679567199	-0.3068237209989028	0.3140844213105839	-0.3531065690774566	0.348995655522406	-1.327973185787732	0.2896416843309254	-0.3392273636506533	1.702956843692283	-3.610718672528177e-14	0	0	0.5754349535600677	-0.1105873903536391	0.4962231661451917	-0.06207157011900792	-3.610718672528177e-14	0	0
0.6815128561131141	-0.2777464206325101	0.5371073350495456	-0.1231577727377878	0.09608413455586293	0.03825938659956771	-0.2824593126313448	1.344732204053178	-0.851469710950893	-0.7061767749166863	4.132454696764951	-4.042355715416409e-16	4.244542526953706	-0.9669799456464847	-0.3543710510306921	-0.5138982919401052	-0.6503633050671891	0.7866101370570038	0.03369455682128323	0.5508342470980212	3.726106727586578e-16	0.341811249453586	1.449730874823928	-0.3750320061435767	-0.2012334547776194	0.3006096395458937	-0.3285199410235792	0.3167772487159181	-1.472567010441964	0.2952250219757699	-0.3697422427669179	1.639911728465856	5.654913604712656e-14	0	0	0.6854829440148585	-0.1224510557465483	0.498065564375147	0.09116516768655805	5.654913604712656e-14	0	0
0.6984558844730551	-0.1411031261449096	0.5566325869248441	-0.1020899734938138	0.0952921244278698	0.07464743788626188	-0.2830864494764065	1.596164084819244	-0.9071769336815139	-0.677520948957878	4.741099348621217	-9.32530747814697e-16	4.997332516981174	-1.548125834106024	-0.6171466743372152	0.0936934902381245	-1.220400408830786	0.8592103255791345	0.1288209154188427	-0.2521310589504644	-1.95390269765963e-15	-0.05235216908830536	1.231225431772231	-0.31594971280814	-0.2946712149771908	0.1971063664872352	-0.3338802307140804	0.2288779356351893	-2.053854300423597	0.3059043772253936	-0.3862807533765676	1.274539713510945	-3.554245824858614e-14	0	0	0.9370438810947976	-0.1555396392581262	0.4428114105055988	0.5798522156335804	-3.554245824858614e-14	0	0
0.712831259413831	-0.05618881343129662	0.5659229639234542	-0.1086381895446894	0.08545340758217362	0.09751498371623105	-0.280958444158882	1.794892607671383	-0.9946606695869132	-0.699534701880729	5.092474153077525	1.901098857267175e-15	5.534705728079212	-2.06333412022915	-0.6794626815853053	0.7225027718047977	-1.492583994557336	0.9117259432950038	0.2403515281000594	-0.6263054545483736	4.926733459745833e-15	-0.3487032205527658	1.187059634352039	-0.4194361992727814	-0.3369787404623951	0.1223738268140168	-0.3269402199542323	0.1788471289042559	-2.394811203244344	0.3175725731555724	-0.3286987936945283	0.9467768395473275	-4.077905774138992e-14	0	0	1.05782085362604	-0.1882815708896184	0.426286617344295	1.051383138815309	-4.077905774138992e-14	0	0
0.7168000000000001	-0.0410280194565973	0.5624528365395234	-0.1141315219439061	0.08123455959440036	0.1025701244616105	-0.2794018131505699	1.875178194269555	-1.010065528745317	-0.6811741095764777	5.227738629737191	1.235474289388494e-15	5.658528946909573	-2.142666110625194	-0.6927493819561221	0.8629051283379213	-1.545606860801151	0.9148923084447704	0.2636069272183693	-0.7107236041173264	5.787359133004744e-15	-0.418562311451331	1.170215196989112	-0.4412936795593821	-0.323085834929739	0.1068394775774337	-0.3193290871789864	0.1665799350308068	-2.484456187523466	0.3204823611576275	-0.3233613195085627	0.8972644471772938	-2.989833909730289e-15	0	0	1.081962411115625	-0.1956546014750517	0.4341610081494096	1.132171765404568	-2.989833909730289e-15	0	0
0.7263128561131141	0.0007481036361528387	0.558057651442796	-0.1194645525356515	0.07233844502754061	0.1125265587738028	-0.2735262700905555	2.034693998795579	-1.035189514400197	-0.5700307674451561	5.542652122400306	6.310449390519197e-16	5.902755953917267	-2.092608507747957	-0.6673140601704435	1.233101691852988	-1.643428744784362	0.9161148817747483	0.2983922119942136	-0.8454638810998878	1.000469192754943e-15	-0.5595140001854102	1.130132240982353	-0.4712862703072881	-0.2784701083232072	0.07077360405246433	-0.3121820087574748	0.1305850511009785	-2.691167353923352	0.3282151827937232	-0.3424813824952302	0.754697062227053	5.885306954922722e-14	0	0	1.139466855214128	-0.2164293535611759	0.4457385878176958	1.317192540197351	5.885306954922722e-14	0	0
0.7432558844730551	0.1006747257934138	0.5868263133965202	-0.1153806599949958	0.04358410598181034	0.1257665799420837	-0.2568665429902295	2.275708152881693	-1.098772857716249	-0.3142167923060403	6.037064551090056	-2.527739161082683e-15	6.128548234979108	-1.937541927891678	-0.5296850599173825	2.347078798703498	-1.774845734239285	0.932875810535631	0.3253832868456525	-1.014058180511878	-7.041464860067248e-15	-0.7109886357035288	0.7774975985003718	-0.5387016699609587	-0.3255575459601076	-0.05727607391485819	-0.3553566929864014	0.05556088766513593	-3.050366403221117	0.3469357106086551	-0.3500280505944511	0.1746484520791551	-1.725007803737203e-14	0	0	1.416105543622932	-0.2832880401259523	0.3983899628554074	1.902157616226622	-1.725007803737203e-14	0	0
0.757631259413831	0.142718507123766	0.5643652428414019	-0.0994739432227604	0.01554480141213821	0.125290490489527	-0.2409551167414793	2.349119430765838	-1.123899654002273	-0.2091124278944625	5.895482259735103	-1.771834584787169e-16	6.091366142981314	-2.031163277708045	-0.1780790482044231	2.748480506172624	-1.778185560719269	0.866206067104857	0.2588142755886452	-1.034011269356864	2.857768761335314e-15	-0.7483271740888958	0.6305712255797358	-0.3779021068481185	-0.3046561691895497	-0.1222952399105	-0.3386602917594849	0.01219544107924427	-3.023549645253089	0.3645346753443951	-0.3229025846581776	-0.291313309153744	3.812941750692505e-14	0	0	1.680561784764695	-0.3504818707495599	0.3504880147800372	2.112123483029329	3.812941750692505e-14	0	0
0.7616000000000002	0.1533199467097531	0.5505791276433223	-0.09695292405532849	0.009716950292395513	0.1250280406693082	-0.2360240425021314	2.35804109206969	-1.118821241880867	-0.1664114269009616	5.847118879187395	1.904159691809392e-15	6.043733223986846	-1.870359914840469	0.1361120239661086	2.758204364369278	-1.77541356192687	0.8373674893161637	0.236248413030676	-1.032620242964877	4.147357150257223e-15	-0.7472379840052591	0.5810615774320613	-0.3324267380583779	-0.2876450584706072	-0.1331360693951522	-0.3269989048677471	0.004140735478475508	-3.054024049770383	0.3693380805060543	-0.3084477393175815	-0.3909199834842642	1.280055550603639e-14	0	0	1.745546053845693	-0.3639807538817106	0.3509616868836531	2.14241512105215	1.280055550603639e-14	0	0
0.7711128561131142	0.164722188895133	0.5134584598102967	-0.09122607855240378	-0.006177798823696845	0.1257241962609329	-0.2213311049060359	2.353313120383693	-1.069074629520899	0.003423121935667746	5.425070901384507	2.864273847118903e-15	5.86614178775733	-1.454366960008123	0.8026025672848631	2.689590063409445	-1.734734936658291	0.7596254201846554	0.177812230301357	-0.9799146398290495	5.232201193683404e-15	-0.7310822990745581	0.5980587366036771	-0.1754800296899328	-0.2496420148818798	-0.1524989079459923	-0.3035734454508653	-0.01437668138615534	-3.118054029834113	0.3827640463347979	-0.2679350892481316	-0.7190410274672632	3.828350847425529e-14	0	0	1.933858521997027	-0.4000841803842025	0.3434789917201123	2.202650586139915	3.828350847425529e-14	0	0
0.7880558844730552	0.2105913615408932	0.417851804851483	-0.07611216769517556	-0.0411647512063234	0.1352787934253817	-0.1873794723754709	2.399937995776542	-0.883341387480739	0.2637497979503314	4.634338090736647	-1.212783141185519e-15	5.346620164707161	-1.159189074442068	0.9931693393142931	2.225449475971136	-1.698687089882029	0.5656948937496319	0.0124115018561315	-0.930253716906692	-4.310820274215358e-15	-0.681639126027726	0.4887938426043843	0.1715406987654047	-0.2168980821726382	-0.2413141812738153	-0.2441782186276271	-0.03941987118949628	-3.294213940648365	0.4172238926937309	-0.1353911413426712	-1.81956651296151	-1.159732189284254e-13	0	0	2.428548390720598	-0.5256874202647877	0.2118793701643297	2.108112963233306	-1.159732189284254e-13	0	0
0.802431259413831	0.2353581935019127	0.3431876584515977	-0.0931098029110914	-0.06374881296479723	0.1422098413565144	-0.1601910011184869	2.433229887814032	-0.7317680955561512	0.3618979891234819	3.915750608400083	-2.232537651865977e-15	4.73518436148007	-1.106442008471751	0.3575779880520255	1.651017089878386	-1.695717559172741	0.415597706840694	-0.1359832837491637	-0.9513042230434503	-2.695842055526644e-15	-0.6509417195778333	0.3447342302135004	0.3756305728275229	-0.109378487992669	-0.2949887171304342	-0.1958835584384614	-0.05361992063797498	-3.274391224705687	0.4290265596540824	-0.1000113199552229	-2.563376495126336	-5.389384197413461e-14	0	0	2.643397526112377	-0.5864861348276915	0.1505999413785727	1.868954499081353	-5.389384197413461e-14	0	0
0.8064000000000002	0.2371952744340934	0.3259181899639021	-0.09887604778369463	-0.06969899654553566	0.1437796723509165	-0.1534997820056107	2.456471826973674	-0.7000786223757152	0.3776507997633752	3.735390656802576	-2.458492387726915e-16	4.544199256840965	-1.136850540908259	0.5087346298516153	1.542509585037402	-1.691564517453009	0.3806612925016287	-0.17278313056178	-0.9643393516943908	4.183052530516081e-15	-0.6476973594148295	0.2708549213454478	0.4125384713143165	-0.07870696326231642	-0.3084688044451304	-0.1844465546991967	-0.05722204109351316	-3.279978406058739	0.4313490395436908	-0.09241233291716817	-2.695238421453255	8.765036713041118e-14	0	0	2.678345478634995	-0.5966177765802348	0.1506740467490913	1.819857409005801	8.765036713041118e-14	0	0
0.8159128561131141	0.2463757339652285	0.2877769616629476	-0.1136655046568442	-0.08253201253183676	0.1481041522579225	-0.1365554139270918	2.475519433097319	-0.6231187437692476	0.4324418461692232	3.24364595880393	2.626126675236355e-15	4.055164449895374	-0.9364384230611025	0.3751924680194526	1.28490733871398	-1.674893021353032	0.2995708057664036	-0.2605933223809925	-0.9429550953492174	8.834596100003384e-15	-0.6519075794634444	0.3063975539702961	0.5576338016224487	-0.02347239470786869	-0.3422536220887241	-0.163032316437187	-0.06371021188499319	-3.26798345557271	0.4385300221534127	-0.05939646749100322	-3.086493586795058	1.536015520384178e-13	0	0	2.749324444291541	-0.6278396515670654	0.1397466287776795	1.722736529459104	1.536015520384178e-13	0	0
0.8328558844730553	0.2867668491852552	0.2131629156231951	-0.1717489686526619	-0.1064397659243283	0.159258322459031	-0.1028274887662324	2.507223249423495	-0.4625346529201375	0.4575556498658725	2.403601371469773	-9.849414971085486e-16	3.103165599408705	-0.7162787386286185	0.1181945294137287	0.3508547230195834	-1.707039660288265	0.1362391324493013	-0.4557874862188287	-0.9814359502544916	-4.033338558448664e-15	-0.704084036501933	0.2683203467970516	0.8127323331872542	0.08861968903907028	-0.4380125292070663	-0.1189134188383054	-0.05147375360848139	-3.105973412200325	0.446906145796957	0.02904210049181197	-4.280442380648022	-6.692774961856761e-14	0	0	2.926087187966878	-0.7075880786979472	0.02833222002872176	1.345227282383037	-6.692774961856761e-14	0	0
0.8472312594138312	0.2986820356323761	0.1630878777995704	-0.2237023065674385	-0.1201148019952992	0.1649394737084104	-0.08253294658508027	2.510377935705956	-0.3981756585581193	0.3996814936443995	1.633090791597036	2.637369455132952e-16	2.247463122850059	-0.7800497106769428	0.1057098272270621	0.0007309612828680385	-1.748330772545362	0.04511704708106312	-0.5699649736267426	-1.076636726360271	1.756321857698945e-15	-0.7880379935525104	0.1853878694596769	0.9211050192662451	0.1933903781438241	-0.4820068324055869	-0.07751364929592505	-0.03549362168463666	-2.833109340504461	0.4432552835683559	0.08426225037073368	-5.041201368968392	2.174825736847025e-14	0	0	2.938709023879622	-0.7425123704280524	-0.01772536473237085	1.195550492937203	2.174825736847025e-14	0	0
0.8512000000000002	0.2975200801142894	0.1509537562754538	-0.2364407867506083	-0.1238560428846913	0.1653937115636515	-0.07782848185691767	2.515879842515008	-0.3854466511818799	0.380656106224495	1.434955904585723	-1.779062556796823e-16	2.007304873633447	-0.7841737166773242	0.09558352544437193	-0.05253713758546831	-1.753594161796763	0.02566624273795788	-0.5931453194617207	-1.102366857910466	4.326010018980328e-16	-0.8159411632262323	0.1492474287584633	0.9373819430098536	0.2284251523717927	-0.4936111599173778	-0.06530933899233539	-0.0306456165293806	-2.797112504555524	0.4432677224008996	0.1080824685200836	-5.171908040324097	-5.493573445056828e-16	0	0	2.929228765392404	-0.7489983860666511	-0.01597681542726964	1.171276990622708	-5.493573445056828e-16	0	0
0.8607128561131143	0.2984707485194358	0.1219741105778918	-0.2708430943085429	-0.1311095910587399	0.1665953307190559	-0.06582246387032824	2.4980330936982	-0.3455588935192672	0.3534248857951684	0.9259138729447327	6.423392010691244e-16	1.428834570848191	-0.6679845864036873	0.08637891062693481	-0.2140914664541407	-1.764874317126311	-0.0212520119102378	-0.647891385313651	-1.135895783569983	-8.526376398235401e-16	-0.8879619987751242	0.1799486096089027	1.008752566523542	0.2988121875843511	-0.5168404392688795	-0.03634291775484434	-0.0139843078100554	-2.641597281317757	0.4449233268937864	0.1843713727764207	-5.559904805313169	-3.8967408739439e-14	0	0	2.915975971136435	-0.7722323116428429	-0.03048883307192163	1.148456834464556	-3.8967408739439e-14	0	0
0.8776558844730553	0.308214847964438	0.07691989622986188	-0.3605797262937561	-0.1433875439589247	0.1678884376878776	-0.04578420981162196	2.426659997848525	-0.28400744246406	0.2788940991929801	0.007867804776184262	1.290592878563934e-15	0.3995594627461353	-0.498408285224815	-0.01072979019004078	-0.4257184013079779	-1.822883564678647	-0.08653686192796084	-0.7369182072213603	-1.260285247119435	5.245579646003843e-16	-1.02097123693374	0.1171510542727058	1.052924057358084	0.3660515655396213	-0.567932654164361	0.01241370979713403	0.0387521440802811	-2.14386848298619	0.4332980363989431	0.2896948026907191	-6.659383248970958	4.722919567186805e-14	0	0	2.844149415053852	-0.8154257369164543	-0.1507623754872296	1.309074099060725	4.722919567186805e-14	0	0
0.8920312594138311	0.2898394094225933	0.04110025199099435	-0.4104379425459783	-0.1500421391318505	0.1624201373155655	-0.03672254399908676	2.346818848813073	-0.2581944477007906	0.2113309408023552	-0.7620207220560714	-2.805978318320376e-15	-0.4633566081093784	-0.526271684682399	0.02619115111589565	-0.2125772439915082	-1.846177475707059	-0.1008566665337244	-0.716093107729287	-1.377427388807897	-3.467086747046506e-15	-1.121572501834059	0.00191358070263481	0.9616384162938167	0.3234899461683082	-0.5736831618276687	0.06626524256134721	0.07289387014830566	-1.687793518940506	0.4179883929981557	0.3199917536816781	-7.259290145421117	-2.943497269058095e-14	0	0	2.717876626897823	-0.8267646870707318	-0.2175682401776443	1.597950207686603	-2.943497269058095e-14	0	0
0.8960000000000002	0.2825484864503364	0.0311611130057317	-0.4205607155282531	-0.1520680864377064	0.1595832240786171	-0.03436449263923327	2.321888251354648	-0.2483554133835625	0.1953693691904819	-0.9653340043434995	-1.670460344240677e-15	-0.699182446742238	-0.5568155430304021	0.04773267408572351	-0.1737748846111779	-1.84335145826869	-0.1040897687524556	-0.7064992352606496	-1.397439359400904	-2.544262485565295e-16	-1.1452951392091	-0.02196875412524812	0.934038453106562	0.3334589992433159	-0.5756784007797883	0.08207002439129252	0.08126439927766355	-1.604619856159475	0.4162696726701816	0.3411906395048171	-7.349228169489724	-1.157898154479137e-14	0	0	2.68923495006809	-0.8298754279644021	-0.2217664806196029	1.657732449436662	-1.157898154479137e-14	0	0
0.9055128561131143	0.2646791241472715	0.008659675396510441	-0.4433537440522207	-0.1566548628878346	0.1520565823934894	-0.02784815342505225	2.242540558704905	-0.212464917175966	0.1737365122442383	-1.454298012162978	1.470366532685103e-15	-1.259653761160355	-0.3863567276313328	0.04779975587139779	-0.1762675717958165	-1.828048903226712	-0.1152991696477844	-0.6939360564335839	-1.419415011569422	3.562133350340701e-15	-1.192795328382456	-0.019004640157813	0.9116631111843545	0.3622741097193882	-0.5770465884489838	0.1159317642051366	0.1017617360184124	-1.349413605259868	0.4108414070955413	0.3774945970879424	-7.612601968167264	1.426555584356162e-14	0	0	2.636216105237712	-0.8393795548863164	-0.2522950784894707	1.837263948431363	1.426555584356162e-14	0	0
0.9224558844730553	0.2125553476917574	-0.01880429699021425	-0.470028063401959	-0.1665353143492559	0.1338481206839466	-0.02191519115342438	2.088885502797051	-0.1662319285979916	0.1557481263750095	-2.323792264291123	-2.178175350327004e-15	-2.23908547626043	-0.1488502452397635	-0.09341522626431267	0.04227883897785598	-1.762684833895997	-0.1043829671779636	-0.6309809181656034	-1.442539171790774	-5.520728201197288e-15	-1.239209303937773	-0.08886390638842356	0.7801320941174394	0.2191624607307151	-0.5699630049967215	0.1660501543665356	0.1320847260481118	-0.8152755137476645	0.3716890629811759	0.2116728223738244	-8.279276793859543	4.119367708597241e-14	0	0	2.422252053213078	-0.8263436584096078	-0.415505672784746	2.578283585422849	4.119367708597241e-14	0	0
0.9368312594138312	0.1515137230518811	-0.02789770079091321	-0.4598653796210616	-0.1709783522812808	0.1123729108715309	-0.01933148468022833	1.940892959210613	-0.1330310243762567	0.1949089019125224	-3.031575829269032	-1.777488667743704e-15	-3.045837346064244	-0.1966000847969536	-0.05678473380438531	0.2562919228275916	-1.675553879226878	-0.07690479144029354	-0.5397406896390985	-1.425652542858683	-1.852697097012159e-15	-1.237061229842345	-0.1179847725678956	0.6650320690177975	0.08665613240093802	-0.5399850815881436	0.1955424636019489	0.133617109092781	-0.5004445843856842	0.3373217892301475	-0.005107669209447349	-8.448723770399234	-1.803402528913133e-13	0	0	2.222024107443058	-0.7930565974124535	-0.4964418314223439	3.055057140733779	-1.803402528913133e-13	0	0
0.9408000000000003	0.1369917567623301	-0.0306333719466597	-0.4567459277148391	-0.1720595880303702	0.105779670257458	-0.01788408938878792	1.892315781146215	-0.1174346899115452	0.2160354641598883	-3.220318067096847	-1.290453589732132e-15	-3.263235194278112	-0.2192505718485173	-0.007775557940142508	0.2933286159916249	-1.651208506268544	-0.0716763101076659	-0.5174507129787899	-1.422191760738832	-9.038534283269336e-16	-1.229857157780796	-0.1708218083185072	0.615485703785926	0.08018119777610638	-0.5349555249062878	0.2032073701716479	0.1340237883611897	-0.4460528750109852	0.3315373027188725	-0.04490539107155656	-8.456882848767407	-1.760288709218407e-13	0	0	2.183822841360962	-0.786974149837118	-0.5017521676865802	3.145908153337583	-1.760288709218407e-13	0	0
0.9503128561131143	0.09987665067194815	-0.02707820554475549	-0.443937018000786	-0.1741636016244663	0.08891825343612644	-0.01402839988471091	1.761865668215542	-0.08474678286014571	0.2785054529013417	-3.669625329379059	4.218405965814203e-16	-3.7716222806461	-0.08858514164394532	-0.004848779288947669	0.3000346827236998	-1.584174953789681	-0.05170394694468074	-0.464416004259847	-1.379935381220994	2.550258428390129e-15	-1.201721435201602	-0.1538854463236082	0.5541705612068977	0.07310498800193024	-0.5186459991358588	0.2073473169208682	0.1307266913059336	-0.3124691521656188	0.3137323742034481	-0.183531117817543	-8.489452593140484	5.052322204313333e-14	0	0	2.104931088719187	-0.7683367733092998	-0.5305398175401694	3.392820231685186	5.052322204313333e-14	0	0
0.9672558844730554	0.006116996631736177	0.0359179140178246	-0.3667607560050661	-0.1739363107257414	0.05367958346129549	-0.01389255370355005	1.535743637830736	-0.1141364697614728	0.4033799502117461	-4.425904367159193	4.539209096650482e-15	-4.613431443044556	-0.1627250481240106	-0.05295606088788896	0.2547272067245505	-1.423811314380987	0.05443392254296341	-0.2888021424837039	-1.283826294926838	5.760209546145065e-15	-1.118122651640239	-0.1615910599209094	0.3820931916924948	-0.1005852691483651	-0.4597325217669697	0.1501754256286214	0.08091608003885969	-0.3040063841440497	0.2418642534677717	-0.8053406485024004	-8.321212436965688	1.761030868894683e-13	0	0	1.842160256738069	-0.6710968317435966	-0.6651390081826616	4.032721207646792	1.761030868894683e-13	0	0
0.9816312594138312	-0.06336873498849062	0.08672197126882208	-0.3026066172797806	-0.1682029127082983	0.02252594871474946	-0.007713254341964307	1.313529757587922	-0.1144769948385041	0.5716982809086012	-5.015330432085727	-2.865887976325839e-15	-5.228436000375488	-0.5674057509051295	0.1851299378368025	0.2056925179584345	-1.292925602909129	0.1173914003492722	-0.1764789903102714	-1.16763652266205	-2.10175921893727e-15	-1.020253300255487	-0.09385684058742449	0.3122839556026037	-0.1430030501768793	-0.4057366852977393	0.09510350801545078	0.02961386504618978	-0.465855024381276	0.1925637512071977	-1.192518335449082	-7.869642278162302	-1.006422713178705e-13	0	0	1.657844672711445	-0.5867731276886772	-0.6847545860656969	4.242503393051999	-1.006422713178705e-13	0	0
0.9856000000000004	-0.07777753620963376	0.0942197207130198	-0.2887212735995671	-0.1669739538110449	0.01428022325104997	-0.004646654138254113	1.243672993638225	-0.1023782820530202	0.6264582625365588	-5.180945623396698	-3.018150006764754e-15	-5.376081588300701	-0.6146041274732886	0.3038218326040666	0.1942658781460701	-1.258547037176061	0.1257166633820286	-0.1493749415992786	-1.135745575968925	-3.733139788573421e-15	-0.9897573344135764	-0.1071777905441079	0.2700275823205441	-0.1311760548547012	-0.3958523662103733	0.08495447876800183	0.01903596510428971	-0.4913369384959358	0.1831177681099143	-1.273160967433869	-7.760121740431535	-1.424306165798977e-13	0	0	1.626937210685378	-0.5704355108461968	-0.674407298434013	4.287714079010824	-1.424306165798977e-13	0	0
0.9951128561131144	-0.1101569251690285	0.1209551248781622	-0.2467890004470788	-0.1623446312368649	-0.00647032246844767	0.002648448892742059	1.075290060752102	-0.08899531528374355	0.7543793875217276	-5.484832645858583	3.612568673462353e-16	-5.681393696090331	-0.6402349917080232	0.4122187481354612	0.1062736892281608	-1.182307750966819	0.1557022923616962	-0.0634591753782789	-1.055162818231868	-3.703717141317712e-15	-0.9115116125421635	-0.09002233802203385	0.1775084584772735	-0.1063192766790475	-0.3642343266186666	0.0480128155928075	-0.01200024951551266	-0.5543757377371775	0.1561684145766471	-1.502558493045162	-7.471099756380998	-5.50349504490327e-14	0	0	1.591779340640346	-0.5246228572798129	-0.6666039318437261	4.426236944419474	-5.50349504490327e-14	0	0
1.012055884473055	-0.1664862202966986	0.2365632614573092	-0.1213497873304344	-0.1441114122707391	-0.04477188880302462	0.01250945750867599	0.8037318983111446	-0.1868490352624443	0.9463266659076095	-5.759775291672505	-6.982151329912144e-17	-6.01850054071059	-0.7689895049041688	0.4284236116030684	-0.2571863813924025	-1.026798006451404	0.2765227782380544	0.1555906695799003	-0.8408195956741512	1.912440361932806e-15	-0.7565832691193909	0.02953045608157157	0.01340685579468659	-0.1024113140854668	-0.2763785329102053	-0.09762629752265473	-0.1184493422551395	-0.985986450162077	0.08118291346556651	-2.024064100709139	-6.35800757607047	1.233590682845407e-14	0	0	1.498349885079254	-0.3739133195440028	-0.6906891427724443	4.467700628597829	1.233590682845407e-14	0	0
1.026431259413831	-0.1801955373202043	0.2663756193610833	-0.04120738585673574	-0.1226912198993742	-0.07374824301408357	0.03159869715863201	0.615992119747754	-0.1808539028123129	1.061463153774917	-5.575871915543405	-7.928256107641975e-17	-6.053636267835526	-1.03895235520418	0.4699341645247788	-0.3743242757232917	-0.9233132409644902	0.2710597656093526	0.2178854608521685	-0.6051569448740314	1.720410368006654e-15	-0.6111091975455035	0.248645623735964	0.05682070516274251	-0.05230023796981898	-0.2020980514027028	-0.1659907462700117	-0.1856467536251606	-1.275293416416093	0.03926988456848358	-2.070466002467453	-5.378621171133368	-3.151988317036028e-16	0	0	1.484853877143177	-0.2726161933045828	-0.6366289110180505	4.300601660717854	-3.151988317036028e-16	0	0
1.0304	-0.1795316461927987	0.2677391511096321	-0.02559258639659868	-0.1166007864946768	-0.08078919545892121	0.03817405087704658	0.5740918261687569	-0.1697063138133544	1.078018014081084	-5.460019420213245	-8.05681434296616e-16	-6.01841382444503	-1.070158831667475	0.4948085815527045	-0.3946322305741522	-0.9007957418603243	0.2611201123909147	0.2280999632156888	-0.5454875267426371	4.333771071356005e-16	-0.5686960236255488	0.2870091609541878	0.05395513760332094	-0.0237353517509853	-0.1817889758052364	-0.1806814445338692	-0.1989259772646948	-1.288524841507515	0.03053766263204151	-2.084166515125542	-5.160451326460028	-7.772367864846349e-15	0	0	1.493164910856152	-0.2534218412814349	-0.6136237079981102	4.286056760971857	-7.772367864846349e-15	0	0
1.039912856113114	-0.1794923381773651	0.2776836894895134	0.01708844917632746	-0.1013193412781552	-0.09714327592197612	0.05343492611938117	0.5048575117245928	-0.1586249776576568	1.03203683097872	-5.038594304269798	-1.42485369411177e-15	-5.852246569124693	-0.9597468178959216	0.4835595398504239	-0.4992902379194902	-0.8465996821660537	0.2480542171799389	0.2762472135701793	-0.4048876479836361	-1.712846225772127e-15	-0.4629193400379871	0.3701896616974316	0.0199085208361629	0.03291868093509918	-0.1249218844634377	-0.226121609877519	-0.2343476836632861	-1.332455952002573	0.005825077038133597	-2.136129049500859	-4.592559208711581	6.064277838548645e-15	0	0	1.551457430428556	-0.2011584052672915	-0.5752058875407042	4.282815505341214	6.064277838548645e-15	0	0
1.056855884473055	-0.1849241208840139	0.2891170607428824	0.1245771077203622	-0.06388981637174049	-0.1224818267365629	0.08051878104516622	0.4514280895029167	-0.15111237838211	0.6604666625544199	-3.94860513216844	6.482647390825405e-16	-5.2776464642271	-0.7131968285541264	0.2871483522085748	-0.7456615777390176	-0.7581301977752677	0.2017179712330025	0.3298792145176494	-0.1353160588311862	-3.310530634191699e-15	-0.2589491481013632	0.6390798941517375	0.1304401455220122	0.05492030417023594	0.01860328865252551	-0.304813276479581	-0.3177437879723802	-1.743959800460997	-0.04380917835997157	-1.838404621480472	-3.036439189780865	-3.180332611584743e-14	0	0	1.70982186389752	-0.06176188173171923	-0.5264954086334076	3.941229899982877	-3.180332611584743e-14	0	0
1.071231259413831	-0.1831808763112491	0.222828705547294	0.165884325335844	-0.030884880942181	-0.1357065416986196	0.1105455352228169	0.4465229552295453	-0.0172893553174146	0.1265095897105878	-2.829158374360363	4.857803785944256e-16	-4.542400753923165	-0.8333108979635964	0.1472646015356937	-0.6813679445478875	-0.7216172522128077	0.07036470229835833	0.2833589079944117	0.03139512073744485	2.062087419546187e-15	-0.06876737685564201	0.7819403180497759	0.2751067917919493	0.008473444513079525	0.1460117468016445	-0.2990122877036109	-0.3472687390893966	-1.89440158531411	-0.06611709438419079	-1.332282146940512	-1.959927969609407	5.377173471497546e-14	0	0	1.869104200669091	0.01401793648284772	-0.4678092485549142	3.725829592287318	5.377173471497546e-14	0	0
1.075200000000001	-0.1815501587372453	0.2074118678629799	0.173937163460306	-0.02211700958112861	-0.1378278807656371	0.1187003534868218	0.4420621260197867	0.02287466364934941	0.01231701983800067	-2.529589844571263	-3.258102581266503e-16	-4.306892003328969	-0.8663421620450151	0.1099702171301658	-0.6699602927980165	-0.7145445741678389	0.03845524371137506	0.2714524208614822	0.06770533996836944	1.517917161465862e-15	-0.01317755775881974	0.7826571836085603	0.289408260533865	0.009853305389468596	0.1785329502953618	-0.2999252133220158	-0.3538149616864372	-1.868106546130401	-0.07133386049714206	-1.241719665293669	-1.727863058127436	3.370884543115338e-14	0	0	1.909204614703932	0.02800584960504117	-0.4450631668814942	3.710085631962159	3.370884543115338e-14	0	0
1.084712856113115	-0.1919606878120157	0.1808641600742086	0.2086384693188566	-0.001309191715572769	-0.1422541845097283	0.1356590906155574	0.4290087865790431	0.09967703088101132	-0.2425545039374824	-1.841381275207562	-6.481615732139668e-16	-3.698545047406331	-0.639572866206036	0.07283761488512491	-0.7262505333465418	-0.6786916516664729	-0.02380864150475545	0.2667602495955087	0.1678194567759206	1.410071270677574e-15	0.1258803239033796	0.8483510076760126	0.3475795660608989	-0.009711263659068454	0.2715016121629303	-0.3094639139983259	-0.3759402617457053	-1.833049128719869	-0.08861770010989958	-1.051959266698572	-1.143305273358109	-4.950365478340973e-15	0	0	2.044023279360959	0.07060283081504343	-0.4040872333198461	3.692045816467353	-4.950365478340973e-15	0	0
1.101655884473056	-0.2375154321175928	0.05905258061055348	0.2838877518539544	0.0478766272362791	-0.1493366912888945	0.1659802179934075	0.3899680198934711	0.2998846850991531	-0.9664417623816564	-0.6329997504111656	1.250552231915924e-15	-2.520253023769723	-0.2902577564492295	-0.1826552512846492	-0.7092220483975649	-0.6213865210173894	-0.2282334610635927	0.2074417009105121	0.3099490504849211	2.618996115524328e-15	0.3973157850294057	0.9659423709714905	0.5869898833645788	-0.2536715265752916	0.4977442419356898	-0.2420550203280921	-0.3966360058205683	-2.069076809675745	-0.1149394585788997	-0.1955079202325585	0.04297308357376104	3.802547067682794e-14	0	0	2.276637226140228	0.1692545067551422	-0.3870259357455405	3.475766530373338	3.802547067682794e-14	0	0
1.116031259413831	-0.2493377559772938	-0.03001150160862366	0.3234837215617394	0.09454860438063049	-0.1483986996546548	0.189130558881574	0.2541557986408098	0.4664018064111622	-1.145863097297377	0.09847729218861463	-2.270757506129439e-15	-1.502554598673397	-0.2266365196518254	-0.4231234189571607	-0.5084583164787692	-0.6586348793168264	-0.3856463162979491	0.1092477891856167	0.3209089819303095	-4.576626523670701e-15	0.656599468453868	0.9799816675837496	0.8318759293072051	-0.2602080547267621	0.6613288432133817	-0.1821550922143116	-0.4086456155210383	-2.150041483817211	-0.1273379420580988	0.303557757108525	0.6406754151921128	-8.36631265941663e-14	0	0	2.41070648740796	0.2295434116071668	-0.3496096051209312	3.346941351993573	-8.36631265941663e-14	0	0
1.12	-0.2424433335995037	-0.05431649958002351	0.3272664800036886	0.108503351646644	-0.1480392876001713	0.195578832333127	0.2041511142549634	0.5170731724800275	-1.115708869767435	0.2618077751696088	-2.573780320662067e-15	-1.223565671499346	-0.1214722872638162	-0.3818189357773462	-0.4139764442848572	-0.6874760847202503	-0.428321191106361	0.07902028221710358	0.3329410567644494	-5.471648735180289e-15	0.7309946268679718	1.232074596850725	0.6110893549755554	-0.2209189242622511	0.6966253479259139	-0.1635616597965669	-0.4093509292622807	-2.137148300769999	-0.1275207067936133	0.4001843538741489	0.7231492357947309	-7.997673530400637e-14	0	0	2.453687824907758	0.2384186920684981	-0.3325247853542469	3.331132241252852	-7.997673530400637e-14	0	0
