DataType=double
version=3
OpenSimVersion=4.5
endheader
time	pelvis_tilt	pelvis_list	pelvis_rotation	pelvis_tx	pelvis_ty	pelvis_tz	hip_flexion_r	hip_adduction_r	hip_rotation_r	knee_angle_r	knee_adduction_r	knee_angle_r_beta	ankle_angle_r	subtalar_angle_r	mtp_angle_r	hip_flexion_l	hip_adduction_l	hip_rotation_l	knee_angle_l	knee_adduction_l	knee_angle_l_beta	ankle_angle_l	subtalar_angle_l	mtp_angle_l	lumbar_extension	lumbar_bending	lumbar_rotation	arm_flex_r	arm_add_r	arm_rot_r	elbow_flex_r	pro_sup_r	wrist_flex_r	wrist_dev_r	arm_flex_l	arm_add_l	arm_rot_l	elbow_flex_l	pro_sup_l	wrist_flex_l	wrist_dev_l
0	1.748781523697412	-5.652803280204736	3.223198620963686	2.64789759519987	0.4535599318698499	1.333343200845147	-10.42620415819374	10.53640775077819	7.285918872624508	41.86460512930864	2.512657127188725e-13	74.7257901311319	10.70056846644436	8.200355076470762	6.291674091433198	7.785663393841272	-9.635595003067326	-1.876612263638774	17.17776945414415	-1.140600133795222e-13	31.4073209881029	-40.73199150029131	-16.87193490951419	-0.3260002231525977	7.946651260342907	5.549571525349652	-1.566070547986941	25.4599048181653	0.4573046112974959	26.86775530267491	7.508664739118873	9.097922977115988e-12	0	0	6.460606092561499	3.256948844318363	0.09164542413936383	-12.54212403509699	9.097922977115988e-12	0	0
0.009512856113114032	5.765084632603265	-5.675620132975078	3.393361897437476	4.185480807867218	1.210171620037154	1.264115482578345	-16.74788474241	10.25254859634597	7.370185913070366	36.39858733616401	1.541713083588347e-13	73.8546280888566	2.433780543022424	-5.64355468491595	5.494055712158001	1.311265333624098	-9.561392811896415	-0.3080601021316881	23.6082437814289	-1.166247080301655e-13	32.17969159083218	5.614781593748159	-3.127434956610006	-2.239233410087651	5.322915430706526	5.932153922623815	-1.614570158798984	-7.263071605659309	0.5047851157828148	28.73078519899517	5.592623517664716	6.178028807346909e-12	0	0	-36.01930410004002	3.558396206808776	-0.5816974796340277	-14.93066935837542	6.178028807346909e-12	0	0
0.02645588447305514	10.19651222005908	-4.780233789231928	3.737760988444926	3.835017754031691	1.957562789523861	0.6474722381682009	-24.67850877178425	7.01545966143168	33.38798527582072	16.17336399365875	-2.340277279284687e-13	63.42599325792921	-12.6026498804397	5.057200120762205	3.806743807887927	0.5111615122746747	-7.096626241026502	10.78269839620847	26.29949989711724	-5.001801976351185e-14	39.94623260663251	-14.61883034610626	-25.56612140051057	-7.077830675713689	-1.864303312462553	8.044994139924755	-2.12223438324931	2.371676334537348	0.6932453199495741	24.13568766947655	-20.47973025937008	-2.134401930755797e-12	0	0	-47.72925690322308	5.155639489879579	-3.505355825860383	-25.36172478286367	-2.134401930755797e-12	0	0
0.04083125941383081	6.204786096847062	-3.413225195569465	3.46669050251294	2.222443959105719	1.157573668145894	0.5795995094306062	-22.68715794394462	3.11463296069181	63.93270819145953	-29.18185575343941	2.829944226410011e-13	50.4015670086437	3.808060915206827	3.133913956038134	-0.01129428865341509	6.871512686866403	-4.580567574211293	9.510852218454369	27.44383618512004	2.416628187771853e-13	45.27898507234818	-5.148866562619549	-26.67588372421602	8.968133687116906	-1.628093657060351	5.434065360735492	-2.068657959544954	24.16847686384446	-0.3797258294932585	-9.702411012902054	-24.92638571190752	9.149636257153693e-12	0	0	-22.49922951823599	2.770869117644323	3.040452919042203	-1.551922168249288	9.149636257153693e-12	0	0
0.04479999999999995	0.04059705509364431	-4.687317676002548	4.926774029363561	1.649270262956374	0.6071795303728517	0.6822083361524236	-29.50801286090016	2.263871719816049	32.38853625374782	-72.15891329098385	-2.244387040727489e-13	45.99865966599285	44.78301599478506	-13.44354138110291	-13.64664782492924	14.02348842769781	-6.535918124773566	11.98664264251814	21.39803716741763	1.828217991167295e-13	46.88267116023037	-29.37440389844197	-13.19751322256649	-2.725244806641233	4.162387612436605	5.572959251517352	-1.84398850009658	21.51647034697928	-0.7130741213360599	5.19872317798196	-6.420661971009878	-1.738488141361145e-11	0	0	2.113076744900755	2.834645581387804	2.472904516629693	-3.097857155379779	-1.738488141361145e-11	0	0
0.05431285611311398	5.66931120627376	-5.044530468267345	-5.615302481805289	0.8898620710719737	1.558981719908982	1.655589596203588	-10.96524802643302	9.423139623987353	11.78413637418773	-7.685447831214915	-3.788378514821488e-13	34.84408492191351	64.17715950090025	-57.63979996692981	-10.63478973716087	7.539915704699443	-5.941664721708433	3.13889941518807	24.96095081954563	-1.106710825387856e-12	49.88574893864686	-14.8083023809503	-35.30008208968679	-16.37888065209101	-3.882924719452972	5.598221700935148	-2.6924027817196	55.84391433278348	1.148516387328036	-10.51510367397048	-13.90064330549007	-2.443632216186871e-11	0	0	-42.22742797314412	4.106638915798154	-0.9527793428108997	-17.32435975098407	-2.443632216186871e-11	0	0
0.07125588447305514	2.37144554974207	-8.105275877970382	-12.564851798303	-1.827830511527742	2.922203987634772	2.29026332280421	21.1348410968708	16.20500371877809	-13.18266693154403	40.16788755275165	4.903400326252798e-13	12.99818594767666	54.32014277580199	0.04041387207612512	-0.5638863983125031	21.4360547825655	-9.280433703581723	-3.260782196828684	38.12499612948196	1.16922439315982e-12	53.16492693390302	-24.50243448504875	-25.14037849972866	-29.40519773642429	-5.169916129878342	8.317316138853979	-2.07084296196906	82.72125378208599	3.02915030920329	-15.42410471574607	-20.02439299206847	2.10112211017545e-11	0	0	-36.57441485715108	4.572569456762833	-4.422574391889105	-31.59123726729567	2.10112211017545e-11	0	0
0.08563125941383082	1.035032989168157	-9.156563235396584	-7.300541317434146	-1.495952893750481	3.069593887762795	1.809403794595354	17.44248366532498	14.7679798849884	8.353018458146305	24.96413589706683	-5.393773103087394e-13	-5.390508099525595	8.754249160260887	14.48569636177779	31.18949129888062	26.34269856213299	-13.04915913366027	-14.26968551377564	49.93251367627212	-4.983791341953141e-13	52.76202292256221	-15.37443369402543	-15.18076722503138	-5.175564578169184	-2.474897319033738	7.814634328346979	1.762254115013791	35.30702035147734	1.835358316713111	-13.63207228985859	-7.251424014988437	-3.30897250724838e-12	0	0	-23.16747856266649	0.8173072482953756	0.4881265207176628	-14.08520772481666	-3.30897250724838e-12	0	0
0.08960000000000001	0.04623994704964496	-4.495484514973232	-1.962393456071346	-0.8405257896710285	3.016767630117704	0.9085448865592771	12.66405554642089	9.004357311769072	-0.4593903765367979	24.69012368807804	-4.912392548189072e-13	-10.10413958021312	18.4820259681867	-8.466512118734055	-21.78447294114321	20.23609775495017	-6.611822350758563	2.250231393331867	0.4895027474169418	-1.333065247451099e-12	52.01552822087918	-90.99876713764998	-24.3900841630641	5.597120999178028	-0.4121583122518653	4.206935162033688	2.884992412074916	11.28728733505712	0.7539784702598418	-4.922012757139467	-25.12283670565694	-1.073454104395527e-11	0	0	-13.86892271725443	0.7270891350980888	-1.943347831276284	-13.98137257374356	-1.073454104395527e-11	0	0
0.0991128561131141	1.969272330063382	-4.484458320142656	-1.366334932921992	-0.1740361429322711	2.911925637853379	0.5195779938703903	-6.794983587598677	6.028271470755225	-0.3258512690323184	-12.50930180783567	3.46461886794922e-13	-20.23669676441391	-5.06127173586788	-1.648808224641069	2.204498217019708	24.95904182183978	-6.762194401087486	-0.05853526628655459	55.03009853961537	4.389729098222044e-13	48.90980206611009	-16.31415923149995	-26.50262027673391	5.752553081789687	0.7008784531569581	4.140026897122253	4.911119387815072	22.34167628763552	-1.128201391264709	-17.33479731609361	-21.36928627647514	-3.240627536630766e-12	0	0	-26.94325437291697	1.813733143721187	-2.102293113576926	-15.51718830691673	-3.240627536630766e-12	0	0
0.1160558844730551	4.407659185018995	-2.90255412642947	0.5517361245155644	0.5179810688761932	2.642258155823945	-0.5978449966491723	-32.30148604936261	0.2017138283597253	-5.42013422255856	-56.74928620877552	-8.293362116601324e-14	-32.6529334059982	-61.59610081247132	6.588503547421333	-11.76918967223239	14.60492574781204	-2.276719606442359	11.56795875301669	16.45949278562121	-4.004079746548089e-13	38.55577839399867	-53.64250431880258	-24.16405557436625	20.49600984218073	-0.6326659920226523	4.822560112722756	7.543660294901557	11.38385880143638	-2.502980267012602	-18.87138269766076	-21.74082628863119	4.322129976732427e-12	0	0	-20.46576155704809	2.384298336868668	-2.934755315803485	-23.61966725566539	4.322129976732427e-12	0	0
0.1304312594138309	4.392990075766759	-2.071678036547523	3.311057735225508	-1.137387702291444	1.658141761395576	-1.300582296585324	-24.14855091085357	-5.234183675645626	-10.01991723066085	-42.6132590186457	-2.777609651312616e-13	-36.3839484013078	-37.89961550041996	14.65151717864482	-1.872161238564301	27.84363499487289	-1.801519962095512	5.608728486496157	78.76764593002744	-3.121486401088965e-13	25.14985143560341	26.14209935174379	-18.70134059570247	43.48598826030506	-6.098086779090597	5.109303805232629	7.34141942526959	2.609332433578654	-2.572297590189704	2.268340799346818	14.10812315803315	-1.315114007299679e-11	0	0	-19.72676358411697	0.2126599284018207	4.002261084283177	-24.07441494273879	-1.315114007299679e-11	0	0
0.1344	-1.990995272411763	-4.859246390005421	-0.3216510363969038	-0.5609909741212602	1.801555870389861	-0.9767490654643107	-12.91136397556985	1.737936182623975	-3.452391191061796	-31.00338339049815	6.492406627009934e-14	-36.31855189737697	13.67286399365315	7.66613773806988	-6.891050518327836	-19.37227492306357	-2.403633164624082	10.90908665030997	-168.2550615739655	2.836981181366146e-13	20.82518086385643	300.8891084581076	-83.51694968686043	35.62897950989094	4.543329992484409	8.316599742341733	5.460190327065729	52.55081636776848	0.3790580688540621	5.390596026781407	5.704337661972452	5.635065234096975e-12	0	0	1.217996057286985	0.1095090461066016	0.1791075864766833	-21.20380361614579	5.635065234096975e-12	0	0
0.1439128561131141	4.806563977780363	-4.241660654115008	2.443330017376763	-2.348360911388703	1.242064250085636	-1.568045797267836	-13.65428171218699	0.3313551026187278	-2.644237823414017	-20.64063904808384	3.172124533823711e-13	-34.46223708466773	11.73880169989951	15.5287409120833	-17.0858629754357	33.54499506297286	-0.9244696268690132	15.74945587177732	93.40769574452368	1.035093814892806e-12	9.646244390746064	-214.4184178602199	-1.92319143234943	54.8690309203669	-9.325761917946776	8.647067074752576	6.035150819222352	3.100711181030675	-3.445330266832381	10.67719979376686	30.11979913616463	1.369183953909615e-11	0	0	-16.07111506130646	2.13673759400394	5.484268017671829	-44.17375715712148	1.369183953909615e-11	0	0
0.1608558844730551	6.354327036075342	-3.964637937527697	1.659740442511983	-3.056223250715675	0.549254233615952	-1.678190074860337	-11.76625687721927	1.402424165092536	-0.3346979372857845	-18.60496406415087	-1.504792806681425e-13	-26.70207174524888	-6.519513808774729	7.53166092289538	-20.47038159866194	9.751109527969097	-1.728748083703956	18.80933601656214	-29.3614438637857	-1.297337784526734e-12	-11.70364187784575	333.3865570557562	-45.38976671974878	48.36948481776004	-12.42290540746862	8.474142937566171	6.509378904427642	19.89828891556331	-5.904794894854241	13.45185237307674	47.9476914952665	-1.731690064947275e-11	0	0	-4.303074425031676	3.761723625521963	8.671494222470102	-65.86813879950697	-1.731690064947275e-11	0	0
0.1752312594138309	2.59995894543217	3.082713964937866	0.3164168040372278	-2.316738216400053	-0.6093908269908694	-1.375394712055893	-3.20751760296085	-6.235120178094091	-0.7851246367000779	-9.039075057626977	-1.997982596018153e-13	-18.01726122090442	-12.10087952758011	9.571109534764023	5.932530072424901	-4.170547209939818	-0.8158174165276187	-27.4527604406174	-38.95707905929495	6.521775604189309e-13	-29.23124917750585	-116.1517145231782	-10.11596932583934	-70.1802719508769	-7.67339246797315	-2.223898023081452	1.115071400844316	0.9396903198459832	-5.719217838571623	8.36501015609816	53.44020955698529	1.379126399509803e-11	0	0	-6.153802279360743	3.289409105680608	13.67360086670108	-45.36962491892521	1.379126399509803e-11	0	0
0.1792	-1.301890256432616	-0.2040958785881525	4.318076817219031	-1.77747958101203	-0.6525837004365376	-1.74356124711862	-0.09201098320019696	-4.911183857300168	-4.675122826863611	-6.149410715816368	-2.872766684233615e-13	-15.60715560690729	10.13818128771837	19.15503531980861	-4.235014212682183	-7.147624382554561	-2.353248621259514	-5.235235821235706	-78.17894034539431	-2.049920278287115e-14	-33.70310354363505	-217.6359750551793	139.7006173283832	135.0926682592042	-1.351098576057627	2.455880727536784	2.647545423641907	7.247060066539959	-3.210698861454233	10.03150179121611	22.4445293138124	-7.672437594031983e-12	0	0	-4.247074654920546	1.92179883202096	8.3580133574113	-33.29184878990502	-7.672437594031983e-12	0	0
0.1887128561131141	2.707475600904619	6.76064894461576	4.146828090027139	-2.700436847920654	-0.09104184833263673	-1.956674378129776	-1.407567652111159	-11.82401866154152	-3.047373684344425	-3.071992793815475	4.613934080339862e-13	-10.17301469578312	0.4897417130973345	16.14043000603377	3.028523198390923	-7.361059552307243	9.225170306715873	-4.812675591276361	-77.42289172107377	6.165922916921594e-13	-43.46875882022394	-106.5836456934859	155.3656778989231	81.27240181123989	-9.567070452330938	-5.48508080859547	0.9231745466548563	1.117245320643466	-7.920932578679849	8.613759408569823	49.89486597391508	1.540925843428335e-11	0	0	5.299806048449383	4.387588511382056	13.05332428804076	-50.01958536139025	1.540925843428335e-11	0	0
0.2056558844730552	1.21418584439845	10.96514835673732	6.408830970554503	-3.455339606827728	-0.1359594446902932	-2.360077701462511	3.487627269594745	-17.02103461305551	-4.849472232686534	2.050336446232425	-5.651013489616996e-13	-2.669032167074058	-7.627214908622783	11.02358037581035	8.876444454335747	4.48322606809471	19.88572118677553	7.299380323152719	-56.55999747440546	-4.480522105324008e-13	-56.69903233444172	17.73532378519182	6.485369829940613	74.13557330636678	-11.02952913981177	-9.646473907676141	0.9140611435102313	-7.566737711728138	-9.942897201656855	6.305797752110779	50.04570173005525	-2.055213530076218e-11	0	0	8.983806422059088	5.06738932872564	13.28855000598175	-64.04329758916785	-2.055213530076218e-11	0	0
0.2200312594138309	-1.03546023894815	8.934808495641349	4.485180414189935	-2.983508398753605	-0.1678742492371079	-1.785462114308197	7.028860921699462	-12.50177221064335	-2.351342533169286	5.293328237601553	2.980368499957875e-13	0.9060252219074001	-2.148993318675943	7.255030082231132	22.04619985407415	6.430441055657682	16.17185109163783	-6.954774640162762	-50.84325261965533	5.46184552774482e-14	-63.2712543696707	39.0727462404579	4.895052200579368	-57.58355944331645	-8.479086780176059	-8.368938326758407	1.30320447433753	-9.494156555307541	-3.508054986232516	2.854643688298371	12.4675101024618	1.491600092204611e-11	0	0	-2.092000864633463	0.4959183891423479	6.485434879491528	-32.84870239966472	1.491600092204611e-11	0	0
0.224	-1.79638429013906	4.158740442787704	3.871051615605526	-2.052045503027124	-0.05887511865469053	-1.754587391802287	4.667034263537246	-7.00626550693514	-1.555818308997786	-0.15897695807638	2.425419260578575e-13	1.439634851242128	12.09106305711905	3.1494357862219	6.435420329459481	-0.02050091595430725	9.177114609450944	-3.7195451608962	-64.80644620347162	-6.698530827943424e-15	-64.35500540453573	6.275868291854824	14.51113892079528	17.03553973683589	-3.455526577774602	-2.134983586152787	1.472262047138094	-2.883882709306526	-3.64769664746776	8.206609704350061	19.74081456439647	-7.472757353395628e-12	0	0	-6.353553925805125	1.347912846925035	7.666715431364385	-33.96540488684597	-7.472757353395628e-12	0	0
0.2335128561131141	-0.42997299358893	11.27839754105461	6.555077995155609	-3.316020036952921	-0.02996632933710641	-1.97259896486265	6.731329428274618	-15.27035772346266	-2.749289052801375	7.501890992076055	3.080894787086279e-13	1.997900265600094	4.475227203466781	10.75784601831604	16.23256484844	6.801957172540886	19.94055521380143	-4.961458656251241	-47.93720500291721	1.134698344014576e-13	-65.80544690659019	54.01230890189543	-26.37335854150517	-52.94932826138789	-10.56833379529538	-10.90694452086037	-0.9288932286991991	-5.318282178407536	-5.299147337145903	-1.271200763128075	12.11840915750577	1.133917582165197e-12	0	0	6.145565258915994	1.828571140884902	7.444641359515822	-39.81159910815624	1.133917582165197e-12	0	0
0.2504558844730551	-2.253379626907258	14.90689201667612	7.825058294063894	-3.217110142424189	0.04291524662127144	-1.895436755135836	5.852410731675207	-18.64969527856796	-2.780707442419597	1.429478147385126	-2.136322862682252e-13	0.9406986170477298	-3.946292898153319	-1.594492835214842	18.18664285501321	5.89757949233995	24.51448349819781	-3.358265818000494	-50.62181300204861	-3.545528874670064e-13	-65.21308199111697	-0.5599935296767882	-1.609061222040367	-69.17400277638676	-8.391777346122081	-15.79443872811789	-2.756883924067953	0.2275851550520365	-6.803398949877224	-10.05952490961676	10.10467223770241	-3.338074605549387e-12	0	0	14.97501875885622	2.405293896205056	7.47233279988238	-47.8083325925408	-3.338074605549387e-12	0	0
0.2648312594138309	-3.004291585433043	4.835046745006765	3.357464765494585	-2.277248753409574	-0.08300764777972691	-0.8872237422722613	5.892485721765002	-4.965439818515623	1.200510330160554	0.5713938797441216	2.751656361433789e-14	-1.337611005778304	-1.896822731252453	-3.871880839454219	13.20031152708226	2.272717837253702	5.992302545241534	-14.00628944544539	-49.30559774542761	7.57938748774407e-13	-62.86949697809679	-1.3605869269566	47.90138389416545	-36.25546935405961	-5.304975686586237	-5.545486888767078	-1.058905680139722	-2.258809908431882	-1.097241738054819	-7.68116059867617	-4.488015484841464	4.646318583644907e-12	0	0	4.858060065346178	-1.045173400723709	2.777729795054261	-17.23994633766276	4.646318583644907e-12	0	0
0.2688	-2.626511014901452	5.068796714678024	3.426912986568196	-1.513108691464049	0.03534528825289662	-1.158694153186537	2.102786120353993	-6.319009595104697	-0.9080500018593052	-3.892957294826999	4.364615171506857e-13	-2.100157466584419	9.617028421668467	4.82920775075242	9.997684567405541	-3.564253596965857	9.221291652938389	-8.923850388306626	-56.64610866036119	1.440919931521463e-12	-62.11797890681031	-10.96364769611407	32.34155515309659	-26.01860003882309	-2.621225112880117	-4.99288480326236	-1.016373067537277	0.7371755760032421	-2.281488873024736	0.01172754937232678	5.597771698144475	2.435564970159574e-11	0	0	-1.253740376413914	0.2896316993155325	5.684089312010214	-23.28780237272072	2.435564970159574e-11	0	0
0.2783128561131141	-3.174265242435046	5.769335644591854	3.389668753728923	-2.330971430727355	-0.1530809412820938	-0.9008076173188846	5.030410992174463	-6.654795406430763	-0.9454075603908302	0.02504003855580361	-1.023602932053192e-13	-4.055731191897802	-0.05596204168907981	0.7953673083650683	10.16472923067099	-2.402557777731623	8.195612627015166	-12.54007228183952	-54.29220771765872	-9.363542029717943e-13	-60.35797563822945	15.8890642847847	20.76622954093894	-36.98701447863434	-5.102395962767899	-6.535706528360703	-1.760682009245687	7.642969415134317	-1.421471308164263	-9.553082672760112	0.9678625381520023	-1.186151088299428e-11	0	0	14.57976949742906	-1.215620990781382	1.384208422798602	-22.80748221601111	-1.186151088299428e-11	0	0
0.2952558844730552	-5.331980486462556	6.678468644377151	2.815886614136765	-1.786391376437056	-0.3682676385785937	-0.7039996281271849	4.651373199141435	-7.446080715269201	-1.669906774957144	-5.691709437428743	1.160311171916618e-13	-7.630451827160346	-6.393533283869473	-5.922723914567731	8.807274408645659	-5.762599439290014	9.77855770640701	-9.194393798462681	-56.98190703189697	1.018062875129354e-12	-57.98432196366767	-15.12395460388196	23.19070428850786	-34.51985271424589	-0.9460383931940619	-8.220517834108389	-1.827852651221603	9.429074465771386	-1.096492396141829	-16.18061516986083	3.200716011253375	1.349810484360525e-11	0	0	18.14687740361515	-2.262737796135033	-1.807379789880539	-26.41046950282877	1.349810484360525e-11	0	0
0.3096312594138309	-4.682856665146824	-2.214895755487346	-1.454285586029336	-1.010780403331871	-0.538525735621137	-0.1412752731907635	4.375942554900243	3.360254547290615	1.217540917942233	-4.004001678727425	-4.429633900508645e-13	-10.33735255709827	-0.9000466983100868	-2.122444955134959	2.268844668204407	-8.446918959912356	-3.069014935350399	-8.839549046711163	-51.72369118013349	-1.086542724058052e-12	-57.0453453070407	-22.90446406724783	47.83115618747645	19.09648941902645	0.7229907458994077	1.446497822722762	0.9322596720171166	5.238601938822551	2.023354214823511	-6.172665258253081	7.401803260291436	-1.115292881221618e-11	0	0	7.679738582154093	-3.67848810635768	-2.331061914462927	-5.254758540310556	-1.115292881221618e-11	0	0
0.3136000000000001	-3.096536126782508	0.01669162485671893	-0.147197292337518	-0.558727722883126	-0.3748271689644853	-0.4700252744511926	0.3295505365428255	-0.0463167878401366	-0.7949456552365008	-5.449415557270232	-5.495405988065337e-13	-10.97824959260326	7.004196126928151	8.464928015680973	6.451918919186257	-14.26767053368712	2.49321209469698	-5.615222067270746	-56.40233183272539	-1.48136303370846e-12	-56.93012417420319	-31.98066567586793	29.11726593337949	-6.028166852283507	0.9539861160546664	-0.6183988851595391	-0.3424509737725869	12.14959017250307	0.3983187452609162	-1.581744967481582	9.439344592882589	-2.613399225561452e-11	0	0	5.250678439739033	-1.856713817600394	1.234319539059078	-9.385543190714499	-2.613399225561452e-11	0	0
0.3231128561131141	-5.914155126364105	-1.785864420957837	-3.107016555878315	-0.9375251828630473	-0.8176487982451361	-0.2177558957215029	4.959973204204127	2.054316939584456	-0.2600726433947874	-5.672924252688583	4.365845423404524e-13	-12.25579662922216	-5.619357073490207	-2.27023710754725	0.8846164522840988	-11.01529811436941	0.03749485034440891	-5.484457296379142	-53.31978827223021	5.607552630471315e-13	-56.76810913575684	9.526258367459125	23.53973459509743	3.877983201988917	2.332651800150484	1.554551412561207	2.242847186696825	11.33886359414167	3.135329203051897	-6.907724333859982	14.61072555665023	-2.49183161828252e-12	0	0	9.475129182833426	-5.615081555986855	-6.451261063874312	-6.9915335946401	-2.49183161828252e-12	0	0
0.3400558844730551	-7.245014465645515	-1.368547656013268	-5.176827257958565	-0.1362260707831738	-1.050492615200186	-0.1560889954395179	5.982673405471287	1.346514700977588	0.1517648657017919	-5.197743172427064	9.727580438277361e-14	-13.3693131742015	-4.927196850720083	0.5485002025881167	-3.595121013836385	-12.34975482739427	2.270020189319915	0.4301795737217978	-50.88370645161424	-1.394332592074889e-13	-56.05718417990808	-34.08794245137283	-1.411895293672636	2.292985551977996	5.871743380502569	1.030096501623492	4.176238485793558	3.33606346088467	4.778542044691248	-10.65156420392259	18.59925569800077	9.068724023028927e-12	0	0	1.261778272127537	-8.200821509823893	-11.82745948576082	-6.164116442684864	9.068724023028927e-12	0	0
0.3544312594138309	-4.87859430205302	-4.194370565999334	-5.451179985193616	0.1580213752493581	-1.073188981234133	-0.2694608112726116	4.079923293088701	3.923463120289171	0.640849532329488	-2.523479902374351	-3.81846958598561e-13	-12.84692685003577	4.408496614885108	6.332284983903717	-5.882655101100464	-13.00072884761557	0.1720387026829326	8.289968636624472	-41.38445148064171	1.504468096980846e-14	-53.65008546312976	-33.34241951968268	27.9718437815792	17.87211377541188	4.176360303422159	4.10499871993696	4.368420064087447	2.637938285432877	4.495132631346196	1.661240648124399	15.58459049821046	-7.733412702616286e-12	0	0	-5.009079413209307	-6.270134932230482	-6.086867301502186	7.960342687609563	-7.733412702616286e-12	0	0
0.3584000000000001	-2.839765705427061	-3.380041886646592	-4.448871161269256	0.2329632020219247	-0.9529324211325843	-0.4401699891649331	1.019740270215494	3.098525614215841	1.027843225246987	-2.661861817888665	-1.631664077800994e-13	-12.43433695720882	8.393138543327607	10.46935157244773	-1.096871555120947	-18.41603427937266	2.169439491485783	9.934668605616388	-45.25654588393033	4.172921668397506e-13	-52.48615083582515	-42.43175144969254	12.71296447564525	5.058557926628126	3.393609023585651	3.684198992945158	2.893936751535698	18.09215587280577	3.197211233399407	4.247524161387791	15.85926276133891	4.765700178201309e-12	0	0	2.642854578993214	-4.756177083741005	-3.902321023137099	0.3554511644430297	4.765700178201309e-12	0	0
0.3679128561131141	-5.180327723721525	-3.71761494928994	-7.089218699236453	0.6156719113132415	-1.316497265022023	-0.2268546746574179	4.093900536152173	3.654790673699925	2.832503748534185	-3.475608093429182	5.547872765457599e-14	-10.95408058658447	-2.428280579677205	0.5817595052611733	-13.78708873177331	-13.46652292716892	0.2226436799232948	10.45801682818144	-34.72338046752746	-3.519920653657562e-13	-48.55779775033454	-3.213044163263973	13.99118702118093	-2.091475147318194	5.410612840107513	3.564334339870999	5.457151731859968	0.9427091415019966	5.94321984769995	0.09792074449108845	16.860493344995	-3.268378925900211e-12	0	0	-13.08927837546174	-8.419364626800098	-10.2222361825005	16.1547732452269	-3.268378925900211e-12	0	0
0.3848558844730551	-2.563608458504229	-2.370975108176054	-8.391872654547619	1.546474749662608	-1.27465581195254	-0.126466203819064	1.087747976299489	2.555404484135579	5.424844551023837	-0.6575681867599075	4.827615416211246e-14	-6.631269918166836	1.386889883913252	7.020144241939047	-22.78843009250579	-16.7617059464313	-0.4446231906484496	13.56470949335237	-23.02023415349901	2.957218771561081e-13	-36.82025192616998	-34.47044558355883	-6.311211597809304	-11.8458240919246	5.058129306884047	1.420959822065315	6.543880993585134	-7.55362940577319	7.482123622754232	-3.987681562380917	15.20725441297482	7.417358925939301e-12	0	0	-20.51247639522184	-10.6019861724771	-13.84709799948764	29.16025024191152	7.417358925939301e-12	0	0
0.3992312594138309	0.3507201367605723	-1.95013183935407	-5.296524410702494	1.188129268678379	-1.222712650577515	-0.6020100845967679	-1.63428193781207	1.344501713469477	4.04586229100079	-0.2128582419647786	-2.949379513733965e-13	-1.488745530675544	2.148079845049272	6.20527037217525	-12.99489774029772	-14.16333858503324	-0.7174785814433499	17.82179447196305	-1.88339609861301	5.758027216111365e-14	-21.67919010815563	-27.78330085296599	9.727985507125357	-2.798846517596521	1.866686552211352	1.444681482055656	3.221136430226447	5.491253994173096	4.438835241016226	6.350269331588562	7.080991262120538	-7.723059617315422e-12	0	0	-9.834782641530161	-5.67111745942495	-2.951098185760118	33.67422032079695	-7.723059617315422e-12	0	0
0.4032	-0.1630222925417681	-2.190589282995097	-5.507708670150524	0.9031698873995014	-1.356671850019919	-0.6371708312539194	0.4934490480624287	2.178778445055669	5.959723305113051	2.968008051877188	5.571533400877731e-14	0.1152042244514262	10.21225165838195	5.397153931623218	-9.446818987346573	-11.17359786683536	-1.442573436523925	15.80465450762616	9.919535657999116	3.308904384067429e-14	-16.70153871637823	-33.4860069888524	6.589547564047821	-3.024711088542037	2.393161556064018	2.515894771709367	2.945049092450333	15.55943900992723	3.930726057504476	6.69190907342871	13.24218620934693	-1.351458853975542e-11	0	0	2.331889900292939	-5.406239580697001	-3.694141923241633	21.87451512003306	-1.351458853975542e-11	0	0
0.4127128561131141	2.828711668171596	-1.115439467844921	-6.084565562880898	1.565916933406562	-1.034468640590078	-0.6463031077529541	-4.291555308758989	0.9184619350282258	6.999699257565203	0.6907464341496139	3.759518915849774e-13	4.179033210526293	4.46597567542196	4.107189180270775	-17.67827224964583	-10.29210701345595	-2.666033719622406	9.711641288560381	33.56300253911588	-4.631744772649245e-13	-3.583738351949265	-5.456650754730092	27.37881586001303	-14.7357704621887	0.009777374275952155	0.9203824426311249	3.401976005711203	5.734458303447223	5.36760866821692	3.424652414529138	4.217531829659908	1.420586252544867e-11	0	0	-19.12505742262151	-7.070010265585079	-4.798025746857904	48.57384411976842	1.420586252544867e-11	0	0
0.4296558844730551	3.235535968200031	0.4390415463666426	-5.976220110337735	2.058706295600732	-0.9197357332000349	-0.6951085688113123	-4.477489641737223	-0.5683386416503833	8.229523744223087	2.948310329374985	-1.815418126725956e-13	11.69860585104949	0.5716792016576058	4.271291794401234	-19.12909948852813	-4.554970132444385	-2.865391294289488	-0.996583064838038	62.48765782238949	5.867778890132534e-13	22.5473291731743	1.760812530146222	-3.760312465057826	-18.79591756183095	0.4055139888233017	-0.9135922650404444	3.443587491123256	-9.041969443799424	6.204763154433149	-1.451589126668601	-3.348907686736569	-1.268464216267285e-11	0	0	-28.08720302646507	-8.087222098596246	-4.931031560425295	66.17145299082	-1.268464216267285e-11	0	0
0.4440312594138309	1.199384251737861	0.7618383172294995	-2.241475645670313	1.586638617152176	-1.20883534030401	-1.376156323428376	0.2240359960141687	-2.011629997684981	2.661417044073184	7.114957804229601	-1.673772583925655e-13	17.64339407237552	2.189583239756228	-1.393078772316534	3.446871348538959	-0.4213482999591349	-0.6999393455372204	-14.45534825008579	63.20491439662023	-4.996501302974683e-13	44.94798042663255	7.186927021019045	-9.5663949431639	6.082626792181025	3.116345792936636	0.9501639718037237	0.2893597219344904	-0.1220221017483638	2.66838983813008	3.876297864420073	-3.930185875682252	-1.489152758608423e-12	0	0	-11.1274860223117	-3.050538937552903	5.149433943702684	46.21132008123755	-1.489152758608423e-12	0	0
0.448	0.747830817948842	0.9366575058071174	-3.699444122702245	1.038350262579607	-1.317079824741851	-1.056775963105526	3.841195863277957	-1.281954063582776	6.340642517146739	12.09888933199824	-2.332485889798428e-13	19.11225682195894	8.89888324041244	-3.549833399501072	-4.386501117715057	0.8248725852629217	-0.9533656451267002	-13.49354075457408	61.92860256080554	-8.495034510784508e-13	50.74750982459968	12.90008146092052	-21.14192164081783	-1.27509344026122	1.444766792234158	0.1337269027783919	0.97405019974933	7.436064735583265	2.996401984836924	4.476584660386008	4.633863916671787	-1.423452786759046e-11	0	0	0.5376721613028252	-3.962019886471619	1.895091286369622	38.73328442271277	-1.423452786759046e-11	0	0
0.457512856113114	0.3111725631112215	1.661313867120652	-2.941261170819666	1.878410576733827	-1.422965598505916	-1.376564264894853	2.678225384894374	-2.794545780996592	3.672139643541145	10.56155306963013	8.759349181973641e-14	22.2014863379386	2.019992323705374	-5.693845868795918	5.594327159638215	-1.824741881988379	1.755303892775716	-29.56215502380844	60.5870048722158	3.577250665629704e-13	63.36552461490115	67.64793737563319	-14.86048773166736	2.959093552483806	5.256141487549696	-0.00801761095166699	0.5326545012807842	4.356890624081338	3.532987219496107	2.907654354023636	-9.803312376998703	9.560259043759468e-12	0	0	-17.88746957392631	-4.248796542461309	5.402673142175742	58.40859813707218	9.560259043759468e-12	0	0
0.4744558844730551	0.4862089957876691	2.946228805922413	-2.665545774526644	1.734104421493959	-1.149225119448422	-1.429551976379612	4.857605195166341	-3.980340726965133	2.956547505359955	15.60443838706356	4.399980749272738e-13	25.7945922673561	2.760484165151414	-3.203734946155523	14.36791262350323	-2.808983444116185	4.835589626853871	-39.43424578891937	59.36580119161392	-1.246780204431856e-13	79.19487614205696	16.84814155734869	-52.82636225384168	4.304292631369976	4.409991985255498	-1.609613012656336	0.4075927960265707	-2.624986463565456	4.098232475000893	-0.7146672862235215	-19.86966901941048	-2.758091470239113e-12	0	0	-14.49741284156807	-4.636174134127486	7.3683394403759	71.93324790436844	-2.758091470239113e-12	0	0
0.4888312594138309	-0.9524207384970809	1.30039478983975	-1.722631987301093	1.278315798098069	-1.167651777741631	-1.478740570275343	9.565694523216779	-2.538699882862645	-4.400935466167032	21.18279334476571	-7.853020743939973e-13	26.60802792470103	8.664393946090854	-2.273787098933259	24.04171186871773	-0.1257821452520691	4.343214705625983	-23.36982417106409	55.83831266333979	6.911011823338149e-14	83.80274750668966	-13.81166294580962	-31.10145602109653	21.57377281421478	5.337597043730961	1.214924850782	-0.02486994689559992	3.145697834834852	2.021107122307242	6.410776058113083	-11.95828929027162	-2.746947670863479e-12	0	0	1.067233295078159	-1.736962246986215	10.097556452534	34.04893757105297	-2.746947670863479e-12	0	0
0.4928	0.1315987003189145	2.456334153461794	-3.755681851123753	1.046713903218773	-1.063564576060547	-1.128080466941822	8.661349340706922	-3.343296406714674	1.025408293251156	21.07467972282868	-5.51505098739557e-13	26.46249150918699	7.370363134087498	-2.219921699964583	10.35361541417388	-2.430752830416034	3.354315950823628	-20.07881454602432	53.40074125292959	5.741680867029205e-13	83.49427815198621	1.182619929767359	-13.03613449167307	11.00058569950005	1.804637318056696	-1.422138457499911	0.2309135456326703	8.794564109134583	2.376457659488473	6.697870071881384	-2.884934146136974	-1.103142386932381e-11	0	0	3.729999881315927	-2.791640860269127	7.368907400250517	36.40906565449268	-1.103142386932381e-11	0	0
0.502312856113114	-3.505352808126539	3.49123285250426	-3.794180875200058	1.423290674537097	-1.337157859703751	-1.105691949083923	12.78674973942337	-4.789321253374883	-0.3597853339613233	22.58059592481197	2.263567461955259e-13	25.50750068273065	10.5937883355285	-4.73121564839518	20.92884531770918	0.1793980461439189	4.603368728990822	-21.50724102757522	52.96521962606025	-1.222845507607546e-12	80.02901493312164	46.67124996380229	-14.91429802960825	18.16809361131247	7.955781504948882	-3.205592700287299	0.4400506712724367	5.92925145780664	2.915947304318927	6.076237133318971	-17.91137333101371	3.991993561695925e-12	0	0	-1.17957433087328	-2.547336663301575	10.17290628219521	37.54569134765619	3.991993561695925e-12	0	0
0.519255884473055	-5.399284820591559	6.402125640688445	-3.904338241629199	1.259945466036772	-1.150795577425842	-0.8865285302923274	14.10734851587198	-7.832126706281846	0.5531565297290284	21.47203986125126	5.263275630628034e-15	22.06242098318669	8.910437516271681	-3.890201777917733	22.75364040422055	-1.353545622848722	6.151071473630312	-16.34651780283319	39.41026218404245	1.409128016171657e-12	65.53216332788496	6.831093220262467	-35.18729666209328	20.24338571712028	8.754930341690514	-8.232831868528104	0.2585019624089371	-1.796053278589874	3.307165516517045	0.9798328044710947	-26.02684082695966	-4.057186768846022e-12	0	0	8.51777896028023	-2.217367749419412	10.79731618785974	40.18636476421559	-4.057186768846022e-12	0	0
0.5336312594138308	-2.912018191235675	3.283656412861586	-3.194507543062011	1.200452513975995	-0.9293249384961741	-0.7268133837721326	9.980601721774201	-4.445720345891889	-3.850299069339156	18.17755047183415	-1.920748324844893e-13	18.15942217713623	9.154535843381476	0.2008193695391665	10.06811994837468	-4.707578220976583	0.5292686350876273	20.67223252928886	27.54192796983873	-8.044837813065501e-13	47.80822172558268	-11.76136216471291	3.921740356625197	20.74815489770533	5.385149608131577	-3.988309031872726	0.3858951250361053	6.034872116882514	1.651700203420337	2.941843533903849	-7.681995217540147	1.4043838299914e-12	0	0	16.07820752470164	-0.3085241814962689	7.272050729248296	8.206116800173648	1.4043838299914e-12	0	0
0.5376	-1.298889575725292	2.428010321859633	-3.590256105519318	1.228148696541834	-0.9006933296944089	-0.7345135921090068	5.660504977279578	-3.50609351647239	-0.6567800389229594	11.36188369436501	2.315016429815899e-13	17.05963024779748	3.981897012053304	-0.4855124530668649	11.75961009313445	-8.316191966114456	-0.3162486131768433	11.02147266024692	22.9406678214871	1.82204448331503e-14	42.57422037302426	36.20098787565284	1.203918685521625	10.57053693830475	2.820295882824205	-2.818628382879473	0.349670666271223	16.71318937641087	1.929875069654888	5.909382546541224	-4.928100608976855	6.0394871655908e-12	0	0	9.461594685052928	-1.437725937795375	7.700202434798268	21.26512349975212	6.0394871655908e-12	0	0
0.547112856113114	-5.570660765702605	5.681875838694834	-5.709824593295833	0.9809555125156368	-0.8058734540140875	-0.2210255946958947	12.86296353429372	-6.717210063420644	2.290279750504656	17.27775130403858	2.670157419111919e-13	14.59311717171874	6.667525322781238	-6.477325945603003	-2.793406343345171	-2.886527988261622	0.6742593208105718	40.92126809162942	19.95046878838442	2.82660137680997e-13	30.20252361771155	-114.2263340875913	-15.51257931315586	5.595544888394745	7.051886709560002	-8.597622038682156	1.693578855686077	8.312236966961414	2.555543691935411	4.207865996962327	-9.997900894366726	1.141536248124436e-11	0	0	21.47756634845029	-0.6452652396111824	5.612068596092605	0.4490385345654269	1.141536248124436e-11	0	0
0.5640558844730551	-3.560930945426842	7.578202628071149	-7.046780834365148	1.447761198963184	-0.2735580890341938	0.07023003176133658	7.928316059959153	-8.264164982411264	5.004374553236536	11.72171246400883	-3.706287587825024e-13	11.59555393932885	-2.769436816883841	-6.879375403602614	-16.80905984936605	-7.753095843136325	1.24410681136944	56.2857226658805	4.167066891815581	-7.137663625647011e-13	11.40424375909078	16.59364788317233	6.766458657397383	-3.34355702583085	4.307420841940774	-11.89028006228614	2.436393406919067	-11.5648048664855	2.835180272437272	-0.7935544097366721	-12.51980793714471	-1.859082477006417e-11	0	0	13.84956424389213	0.1945210765858597	3.396086552525375	-15.80723867516148	-1.859082477006417e-11	0	0
0.5784312594138308	-2.248977812638596	0.4160235993651015	-6.331286942655669	1.274764352165551	0.1927023126759899	-0.5337442543273841	7.930804519291845	-2.018703086086731	-0.9983421748233321	12.61585953549983	1.703689524910724e-13	11.36436405217701	-5.557765399748632	-0.763619604237058	-21.43722186598139	-19.481076413777	-3.263075440412915	53.42783034410178	-52.62633768184475	8.832570827088774e-13	0.8547604230036993	-27.2197658199261	-66.97953382934719	-3.170932655843574	3.380030196837302	0.04952029283419201	2.155082562968833	-1.507592617590589	1.217374555485295	1.064726453153098	7.33530225434852	1.13493466754027e-11	0	0	13.17617292648032	0.935659148912231	0.6736655477086116	-31.76991979336339	1.13493466754027e-11	0	0
0.5823999999999999	-1.425012050995404	-0.2816692424546321	-2.944770803595587	1.15754498754443	0.05404703767299968	-1.019322013723341	3.955784678154458	-1.76622740732349	-1.56679019549765	8.029708051326201	5.098973429028217e-13	11.76177844153374	-3.962442562338984	9.874452897811425	-6.917403829746843	-1.623145515748756	-0.9030473959633998	10.46838059060015	19.70961971064286	1.072960961974912e-12	-1.12017386311065	114.3862118019239	-30.28561654930748	-1.022782260970461	3.334564578135229	2.008455220369792	0.9575106344176821	6.824945996126615	1.272435106986585	0.4150449656490016	2.52811233748003	4.211405126108677e-12	0	0	6.693194424747537	-0.1368411057440546	3.775953191269359	-7.884974960832309	4.211405126108677e-12	0	0
0.5919128561131139	-1.194825906225682	0.01259960614185637	2.109434300065248	0.3184477336042917	0.8487117911236193	-1.322667347964676	7.826749479893991	-1.318306848179094	-7.17132146238	12.25246928834081	4.408214525601693e-13	13.56439087853018	-14.73961508935938	-6.633812998214047	-28.33582734610662	15.03094007480996	-1.613411625117029	-18.20708658699796	29.77949001108132	4.82292310932975e-13	-4.444380783608896	13.2132502558689	-69.21809625359768	-20.69637408576456	1.688152602342599	1.99894088197542	1.323883483721649	-36.87743939625257	1.177333370791527	-6.923109065952189	-9.537843521380317	2.015974934452887e-11	0	0	19.6897443896692	2.760588344585085	-0.2272490229662044	-25.12829780489298	2.015974934452887e-11	0	0
0.6088558844730551	0.8357210648424959	1.667014697286717	7.755813476841666	-0.6164275157427438	2.212525333588307	-1.726094747640902	10.91603623248395	-2.422318550968397	-11.49522616072015	23.17215194515452	-2.734051076966054e-13	19.56908224114431	-15.76051618173411	0.3858571048491446	-28.60033770144386	15.71167727162485	1.719049743818775	-31.80722365035261	24.26988771452537	-4.916082868906338e-13	-7.199513072814866	-20.85440107716234	-32.41884121044338	-30.36894564488846	-1.191836687906775	0.7250632150287994	0.3961817421728431	-54.57283602363609	0.9861637484946245	-14.61124708886725	-22.58132764150994	-2.280949300971937e-11	0	0	47.32969113779024	4.796920240732907	-2.592544860751096	-23.00497688668462	-2.280949300971937e-11	0	0
0.6232312594138308	1.615398835093564	1.793809780155208	6.832602407054384	-0.5577731797490353	2.554605334682382	-1.906228132442382	14.09205279906648	-3.737663607871485	-20.60043157063162	31.03922523379691	-3.95127316756328e-13	26.73119194823266	-12.06611038331413	2.955301883114969	6.932409575280792	-0.2639925097293219	0.7293927124536148	-18.765598889862	11.98532384218079	-6.993946273361862e-13	-8.952238535927453	91.54996225087694	71.34018804191564	0.0002837664502305937	-2.003980107657833	3.210153598357365	-0.8544902909258525	-31.06724323939017	0.303088047597739	-2.490475642154245	-11.96091404147771	-7.209255493008588e-12	0	0	30.68116900873376	2.792037620514328	-0.7703052746536403	8.921573358734546	-7.209255493008588e-12	0	0
0.6272	-0.1167540453530525	1.407452332326022	2.531636734648129	-0.4217504499385464	2.302147375373	-1.498114368809743	15.63180014741908	-2.898372101315623	-8.344256193252241	27.63576671632945	1.724209489615795e-13	28.87919062178556	-11.04721225404215	-0.3555101976151409	-8.441389879317011	-1.580388444051216	-0.4538115761914305	-22.06838354092466	13.84010996246062	4.779407635173666e-13	-9.626200818968787	159.0658133096713	43.89995019130517	5.336333784324873	-1.141055247384948	2.692735266438131	-0.3971720493248351	-8.698517138022474	0.5217893681828032	-4.56811994738547	-7.372101979525078	2.674300589537215e-11	0	0	2.00266154252863	1.457675754694585	1.866928218128805	-3.997243398673124	2.674300589537215e-11	0	0
0.636712856113114	1.212568520894054	2.808680320318509	6.780511923425799	-1.678575661015295	3.690270806336082	-1.759438584542514	21.41205353923431	-4.455795599058399	-14.63233686861013	40.10851010269154	3.292769931716844e-13	34.04017292192123	-23.97289648387976	-9.6898862397609	-9.245214129103324	-1.948498132618059	4.768574689860415	-1.925743005120333	19.7469204124692	4.665011565009099e-13	-11.72375360471991	197.6548251267012	80.88351747098631	5.093464596332497	-5.692379844381077	1.276435055035832	-1.536021149250804	-57.35936741324295	0.3216009609345956	-5.936512023665048	-16.04915159910767	1.867065807511306e-11	0	0	27.10082055464644	3.074363801183319	-1.52888696627038	5.485624076088749	1.867065807511306e-11	0	0
0.6536558844730551	5.57016960734189	3.310211932170879	7.51552539208739	-0.5336718863490082	3.281047948417436	-1.47652923159912	14.46500582110376	-4.699007338268461	-8.732070749505491	37.28908435361117	-7.975746285345905e-14	42.0519415520384	-24.30015859703961	-5.497417385929653	-3.994632553442834	-20.22971574040664	8.099494014194427	13.94500972163108	-41.49057286022902	-1.704548063547392e-13	-16.81286620332509	-105.3680488073983	0.5206118981526409	3.302717800878012	-5.658556226548995	-0.3591533350825699	-3.353095574913342	-48.27310213332493	0.09783990743229246	-11.02760679952221	-19.23508418113421	-1.068865120553605e-11	0	0	22.98893376481636	3.434332927143779	-3.85991507043969	6.363369125144192	-1.068865120553605e-11	0	0
0.6680312594138309	4.957098876558106	-0.5605996598567762	-0.5780716005236062	0.5637994646822748	2.139087251592943	-0.8661202653835887	17.35350444053712	-2.643302280190154	-9.636778891780168	39.89297503682113	-1.345370885240096e-13	46.08033719566792	-24.95501164099984	-7.563900679676902	29.63471135356883	-41.6763508044865	3.026450783743019	1.908874646311651	-57.76210939462037	-1.664178735167629e-14	-21.05622818716725	52.96811863690138	27.4847799659643	6.517952609508308	-1.06581668551644	5.168467467618352	-3.657647487418203	-13.01541052621675	0.1470933075773553	-0.8885284032899249	-1.35803887513798	2.020350044084309e-12	0	0	18.35744249446686	-1.335529427165524	-0.6623572802367974	7.704169052842268	2.020350044084309e-12	0	0
0.672	0.9509494120336067	-0.3485777133133551	0.792220718812236	0.161305440067003	1.514940240084163	-0.6887136842564933	19.96049248110728	-2.123623079051651	-0.01994635211973073	36.73268221028508	2.230883933442997e-13	46.55802140302452	-20.86219625422849	2.148984646312559	12.92880307813645	-31.18786131739727	2.871448615800395	2.857868020371948	-53.6049065804901	5.568097599977007e-13	-21.95740503960202	3.956266782229175	20.07017280094589	16.18572050601857	2.436610088237641	3.68097068100218	-3.149017161042271	5.961834644770313	0.4269230997305167	-4.611283865575317	-1.173145678755855	1.693351019414117e-11	0	0	5.98801398769101	-0.8841255167180038	1.012490354040551	11.16246420304007	1.693351019414117e-11	0	0
0.6815128561131141	6.970260177794054	0.2506233364454028	0.2572856412255531	0.184558604721299	2.178512197659452	-0.2756363393065875	17.98716529409938	-2.932410657472262	-2.48759141959058	43.57227649920192	-1.494670523069529e-13	46.41955892599262	-26.77696829406718	-16.40778983969773	28.22273185271371	-38.21492756653884	3.203290697337423	5.007440840815299	-56.96059993438618	-3.050781003940323e-13	-23.3438734636055	-13.91161144598842	12.18001544273744	0.4522929258128494	-4.357493881771883	1.78723105020238	-4.048807976666351	-30.06588301284978	0.6448325158531931	-0.0508282478654376	-13.60298006272462	-4.710360132164623e-12	0	0	15.21267528812462	-1.921067481847443	-1.637271866061469	21.18898324949357	-4.710360132164623e-12	0	0
0.6984558844730551	7.585867200263555	1.664959390240357	1.883605440394138	-0.3636743559256199	1.909249249507988	0.1057838880409271	12.4058371836602	-4.238898093159708	5.42306043254014	26.41268050712567	2.796167755560253e-13	41.43447095403339	-39.75582721051162	-9.68804151071072	37.9461171034117	-25.94485168773548	4.978485183370347	6.529480116266377	-34.90824209940955	4.529596919485724e-13	-22.43760501498052	-7.356328780026402	-4.425122418752022	-4.465631655270291	-6.287614387787761	-1.520410470157704	-5.250370290376388	-30.04207538984531	0.6731252090451134	-1.676674566288647	-25.56904941237248	1.888468729117518e-12	0	0	11.84208226934637	-1.772538079901805	-3.17365213100355	34.51825504443419	1.888468729117518e-12	0	0
0.712831259413831	4.192590447857787	-0.6303838371969654	-1.933738358945377	-0.9911064824420623	1.314984037434482	0.2902931297707693	17.92706675559508	-5.500440398211871	-1.169828562142152	29.41188714869552	-7.167124160124061e-14	32.69787906928442	-25.56696412640996	-2.145590002222983	41.31568722266296	-13.7366346931246	1.516096148193783	7.134158312553311	-20.82025604870847	2.970047565935079e-13	-18.35645615326222	-2.428166889611433	-6.918157608861211	0.8930320877562401	-4.10294073392701	2.139090410485453	-2.597387484985965	-21.03687088627877	0.8148835439992458	4.829608537773368	-15.75939281831536	3.516507786879782e-12	0	0	6.044322640503505	-2.254617579095466	1.334470739410128	24.84956552059073	3.516507786879782e-12	0	0
0.7168000000000001	1.533488228862416	-1.023400856295858	-0.7873464952567224	-0.6406120412967907	0.7962859164244164	0.4928326180094887	14.50605185729368	-2.380902031513414	10.24564557640225	14.3068191700539	-2.330054300373479e-13	29.66101075809093	-23.67835641395158	-11.56221447055251	30.3582816417906	-8.25463612960727	0.1846648757042012	4.602073035694675	-13.1730593952153	1.018805902657906e-13	-16.8253938950343	16.1290621058616	6.267624821496034	5.804066026119066	0.376940952656068	1.590338820981434	-3.603849436649372	-5.309373233476265	0.6661036271990616	-2.015164200319605	-9.941055121141806	1.454512273031979e-11	0	0	-0.3071992855739536	-1.525264995719978	2.431916303140963	16.54823920173753	1.454512273031979e-11	0	0
0.7263128561131141	6.210702686960153	0.5032264049300748	-0.7512218289054422	-1.238299990924698	1.135789759442471	0.7088469159404455	17.5938024631196	-4.24652869476825	9.183635836934329	42.6295444138547	1.427387271125694e-13	21.49522479280233	20.7851200288605	10.37342299280379	55.27764808511456	-10.95041780235728	0.6936243637772367	3.520823958323255	-13.98496350242344	-1.060427462258914e-12	-12.73495269037299	-18.13108499349461	-8.405524337368185	0.8518572663356611	-6.747866879802776	-0.2489805564579345	-3.636061116440017	-30.35773319663396	1.050435894075456	0.8484867685094949	-24.31396726666921	-7.242341661713606e-12	0	0	11.34305226526916	-3.319648298132332	-0.7995120711677859	27.33423488375843	-7.242341661713606e-12	0	0
0.7432558844730551	4.329692256799516	1.33772554215612	1.422986443277491	-2.024879778025876	0.2811369990252617	1.189684378759764	9.216868392981459	-2.098555999898394	18.91142107500161	6.187393073976402	-4.467464148590395e-13	4.839151766581811	-10.23026258083727	6.159850254417115	56.57350208969959	-3.267032351570423	-0.5685574811659	-1.677783145921707	-4.869007275543367	5.293734824343142e-13	-5.259332245303584	-15.5617875561931	4.879178399553229	-2.475042716160188	-6.503394563528754	-2.924385038666167	-4.808294744981147	-5.34930905539407	1.071122077057728	-2.537574264709308	-37.2318798576328	7.071440306715815e-12	0	0	18.95346963628817	-4.170591896181548	-3.729404801220173	30.69469862370297	7.071440306715815e-12	0	0
0.757631259413831	2.354910031192627	-3.669178381720609	0.6268039686250884	-1.646921391409471	-0.1411065192302906	1.132612697277526	2.304301127389685	-0.1505927129568582	4.398457020920439	-15.82635548812758	6.273092020949109e-13	-9.990665121579763	21.29350425383402	60.87915989249801	4.092272742211687	1.159038591617237	-7.493566799920085	-6.072984600906284	0.5765886908298936	4.60594071174631e-13	-0.2477072665354831	-9.777313756112328	13.19220576842834	4.402080975440231	-2.88749190395919	3.710616659699665	-1.756363514648792	-1.461463883559173	1.278447091575524	4.763618120072887	-26.32550263452029	-4.50494743038418e-12	0	0	16.98079405235146	-4.15077771185411	-1.20314762605862	5.154904518760924	-4.50494743038418e-12	0	0
0.7616000000000002	-0.143835502474209	-3.256163392591839	0.659147102159501	-1.090748897713604	-0.3388672042201399	1.359705251609713	-4.62102498719865	2.764319740266111	17.01691469288474	-46.0575298503995	3.863855226788782e-13	-14.00128393822829	60.89197423299569	55.86352156981906	1.122532049304301	4.586582049383287	-7.028654538352226	-5.327434821118889	5.719972526287894	2.049118602005577e-13	0.7666748772095733	9.37566548663867	11.35929958028821	4.078944705930276	1.306401206534772	2.130126358611149	-2.310605883198704	4.081705832533814	1.159875090851975	2.572257944112296	-24.79730084764231	-6.952204503713253e-12	0	0	6.084728978299436	-2.771664090011121	1.172280054427806	10.0611782584261	-6.952204503713253e-12	0	0
0.7711128561131142	2.215399687603507	-4.980761071503117	0.5744141398558883	-2.056141527543059	0.3848259827962483	1.695770510406791	2.24889058600936	7.271377100575897	13.49431810685748	-43.93937374382948	-1.169333675758696e-13	-23.22852817119551	29.97551037668958	65.86100093388356	-17.23594156846656	3.71234548524085	-9.972828190674541	-7.690704014386666	5.013266186162316	2.942286625610748e-14	2.451060142263077	-3.62913082305176	20.07451479134638	3.809250566075955	-4.419392346029146	3.614272853932548	-1.275486350986445	-13.18622826538613	1.800976924639074	7.397491411446227	-48.27789250845456	1.159947865218116e-11	0	0	28.99591323917815	-5.802573205739194	-4.453783126838483	-0.8019476525331592	1.159947865218116e-11	0	0
0.7880558844730552	2.54261365979995	-5.563221880379777	0.5644759147294699	-1.824318665800104	0.5799678831264364	2.165666371020378	2.006555841488766	13.0831686223469	17.24257530028752	-49.85975519034893	-2.496828786552584e-13	-37.58100801941963	9.353419704530786	-45.36658876083479	-35.19697108333046	0.6031526705801751	-11.54680610045828	-10.809410326402	0.4874309435149207	-8.899389284258935e-13	2.869304506762493	-7.418657233068316	18.20997452070442	2.160227764637128	-4.718368174859632	2.801446045631434	-1.817873652225603	-3.131444425567729	1.701692406605845	5.152475500834334	-68.81262391760286	-2.628304680916751e-11	0	0	22.9761473679071	-6.859002833907963	-7.783922579040798	-9.156195006239926	-2.628304680916751e-11	0	0
0.802431259413831	0.7514178255060338	-4.618659605378109	-1.964075167039366	-1.45225126519431	0.3994100575379296	1.66163719997903	4.38833443115076	8.025600512407999	1.005858549688864	-47.41742453101467	3.186594981041345e-13	-47.03862858369238	-4.17751438875529	3.533468046906973	-34.28476913490521	0.5898762611753687	-9.143934674721761	-9.509554109158708	-3.044389606157409	1.447529653648916e-12	1.156643333749305	-15.58970785835436	10.19833798826028	9.627600797996157	-3.222300154903677	3.394768321449558	-0.5936954683258419	1.148005823388825	0.3887842252187191	1.392229563864383	-34.80134598914562	3.544829330386569e-11	0	0	9.011922911522873	-2.376868810185723	-0.5992071673082787	-16.98619331156005	3.544829330386569e-11	0	0
0.8064000000000002	-0.6872861131342974	-4.106508230273809	-0.9770600104279923	-1.033732147245691	0.2364863584543577	1.721764675417844	0.7301616991749356	8.041146189253599	6.941731305034278	-57.04097759103748	6.349268552105703e-13	-49.17135697405568	16.18736932355549	-4.184598625129308	-21.286812059442	3.573249882197616	-8.518331897282131	-9.079147325593674	3.295991308084301	1.850257334037585e-12	0.4670413641936967	7.679285259732261	12.24042419954113	5.835841380156826	-0.3966017333921175	2.376056855316612	-1.188459665020047	3.589829528167105	0.7846925353483479	2.506044951250206	-32.88090225888749	3.264920452323097e-11	0	0	0.6498555967124052	-2.81457765516488	0.3777255381803779	-8.081268919711906	3.264920452323097e-11	0	0
0.8159128561131141	2.131285531168842	-4.151648666355479	-2.755243655337325	-1.530902860125566	0.6138141011607703	1.841555637947538	2.647163412291953	8.274898070176315	1.645713748474477	-48.48761147361344	-2.090101902228097e-13	-53.45144968863151	22.21892716928071	-19.5442750889984	-41.40326206637407	0.0921791638405054	-8.905550820742581	-9.829884821620169	0.877038316280075	-1.159807034790656e-12	-1.384865678946014	0.6001264506709632	16.91018182304362	7.41008983761628	-5.634584768010537	2.564292026681966	0.2296947490163471	1.647526545226746	0.5401918067821569	4.21353628359803	-53.19936877056789	-1.946043207952733e-11	0	0	11.73478922151957	-3.721389636774186	-3.613908043477832	-17.37049729774617	-1.946043207952733e-11	0	0
0.8328558844730553	1.841764171216776	-4.257274750467011	-3.427403227281866	-1.145985650924875	0.583447337293582	1.92937630308235	0.620084886017545	8.948934926392464	2.016537296294133	-52.58598439918326	1.151339040126311e-13	-58.39270467639967	1.155168428943902	-6.41674888042448	-50.21668930265987	-3.156186524758152	-9.124439213722598	-11.59201957056355	-5.300343437447415	6.175667661497102e-13	-4.703486757235548	-4.147177212613308	11.34293180279544	5.165923820610331	-4.338942591318704	2.493237490090555	0.7664011088925732	18.11778230501818	0.3512755846868362	5.21681551430089	-74.35346936633422	8.45139206343682e-12	0	0	5.765554049191278	-4.690740449347075	-6.944643967634656	-19.1145525611638	8.45139206343682e-12	0	0
0.8472312594138312	-0.1194342572817293	-2.969533954715295	-3.478619380542564	-0.8888667412856059	0.1784256284665824	1.094705067986408	0.7675651682080877	2.112732567076251	-6.905880361312757	-51.82528799568877	-7.551136304954807e-14	-60.37001082427628	-4.057189086022014	-0.1933283450184007	-9.166449669520645	-1.873427604897564	-4.534245787342714	-5.404455594180261	-6.884721572994594	-2.343266892972955e-13	-6.821544724605752	-8.082334588062977	4.473148759501399	9.131322416338971	-2.58821627432538	3.153355483959375	1.311557622023002	13.51210196715869	-0.3348073731953169	4.515114500187193	-33.47848075164813	-3.477884561312707e-12	0	0	-2.438566748535898	-1.128573070069991	0.2553175041171998	-5.218950166563951	-3.477884561312707e-12	0	0
0.8512000000000002	-1.166381626574235	-3.152400838515686	-2.998676626680732	-0.6233132754260317	0.01845846191072587	1.281622616866227	-0.5206587922401344	4.325326470381468	-2.676767780442726	-53.42698872078471	-1.205591900797705e-13	-60.63755428960568	9.055424894550349	6.698469547700213	-17.92556163562043	0.8417534657690195	-5.288858228766259	-6.30373404407506	-2.024212533507575	-3.783711203958164e-13	-7.225411406159283	5.584171044896994	6.428370701586781	8.392166160727541	-0.4170011214480294	2.994799891458771	1.168160816494053	11.04864117511664	0.3193952905737199	7.443727826433124	-33.60139306091598	-6.991160075245254e-12	0	0	-2.310489776617267	-2.183025168602659	0.3631162982149272	-6.828674281344008	-6.991160075245254e-12	0	0
0.8607128561131143	0.8798469911785394	-2.811066674975086	-4.63871463212015	-0.830318929298924	0.1818239107571741	1.158563819504069	-3.011140504822834	3.088730659314121	-4.966095828987496	-53.71724165239657	3.06648421015579e-13	-60.90042047087023	13.63612675910441	-6.014170892914837	-12.06766775998144	-2.721927565114885	-4.141247019099266	-4.80798231782128	-5.068897520171692	1.735042827351323e-13	-7.828772302164705	0.6866546736350188	7.22744761213786	6.477032242699819	-3.638234744436703	3.136086456351976	2.567643045191977	21.71844110550931	-0.3207159641594449	7.343187779424928	-50.39538244810358	1.132015190822184e-12	0	0	-1.428700694608608	-2.289664560435933	-4.024199778150562	4.024461611914373	1.132015190822184e-12	0	0
0.8776558844730553	-0.3561769922426896	-2.612266121916059	-4.853854279021311	-0.5553456614418256	-0.1248877813286668	1.103047696838703	-5.062253655916301	4.103282261554901	-2.899962422859195	-54.39097086175528	-3.801527606669524e-13	-60.44567014161713	3.998084975375981	-1.883614537044326	-7.447379876181683	-3.078999008921491	-3.227265056991446	-4.195200018964682	-8.863051155470716	-2.906333971000425e-13	-7.601532875950978	-7.347084655092189	-3.023633709543077	0.1118436298632597	-1.494278093755056	2.870053298930023	2.96895532530377	34.36593282983576	-0.848683382737965	4.502574139210707	-66.25185191127244	2.072639921582171e-12	0	0	-7.545959400615143	-2.386226496658863	-7.862372047978709	14.05377830610337	2.072639921582171e-12	0	0
0.8920312594138311	-1.870414018203454	-2.453700351707533	-2.491652117359809	-0.4633393286275514	-0.6448414615436686	0.4341884586619484	-6.088562776073155	1.224916202869732	-5.19639946013457	-51.98116920682454	1.069715796569612e-13	-59.56184862074476	-6.927255792069069	5.543712388095205	20.27886240505756	0.1552059705260325	-0.07812498695770158	4.072328294383406	-6.134701018386188	3.815810279340048e-13	-6.237287339001938	-7.005793372175312	-7.617427349255234	-0.7736269824778086	-0.1329645458327764	4.217624095764859	2.030293858854376	24.69803191671732	-0.7892607253366369	3.155259355536892	-21.82508312465599	-2.177435941779907e-12	0	0	-8.225840255266236	-0.1877358112502814	-1.380860725784318	19.26704733197327	-2.177435941779907e-12	0	0
0.8960000000000002	-1.80515048199729	-2.542563345247324	-2.62397221268293	-0.2538679507030149	-0.7484175661069914	0.7497036190671179	-7.781657971415865	3.707376509452601	-2.834327510396402	-50.84502333601403	4.342974016373531e-13	-59.27765745497258	11.78217626244277	9.601078884931741	-0.4515781405076269	1.058394320604842	-1.527523839350642	0.7820538225718365	-1.48129885747364	1.135516971486495e-12	-5.707943868240167	9.105230384370991	3.447553964795972	5.401808286061334	0.6670344137931958	3.729158651587196	2.193003352927337	20.3319106213158	-0.132008655635154	7.164875638248271	-24.39132123504363	1.011004708456399e-11	0	0	-2.178499605737372	-1.351742833979769	-1.018511982500579	11.57667425970772	1.011004708456399e-11	0	0
0.9055128561131143	-2.140899929281811	-2.080456816929058	-2.025630301082156	-0.6243454546707675	-0.8616322108947267	0.4555087099545195	-8.738362641192889	2.741337647202344	-2.562900329116905	-51.71650866916225	4.595896637854691e-14	-58.54509965542859	20.59314273181006	-6.841346190817452	9.632701849269196	2.303878392749212	-0.04566267582042621	3.460092052642981	-2.586002200574866	-7.29803600236623e-13	-4.236246346027327	-5.035087439378866	-6.371886913060766	-2.965555324972851	-0.4687637665898077	3.538425848842903	2.025823455694447	31.3236986611944	-1.455007477634741	-2.545043890494847	-31.08437500733352	-9.257529074269637e-12	0	0	-8.738777707494634	0.006090148797068401	-6.233553632359456	32.14920160131527	-9.257529074269637e-12	0	0
0.9224558844730553	-4.011382838505146	-1.118395452667381	-0.7598668103022908	-0.4380478467679233	-1.312312293820429	0.3322101606100494	-9.43109399933779	3.115963099046408	1.273789351238322	-50.44869674318638	-2.041348758342239e-13	-56.99546212468611	3.902878515936711	-4.827359107169448	10.51715798924514	5.356140649422601	0.9710903019315427	3.556494939298546	0.2960226841910534	3.545324990818775e-13	-1.186491535486732	-0.7804447289201697	-7.41232879675449	-10.23899368800077	1.640686473583736	2.24452870454696	1.199726864423786	28.07136670451892	-2.608339219281278	-14.03038876232369	-37.02880905143807	9.573433832560566e-12	0	0	-15.00706508673785	1.317075757836535	-9.99549978322743	43.80753171702086	9.573433832560566e-12	0	0
0.9368312594138312	-3.968919819410911	-0.5318155393542129	1.239565961282919	-0.249531917483634	-1.63938374603204	0.2210940088163475	-11.64674688702007	2.865855218511022	4.517425552782649	-47.92711167669025	1.592778468366461e-13	-55.1134557109274	-6.751558843001249	10.362758471156	14.01862872601233	6.286426070239301	1.921892586217238	7.053493702618681	1.249875346743915	1.138770495337041e-13	1.464796384557463	-8.767789517873588	-10.67415637216521	-4.600495126786593	1.744288242006114	1.992206318811762	-0.2572966652815296	15.38759899629156	-1.776165135850321	-12.3882473356365	2.941903670450786	-1.680151112779602e-11	0	0	-11.0949716933009	2.227266640209303	-1.587602026495901	23.65002619634015	-1.680151112779602e-11	0	0
0.9408000000000003	-2.605400950079594	-0.7641899378267653	0.3995154961485659	-0.1534148345830167	-1.607787068129879	0.494859992731413	-14.48158796981699	4.835830006403533	6.072534976551837	-46.94116138027835	8.998034767247183e-14	-54.42641715149498	8.673962922599101	9.437266601399209	4.579302636516582	5.046845416694833	0.8248985004044996	4.298734661763889	4.875142693353058	3.684357615419124e-13	2.161843431899843	9.454378432317718	1.687171425064193	0.9345857867061053	0.9070169766998143	1.780525880219529	0.4065395118230818	16.36503433197045	-1.218866598598628	-8.293237338499488	-7.097733512921592	1.86869848291585e-11	0	0	-2.700130504560817	0.9410533942770996	-1.35818934145993	22.70361515315353	1.86869848291585e-11	0	0
0.9503128561131143	-4.914188848290475	1.992190225664257	3.00736070497595	-0.2147071750579491	-1.917738291993106	0.1589680301973798	-13.19358705554443	0.6664679149133884	6.541429764574074	-46.91601375491649	3.211505123411045e-13	-52.34342262088639	12.97723823674364	-5.4318189807971	0.1028256141707842	8.565999130947539	4.308100447109965	8.541749355406949	4.426381666807031	2.409574428085186e-13	3.72545489023174	-2.627584914012306	-11.40391688222608	-5.622566886840888	2.4866640613914	-1.261643278643988	-1.65820303682308	10.29842794672519	-3.006613976720866	-25.05170645903795	5.84917091098474	1.359648236217636e-11	0	0	-12.69045016924756	3.907715625302694	-5.315785200756913	30.9900197231339	1.359648236217636e-11	0	0
0.9672558844730554	-5.536541428778454	4.351511849203201	4.976126970334541	0.2835001110803643	-2.179885636509241	0.1191203358633874	-14.08848585151221	-1.912264902727542	9.214710797090985	-42.07980176877387	-1.248335060867051e-13	-46.48872320693837	-23.76281220984621	5.412928867592032	-5.43476348421312	9.572917792555153	6.309869850204725	9.600929114625142	7.22607118332103	3.961953010480022e-15	6.036710783564807	4.196195099706749	-6.068300491564674	-9.522683997661723	4.086580329821821	-4.455701118014542	-3.526325718528842	-8.800278384183997	-4.475663557796733	-38.26138584789773	14.66252472884745	1.624266257271259e-12	0	0	-15.6997346316988	6.330750209325227	-7.298528274822504	34.2110249296642	1.624266257271259e-12	0	0
0.9816312594138312	-3.927510096659661	2.275043097047992	3.718988944537606	0.3794727047373747	-2.109463408671398	0.7246508437071336	-17.08156706174305	2.38672183225869	13.6797422515618	-41.12730459391235	-3.69747387413506e-13	-38.55953785893638	-20.00298098047268	27.4442902775731	-2.014131217663098	8.692250532707757	2.402587373540084	6.68145262617465	8.293881826034584	-6.736937404417915e-13	7.511530049105834	0.294189135354614	-7.759965200217888	2.678268610014114	2.921967942631374	-2.812248290803834	-3.052778158767879	-9.089941381772036	-2.44778862196923	-19.02191581084681	35.38275549725823	-2.244565227033267e-11	0	0	-9.044669186987932	4.697581384067907	3.029225121973651	5.754059646830307	-2.244565227033267e-11	0	0
0.9856000000000004	-2.480632626263108	1.643138912577525	3.384691381392625	0.2379771890830724	-2.060136302985685	0.8062852350876258	-18.20123369476993	3.461262456601991	13.8225751517424	-33.46629047749739	2.780335194039296e-13	-35.80181171923637	-9.140967732060993	19.72615022236498	-4.11963212701396	6.462223656588804	1.953306445022009	7.13634507533219	7.772726756483216	-1.464775670948553e-13	7.852358145106378	4.329908826275553	-1.015411613467776	3.044908068373192	1.83238148473572	-2.447605517466232	-2.373892950725516	5.715999297635118	-2.380320509724687	-21.96934101152044	20.67188816400155	1.566558005049623e-12	0	0	-0.6359799623723128	3.679579388651377	1.967375113455422	16.92089199465855	1.566558005049623e-12	0	0
0.9951128561131144	-3.909601872063547	4.714505792753712	5.909923616858858	0.7249715400021139	-2.265296441913197	0.6730265765550381	-17.1775910309939	-1.911233463382809	12.86365168299528	-28.62793154653662	1.420021659332645e-13	-28.13845931608096	-0.2671562635980234	4.973046168900135	-15.11995261834998	9.088326106724367	5.031629429241379	11.29819392930702	9.613989733933167	-1.39089032607952e-14	8.579492095078209	1.465498402322453	-14.36869752593938	1.89571111358661	4.462115955310191	-6.028413319343811	-4.770018838629379	-16.94997251605239	-3.48634554362727	-26.04240911413381	49.98136731446227	6.880554626064455e-12	0	0	-5.729142211521686	6.807016825511074	-0.1128015456478687	6.412167937265943	6.880554626064455e-12	0	0
1.012055884473055	-2.160057693180157	6.2931449418239	7.438422599794373	1.366190895702817	-2.176339198905375	0.752058581952584	-14.66885630928035	-5.554065585203313	9.706822250358062	-1.206562785739897	5.683886536597782e-15	-10.9534443988456	-17.10932073517239	0.3871835057872981	-20.23460271588103	8.450496537549457	5.854101541089194	10.87842253702882	15.55858667665718	5.53362309813217e-13	9.681114535209975	13.63576792503433	-1.314014185550452	0.0006378348214014506	5.357564360911163	-8.54256013137492	-6.34594417703021	-27.77250703663679	-4.459121269372278	-25.82156713954458	69.54644970498248	3.295027560733159e-12	0	0	-3.642173587157624	9.145782524614475	-0.7461480559889502	-0.7324298125432038	3.295027560733159e-12	0	0
1.026431259413831	0.03589322219583796	-0.4108919781876932	3.974778935907887	1.545744842395969	-1.830500506083975	1.714598479468765	-11.18252251579445	3.938921896652446	5.483142118665904	26.05811570789437	-1.170986683254018e-13	6.366354786696422	-13.00786155552539	5.645196904176611	-2.016552364279711	5.953668959867291	-3.794937112936684	1.042946795299882	15.82293761349345	-4.212665034736004e-13	10.5616452579805	12.48721805255762	2.157167316838557	6.903670366801995	5.06464962462638	-2.774922467172767	-3.323948346049858	-8.149309357008999	-1.939166386286078	4.753854482995153	60.29927443412818	-3.16366204828193e-12	0	0	1.594939032142911	5.032304455235187	6.561638592371882	-11.27042751301943	-3.16366204828193e-12	0	0
1.0304	0.4207979427998565	1.140372925062868	3.984215764254582	1.202645176750769	-1.6997727113804	1.589698547821294	-8.678772515440578	1.581795724526509	2.485366273075291	36.92771681900066	-2.285925941939872e-13	11.3937289013535	-4.147202603899132	8.164840262492438	-8.463119825311258	4.783106816630798	-1.170794361740883	4.215918349320501	12.21957464137544	-2.16795624390223e-13	10.81260920749907	3.002678848960169	-7.355252323607651	7.262220200316668	4.436922398124908	-4.661429757859969	-3.432021750372243	13.2261077424277	-2.490805838218334	-11.16842816368566	50.75325276072581	-3.931247016036584e-13	0	0	4.894426017372954	4.768156878244195	4.903484070293692	3.35267594102478	-3.931247016036584e-13	0	0
1.039912856113114	-0.2842116615364353	0.3062777704654798	5.199849592762477	1.933402996268144	-1.696890102801623	1.671267726363875	-5.774525472183022	1.563107309519405	-12.82174043929734	51.88578686884404	1.619605411586592e-13	23.52928799417548	20.65902464421312	-8.095087667702698	-11.54530697267212	6.121343427389925	-2.762159023724234	4.458864224709966	16.41048851866134	-3.213392249990732e-13	11.43288067100439	13.28989664111538	0.371437250961268	4.151000283730045	7.266148731856694	-4.156650162682083	-4.11102914806644	-18.07153825808577	-2.517247494210013	9.0691581033822	76.06126320989452	1.589461182092742e-12	0	0	7.38352392252362	6.615704965474426	3.753156313335438	-12.05841026401664	1.589461182092742e-12	0	0
1.056855884473055	-0.152836704618211	-0.1769181505711215	5.96063199518567	2.335535656795165	-1.219119198044481	1.647938380409447	-0.9306602089646097	1.747279207339886	-30.42030557304697	74.74443017522414	-3.429267783296131e-14	43.83169250844924	1.228879402957418	-11.52344914233129	-11.50469403739326	3.75547113501732	-3.825650631165376	0.8733812404256419	14.00022889140683	2.964059487374988e-13	12.66645563863462	15.17741105790598	10.99146979619655	-1.572623031569883	9.082256929846436	-3.927268368519673	-4.578020125586928	-21.70231315581842	-2.933652185734613	22.39707890453854	92.1715234892809	-1.851099585379789e-12	0	0	10.8891151225792	8.202787679120405	2.447815060222585	-19.3694704181979	-1.851099585379789e-12	0	0
1.071231259413831	0.3693859626065407	-5.843482787447764	1.25555103880806	2.229040839203877	-0.6154449886639382	2.238038430764933	-0.6553146739183231	12.55764491341957	-34.51778822494614	77.22750369907834	-9.805706011061079e-14	57.78126625510957	-11.16729465911846	-8.913515264363562	9.510828156238055	1.758258588155414	-10.49769239048769	-4.545554891015681	9.490624235018627	8.019514225349748e-14	13.82621554401295	2.784266894303418	6.016412111988416	-1.623613564012568	8.393673978374119	1.652405691400057	-0.9009227088956886	2.738317724211274	-0.8870939346472293	33.10482144038556	59.47440927621873	2.614342362174125e-12	0	0	10.54868141972075	3.199360677090451	5.680434444721362	-7.543972419343602	2.614342362174125e-12	0	0
1.075200000000001	0.3713391530636581	-2.018430051434126	2.88092839816223	1.716393705499739	-0.230219473328084	1.867822151019318	-3.674825210910032	7.69671191535153	-23.59937035410558	64.68842180790307	-2.840603521274664e-13	60.84054025751689	9.158046304728652	-5.485382468979454	-3.814187069322332	2.2502108254883	-5.695800711786894	-1.40242909382512	6.987023930847207	-3.079337111927986e-13	14.18844767670661	-18.76554716285691	27.10868709195994	1.897367051287924	6.620067515393276	-2.007644612494652	-2.401722460864502	19.5613960001032	-1.75231519118282	13.4828638352778	58.27806974801884	-1.165027006934696e-11	0	0	11.42596178274781	3.945899284588975	5.627324309565923	-0.8525966981062716	-1.165027006934696e-11	0	0
1.084712856113115	-2.216247308305665	-5.614087478287305	3.847541226460423	2.564388839115495	-0.5846700851803099	1.849359323187344	-0.2342266669485431	10.88187514475055	-36.35826488667013	76.48321259895947	3.114256189082929e-13	66.68855925234526	30.82355707553153	-5.511029366740054	-2.059029695712153	4.606123641639515	-9.960675927216	-1.133797489684349	12.02061187789002	4.472257503619806e-13	15.05924343837878	19.69871595591228	-2.537796141921369	-8.935179855084135	12.15909255326028	2.042923546991407	-1.506808404574059	-8.192182306042564	-1.500830888869777	37.74140178712453	65.97000545830099	9.989628357743812e-12	0	0	15.55412347387109	4.829915263520915	2.654739638736527	-6.620942797952233	9.989628357743812e-12	0	0
1.101655884473056	-2.29763360233391	-6.606181834966041	4.554165764844742	3.113038955382543	-0.1326264918992532	1.637004311732694	-5.92697434855365	10.81925133247884	-35.20963958142514	61.26582192623253	-3.037459438726635e-13	71.09970146545999	5.81127978921992	-23.11842552350774	3.747901807395993	0.8424205939288982	-11.52557276413788	-5.64213701706044	3.163761576153282	-6.028853059565532e-13	17.10454241809313	-10.49079479704493	32.73968956295241	-11.95807233644839	13.06536791068058	3.883783149681368	-1.399284265638176	-12.6080921113056	-1.644001821380252	47.24994935834851	64.24202681152464	-1.354243595278903e-11	0	0	10.74259892992392	6.12895276148333	0.8167284860356427	-14.08625710226785	-1.354243595278903e-11	0	0
1.116031259413831	1.080889762073933	-6.118502610483638	1.056166991119637	3.4319367377633	0.1370107973417382	1.622775057601479	-12.26060568034559	12.68791688928291	6.525699193150203	42.3242341547761	-8.913082522318603e-14	70.33057243206277	16.61114286062773	0.6898799450979314	23.25467832004639	-6.251187379261951	-10.7532322065538	-7.582994220527302	1.372977210889915	-2.461791670450626e-13	18.71115601786182	39.91220313630043	-28.97868596408544	9.340509699249955	9.436851799174415	4.648628146653166	-0.218003282416028	1.634511742028682	-0.09372623158174714	24.87793791971373	21.91653448340103	2.683886612460363e-13	0	0	9.77232588908525	2.348862188938851	4.209939333854872	-4.263826511515499	2.683886612460363e-13	0	0
1.12	2.396439942912193	-6.125977134323327	0.9187953312353239	3.495335262794276	0.1923755247480906	1.625429205453885	-14.23845823275851	12.79418581752813	7.955345096030321	36.19150170969574	-7.209290671705186e-14	70.28526163967288	25.15005933440425	12.94279352049277	23.99045716618765	-8.757308748015243	-10.7525890865869	-7.627532292641809	1.581159607113876	-2.186308677190238e-13	18.75665629985756	64.6114329431571	-58.92704621850736	10.08602597489259	7.880590722054397	4.69708456718389	-0.1642885988352623	7.893452655086891	-0.03015934442297481	24.16990973099763	20.40229448309075	1.14901271497912e-12	0	0	9.885048958610607	2.198774529465	4.336482472306608	-3.88993440351095	1.14901271497912e-12	0	0
