DataType=double
version=3
OpenSimVersion=4.5
endheader
time	right_leg_1	right_leg_2	right_leg_3	right_leg_4	right_leg_5	left_leg_1	left_leg_2	left_leg_3	left_leg_4	left_leg_5
0	0.002602848078671727	0.1049149334762403	0.00690926747342413	1.857214476789607	1.131387966493135	0.003657638436179944	1.115851260279696	2.798678314862131	0.009492920112311509	0.4733140164033882
0.009512856113114032	0.0005105843898638441	0.06117128908229752	0.001081306190783948	1.73706625317366	1.223609413557647	0.0009231047814122205	1.442246178287397	2.883386217689103	0.002484175159329638	0.4355174363480856
0.02645588447305514	0.0008154048798321158	0.02037423125032234	0.07975931674359682	1.68380045693812	1.123004370423577	0.0009034548311728229	1.496223156840951	2.842360967885011	0.002603626842986984	0.3632979751966117
0.04083125941383081	0.06340575050396514	0.1007718843748808	0.0291433213592196	1.475538204241762	0.9747173738331441	0.002222018718025076	1.695307574767101	2.594939961406268	0.02316483677562253	0.3497172979676382
0.04479999999999995	0.3292241460743846	0.09940687063925857	0.04671076340961822	1.238046996153862	1.013123747748925	0.008402487523018641	1.645543714815517	2.623255152557062	0.06755892325432633	0.3874659016699278
0.05431285611311398	0.5099854693114551	0.03615850283961208	0.003748212080713742	1.1614302195707	1.148936667443672	0.001800067671422489	1.826102005124314	2.317519126886641	0.009073896470644272	0.3491387960685621
0.07125588447305514	0.725856691669737	0.086092361725286	0.003552013301638901	1.195138275404193	0.8561605679917745	0.002150733599359355	1.95789624069501	1.987574119951795	0.002438644373502719	0.4232029923416283
0.08563125941383082	1.012108506809613	0.1088576609387228	0.005508722537765465	1.405648601789901	0.5947734308635217	0.005098427611367028	2.034078667820245	1.661462720030251	0.003975051124516682	0.5425568125904228
0.08960000000000001	1.106493690334783	0.09809651702579369	0.01855670737015025	1.372339263094596	0.5281715395591133	0.0284911991712029	2.024321115951464	1.650015220826086	0.01696874860381836	0.5912229998221061
0.0991128561131141	1.454136296377765	0.06868383492142538	0.00387248488041525	1.379192579563536	0.4827009222150718	0.006175536243858025	2.089937914576935	1.298719743618926	0.002632749940220336	0.6732839752495599
0.1160558844730551	2.094575090047995	0.09262671058464456	0.003505843493189609	0.9810758196834062	0.5752298329487386	0.09026650856372596	2.093502735199116	0.8764374759903334	0.002242476167475971	0.9077372442601881
0.1304312594138309	2.497317481184816	0.2106007511792205	0.01377096936448297	0.6777343252929837	0.6361991980332533	0.1049959525452912	1.909468149468499	0.5221853879657771	0.003913489254241398	1.148480168926896
0.1344	2.51011651083469	0.2392916842335335	0.08258342209555281	0.6737117312511733	0.6577334668270645	0.542066465150202	1.778618695528331	0.306443031763055	0.01289089994670434	1.251368892626792
0.1439128561131141	2.666114696053057	0.254244545336725	0.06118263019055803	0.5093301891519664	0.6193203346669405	0.06880997785764363	1.644327972139155	0.1442989350706254	0.002531937002935081	1.328771360953621
0.1608558844730551	2.872689674839661	0.2642645667861467	0.2087722534826622	0.3287596758658102	0.5832392392079493	0.0366143787719686	0.9777189914534947	0.008646236462226396	0.002323198947013161	1.602169136955
0.1752312594138309	2.971416098749177	0.3187667519461401	0.4594423421959428	0.2309390838477645	0.5581031704306545	0.1158853093171554	0.2440089949469737	0.01782871002716657	0.004056929195078496	2.081696288193319
0.1792	2.946690254843945	0.3180613972668089	0.5974687033386017	0.2730169992658444	0.5484379603699079	0.305596290413999	0.3091539408501687	0.05601492758593806	0.01403541720325308	2.127041286883953
0.1887128561131141	2.924305937598448	0.3259161327948821	0.7027949692928175	0.1675491373798881	0.5177205877064068	0.243583184692703	0.484206403719087	0.01868441133963028	0.002442195326284313	2.183630566671654
0.2056558844730552	2.840509437299225	0.3701244433558344	1.068030310231467	0.1097318852296736	0.4235018844887861	0.1115204338821138	0.5561786553218875	0.01596968339418669	0.00175645405150604	2.236665934325975
0.2200312594138309	2.709905150522886	0.4279768902900818	1.420225803430877	0.1140789839985876	0.3485006155279438	0.05201520971474149	0.4237843553718621	0.02108677264745573	0.002804922786073583	2.249309403534162
0.224	2.673447176058056	0.414609767656045	1.606364400553337	0.2054982309470441	0.3189711386986067	0.1973504175288489	0.4063252096481129	0.08820367912293657	0.009807104763890351	2.182782030053102
0.2335128561131141	2.554006203382	0.435410474252282	1.697472792108321	0.08113636878308039	0.2765940540864831	0.02257426089195213	0.308091801956401	0.0168237856721003	0.001731329423018124	2.234503612006853
0.2504558844730551	2.406399414395711	0.4719926414708686	2.010476725963988	0.0433655901723089	0.1930430947331923	0.02103115336637095	0.2104516541211874	0.07402196690001349	0.001383005496863987	2.136796851742415
0.2648312594138309	2.299146184695936	0.5130507200769525	2.212510568722046	0.03768327582313802	0.1428632263266767	0.03299907080667185	0.1961546641238119	0.1644055995626443	0.002395685830171246	2.025937850495387
0.2688	2.29376800519566	0.5018356050862121	2.34331313886111	0.1057920248051216	0.1567616576698585	0.09537771941600591	0.1739428044221274	0.2285081827494846	0.008564885118752308	1.956802894863703
0.2783128561131141	2.210907649311683	0.5209422948859856	2.338247595077278	0.02307063516746766	0.1248595438954503	0.05873670288584431	0.1181388189820423	0.2531800015702287	0.001577798084114512	1.915931237270231
0.2952558844730552	2.155440916162846	0.5640498510582761	2.433014275506426	0.01862886366123462	0.1282185239925129	0.09024368044226526	0.05888787285132402	0.3719135151151569	0.001335300555121322	1.769835588800646
0.3096312594138309	2.112135798841596	0.6054317319236198	2.415639274787542	0.02675711401048186	0.1602152286420599	0.09026458385238544	0.06024073089585347	0.4393498635986432	0.002414126661789417	1.661168144524912
0.3136000000000001	2.103729114896194	0.6032716942132046	2.445356348877038	0.05852931035281372	0.1988916838863011	0.1414325198703556	0.05374178281915487	0.4500304801897243	0.00871797576245914	1.604207040404888
0.3231128561131141	2.094442442109421	0.6266953670640136	2.38786022465945	0.01973009645051249	0.2312685583283765	0.08391119764259967	0.01814815194218866	0.4347168844619044	0.001632637776941337	1.555743140861269
0.3400558844730551	2.074788948290739	0.7058862334736462	2.301164048676502	0.01880435361799204	0.3400973500111268	0.03934417457823435	0.004496137714903092	0.4014363731943273	0.001418617017655777	1.42553621690452
0.3544312594138309	2.027356422412506	0.7731870382134769	2.172928266863621	0.03127538820731068	0.4639121995825848	0.01058428880424689	0.02189852566787032	0.4009803052090559	0.002737670166645501	1.323940312567591
0.3584000000000001	2.007431353402947	0.7762873985210934	2.165318358348439	0.05995546199119328	0.486336104028898	0.07990120634483587	0.03248431589640077	0.3835954865227879	0.01071798928527379	1.2692359678212
0.3679128561131141	1.97925278615041	0.812718172584427	2.087557751956052	0.02866531364630642	0.6104081168991513	0.003461103992542291	0.03107319445509038	0.3636952481295239	0.002621469533574228	1.221805719491429
0.3848558844730551	1.862802924471441	0.8975000466834517	1.987572587168511	0.03281210873497109	0.7967423398753422	0.002482179132005768	0.06390767550676735	0.3687347404402103	0.01417615849040033	1.098340491859004
0.3992312594138309	1.713828361174152	0.9523615558346474	1.906509116288432	0.0464839233986245	0.952242821325628	0.00428494710131666	0.1207377522284334	0.3856871597604278	0.1322019056971966	0.9934100969474393
0.4032	1.669124293579134	0.9535860310212643	1.930193463009111	0.07862970646883394	0.9825831938235288	0.0159606592648922	0.1348258775160858	0.32972641300017	0.2384078026371466	0.9386758001581041
0.4127128561131141	1.540841466967138	0.9783784256008463	1.88988804239759	0.0467561196058055	1.093093376844939	0.002590240899157159	0.1508010605382184	0.3830845092962471	0.2951696552277703	0.9060379127414189
0.4296558844730551	1.30862754491681	1.006511936470958	1.945731063353117	0.03603321710112617	1.234590749154671	0.002045171350288477	0.1510570144636345	0.3519693060279012	0.5259977534911311	0.835856748225142
0.4440312594138309	1.111325411514466	1.010815231095425	1.977376211092975	0.03150869705366777	1.315862647676532	0.003705048566193802	0.1292031937147957	0.3547751488092245	0.7329605285387881	0.7753598443466672
0.448	1.076474529069201	0.9893519811440967	2.103898714616941	0.06693880036038635	1.342627666019778	0.01237046474663916	0.1330827121849634	0.3954563628827854	0.7705552125689756	0.8254672435590873
0.457512856113114	0.9169948864679027	0.9898336941990884	2.065125185959062	0.02628554505199521	1.356323598531624	0.002361663391447166	0.09573856568265704	0.3141800910879011	0.9257035299836618	0.7644458128042926
0.4744558844730551	0.670449821037031	0.9863528867683655	2.229984137769509	0.02803228479650333	1.369270706997103	0.001711386896471545	0.07101441539897468	0.2607874063269042	1.142142486569539	0.764445339055289
0.4888312594138309	0.4932891831605036	0.9964478184119034	2.358529360817129	0.08646462228252361	1.335592374127326	0.00259691884915636	0.07264041127699183	0.2942166969154333	1.263257238129559	0.7688363352755641
0.4928	0.480636269529967	0.9701441434210833	2.50769487964621	0.1184067236837167	1.327000347123146	0.00831796087173675	0.05576428175937043	0.3916836624558204	1.291892277476239	0.8317301302727831
0.502312856113114	0.3407458582932411	0.9932036875160124	2.469854874787394	0.09347526173439125	1.272428697190131	0.001552964602399065	0.02750047442823433	0.2373312441079704	1.384736716436358	0.8237647198717806
0.519255884473055	0.2162804683842082	1.003986660325064	2.626697188570551	0.05942118001556373	1.15517946952143	0.001219385094275438	0.004601490852414791	0.2211125180428421	1.445934148012887	0.9068301367505329
0.5336312594138308	0.1715061546155381	1.047695718311114	2.749404617953657	0.06976939607491772	1.027218906293137	0.002264623083934047	0.02145329564784504	0.3209735036927572	1.447410417744627	0.9350172503680172
0.5376	0.2141935202482462	1.034416573980035	2.863109912987359	0.09226248665852843	0.9848536631473541	0.006977937693596558	0.02765220816662506	0.3322317035147905	1.419135042986754	0.9754512053248616
0.547112856113114	0.1469096312478629	1.09676186097764	2.78900844212933	0.03724123895434595	0.9037917708709022	0.001756077373311626	0.04172952562992638	0.4173875286213446	1.457516638400487	0.9636581132881759
0.5640558844730551	0.1453719355659829	1.18660423423804	2.85972452776396	0.02518693796648552	0.7696790659806885	0.00180700070086992	0.1280116634713639	0.5461613886251805	1.351830725629084	0.9972438902031762
0.5784312594138308	0.1579610296544942	1.297788235028113	2.856085436946979	0.03874281130907153	0.6781954132610224	0.2040137568889868	0.1954598388403292	0.4787515981172676	1.170298162715249	1.074497328488399
0.5823999999999999	0.1963836139110021	1.310422935022384	2.869229194140713	0.07904605805865028	0.6403726301410382	0.1458738951833869	0.1730179758644432	0.3661332886380277	1.282617905284937	1.010062491107054
0.5919128561131139	0.1425526768174033	1.415333649774124	2.675563679226869	0.03351831546257067	0.6037540655448144	0.01887112946794911	0.01676128843187374	0.3824347184466469	1.300287597795788	0.9883692668028141
0.6088558844730551	0.08098934092923928	1.583681327777437	2.423296424575701	0.06851853289102117	0.5630747992716136	0.1965821303041215	0.2373985004585659	0.230593126678448	1.292567394888447	0.8251952619282372
0.6232312594138308	0.04385106085090485	1.676799098886719	2.177875452585921	0.140980720622311	0.5596187122953191	0.6109067575798485	0.1903012908133848	0.2053470913650503	1.308462851825564	0.7555046678937112
0.6272	0.09001106897145129	1.679078725275917	2.135048463927627	0.2113636645750185	0.573828010545629	0.6989962429744397	0.1842858895519974	0.1397762356096885	1.22679562294116	0.7512619767017545
0.636712856113114	0.02852005818613624	1.741970145427069	1.80088748568507	0.09382281167636997	0.5791210660469988	0.8935561687268557	0.1653240618395335	0.1603405206460753	1.305371616698699	0.8423814527962961
0.6536558844730551	0.02248098452446712	1.795953668691008	1.383931857122971	0.05856882631938998	0.6058048013741146	1.118782605483721	0.1618782352461139	0.4468188659706457	1.422830178832275	0.3990275510018497
0.6680312594138309	0.02923387137847922	1.783626085144769	0.9977411179988955	0.04117076086560179	0.6891922971263007	1.754881907973467	0.1676419710950308	0.5999062597776578	1.328188041786891	0.3231347785936318
0.672	0.09736484898319733	1.755815568289312	1.069451955048677	0.1300301597048916	0.6913116509420405	1.813752672788211	0.163203125986918	0.6653807725444522	1.276002349500994	0.3741544836893942
0.6815128561131141	0.02933836251272482	1.755763353031482	0.6663948679508245	0.0304565629015956	0.7851054738718357	2.07541998329501	0.1705363679747931	0.848008363013326	1.213425907122558	0.3157675966749292
0.6984558844730551	0.115297979540653	1.707915146421355	0.3616901542899313	0.02941755459812079	0.9004882149150468	2.480676627830462	0.1980298599836932	1.044420526207986	1.051346485823563	0.2932769446286878
0.712831259413831	0.1107927977060435	1.631375661822785	0.189186968705533	0.03970306852522398	0.9987818359841931	2.756541002200116	0.2053242243534763	1.205825477392313	0.932084137349209	0.2753844958274136
0.7168000000000001	0.1919325017302818	1.594249995060748	0.4434832125843275	0.1522412478638229	0.979041178807452	2.812849291337065	0.2080509578880454	1.244707585896603	0.9163287463087419	0.2825602247637944
0.7263128561131141	0.00713790229260969	1.240805580810409	0.1150578740508665	0.04731081749976607	1.184696525142092	2.915632713192231	0.1904425314534715	1.364179885412287	0.8252937989473184	0.2701223307648366
0.7432558844730551	0.002245954723322896	0.7294661924282684	0.0370273234955345	0.1378704941089683	1.316418900658995	3.024051154927056	0.1704905215711641	1.592977867193738	0.7140680705907547	0.2604977152415238
0.757631259413831	0.006479718279573278	0.5850268972396497	0.009535901331874541	0.1672923070306256	1.432746787685931	3.018483744517009	0.1567033842345831	1.825661203026044	0.6669452796788269	0.2504164168434926
0.7616000000000002	0.1654680489462806	0.4803570640435106	0.03351835417870941	0.111783872803457	1.49155304714502	2.990717717408903	0.1633126943997247	1.858868547917545	0.6277179292578525	0.2677462323811222
0.7711128561131142	0.01543584700169731	0.4930425758497332	0.004283484843373486	0.04222149267335507	1.68309991551573	2.93051258530686	0.1331493940794148	2.058815057721571	0.6245608912917167	0.2376615004266656
0.7880558844730552	0.01783482478391552	0.5029302644411322	0.003677964129859213	0.04426956304409302	1.799459581639995	2.862577893867735	0.1088430447075881	2.339746785620536	0.5663555862109213	0.2030571201217111
0.802431259413831	0.03672683456014526	0.5269941486338423	0.00751479228617935	0.05683044107717627	1.885830594127671	2.786471413804073	0.1155050822645025	2.568369815705709	0.5258560408216466	0.1700386128967226
0.8064000000000002	0.1602996163222113	0.5351026361854654	0.03218810926523474	0.0903634924181862	1.879736394363022	2.74389511971612	0.1324205086334533	2.575874117564052	0.5112710428793568	0.2011394336145598
0.8159128561131141	0.05971193780546448	0.4996995341252592	0.005905434037854818	0.05338939309930968	1.99720131716372	2.65573635410511	0.1139838515753908	2.735462441925677	0.4833368777455496	0.1406241719570529
0.8328558844730553	0.1474296066700802	0.4602724418262767	0.009344098312863203	0.05000202789609087	2.094271873783347	2.562723405668821	0.1163801761951069	2.896451951235405	0.4300174100601026	0.101986834964106
0.8472312594138312	0.2035099156607672	0.4684256353240048	0.06185650015385047	0.05198782075663733	2.136616703039866	2.458943859030275	0.147952319337632	2.984887146532897	0.3960680774664045	0.09616752644993909
0.8512000000000002	0.2687391576706331	0.4560251896210579	0.1673664841271654	0.07637180413001854	2.141366295740299	2.412760195491428	0.1724817266179555	2.960552161770714	0.4011993437493206	0.1405547703140311
0.8607128561131143	0.2712207862599208	0.4086291114204545	0.1364345341868702	0.03869059405043984	2.159401888732825	2.316285232054863	0.1682394950265182	3.017020331884418	0.3547450978207234	0.08564831748083446
0.8776558844730553	0.3414359447034059	0.3327841512640166	0.2223758422031725	0.02427996159525403	2.145985058385281	2.169792918518873	0.2088316861079988	3.020146978218914	0.2983206760236783	0.07987287312065394
0.8920312594138311	0.3649013770027363	0.3134010370701645	0.2728983604447368	0.02120125217873881	2.09692166858437	1.993883899674911	0.2634507323605488	2.993876025574682	0.2607329298876007	0.09482772610955781
0.8960000000000002	0.3841797730617095	0.2965234536610399	0.312949703562138	0.04263791135163419	2.087934279573927	1.944913467935672	0.290767184714932	2.97457274617638	0.2732175301065158	0.1371056338407648
0.9055128561131143	0.3754307317760955	0.2137414442185728	0.3208863425460713	0.00993611897120239	2.045153998005387	1.787365878176057	0.2998000545789505	2.968708578310681	0.217921390428371	0.08833069017883854
0.9224558844730553	0.3537532595772835	0.115178588504107	0.3304981740647834	0.005517130711163887	1.950899071817483	1.523429550789696	0.3693032075026217	2.921947799277797	0.1698777148387185	0.07833131294276718
0.9368312594138312	0.3287814704641159	0.1008107334684984	0.2972488851042279	0.007145287448317106	1.852115061016146	1.307090631648107	0.4207292024660587	2.86011502559479	0.1425313979923644	0.08228146239080658
0.9408000000000003	0.3456257495829132	0.08926234889637996	0.30923643028048	0.02116863388063095	1.822109337404044	1.272067986464659	0.4326012934679451	2.829612259065428	0.1627356255536032	0.1238486639419714
0.9503128561131143	0.3087901825939561	0.07571816963061373	0.2284988193596558	0.003960760780962858	1.749643997596006	1.110499655773924	0.456325925332016	2.803090162092419	0.1165557518529949	0.06524356655207697
0.9672558844730554	0.29991093012646	0.1145700910835439	0.09011231793639674	0.002900781281668152	1.605851299047488	0.8462288714757528	0.520369222519613	2.695381670649803	0.1147467334864949	0.05448608558459167
0.9816312594138312	0.2923230360534515	0.1566775463445111	0.01598922919745593	0.005585537902748072	1.480823880893285	0.658274287679835	0.5903617371305625	2.599871930127761	0.1465549921704099	0.05918221151910963
0.9856000000000004	0.2914621967584266	0.1463518545044904	0.03119006782628464	0.05469744251001263	1.45678228264466	0.6649473091683528	0.6256978144582135	2.536306235336101	0.1730150269592681	0.09650034799622631
0.9951128561131144	0.2568909283665662	0.1343386622029454	0.005122539689957684	0.06477860197218099	1.382840164594615	0.4878861301360268	0.6627976222273437	2.530929149346437	0.1632419622424495	0.04905090373121901
1.012055884473055	0.1927457069967922	0.118520385217554	0.004140752999572506	0.3030931324752544	1.251295039406561	0.2584527660121347	0.750369604251433	2.456341278187514	0.2007197343771443	0.04658751140807027
1.026431259413831	0.1336551400293509	0.1214591201103845	0.008219268106810063	0.5496262524904889	1.145644099020013	0.1388528918074874	0.7990194976541796	2.429470113154987	0.2562412383725485	0.05467711490952443
1.0304	0.1403321148895192	0.1107790793363623	0.02746481245163324	0.6669701064929043	1.112415860032245	0.1780292893781885	0.8483557885387292	2.351827369260841	0.2616318950242604	0.09497008516241046
1.039912856113114	0.07744958863622121	0.09707969403085936	0.006068206514779462	0.7736850815708705	1.066143155582617	0.05069122221094968	0.8566842115217339	2.418120471738919	0.2685745738844112	0.04534422244698533
1.056855884473055	0.03182404247027294	0.08919064503675322	0.006200530808786908	1.033937381523423	0.966924403992568	0.03103140425143902	0.9032761430444651	2.410840690860791	0.2732417711804382	0.03905854499914341
1.071231259413831	0.04976331482451092	0.1085514718496432	0.09031615849418273	1.147693889193699	0.8944487657331415	0.04573393616998	0.9324788086117577	2.44376501951603	0.2700898636808926	0.04135346444556109
1.075200000000001	0.1233415544686612	0.05828073022561409	0.344779560251812	1.089613712835566	0.8402318816132963	0.09124127531823499	0.9639289804049858	2.399682744877935	0.2553566583130209	0.08540334375684289
1.084712856113115	0.06740264326938485	0.07074261606085308	0.135223532033069	1.285119255835488	0.8573220320350403	0.04904400124747265	0.9771057051388361	2.470816351260409	0.2277119504833731	0.02916828365528445
1.101655884473056	0.1207052453024114	0.03674596341131409	0.2553758867485119	1.416227857548102	0.8166387845745078	0.1145567169507213	0.9922083147544107	2.553583002050691	0.1684830026688839	0.02082891303775458
1.116031259413831	0.1895187598762967	0.008233392591988853	0.4706068400621524	1.476586846454283	0.8429785625007629	0.1726351904626835	0.9710155369951137	2.580662531027356	0.1324383656526154	0.0363865033624613
1.12	0.2120300548134662	0.0004145678690834487	0.546060206077863	1.484430924527855	0.860246638836216	0.1890634471878689	0.9602085804566594	2.580358068783962	0.1248602030057278	0.04383885511350982
