DataType=double
version=3
OpenSimVersion=4.5
endheader
time	ground_force_2_vx	ground_force_2_vy	ground_force_2_vz	ground_force_2_px	ground_force_2_py	ground_force_2_pz	ground_moment_2_mx	ground_moment_2_my	ground_moment_2_mz	ground_force_1_vx	ground_force_1_vy	ground_force_1_vz	ground_force_1_px	ground_force_1_py	ground_force_1_pz	ground_moment_1_mx	ground_moment_1_my	ground_moment_1_mz
0	0.07743415679899408	-0.08550595258622905	-0.01872678696576698	1.335839660800304	0.019297	0.5979748144310728	0	0.002872383881423402	0	66.85930458847582	745.3544143603619	70.72674206396509	0.9176646185742582	0.019297	0.3437407490573629	0	-0.8448227272860667	0
0.009512856113114032	0.04130489352266484	-0.04472901037981555	-0.008587919350912082	1.335799416005209	0.019297	0.5960463149610616	0	0.005398925706530117	0	69.07537264771391	755.7519937850868	73.11379664980029	0.9137749675626043	0.019297	0.3428796780053094	0	-1.253231955594345	0
0.02645588447305514	-5.47204372140992	8.174312215034071	5.312295132212711	1.221439776684272	0.019297	0.5485340340723193	0	-0.0006690136535788538	0	72.54141105174436	751.3967149751011	78.37000433827467	0.9099233512336065	0.019297	0.3407971100590375	0	-0.9543458139786538	0
0.04083125941383081	-3.518705257392234	37.7272541825857	28.64912158896902	1.214788173365712	0.019297	0.5546199834409283	0	-0.04806925659846195	0	75.48113296251771	731.952678594776	78.75027571371614	0.9077173573616045	0.019297	0.3390044591621816	0	-1.183533055956675	0
0.04479999999999995	10.20051970177739	51.99589630912973	26.37955535345517	1.214037284969123	0.019297	0.556290102745381	0	-0.1501500660461375	0	73.99881280413146	729.2212913903352	79.81855994117973	0.9065833377622164	0.019297	0.3386777485776604	0	-1.163637866313203	0
0.05431285611311398	-6.105954958731988	114.1248260720212	12.4738683778009	1.215203548877385	0.019297	0.5620824000634043	0	-0.8894837149371539	0	79.79975046548755	719.3183978486411	80.26219854431442	0.9025826879849328	0.019297	0.33839479179608	0	-1.016750337793018	0
0.07125588447305514	-21.26423020940604	325.0813673768653	1.054452103922765	1.240011232097934	0.019297	0.569779564226867	0	1.320612662222308	0	81.62268493889943	668.1338299870896	75.39900217987785	0.8942529984130455	0.019297	0.3390005297879039	0	-0.3462080143993838	0
0.08563125941383082	-50.58078420625727	476.8314696264748	-41.39016450034028	1.245369127114683	0.019297	0.5744272507048795	0	2.736409701964923	0	81.65257580696351	591.9539640067004	66.02979618975125	0.887670558951959	0.019297	0.3405284678996787	0	-0.1315253803790712	0
0.08960000000000001	-59.02207791159763	497.5602205203753	-47.59362610785449	1.244109089920823	0.019297	0.5750494039335525	0	3.034765161008549	0	78.19696323879111	568.9074037413457	62.35863111856013	0.8859790985218513	0.019297	0.341108383735701	0	-0.08049592928179949	0
0.0991128561131141	-63.15808920352672	517.5076455620604	-27.7716893116116	1.237619075197144	0.019297	0.5756664547857202	0	5.878987485486752	0	76.43408554674977	512.2560233831767	55.99283043696251	0.8817515626970117	0.019297	0.3424564915845685	0	0.1656398736273959	0
0.1160558844730551	-82.38403223661048	538.3945848427076	-54.44977972468816	1.225491451788668	0.019297	0.5760065180112941	0	3.32640005489531	0	63.74817234336911	413.0400875419884	45.27529569450123	0.8734944923630017	0.019297	0.3445424842832214	0	0.2676045141519636	0
0.1304312594138309	-88.16386256937477	602.4036008553912	-55.04846695379963	1.219921913909988	0.019297	0.577054807794302	0	2.409512536351653	0	49.4812686139509	318.0708336674555	34.88610082070662	0.866607834361338	0.019297	0.3455206287725809	0	0.2119442013177051	0
0.1344	-87.09401649577347	625.5315628880085	-59.44565742624781	1.218846133057894	0.019297	0.5775339973502889	0	2.246186477833111	0	43.92437838829078	290.3313331710517	30.27798995349263	0.8646661408934593	0.019297	0.345690848952396	0	0.1981261710580362	0
0.1439128561131141	-89.31173449020631	666.637807041271	-60.8180492668313	1.21414125848905	0.019297	0.5784203658140517	0	3.510366445716527	0	27.74659806081445	230.3078078068062	27.30328641475857	0.8594659109653491	0.019297	0.3463538951471642	0	0.2205184290978759	0
0.1608558844730551	-86.34669398350505	710.1572271927502	-71.86572510399394	1.20275538858052	0.019297	0.5793670973127403	0	3.49305167930937	0	11.36061794869768	124.8351709028452	5.226446723549005	0.8489931438475559	0.019297	0.348405565531599	0	-0.1920721192725043	0
0.1752312594138309	-78.47411697119041	735.3908686729674	-70.44966392521023	1.192408811861566	0.019297	0.5798593492071468	0	3.526800059091467	0	-27.41615462912408	29.57629121415806	3.152762935451184	0.8438987032071249	0.019297	0.3518008242623218	0	-0.00180261534319183	0
0.1792	-78.38835402077974	743.1179946265949	-74.34125624809874	1.189762606356745	0.019297	0.5800210949238563	0	3.127380348090298	0	-13.57607669130614	14.65003047536965	1.615602552400522	0.8460945237229673	0.019297	0.3478705012320326	0	0.001303329735395084	0
0.1887128561131141	-73.58878127449249	753.232635468994	-76.6112585768973	1.182928603780176	0.019297	0.5803350124091976	0	3.321665916434047	0	0.03852291006849327	-0.04247970265831694	0.01165473033101283	0.8093274181285068	0.019297	0.370734107179947	0	0.003295454950093059	0
0.2056558844730552	-65.77010407928121	764.8088668401614	-77.63851960778618	1.171528404346814	0.019297	0.5808416493891329	0	3.101580451541877	0	0.1670202210930725	-0.1804631030644011	0.02147714104835581	0.8172839792835618	0.019297	0.3732593272725684	0	0.001473429914902572	0
0.2200312594138309	-60.26395541434287	771.3934173955082	-77.42492255830786	1.163172983282184	0.019297	0.5813400374471133	0	2.873504464777517	0	0.2116388328867046	-0.2275241080539048	0.01686568586318754	0.8278843966906515	0.019297	0.3749157246955561	0	0.001542044858272561	0
0.224	-57.8624039789006	771.5383944165877	-79.15747181899148	1.161031202124049	0.019297	0.5814791735199107	0	2.449926530079667	0	0.2247438164344345	-0.2414838613307938	0.01630935660025941	0.8313965189150431	0.019297	0.3752947824776452	0	0.001555192693623828	0
0.2335128561131141	-58.09192280803775	764.8998268422134	-77.89860116327002	1.155477056953496	0.019297	0.5817069608368866	0	2.504736263701203	0	0.2514788466119964	-0.26979554386256	0.01111407606296162	0.8408181585446781	0.019297	0.3759986691885093	0	0.00136416106885521	0
0.2504558844730551	-53.86028422356281	758.062848119466	-76.19148783495831	1.146402472806636	0.019297	0.5821352617609941	0	2.094407787645158	0	0.2861057785928676	-0.3067279473355125	0.003780808458798559	0.8610133787582205	0.019297	0.3766912547700708	0	0.001058263528115691	0
0.2648312594138309	-52.56608229874681	755.2329335383173	-71.57623365590132	1.139267086440863	0.019297	0.5826083184272222	0	1.960957064462251	0	0.305890095485622	-0.327858286052295	7.49951610412847e-05	0.8812894102822301	0.019297	0.3766950663480903	0	0.000582492862666424	0
0.2688	-51.06763474328802	753.2393381117624	-72.16264216548285	1.13726817947698	0.019297	0.5827217798843329	0	1.630134049246281	0	0.3083756116317794	-0.3305080960165331	-0.0005271225667722888	0.887327570211413	0.019297	0.3766040301346915	0	0.000528778149975347	0
0.2783128561131141	-52.11905650013463	747.9470928616478	-69.83954684765322	1.132265824039248	0.019297	0.582988932798047	0	1.733608784446545	0	0.3094956578730687	-0.3317247518787649	-0.004459974933269349	0.9025736599866611	0.019297	0.3761437163322742	0	0.0002048948131029051	0
0.2952558844730552	-48.31963500742417	746.1905300506087	-65.71793894371493	1.123435610379503	0.019297	0.5835960015060951	0	1.764781702707679	0	0.2947542822660375	-0.3160911334256229	-0.0110061198725993	0.9322235591406633	0.019297	0.3744307608557917	0	-0.0003180311980519397	0
0.3096312594138309	-48.14417548700672	748.9820821347785	-61.70486417609149	1.115686660104844	0.019297	0.5842603252510643	0	2.111377418368759	0	0.2677554749554185	-0.2874014959127998	-0.01563563546403176	0.9596756432163622	0.019297	0.3719282017496671	0	-0.0008264390491958102	0
0.3136000000000001	-47.74708533129775	748.6402678552824	-62.26733005487874	1.113386844206259	0.019297	0.5844198099847627	0	2.031446747777011	0	0.2578387132887219	-0.2768353767916644	-0.01632604901858963	0.967584188145866	0.019297	0.3710490306002225	0	-0.000893477061896969	0
0.3231128561131141	-46.98888856618879	748.7839632972409	-60.75532174042729	1.107704274865972	0.019297	0.584809342212198	0	2.201134443917788	0	0.2312156362323859	-0.2485279170598094	-0.01832947251352066	0.9871010585863709	0.019297	0.3686111152585025	0	-0.001063841818496526	0
0.3400558844730551	-43.38498741710359	752.7355649084154	-56.70207117798143	1.097224149556755	0.019297	0.5855712011216903	0	2.688119422020428	0	0.1785867892325028	-0.1924836580493373	-0.01941896849851911	1.023651655782136	0.019297	0.3630819467820794	0	-0.001283686600610647	0
0.3544312594138309	-41.98774030368713	757.9991027650475	-55.75517776107706	1.087751576699636	0.019297	0.5862755676599595	0	3.168204405120045	0	0.1345850142923173	-0.1454251098202423	-0.017515652429251	1.056291978628848	0.019297	0.3572814759175831	0	-0.001403084642592478	0
0.3584000000000001	-41.56916368852461	758.3158889268046	-56.06822655263548	1.084948054270286	0.019297	0.586453916971134	0	3.32453131106464	0	0.1230408861921276	-0.1330162399787098	-0.01646679470233668	1.065539253873377	0.019297	0.3555234865785298	0	-0.001398905205718488	0
0.3679128561131141	-38.43944308849488	758.9396032857605	-54.4408943235552	1.078026279510457	0.019297	0.5868640083837454	0	3.602270568229136	0	0.09752052988322604	-0.1055685716786197	-0.01399509989692645	1.088021653940564	0.019297	0.3510998999735362	0	-0.00137786921142089	0
0.3848558844730551	-33.62878105214133	759.6121237496677	-52.96703165459787	1.065114965906124	0.019297	0.5875643113295831	0	4.022431848390769	0	0.06292729502733045	-0.0681915791241432	-0.009447855219225122	1.128740465514632	0.019297	0.3427242041653081	0	-0.001339573935544428	0
0.3992312594138309	-28.80636865684496	760.6547204029557	-54.47228063993431	1.053652930061811	0.019297	0.5881271593655363	0	4.123286922562931	0	0.04646976307806889	-0.05027794739934539	-0.006400113026908112	1.163241614213987	0.019297	0.3355715956857514	0	-0.001361310072193047	0
0.4032	-27.83419577932103	760.6841055921759	-54.35027279915023	1.050403173261515	0.019297	0.5882760322406824	0	4.205467954573803	0	0.04370392330533497	-0.04724013467549321	-0.005684474780994386	1.172636703652016	0.019297	0.3336636136574495	0	-0.001368406848084343	0
0.4127128561131141	-22.63021059256468	758.9785910659532	-52.61401218278112	1.042403737805329	0.019297	0.5885872248153381	0	4.435202073438361	0	0.04005210431322712	-0.04317974467447111	-0.004306266518782824	1.194674516877051	0.019297	0.3293473719964523	0	-0.001406267688973599	0
0.4296558844730551	-16.22348515433145	754.63216721037	-53.90545684366675	1.027863526823119	0.019297	0.5890358997080186	0	4.087229808186843	0	-0.3104515377040395	0.3366970738558071	0.04975694772108618	1.231309272091941	0.019297	0.3228913608289108	0	-0.01878714965496934	0
0.4440312594138309	-9.196559144779924	751.4250691801694	-55.50558795691516	1.015755683243334	0.019297	0.5894151634299385	0	3.742431113965899	0	-0.7586431918109647	0.8181314036824164	0.08829541184504391	1.258635004837537	0.019297	0.3190269457945541	0	-0.04315341316419147	0
0.448	-8.238316300897894	750.5777320049488	-55.67405572045013	1.012512686318583	0.019297	0.5895338555942984	0	3.690776284540418	0	-0.5545153967245334	0.5972682457157867	0.05922978514231791	1.265423574166885	0.019297	0.318254672304349	0	-0.03352834840728554	0
0.457512856113114	-2.537096036840854	745.946546908302	-53.95582225712445	1.004713143723829	0.019297	0.5897690683191338	0	3.584818569578551	0	-0.06964703251063595	0.07486454179040411	0.009710075012134896	1.280306301534672	0.019297	0.3169080635304518	0	-0.009365940326802985	0
0.4744558844730551	3.19124038362221	740.5495124244785	-58.29618468136258	0.992076724372257	0.019297	0.5902761850092012	0	2.435273871101694	0	0.08022113573026582	-0.08622125794236984	0.00616082514261213	1.301174302705889	0.019297	0.3162674829953046	0	-0.002544135934601312	0
0.4888312594138309	9.647408415996084	737.576135876056	-56.92460250684851	0.9830342934631887	0.019297	0.5909013764697739	0	2.404373747527146	0	0.09938940686894181	-0.1074513641051368	0.01330990624724365	1.313168286176131	0.019297	0.3172543644200075	0	-0.002931445115914084	0
0.4928	9.659247454200818	735.8424835897247	-57.44864523660902	0.9807473667743737	0.019297	0.5910962756037514	0	2.459490508249708	0	0.1035863590098595	-0.1123643069570648	0.01629269353083058	1.315654281885668	0.019297	0.3177451465799361	0	-0.003134538009060517	0
0.502312856113114	12.88289840196529	731.4488511010177	-60.18317195382987	0.9755552859269634	0.019297	0.5915727014539783	0	1.760721183835723	0	0.1084269365059973	-0.1189739133495131	0.02383228308908973	1.320188661930709	0.019297	0.3192513481886647	0	-0.003535823994955733	0
0.519255884473055	15.93338771536084	726.4691588684582	-62.47938991459229	0.9675523285238503	0.019297	0.5926153485839418	0	1.228709838235099	0	0.1065339104831717	-0.1221056913046072	0.03996629036491821	1.32317068364791	0.019297	0.3230376252630398	0	-0.004317074135429147	0
0.5336312594138308	18.19267172855049	726.255600203663	-63.26071943524752	0.9618823294760844	0.019297	0.5937547295169431	0	1.302291288307867	0	0.08789038377871281	-0.1139344213312705	0.05956128423802978	1.321295878995178	0.019297	0.3271996704982597	0	-0.006228171293149931	0
0.5376	18.07082971299838	725.4268993537642	-65.01731958083226	0.9604565006890203	0.019297	0.5941095922313542	0	1.301215732611628	0	0.07204425424999511	-0.09907444548019259	0.05820009220597162	1.320243773030239	0.019297	0.328462818197245	0	-0.00788520659907308	0
0.547112856113114	19.44211642497606	722.6645374360712	-64.94168278054254	0.9572589619024626	0.019297	0.5949978404828988	0	1.207071504990474	0	-0.06765335486429563	0.2578598399914204	-0.234051089779874	1.316943200694983	0.019297	0.3316819981447698	0	-0.04251779931992505	0
0.5640558844730551	21.00261938233587	713.9284308974493	-68.42742862084546	0.9520954505232444	0.019297	0.5967222126540599	0	0.9102477223471455	0	5.817313828968742	17.06885287274201	-14.80815641262322	1.207758075051024	0.019297	0.3819791161004981	0	0.004126633574885741	0
0.5784312594138308	24.09487172840679	700.2900431121689	-67.00083388818304	0.9477312528328089	0.019297	0.5981413189884366	0	1.361836063324219	0	37.41041938943822	49.36338021558343	-23.14058424803907	1.195214874675197	0.019297	0.3868846797623713	0	0.02525849497666766	0
0.5823999999999999	22.14811251683392	695.2696164648199	-69.48851686941829	0.9465125556687481	0.019297	0.5985356028806424	0	1.210241141218478	0	39.45892601404055	63.56852885076345	-19.11094293386172	1.192680353496391	0.019297	0.3863797611134147	0	0.1946722797001228	0
0.5919128561131139	26.85625489459295	680.7178409170062	-70.13606575297575	0.9437185020199605	0.019297	0.5994935936438233	0	0.8441876516612279	0	30.73427391164917	117.4361739208336	-21.0891960330014	1.189661268369152	0.019297	0.3833416026688308	0	0.7084272888322136	0
0.6088558844730551	28.74012396730053	633.5256643780506	-69.45443320585987	0.9393311508350737	0.019297	0.6009619857845986	0	-0.2540995790821912	0	24.69898048596221	220.3561769021032	-13.39844815015497	1.182998820837437	0.019297	0.3801670700807003	0	0.1754768382639782	0
0.6232312594138308	34.11853899900549	584.6980992372435	-65.85669301022638	0.9348367097685095	0.019297	0.6017769651054973	0	-0.3724367937998134	0	10.65954223461497	289.9705498442826	-3.014005639939993	1.177738139622919	0.019297	0.3783660685490918	0	-0.8091218768308674	0
0.6272	33.75119170702575	570.1447134716478	-65.7087945888575	0.9333997166491321	0.019297	0.6019292736380889	0	-0.4435987368169085	0	2.8814871250244	307.8649419276998	-1.988014567458072	1.176905128844421	0.019297	0.3777846345989332	0	-1.113226521999037	0
0.636712856113114	36.56497202719427	535.3275630376489	-60.507734700694	0.9290937145388963	0.019297	0.6018643296485031	0	-0.8353297719146497	0	-13.67268517971416	360.136706931789	-6.889111003168693	1.179997978461178	0.019297	0.3757835877951967	0	-3.238458547556247	0
0.6536558844730551	37.59124029641016	466.4355377464369	-51.19794584046156	0.9207051461333902	0.019297	0.6009195175506548	0	-1.413429193437063	0	-26.66045718603684	464.1185072944038	22.06638040623918	1.19404388664411	0.019297	0.3698104291775082	0	-3.448057500563529	0
0.6680312594138309	40.2812859132983	403.0135391653267	-40.61931957044243	0.9133662784014082	0.019297	0.5997423744357042	0	-1.102057666402116	0	-35.08503223384513	461.958675107867	27.11373299363589	1.185595994988058	0.019297	0.3695155376614833	0	-2.43693657556487	0
0.672	35.55389574299686	386.0297578345901	-40.28608745762015	0.9113987094489405	0.019297	0.5995596372833123	0	-1.069539722806431	0	-37.12123039553749	468.5433052768054	36.42360400151509	1.184600367993395	0.019297	0.3691529174880971	0	-1.403458797273771	0
0.6815128561131141	39.443108945353	348.7281260979969	-33.95576422485718	0.9060809620809824	0.019297	0.5993770559453814	0	-1.081350118158243	0	-40.95237526012336	487.4931714961058	44.13591123312551	1.181322335310454	0.019297	0.3682054401246901	0	-0.3338194502085874	0
0.6984558844730551	33.27871626049999	277.9752592384058	-24.02455023830515	0.8973423494551122	0.019297	0.5992433776040863	0	-0.7847451691739489	0	-42.65360765092635	533.0754695146784	50.98220426384882	1.172805441529649	0.019297	0.3667994999035879	0	0.5001287628101263	0
0.712831259413831	26.76903541299504	221.6516793263633	-17.42607366933983	0.8905955960982535	0.019297	0.5996502272223462	0	-0.4131432291859525	0	-40.61084878334897	580.3086018609866	56.37001216288795	1.163785922098628	0.019297	0.3658908747319914	0	1.141722055572547	0
0.7168000000000001	18.62031193604528	205.7435188996127	-17.08973329652813	0.8887664302341343	0.019297	0.5998269260842511	0	-0.326769441376797	0	-39.79099220541092	594.036587185541	57.56956880308486	1.161157478392289	0.019297	0.3656730466955631	0	1.244028546220679	0
0.7263128561131141	13.56689459811497	165.3669689369621	-10.46200507543413	0.8834646726407961	0.019297	0.6000391079975805	0	-0.1071518300286388	0	-37.90865601605522	623.7486174588639	56.46251072223083	1.154001648510374	0.019297	0.3653578668947944	0	1.159458713626496	0
0.7432558844730551	0.2361292927548456	84.09341903114374	-1.324944614196971	0.8735010080935136	0.019297	0.5997222159411909	0	0.1902004727951988	0	-31.94078951987986	666.3916959440711	58.09969770698152	1.140305460394945	0.019297	0.3651262657234175	0	1.526808409574566	0
0.757631259413831	-8.651386286380854	34.40126501562785	5.196408202347424	0.8658025318481726	0.019297	0.5995281013849953	0	0.1175189345630947	0	-26.78926839312585	704.1822164243589	60.56148614102761	1.129436852104219	0.019297	0.3646699473864919	0	1.618414735364107	0
0.7616000000000002	-9.9925474227107	24.60447596238333	5.664136933714797	0.8646980230079276	0.019297	0.6015213178198463	0	0.05322145342624435	0	-26.41241371527243	716.3422868576804	61.49565994174795	1.126693139999662	0.019297	0.3644322671544853	0	1.443879613038046	0
0.7711128561131142	-5.086031235768622	6.160835828819996	2.139590623690385	0.8643256942746697	0.019297	0.6065097787478804	0	0.003443667800567027	0	-22.9289848891751	738.9540633184098	61.83331852497242	1.119669212275727	0.019297	0.3639657650655375	0	1.25535409050114	0
0.7880558844730552	0.1341650867621351	-0.1445030880852083	-0.01189805148833601	0.8275427011626113	0.019297	0.586870985756482	0	0.001122563741042717	0	-17.68975129980221	768.6262948058813	66.64295870527616	1.107394715345543	0.019297	0.362992530835292	0	1.101766826397762	0
0.802431259413831	0.1780393927851706	-0.191207404345598	-0.0113215775802005	0.8330482396564342	0.019297	0.5859920005116024	0	0.001389521125085471	0	-15.11123416561554	790.6157505998557	68.3450112515588	1.098200927377591	0.019297	0.3617641898106848	0	0.8895497824715131	0
0.8064000000000002	0.1902468319361118	-0.2043099832013825	-0.01203805023020591	0.8350962930757428	0.019297	0.5857522528465393	0	0.001457452545911113	0	-13.67548125424832	796.4832135811625	69.07341674739395	1.095866743446603	0.019297	0.3613480514935476	0	0.6858179803965259	0
0.8159128561131141	0.2227542496297051	-0.2389430421384986	-0.009954825716529656	0.8408712536337057	0.019297	0.5851921519084914	0	0.001824806743918485	0	-12.42143968186875	802.7444078138883	69.20879688374643	1.089936798998285	0.019297	0.3604511914427272	0	0.6196089655170538	0
0.8328558844730553	0.2780208243787358	-0.2980741922859672	-0.009290098914672822	0.8543283239000805	0.019297	0.5842823426876292	0	0.002192227658020555	0	-8.54554924024746	800.6026385271618	71.094133136125	1.079313193315358	0.019297	0.3588465956139709	0	0.6389229950126709	0
0.8472312594138312	0.3234200147051261	-0.3466883389354442	-0.009020710975672589	0.868796525511321	0.019297	0.583607746597727	0	0.002587717043884184	0	-6.681495855387086	794.5946747120092	69.28659638261509	1.071096633526055	0.019297	0.3571679519935356	0	0.3317230214984432	0
0.8512000000000002	0.3336638275661692	-0.3576567782768382	-0.008896269935045375	0.8732517839647208	0.019297	0.5834381424505165	0	0.002674826515516566	0	-4.730137444386227	793.0263269532511	69.63487427699273	1.06901029571938	0.019297	0.3566185546503537	0	0.1944317497490011	0
0.8607128561131143	0.3565893408363083	-0.3821683644520544	-0.006985254559500689	0.884734502924531	0.019297	0.5831153446468694	0	0.002968509243305134	0	-4.577894393252993	784.2990000288993	69.947347422327	1.063768525782896	0.019297	0.3553441769398671	0	0.2240495528133182	0
0.8776558844730553	0.3825897802067702	-0.4099747830132955	-0.003288134004596935	0.9079435161042897	0.019297	0.5828782112535238	0	0.003294998555982086	0	-1.418680133274115	764.2377285215603	70.1207936005204	1.054683427242716	0.019297	0.3529618294259525	0	0.2771769459333351	0
0.8920312594138311	0.3880046703788009	-0.415759406366204	0.001339536202557151	0.9302476928735244	0.019297	0.5830977700544654	0	0.003641162814627183	0	-0.6981168925230659	747.8263187891522	67.88284889899252	1.047524976776043	0.019297	0.3508185142649007	0	0.08406731796374878	0
0.8960000000000002	0.3863530834356481	-0.4139948440929928	0.002574538116921758	0.9367955909105722	0.019297	0.5832370522485955	0	0.003701528509421398	0	0.8346531670745518	743.4232672709785	67.53538220569007	1.045595080283715	0.019297	0.3502273882271386	0	-0.01565929466760307	0
0.9055128561131143	0.3776678525662391	-0.4047318298207602	0.006154320716738082	0.9531657578245814	0.019297	0.5837407623497208	0	0.003819013475550289	0	1.174727200355152	732.5891105348715	69.15083507173773	1.040950104694631	0.019297	0.3488321962452721	0	0.3818676192312466	0
0.9224558844730553	0.3467701712958937	-0.3718067716045033	0.01241413687028718	0.9845898048192196	0.019297	0.5853036470061379	0	0.00395736217694424	0	3.478573076597122	714.2315970366431	66.04370082061095	1.032691332941443	0.019297	0.3464823913051553	0	0.3853533011929422	0
0.9368312594138312	0.3084727670757394	-0.3309793264959296	0.01610298326042549	1.013342165954005	0.019297	0.5873075526035437	0	0.004005807288278394	0	4.811739242321039	701.1300138548091	66.39263404192531	1.025599460975759	0.019297	0.344662014626137	0	0.6031398827702312	0
0.9408000000000003	0.2963978608774642	-0.3180938595030885	0.0166872436842712	1.021586870801042	0.019297	0.5879598659454335	0	0.00397920391494652	0	6.136670195549776	697.9737848341024	66.03212654705052	1.023585680503552	0.019297	0.3441969244803711	0	0.4474454865995956	0
0.9503128561131143	0.2650589573449679	-0.2846233087111985	0.01740341640668149	1.041837560884991	0.019297	0.5896985526786976	0	0.003829893812075832	0	7.044249543727281	693.7846505490771	65.6062076204262	1.018897535826347	0.019297	0.3430705715188658	0	0.658925157313383	0
0.9672558844730554	0.04477730358776538	-0.04833582350201462	0.006218216518409779	1.079488000520162	0.019297	0.5932968378999173	0	0.001176014716778717	0	9.539125733608611	688.2626625232895	63.97220224489102	1.010320791933012	0.019297	0.3413164546577457	0	0.5584572133220547	0
0.9816312594138312	-0.4641294097973876	0.4977159572224785	-0.02110286757950239	1.112750330068574	0.019297	0.5966189740273881	0	-0.005235150001130543	0	12.66705255798	686.0818224419172	65.81047130301496	1.00271855908814	0.019297	0.3400765737030739	0	0.8196200109591592	0
0.9856000000000004	-0.4533400416532241	0.4860420822625887	-0.01880320046776378	1.122097523619037	0.019297	0.5975321533524856	0	-0.004581553347766413	0	13.63612695672532	686.4552031209994	66.5436463915002	1.000557887072428	0.019297	0.3397634858800305	0	0.6023171976696085	0
0.9951128561131144	-0.05198215706306482	0.05541708218167721	0.002362605370380438	1.144615778365681	0.019297	0.5996597601999025	0	0.001799192914357831	0	16.12556939544453	692.4449039709776	64.0119515197686	0.9955122477163374	0.019297	0.3390141886674668	0	0.5121989799403454	0
1.012055884473055	0.08711808264131073	-0.09360457980092607	0.006343361182346383	1.184411380318948	0.019297	0.6029561341926615	0	0.00213216972003776	0	20.58351594161584	701.892225625715	65.2192355637618	0.9861970772818403	0.019297	0.3379144485176673	0	0.6442001862212461	0
1.026431259413831	0.06849403443542891	-0.07348959369066382	0.003209929494983933	1.216730968774069	0.019297	0.6048043742745385	0	0.001829791483108492	0	25.70502926235658	708.5192134791681	66.93450467904117	0.9778126971256271	0.019297	0.3371988811119294	0	0.8044619755211977	0
1.0304	0.0645157711378458	-0.06919585991196109	0.002400752969354468	1.22522713344029	0.019297	0.605088790840253	0	0.001777352574292203	0	27.63128800152852	711.1302926593996	68.27126168455044	0.9753982425129605	0.019297	0.3370221043895354	0	0.6271523765600739	0
1.039912856113114	0.05766035682578155	-0.06180555679135973	0.0005556917973709679	1.244578163195845	0.019297	0.6053559397550059	0	0.001687029551086395	0	30.1807187055617	720.6379810020264	66.06609177777906	0.9697137114839407	0.019297	0.3365905128041622	0	0.4175898808065787	0
1.056855884473055	0.05343297396734174	-0.05733723035842597	-0.002669439314082488	1.27466583178379	0.019297	0.604268321540644	0	0.001693452144445989	0	36.09872753981814	733.1343497363769	69.03421459204121	0.9590697293436521	0.019297	0.3359644785191241	0	0.3142389838390593	0
1.071231259413831	0.05461714329243518	-0.05890775566130468	-0.006239656788403361	1.295216445809054	0.019297	0.6018674860565123	0	0.001851651165653427	0	41.81934759739347	741.970323487984	70.67335524200413	0.9498373879991209	0.019297	0.3355050690256391	0	0.06858842665573173	0
1.075200000000001	0.05500416508369815	-0.05944809222891123	-0.007232938927182041	1.300059590772132	0.019297	0.6009719858775728	0	0.001905441953564487	0	44.80070666486795	744.7461234822993	71.53933248146556	0.9472939551319944	0.019297	0.3353663111945664	0	-0.1001572485701396	0
1.084712856113115	0.05515826386125814	-0.0599726443650304	-0.009491882816950573	1.310217077765406	0.019297	0.5985652519027875	0	0.002018215123917708	0	47.28168104162765	751.5523254002323	71.90866357404397	0.94151456226342	0.019297	0.3349764621818108	0	-0.2635779304418406	0
1.101655884473056	0.04915296506424107	-0.05447982813986268	-0.01297951714745842	1.323109315287649	0.019297	0.5933959338986102	0	0.002454633006771118	0	54.29590019346379	755.4371804379675	74.92045718440858	0.9313289035635417	0.019297	0.3343090381648411	0	-0.3743572278102514	0
1.116031259413831	-0.7720145982149239	0.9139009389034951	0.3629303969339555	1.329097086430213	0.019297	0.5883284626463922	0	0.07582731157676727	0	58.68032471219321	749.466504146615	76.61162454651048	0.923438573833738	0.019297	0.333544182976815	0	-0.6895419013662556	0
1.12	-2.168505171075036	2.605762824517246	1.100820327439656	1.330046446202727	0.019297	0.5868563029435483	0	0.2125373848246001	0	66.94629597154889	746.7958827474115	71.06975835430276	0.921512896578072	0.019297	0.3332433372109468	0	-0.630427435560204	0
