DataType=double
version=3
OpenSimVersion=4.5
endheader
time	ground_force_2_vx	ground_force_2_vy	ground_force_2_vz	ground_force_2_px	ground_force_2_py	ground_force_2_pz	ground_moment_2_mx	ground_moment_2_my	ground_moment_2_mz	ground_force_1_vx	ground_force_1_vy	ground_force_1_vz	ground_force_1_px	ground_force_1_py	ground_force_1_pz	ground_moment_1_mx	ground_moment_1_my	ground_moment_1_mz
0	0.07743415679899408	-0.08550595258622905	-0.01872678696576698	1.335839660800304	0.019297	0.5979748144310728	0.002582806490699564	0.002872383881423402	-0.003537951653128658	66.85930458847582	745.3544143603619	70.72674206396509	0.8845517624585163	0.019297	0.3507301479686913	5.209579332284143	-3.654093511488201	24.68081347794771
0.009512856113114032	0.04130489352266484	-0.04472901037981555	-0.008587919350912082	1.335799416005209	0.019297	0.5960463149610616	0.003697405946726841	0.005398925706530117	-0.006855945303137573	69.07537264771391	755.7519937850868	73.11379664980029	0.8772822018399422	0.019297	0.3507281492737462	5.931497809286032	-4.46349268541201	27.57948045363399
0.02645588447305514	-5.47204372140992	8.174312215034071	5.312295132212711	1.332076746659341	0.019297	0.5921656782569632	0.3566586820205556	0.8258214880031136	-0.9043811351015594	72.54141105174436	751.3967149751011	78.37000433827467	0.864742382803753	0.019297	0.3508323905085373	7.54047676360803	-5.223151909940417	33.9488312575856
0.04083125941383081	-3.518705257392234	37.7272541825857	28.64912158896902	1.325923619253442	0.019297	0.5888439400715149	1.291175910935928	3.256287661608193	-4.192835215701365	75.48113296251771	731.952678594776	78.75027571371614	0.8545324327216869	0.019297	0.3511313549811462	8.876313877730883	-6.287212370897266	38.92884805104901
0.04479999999999995	10.20051970177739	51.99589630912973	26.37955535345517	1.323866758875973	0.019297	0.5880522352025765	1.651500545801184	2.423112362420373	-5.710681936946811	73.99881280413146	729.2212913903352	79.81855994117973	0.8518150964540634	0.019297	0.3512631137876246	9.177516271029143	-6.466462102284789	39.93816765390883
0.05431285611311398	-6.105954958731988	114.1248260720212	12.4738683778009	1.318477200007518	0.019297	0.5865485184365555	2.792191503993376	0.5481272329565164	-11.78608747304899	79.79975046548755	719.3183978486411	80.26219854431442	0.8454436179495384	0.019297	0.351667247793822	9.547121783812356	-6.661996398295308	41.1011843124212
0.07125588447305514	-21.26423020940604	325.0813673768653	1.054452103922765	1.307097165937127	0.019297	0.584934701249162	4.926652665991396	1.713613888799841	-21.80838710419856	81.62268493889943	668.1338299870896	75.39900217987785	0.8347347761565997	0.019297	0.3527895472924628	9.212909077079964	-5.959319215447174	39.76613779022198
0.08563125941383082	-50.58078420625727	476.8314696264748	-41.39016450034028	1.296239104756268	0.019297	0.5842009163160243	4.660391336999896	1.12525263043248	-24.25640619870335	81.65257580696351	591.9539640067004	66.02979618975125	0.82651279373931	0.019297	0.3541062520000796	8.03742312065946	-5.278421198339514	36.20258154741869
0.08960000000000001	-59.02207791159763	497.5602205203753	-47.59362610785449	1.293215771632939	0.019297	0.5840687726836488	4.48767910425244	1.229941997286285	-24.43353138170441	78.19696323879111	568.9074037413457	62.35863111856013	0.8244213010883784	0.019297	0.3545247396984774	7.632664238452837	-4.968274205926545	35.02068671791275
0.0991128561131141	-63.15808920352672	517.5076455620604	-27.7716893116116	1.285694628413108	0.019297	0.5838262020090342	4.22273157391878	5.059202201097445	-24.87946635388708	76.43408554674977	512.2560233831767	55.99283043696251	0.8197993061157215	0.019297	0.3555923466264319	6.728920867482802	-4.307269392315476	31.73541659594597
0.1160558844730551	-82.38403223661048	538.3945848427076	-54.44977972468816	1.272362317930047	0.019297	0.5834207663041935	3.991791131576338	1.385107388364298	-25.23502051740628	63.74817234336911	413.0400875419884	45.27529569450123	0.8130882840368592	0.019297	0.3577900620053869	5.471780662082565	-3.311813297362569	24.95018557510951
0.1304312594138309	-88.16386256937477	602.4036008553912	-55.04846695379963	1.261467449151504	0.019297	0.5829923383209297	3.576789769429344	0.6459701378822172	-25.02718002895372	49.4812686139509	318.0708336674555	34.88610082070662	0.8090204558718278	0.019297	0.3599975032680974	4.604671539688058	-2.513389006270647	18.31686548488182
0.1344	-87.09401649577347	625.5315628880085	-59.44565742624781	1.258494247228005	0.019297	0.5828892680672423	3.349890861264269	0.3556903014416271	-24.80114682239154	43.92437838829078	290.3313331710517	30.27798995349263	0.8081587077015858	0.019297	0.3606645589425466	4.347337183957136	-2.170516226907071	16.40587841267076
0.1439128561131141	-89.31173449020631	666.637807041271	-60.8180492668313	1.251273730499136	0.019297	0.5827107065399418	2.860103332967299	1.635219705391101	-24.75390971082517	27.74659806081445	230.3078078068062	27.30328641475857	0.8065815590619541	0.019297	0.3623795028656872	3.690822582424843	-1.668054273825542	12.17967915415459
0.1608558844730551	-86.34669398350505	710.1572271927502	-71.86572510399394	1.238151559714473	0.019297	0.5825335595337888	2.248686030910409	1.222693719274003	-25.1368467457279	11.36061794869768	124.8351709028452	5.226446723549005	0.8053027630945588	0.019297	0.3657945435812553	2.170756046654674	-0.6179671027500498	5.45409614811077
0.1752312594138309	-78.47411697119041	735.3908686729674	-70.44966392521023	1.226926567268615	0.019297	0.5824336135530251	1.893090493509328	1.297048912605493	-25.38404213343059	-27.41615462912408	29.57629121415806	3.152762935451184	0.806191308637581	0.019297	0.3685186914907677	0.4944525096281457	0.3376545416697566	1.11524488271599
0.1792	-78.38835402077974	743.1179946265949	-74.34125624809874	1.223849746775916	0.019297	0.5824169696530966	1.780417624169627	0.7811081838889493	-25.33076743084905	-13.57607669130614	14.65003047536965	1.615602552400522	0.8069473450035287	0.019297	0.3691644442902425	0.3119569147435625	0.2271452518955552	0.5735073612645183
0.1887128561131141	-73.58878127449249	753.232635468994	-76.6112585768973	1.216458911221902	0.019297	0.5824231581232653	1.572859499450479	0.9065309610749142	-25.25612184241677	0.03852291006849327	-0.04247970265831694	0.01165473033101283	0.8093274181285068	0.019297	0.370734107179947	0.001686078254176631	0.003295454950093059	0.01280919102439359
0.2056558844730552	-65.77010407928121	764.8088668401614	-77.63851960778618	1.203336007817981	0.019297	0.5825498236241365	1.306426801038773	0.744432002990715	-24.32673716768455	0.1670202210930725	-0.1804631030644011	0.02147714104835581	0.8172839792835618	0.019297	0.3732593272725684	-0.0004462487660045083	0.001473429914902572	0.01624981881356913
0.2200312594138309	-60.26395541434287	771.3934173955082	-77.42492255830786	1.192371141938027	0.019297	0.5827104035933681	1.057091424642659	0.695422976342934	-22.52326738718681	0.2116388328867046	-0.2275241080539048	0.01686568586318754	0.8278843966906515	0.019297	0.3749157246955561	-0.0001449594751958454	0.001542044858272561	0.02104443263303762
0.224	-57.8624039789006	771.5383944165877	-79.15747181899148	1.18935971792777	0.019297	0.5827554182955659	0.984671845091561	0.2813594294576875	-21.85653759940773	0.2247438164344345	-0.2414838613307938	0.01630935660025941	0.8313965189150431	0.019297	0.3752947824776452	-9.973677753035456e-05	0.001555192693623828	0.02240060481558527
0.2335128561131141	-58.09192280803775	764.8998268422134	-77.89860116327002	1.182154916017671	0.019297	0.5828678880880841	0.8879930534174023	0.4940088568334062	-20.40588977870854	0.2514788466119964	-0.26979554386256	0.01111407606296162	0.8408181585446781	0.019297	0.3759986691885093	9.876623973000291e-05	0.00136416106885521	0.02521851590421505
0.2504558844730551	-53.86028422356281	758.062848119466	-76.19148783495831	1.169342472399852	0.019297	0.5830802669025351	0.7163732890841557	0.3974733332208886	-17.38996142749205	0.2861057785928676	-0.3067279473355125	0.003780808458798559	0.8610133787582205	0.019297	0.3766912547700708	0.0003480431705994791	0.001058263528115691	0.02871535440259341
0.2648312594138309	-52.56608229874681	755.2329335383173	-71.57623365590132	1.158532098792344	0.019297	0.5832108594564044	0.4550588290465183	0.6137132603371998	-14.54957179286081	0.305890095485622	-0.327858286052295	7.49951610412847e-05	0.8812894102822301	0.019297	0.3766950663480903	0.000253680375441153	0.000582492862666424	0.03021621740287073
0.2688	-51.06763474328802	753.2393381117624	-72.16264216548285	1.155548464152461	0.019297	0.5832302545141493	0.3830030936095348	0.3369470041980276	-13.76942952945436	0.3083756116317794	-0.3305080960165331	-0.0005271225667722888	0.887327570211413	0.019297	0.3766040301346915	0.0002793041979117636	0.000528778149975347	0.03039455685899391
0.2783128561131141	-52.11905650013463	747.9470928616478	-69.83954684765322	1.14837487869995	0.019297	0.5832825199754496	0.2195876758397319	0.6238611934857932	-12.04872060222159	0.3094956578730687	-0.3317247518787649	-0.004459974933269349	0.9025736599866611	0.019297	0.3761437163322742	0.0003463614689925829	0.0002048948131029051	0.03022841963810756
0.2952558844730552	-48.31963500742417	746.1905300506087	-65.71793894371493	1.135517347224844	0.019297	0.5833996899893896	-0.1464857947055354	0.9613091575365802	-9.015277620556773	0.2947542822660375	-0.3160911334256229	-0.0110061198725993	0.9322235591406633	0.019297	0.3744307608557917	0.0004594641538013663	-0.0003180311980519397	0.02815444395925679
0.3096312594138309	-48.14417548700672	748.9820821347785	-61.70486417609149	1.124563157396078	0.019297	0.5835315225717677	-0.5458601482050489	1.528566754566245	-6.648337423252318	0.2677554749554185	-0.2874014959127998	-0.01563563546403176	0.9596756432163622	0.019297	0.3719282017496671	0.0004266534429990016	-0.0008264390491958102	0.02481064195692372
0.3136000000000001	-47.74708533129775	748.6402678552824	-62.26733005487874	1.121520842208745	0.019297	0.5835748981425355	-0.6325350278790749	1.484622331662219	-6.089438443315736	0.2578387132887219	-0.2768353767916644	-0.01632604901858963	0.967584188145866	0.019297	0.3710490306002225	0.0004381205110696885	-0.000893477061896969	0.02371633362054117
0.3231128561131141	-46.98888856618879	748.7839632972409	-60.75532174042729	1.114186955394685	0.019297	0.5837229280461128	-0.813489505063572	1.756227708468557	-4.854127219079093	0.2312156362323859	-0.2485279170598094	-0.01832947251352066	0.9871010585863709	0.019297	0.3686111152585025	0.0004446836132219103	-0.001063841818496526	0.02082273059307081
0.3400558844730551	-43.38498741710359	752.7355649084154	-56.70207117798143	1.101027504054408	0.019297	0.5841445638327484	-1.073880625611043	2.41056670374991	-2.862920196337697	0.1785867892325028	-0.1924836580493373	-0.01941896849851911	1.023651655782136	0.019297	0.3630819467820794	0.0002574304530540143	-0.001283686600610647	0.01520944506424993
0.3544312594138309	-41.98774030368713	757.9991027650475	-55.75517776107706	1.089795518347741	0.019297	0.5846869138332711	-1.204198175234032	2.98754009088924	-1.549305935367659	0.1345850142923173	-0.1454251098202423	-0.017515652429251	1.056291978628848	0.019297	0.3572814759175831	-0.0001075891662094036	-0.001403084642592478	0.01054915423451829
0.3584000000000001	-41.56916368852461	758.3158889268046	-56.06822655263548	1.086668924399586	0.019297	0.5848735544268251	-1.198414027614259	3.162350825495837	-1.304963161827136	0.1230408861921276	-0.1330162399787098	-0.01646679470233668	1.065539253873377	0.019297	0.3555234865785298	-0.0002093560936345714	-0.001398905205718488	0.009373109123636231
0.3679128561131141	-38.43944308849488	758.9396032857605	-54.4408943235552	1.079132104668422	0.019297	0.5853792155343521	-1.126868096080087	3.484993847431591	-0.8392545066891302	0.09752052988322604	-0.1055685716786197	-0.01399509989692645	1.088021653940564	0.019297	0.3510998999735362	-0.0004638248018298023	-0.00137786921142089	0.006738999137783401
0.3848558844730551	-33.62878105214133	759.6121237496677	-52.96703165459787	1.06560752223237	0.019297	0.5864493040008891	-0.8469730849456938	3.958846264538648	-0.374151757046036	0.06292729502733045	-0.0681915791241432	-0.009447855219225122	1.128740465514632	0.019297	0.3427242041653081	-0.0009375106546178595	-0.001339573935544428	0.002938505074987608
0.3992312594138309	-28.80636865684496	760.6547204029557	-54.47228063993431	1.054068274661488	0.019297	0.5874690130620708	-0.5006220924467657	4.081703349919298	-0.3159338303378831	0.04646976307806889	-0.05027794739934539	-0.006400113026908112	1.163241614213987	0.019297	0.3355715956857514	-0.001298591727981738	-0.001361310072193047	0.0006680653034745016
0.4032	-27.83419577932103	760.6841055921759	-54.35027279915023	1.050866587858496	0.019297	0.5877668405645692	-0.3873340147191349	4.16610830400665	-0.3525121182228119	0.04370392330533497	-0.04724013467549321	-0.005684474780994386	1.172636703652016	0.019297	0.3336636136574495	-0.001373411230947027	-0.001368406848084343	0.0001889683709644581
0.4127128561131141	-22.63021059256468	758.9785910659532	-52.61401218278112	1.043178796484909	0.019297	0.5884783570409016	-0.08262831005433879	4.391959425966312	-0.5882529446212956	0.04005210431322712	-0.04317974467447111	-0.004306266518782824	1.194674516877051	0.019297	0.3293473719964523	-0.001533002010405834	-0.001406267688973599	-0.0007832239043200364
0.4296558844730551	-16.22348515433145	754.63216721037	-53.90545684366675	1.029461892281965	0.019297	0.5897099214971949	0.5086385235131514	4.012004170415006	-1.206177990203212	-0.3104515377040395	0.3366970738558071	0.04975694772108618	1.231309272091941	0.019297	0.3228913608289108	-0.02585846375541488	-0.01878714965496934	-0.03861867427048309
0.4440312594138309	-9.196559144779924	751.4250691801694	-55.50558795691516	1.017853222681947	0.019297	0.590660502934143	0.9357793230996405	3.637458792568632	-1.576143717767657	-0.7586431918109647	0.8181314036824164	0.08829541184504391	1.258635004837537	0.019297	0.3190269457945541	-0.05535770518059415	-0.04315341316419147	-0.08303478237630509
0.448	-8.238316300897894	750.5777320049488	-55.67405572045013	1.01465688838075	0.019297	0.5909126686006776	1.034906339186997	3.582758957121764	-1.609390320781667	-0.5545153967245334	0.5972682457157867	0.05922978514231791	1.265423574166885	0.019297	0.318254672304349	-0.04188860989238681	-0.03352834840728554	-0.06286140686480185
0.457512856113114	-2.537096036840854	745.946546908302	-53.95582225712445	1.007012166025086	0.019297	0.5914692843732716	1.268270294582175	3.465086542339519	-1.714947746887439	-0.06964703251063595	0.07486454179040411	0.009710075012134896	1.280306301534672	0.019297	0.3169080635304518	-0.01068878061119139	-0.009365940326802985	-0.01670383375072365
0.4744558844730551	3.19124038362221	740.5495124244785	-58.29618468136258	0.9935082020954582	0.019297	0.5923078405834878	1.504541544952473	2.345340680068427	-1.060080129963168	0.08022113573026582	-0.08622125794236984	0.00616082514261213	1.301174302705889	0.019297	0.3162674829953046	-0.002282617491610707	-0.002544135934601312	-0.005237164062446895
0.4888312594138309	9.647408415996084	737.576135876056	-56.92460250684851	0.9822133135842216	0.019297	0.5928478637562723	1.435682571307317	2.432329142974076	0.6055351667605962	0.09938940686894181	-0.1074513641051368	0.01330990624724365	1.313168286176131	0.019297	0.3172543644200075	-0.002325632375788537	-0.002931445115914084	-0.00634134716165371
0.4928	9.659247454200818	735.8424835897247	-57.44864523660902	0.9791188254784164	0.019297	0.5929864620465878	1.390879486544281	2.534790220828391	1.198349871845597	0.1035863590098595	-0.1123643069570648	0.01629269353083058	1.315654281885668	0.019297	0.3177451465799361	-0.002371970673438439	-0.003134538009060517	-0.006687004070868907
0.502312856113114	12.88289840196529	731.4488511010177	-60.18317195382987	0.9717291665838987	0.019297	0.5932854710623624	1.252803362253247	1.968923745324471	2.798610597660058	0.1084269365059973	-0.1189739133495131	0.02383228308908973	1.320188661930709	0.019297	0.3192513481886647	-0.002379237608272811	-0.003535823994955733	-0.007191855045155517
0.519255884473055	15.93338771536084	726.4691588684582	-62.47938991459229	0.9586771544232621	0.019297	0.593715939391525	0.7995452782433157	1.765689161372458	6.447540263665434	0.1065339104831717	-0.1221056913046072	0.03996629036491821	1.32317068364791	0.019297	0.3230376252630398	-0.002347203703402427	-0.004317074135429147	-0.007702071376039066
0.5336312594138308	18.19267172855049	726.255600203663	-63.26071943524752	0.9477254967579292	0.019297	0.5939794253289198	0.1631865917903763	2.193774893836747	10.28147904270672	0.08789038377871281	-0.1139344213312705	0.05956128423802978	1.321295878995178	0.019297	0.3271996704982597	-0.002569389738290308	-0.006228171293149931	-0.008452651524682817
0.5376	18.07082971299838	725.4268993537642	-65.01731958083226	0.944719783948444	0.019297	0.5940470721561323	-0.04535374431561934	2.325504663719689	11.41583763112472	0.07204425424999511	-0.09907444548019259	0.05820009220597162	1.320243773030239	0.019297	0.328462818197245	-0.00303094471154453	-0.00788520659907308	-0.00957555855322184
0.547112856113114	19.44211642497606	722.6645374360712	-64.94168278054254	0.9375330251649496	0.019297	0.5942016520303615	-0.5753771597648978	2.503586619737546	14.25523494790806	-0.06765335486429563	0.2578598399914204	-0.234051089779874	1.316943200694983	0.019297	0.3316819981447698	-0.01640344314684346	-0.04251779931992505	-0.04289894385063989
0.5640558844730551	21.00261938233587	713.9284308974493	-68.42742862084546	0.9247889216988168	0.019297	0.594436149113564	-1.632085756398051	2.826776596788596	19.49490727687961	5.817313828968742	17.06885287274201	-14.80815641262322	1.308868362682593	0.019297	0.3377239184652487	-0.755385457290192	-1.235683947391425	-1.72583662350387
0.5784312594138308	24.09487172840679	700.2900431121689	-67.00083388818304	0.9140355462608345	0.019297	0.5945857724159613	-2.48991386252601	3.705146940686201	23.59676780798298	37.41041938943822	49.36338021558343	-23.14058424803907	1.300501810103251	0.019297	0.3422812956263488	-2.201773810008199	-0.7425113977972508	-5.197319025268621
0.5823999999999999	22.14811251683392	695.2696164648199	-69.48851686941829	0.9110882913617249	0.019297	0.5946276124319175	-2.717107020433188	3.758375341276869	24.62941465829245	39.45892601404055	63.56852885076345	-19.11094293386172	1.298084783490269	0.019297	0.3432706305361851	-2.740384010829949	-0.1186657729125761	-6.700404549064079
0.5919128561131139	26.85625489459295	680.7178409170062	-70.13606575297575	0.9040553686926502	0.019297	0.5947313464923992	-3.241746598830512	3.7538999020442	26.99940248257006	30.73427391164917	117.4361739208336	-21.0891960330014	1.292465740422165	0.019297	0.3452228894853055	-4.47651583105885	-0.2880854032209246	-12.07296385985708
0.6088558844730551	28.74012396730053	633.5256643780506	-69.45443320585987	0.8917509733591826	0.019297	0.5948229467093664	-3.889238808779238	3.226991423402317	30.14326354663941	24.69898048596221	220.3561769021032	-13.39844815015497	1.282073016243691	0.019297	0.3475283423037278	-7.192145271882151	-0.3458203314549603	-21.83161092937406
0.6232312594138308	34.11853899900549	584.6980992372435	-65.85669301022638	0.881662753283769	0.019297	0.5947643164722642	-4.100282326470006	3.368685460434165	31.09071128555172	10.65954223461497	289.9705498442826	-3.014005639939993	1.2732009946156	0.019297	0.3485506494498906	-8.6455934700331	-0.7790287410528993	-27.68141655193262
0.6272	33.75119170702575	570.1447134716478	-65.7087945888575	0.8789462792999831	0.019297	0.5947294527493727	-4.104939817644256	3.377473527686851	31.0463394349769	2.8814871250244	307.8649419276998	-1.988014567458072	1.270840241644817	0.019297	0.3487105143919683	-8.950902329116222	-1.21619419159426	-28.91932804726583
0.636712856113114	36.56497202719427	535.3275630376489	-60.507734700694	0.8725755227314091	0.019297	0.594606702521677	-3.885207843239749	2.849832916611924	30.25574588759652	-13.67268517971416	360.136706931789	-6.889111003168693	1.264897321401911	0.019297	0.3489646848914748	-9.658471375269793	-4.190025961438955	-30.57536978734827
0.6536558844730551	37.59124029641016	466.4355377464369	-51.19794584046156	0.8618763190868844	0.019297	0.5941997388393644	-3.134343596737759	1.851090723822634	27.43985557842902	-26.66045718603684	464.1185072944038	22.06638040623918	1.252978145284685	0.019297	0.3492432639588097	-9.545602020579736	-2.695921758192165	-27.35248014876606
0.6680312594138309	40.2812859132983	403.0135391653267	-40.61931957044243	0.8535948733965375	0.019297	0.5936667783305718	-2.448547488868484	1.570548958469628	24.08868547189705	-35.08503223384513	461.958675107867	27.11373299363589	1.24191462442129	0.019297	0.3494603421701082	-9.264671538224897	-1.613565474815658	-26.0168794368667
0.672	35.55389574299686	386.0297578345901	-40.28608745762015	0.8514556995803103	0.019297	0.5934963725979981	-2.340600598158828	1.560902295718047	23.13978558346375	-37.12123039553749	468.5433052768054	36.42360400151509	1.238924409523724	0.019297	0.3495159181213093	-9.200784589033304	-0.1537309985827783	-25.45316597461463
0.6815128561131141	39.443108945353	348.7281260979969	-33.95576422485718	0.8466012391338227	0.019297	0.5930604635872971	-2.202773416359626	1.187475370938642	20.74225232419105	-40.95237526012336	487.4931714961058	44.13591123312551	1.231728016185126	0.019297	0.3496375204739061	-9.051734038645581	1.130480793182463	-24.57242523101446
0.6984558844730551	33.27871626049999	277.9752592384058	-24.02455023830515	0.8390666955807619	0.019297	0.5921340539401405	-1.976216088495055	0.8518903700169723	16.19918999301013	-42.65360765092635	533.0754695146784	50.98220426384882	1.218639405728136	0.019297	0.3498588258139829	-9.030657794211319	2.114264421839092	-24.43296198482734
0.712831259413831	26.76903541299504	221.6516793263633	-17.42607366933983	0.8340082787232206	0.019297	0.5912158566973817	-1.869492390919143	0.7987314954107784	12.54267392474994	-40.61084878334897	580.3086018609866	56.37001216288795	1.207320186930378	0.019297	0.3501132271574874	-9.15590460461582	2.955005433835514	-25.26330835755862
0.7168000000000001	18.62031193604528	205.7435188996127	-17.08973329652813	0.8328322121816462	0.019297	0.5909464824762898	-1.82709371729154	0.7944880574007738	11.50810284901714	-39.79099220541092	594.036587185541	57.56956880308486	1.204183258807255	0.019297	0.3502017875068138	-9.190494007947555	3.105387418339102	-25.55888775870115
0.7263128561131141	13.56689459811497	165.3669689369621	-10.46200507543413	0.8303041511376563	0.019297	0.590334627769563	-1.604800480415928	0.580673476132939	8.790994308082412	-37.90865601605522	623.7486174588639	56.46251072223083	1.196595454379979	0.019297	0.3504254867729113	-9.314051456394809	2.998345472698261	-26.56782752347753
0.7432558844730551	0.2361292927548456	84.09341903114374	-1.324944614196971	0.8267455071947917	0.019297	0.5893502751734836	-0.8722119611450112	0.254598040933016	3.931829929087243	-31.94078951987986	666.3916959440711	58.09969770698152	1.182976637450282	0.019297	0.3508228531990189	-9.53167532992166	3.549128608432875	-28.43571804583544
0.757631259413831	-8.651386286380854	34.40126501562785	5.196408202347424	0.8249798648166839	0.019297	0.5885660014883987	-0.3771101036706079	-0.1894496679563842	1.404351387194975	-26.78926839312585	704.1822164243589	60.56148614102761	1.1714443047594	0.019297	0.3510396116532251	-9.598240027259973	3.797301774913799	-29.58090111706633
0.7616000000000002	-9.9925474227107	24.60447596238333	5.664136933714797	0.8247450658521308	0.019297	0.5883345336124026	-0.3244539150531832	-0.3048471333569629	0.983021573965935	-26.41241371527243	716.3422868576804	61.49565994174795	1.16827524496573	0.019297	0.3510617116292125	-9.577894321531495	3.64784995555691	-29.78702016374932
0.7711128561131142	-5.086031235768622	6.160835828819996	2.139590623690385	0.8247680905101339	0.019297	0.5878340617290962	-0.1150580265382286	-0.1761786904176049	0.2437079025748166	-22.9289848891751	738.9540633184098	61.83331852497242	1.16064319445404	0.019297	0.3510473558094573	-9.546111011390565	3.492705371144474	-30.27789062100052
0.7880558844730552	0.1341650867621351	-0.1445030880852083	-0.01189805148833601	0.8275427011626113	0.019297	0.586870985756482	0.002030551532243725	0.001122563741042717	0.01267853021389994	-17.68975129980221	768.6262948058813	66.64295870527616	1.147041995487329	0.019297	0.3507486482880976	-9.410970076288432	3.527387642459418	-30.47394203451128
0.802431259413831	0.1780393927851706	-0.191207404345598	-0.0113215775802005	0.8330482396564342	0.019297	0.5859920005116024	0.002409033926846352	0.001389521125085471	0.01714174632742746	-15.11123416561554	790.6157505998557	68.3450112515588	1.135600956585501	0.019297	0.3502248773252739	-9.123162202059437	3.271281946417477	-29.56905216466801
0.8064000000000002	0.1902468319361118	-0.2043099832013825	-0.01203805023020591	0.8350962930757428	0.019297	0.5857522528465393	0.00254644833283639	0.001457452545911113	0.0183507495441711	-13.67548125424832	796.4832135811625	69.07341674739395	1.13246707044411	0.019297	0.3500467432216421	-9.001302330078628	3.05937679076533	-29.15154606509613
0.8159128561131141	0.2227542496297051	-0.2389430421384986	-0.009954825716529656	0.8408712536337057	0.019297	0.5851921519084914	0.002819916005329031	0.001824806743918485	0.02173786418156974	-12.42143968186875	802.7444078138883	69.20879688374643	1.124941035314948	0.019297	0.3495704541594667	-8.734451007029447	2.907055624969374	-28.09945495299716
0.8328558844730553	0.2780208243787358	-0.2980741922859672	-0.009290098914672822	0.8543283239000805	0.019297	0.5842823426876292	0.003281459353446514	0.002192227658020555	0.02747852615123498	-8.54554924024746	800.6026385271618	71.094133136125	1.111548888818963	0.019297	0.348555356651821	-8.239193066810763	2.842747533587373	-25.80798287494461
0.8472312594138312	0.3234200147051261	-0.3466883389354442	-0.009020710975672589	0.868796525511321	0.019297	0.583607746597727	0.003714722849906258	0.002587717043884184	0.03209341563899597	-6.681495855387086	794.5946747120092	69.28659638261509	1.100242497540594	0.019297	0.3475416741989532	-7.648989072873626	2.286822802509117	-23.15914833583335
0.8512000000000002	0.3336638275661692	-0.3576567782768382	-0.008896269935045375	0.8732517839647208	0.019297	0.5834381424505165	0.00380011069262951	0.002674826515516566	0.03314414384701761	-4.730137444386227	793.0263269532511	69.63487427699273	1.097141501533531	0.019297	0.3472530886960206	-7.427061065970488	2.109044788682926	-22.30878681956248
0.8607128561131143	0.3565893408363083	-0.3821683644520544	-0.006985254559500689	0.884734502924531	0.019297	0.5831153446468694	0.00394706126850845	0.002968509243305134	0.03555978527658427	-4.577894393252993	784.2990000288993	69.947347422327	1.089680740039011	0.019297	0.3465487038866437	-6.898280720424224	1.996275459091195	-20.32292372960546
0.8776558844730553	0.3825897802067702	-0.4099747830132955	-0.003288134004596935	0.9079435161042897	0.019297	0.5828782112535238	0.00398903234447655	0.003294998555982086	0.03835800450910906	-1.418680133274115	764.2377285215603	70.1207936005204	1.076392186246558	0.019297	0.3452998103857134	-5.855604027201303	1.788542401171981	-16.59065267011776
0.8920312594138311	0.3880046703788009	-0.415759406366204	0.001339536202557151	0.9302476928735244	0.019297	0.5830977700544654	0.003872902702731997	0.003641162814627183	0.03895809131685387	-0.6981168925230659	747.8263187891522	67.88284889899252	1.06516465366899	0.019297	0.3442779645853356	-4.891195189726743	1.276932770897013	-13.19141463548246
0.8960000000000002	0.3863530834356481	-0.4139948440929928	0.002574538116921758	0.9367955909105722	0.019297	0.5832370522485955	0.003802215104815452	0.003701528509421398	0.03882066768612354	0.8346531670745518	743.4232672709785	67.53538220569007	1.062081844932333	0.019297	0.3440187746251212	-4.615627809234762	1.102962696218168	-12.25664444180356
0.9055128561131143	0.3776678525662391	-0.4047318298207602	0.006154320716738082	0.9531657578245814	0.019297	0.5837407623497208	0.003561958855110607	0.003819013475550289	0.03806209042222407	1.174727200355152	732.5891105348715	69.15083507173773	1.054674494154643	0.019297	0.3434239443154459	-3.962026470819836	1.337273831889148	-10.05433826714413
0.9224558844730553	0.3467701712958937	-0.3718067716045033	0.01241413687028718	0.9845898048192196	0.019297	0.5853036470061379	0.003063208128325486	0.00395736217694424	0.03503185148716153	3.478573076597122	714.2315970366431	66.04370082061095	1.041500162918069	0.019297	0.3424907071281115	-2.850986964635918	0.9810063978574037	-6.291544702229899
0.9368312594138312	0.3084727670757394	-0.3309793264959296	0.01610298326042549	1.013342165954005	0.019297	0.5873075526035437	0.002681630376649514	0.004005807288278394	0.03108320720462975	4.811739242321039	701.1300138548091	66.39263404192531	1.030340916367509	0.019297	0.341817023137711	-1.994708921697005	0.9316269526097445	-3.324376684509751
0.9408000000000003	0.2963978608774642	-0.3180938595030885	0.0166872436842712	1.021586870801042	0.019297	0.5879598659454335	0.002577520447764109	0.00397920391494652	0.02985041899991453	6.136670195549776	697.9737848341024	66.03212654705052	1.027263923421591	0.019297	0.3416552270942189	-1.774038144515639	0.7059252470300525	-2.567317131043033
0.9503128561131143	0.2650589573449679	-0.2846233087111985	0.01740341640668149	1.041837560884991	0.019297	0.5896985526786976	0.002317987493976697	0.003829893812075832	0.02678232951134632	7.044249543727281	693.7846505490771	65.6062076204262	1.019879219784445	0.019297	0.341300838216454	-1.22781380077881	0.7357961618940534	-0.6810772618189169
0.9672558844730554	0.04477730358776538	-0.04833582350201462	0.006218216518409779	1.079488000520162	0.019297	0.5932968378999173	-0.001118266389651686	0.001176014716778717	0.0315452672828609	9.539125733608611	688.2626625232895	63.97220224489102	1.006748697712551	0.019297	0.3408091632519098	-0.3491497336558149	0.3347815959167719	2.45853907895842
0.9816312594138312	-0.4641294097973876	0.4977159572224785	-0.02110286757950239	1.112750330068574	0.019297	0.5966189740273881	-0.009658517287723319	-0.005235150001130543	0.06262157174577639	12.66705255798	686.0818224419172	65.81047130301496	0.9956067419508393	0.019297	0.3405218404836559	0.3054894442945155	0.3459477556205881	4.879288462432974
0.9856000000000004	-0.4533400416532241	0.4860420822625887	-0.01880320046776378	1.122097523619037	0.019297	0.5975321533524856	-0.008674250512589531	-0.004581553347766413	0.06087592906520062	13.63612695672532	686.4552031209994	66.5436463915002	0.9925304087826063	0.019297	0.3404590395544478	0.4774664388537291	0.05865486272670761	5.510504239988784
0.9951128561131144	-0.05198215706306482	0.05541708218167721	0.002362605370380438	1.144615778365681	0.019297	0.5996597601999025	0.0002533372437535016	0.001799192914357831	0.02522876571940857	16.12556939544453	692.4449039709776	64.0119515197686	0.9851585073947942	0.019297	0.3403472561995436	0.9230758192357307	-0.172060616567872	7.169394722691464
1.012055884473055	0.08711808264131073	-0.09360457980092607	0.006343361182346383	1.184411380318948	0.019297	0.6029561341926615	0.001687948710054932	0.00213216972003776	0.007269050949123599	20.58351594161584	701.892225625715	65.2192355637618	0.9720550559341814	0.019297	0.340288961253769	1.666652029118999	-0.3270074561565832	9.926174838554658
1.026431259413831	0.06849403443542891	-0.07348959369066382	0.003209929494983933	1.216730968774069	0.019297	0.6048043742745385	0.001665470613089579	0.001829791483108492	0.004209934915533267	25.70502926235658	708.5192134791681	66.93450467904117	0.9609117057957954	0.019297	0.3403481900445516	2.231345887944418	-0.4077505859951112	11.97467708403062
1.0304	0.0645157711378458	-0.06919585991196109	0.002400752969354468	1.22522713344029	0.019297	0.605088790840253	0.001668958544132443	0.001777352574292203	0.003563420768598707	27.63128800152852	711.1302926593996	68.27126168455044	0.9578271633005166	0.019297	0.3403691882459615	2.380212722375817	-0.6649316084348187	12.49532670268669
1.039912856113114	0.05766035682578155	-0.06180555679135973	0.0005556917973709679	1.244578163195845	0.019297	0.6053559397550059	0.001682412801071067	0.001687029551086395	0.002233574158344502	30.1807187055617	720.6379810020264	66.06609177777906	0.9504369740186024	0.019297	0.3404425419482904	2.775918505185451	-0.9722058337991712	13.89154916732749
1.056855884473055	0.05343297396734174	-0.05733723035842597	-0.002669439314082488	1.27466583178379	0.019297	0.604268321540644	0.001759508239339141	0.001693452144445989	0.0004460105008514512	36.09872753981814	733.1343497363769	69.03421459204121	0.9372532628918471	0.019297	0.3406223672938783	3.414858258023803	-1.359987500625545	15.99440094568957
1.071231259413831	0.05461714329243518	-0.05890775566130468	-0.006239656788403361	1.295216445809054	0.019297	0.6018674860565123	0.0018708821355342	0.001851651165653427	-0.0007136208782088905	41.81934759739347	741.970323487984	70.67335524200413	0.9260244620250075	0.019297	0.3407818155293841	3.915189310347816	-1.835021046287772	17.66848438820833
1.075200000000001	0.05500416508369815	-0.05944809222891123	-0.007232938927182041	1.300059590772132	0.019297	0.6009719858775728	0.001894218943752871	0.001905441953564487	-0.0009762673944545778	44.80070666486795	744.7461234822993	71.53933248146556	0.9229314291067887	0.019297	0.3408230882471415	4.063913556612469	-2.087503566043688	18.14389681550861
1.084712856113115	0.05515826386125814	-0.0599726443650304	-0.009491882816950573	1.310217077765406	0.019297	0.5985652519027875	0.001920740393784568	0.002018215123917708	-0.001510934351827085	47.28168104162765	751.5523254002323	71.90866357404397	0.9155262298993523	0.019297	0.3409310852889785	4.475210843073824	-2.413908769736232	19.53159162148924
1.101655884473056	0.04915296506424107	-0.05447982813986268	-0.01297951714745842	1.323109315287649	0.019297	0.5933959338986102	0.002043535294076975	0.002454633006771118	-0.002688771543645869	54.29590019346379	755.4371804379675	74.92045718440858	0.9023663676474172	0.019297	0.3411199832647857	5.145241162419894	-2.914050055235905	21.87937647081052
1.116031259413831	-0.7720145982149239	0.9139009389034951	0.3629303969339555	1.329097086430213	0.019297	0.5883284626463922	0.03809359397542356	0.07582731157676727	-0.1113739788906239	58.68032471219321	749.466504146615	76.61162454651048	0.8912111208562477	0.019297	0.3412165476801245	5.750180352727308	-3.608756281068639	24.15339652058906
1.12	-2.168505171075036	2.605762824517246	1.100820327439656	1.330046446202727	0.019297	0.5868563029435483	0.1030730650087073	0.2125373848246001	-0.3012576997666971	66.94629597154889	746.7958827474115	71.06975835430276	0.8881517938670506	0.019297	0.3412276345649551	5.962640390604443	-3.535912077451866	24.91393414850436
