DataType=double
version=3
OpenSimVersion=4.5
endheader
time	pelvis_tilt_moment	pelvis_list_moment	pelvis_rotation_moment	pelvis_tx_force	pelvis_ty_force	pelvis_tz_force	hip_flexion_r_moment	hip_adduction_r_moment	hip_rotation_r_moment	hip_flexion_l_moment	hip_adduction_l_moment	hip_rotation_l_moment	lumbar_extension_moment	lumbar_bending_moment	lumbar_rotation_moment	knee_angle_r_moment	knee_adduction_r_moment	knee_angle_r_beta_force	knee_angle_l_moment	knee_adduction_l_moment	knee_angle_l_beta_force	arm_flex_r_moment	arm_add_r_moment	arm_rot_r_moment	arm_flex_l_moment	arm_add_l_moment	arm_rot_l_moment	ankle_angle_r_moment	ankle_angle_l_moment	elbow_flex_r_moment	elbow_flex_l_moment	pro_sup_r_moment	pro_sup_l_moment	subtalar_angle_r_moment	subtalar_angle_l_moment	wrist_flex_r_moment	wrist_dev_r_moment	wrist_flex_l_moment	wrist_dev_l_moment	mtp_angle_r_moment	mtp_angle_l_moment
0	0.1805699547503963	7.342385177262107	-1.035910777661785	-0.1281138246058369	-0.6285697345000472	-0.5325674791499893	-26.77115056406854	-2.254938515206987	3.501893570080102	8.269844732761282	-54.29440579907516	-4.084391113774854	38.51595167097295	8.634483405240596	8.839824077450581	20.83389015693096	3.032090170360376	-0.018629537563517	13.27538821190037	-31.14548183082516	-0.04135591324572923	6.237538144892918	-1.48937553863977	0.3430240928571492	7.326574016341208	-3.367521841679753	-2.165300089820105	0.0935364950579646	-89.32401154466741	3.223650676107774	4.365765842503935	-0.008628821212230853	-0.15202423914856	-0.3887391284102635	12.67061076358568	0.2224696048730117	-0.4004275245049878	-0.124440992099152	-0.4967451161004812	-0.01208426704722429	13.57634809701037
0.009512856113114032	0.04464165783770468	-1.322940327103907	-0.5405290099178072	0.05675886786472262	-0.1614752836281355	2.813086590425321	-19.76590923977188	-1.480653345293409	3.193692961870701	8.90649703009689	-53.39420064802955	-4.413074992210602	24.90555993454837	2.019587289078027	4.516669324108546	19.15845810706768	2.860405869671096	-0.01919272090042937	13.48248780874628	-30.53245112942744	-0.04131810787043221	-10.46524611022172	-0.9267916469157393	-0.01545555440137369	-4.499124176916035	-2.458971001748965	-0.4303254342060685	0.08524904319809563	-93.05679134112729	-2.651072547411066	0.6599365686824034	0.08534902051496307	-0.03103191915149372	-0.4094099846838467	12.78986089402167	-0.08166785472554566	0.2855073787532273	-0.001101799764321617	0.05561201443306835	-0.005789610567730221	14.20386878197581
0.02645588447305514	0.5512683499595212	2.792240940337449	1.934445789580344	-0.1192877221613227	-0.5336616776415894	-3.408204557553326	-15.95188561111012	-4.187757772559398	4.122039996850265	11.86775707533857	-52.70928313791988	-3.862839902024319	16.14445634656734	6.897176852264749	8.772865051206729	15.72455659732856	1.273703467196104	-0.02145457366938894	13.66370084591033	-29.66631881329611	-0.04302556809036269	-8.371827277332073	1.235781884502208	0.2096407387940034	-11.01322040197282	-2.032399333382022	0.3999168296436757	0.1290464801865853	-99.4576348371281	-2.640103673223931	-2.167683370087623	0.1027984663925933	0.04501492925756037	-0.2525133847132333	13.15765447486887	0.03055910006141541	0.3685203531504035	0.01149234622506674	0.4740620359813162	0.04025551220950168	15.23025005169123
0.04083125941383081	0.9481630057422166	1.062767076967994	0.190503200246054	-0.5920620400880345	-1.731823805168858	0.08519066345610327	-14.60249846007622	-4.201048789657438	2.740358335947849	13.27716357635403	-47.18421953037377	-4.218082404454185	17.18748048111608	7.600752765424157	7.38405643757581	10.06805921726793	2.447398598515383	-0.02304549827867123	13.31789453784245	-26.47790142793241	-0.0417872106842935	-3.317673880509185	-1.492485183485152	-0.247632921561001	-1.472485868268181	-1.632394924039281	-0.140451617364731	1.788531050198485	-103.3906860980625	-0.7976924131916562	1.610297953722904	-0.01146273656982287	-0.03876357425272424	-0.4609468538453804	13.4371554606882	-0.03994223372547333	0.128436228420689	0.05350118152846942	-0.0833285640942604	-0.005056028746916183	16.07312806641013
0.04479999999999995	-0.2789096311604666	7.177068379321572	-0.230482978326416	0.06354093505345304	-1.183546863650747	-4.120028836352077	-14.64478989975486	-0.9112977493272547	0.4699220326387965	13.94841478759207	-46.94278998031613	-3.905083336550897	21.09351181532066	8.830170061510977	8.741743869357613	4.952916296160059	3.702883107395709	-0.01603447332098453	12.57979567852359	-26.17027358557664	-0.04111782971322247	1.935827755800269	-2.216866961031736	-0.03482959794936602	6.387894040606199	-2.533109234124958	-1.566032796806796	3.18045185531285	-104.2032981192346	1.508255111474682	3.579968497595472	-0.02707362818182016	-0.1171091648222519	-0.7684848913104625	13.69967366397138	0.06599477066332263	-0.1817679229574267	-0.07880712727662369	-0.3954290020162959	-0.1683675630908594	16.28403143285693
0.05431285611311398	0.08871133065403569	-5.604026487812578	-1.890823333265831	-0.3143344718315433	-0.8138361878857836	5.274759134206501	-13.16707774683323	-8.647823382289893	1.500673995441888	16.07554142714653	-43.96438541891324	-3.653495692314904	15.32907933246639	4.152988225282508	10.33964543472403	1.596905014036106	-2.495268280744789	-0.03234958768359017	11.53743506968533	-24.97939721631845	-0.04664654433902712	20.45487783355363	-0.3429406127634191	0.3444813713628201	-7.388656620246065	0.8124308118016677	1.83183504135991	5.116507356587642	-105.0472363856056	7.919539658615333	-1.222658807721938	-0.1548436456405882	0.05940550614861145	-1.569554937796514	13.78642109122582	0.4408739273885733	-0.911798455227849	0.1936365744840132	0.3710267519588418	-0.153584122855236	16.60807071309372
0.07125588447305514	-0.2810526084756297	14.14868737825797	3.740804463803273	-0.01819391559628514	-0.6775903324932528	-14.64075925874385	-20.98591718213751	0.9383397365713395	-1.716624076980564	20.11805026032827	-38.68750487308006	-2.006790367335456	19.8725414994772	4.730186714269599	14.02316655352588	-2.357911730455713	-2.725780148377843	-0.06762543356698197	6.763726566513153	-21.60067886118006	-0.05484630680509461	43.00291209669523	1.479446189485971	0.8670583203765601	-6.756857237689381	1.427323439653195	2.198558576111808	-1.129434744144299	-100.2798501066241	15.88213880149282	-2.088240385389024	-0.2931446016950039	0.07773600702969585	0.5830204121470997	14.09630971260937	0.8606679441925712	-1.834220679959823	0.191221543827998	0.5205353413155747	-0.005166691599341799	16.0603147149401
0.08563125941383082	0.3456668794484834	-25.03858446532655	-6.633715043027682	-0.4406656460098848	-1.221001222845189	27.22473568587503	-33.87099775541257	-33.12028955499609	6.772546065819932	22.52116159376408	-32.61571730937628	-2.02843176438455	22.45596092322664	-9.118468961362199	8.514248136783042	-6.574760182838505	-25.08763253432654	-0.06927407650156821	1.974161800080302	-17.34763789223278	-0.05637031196631678	12.9933498462681	-1.772907032948647	-0.04693366449207304	-2.894298462875595	-1.548645316711963	0.3346393034016115	-9.099483799570296	-90.92862986414414	5.816854922827718	0.2564679990667237	-0.1455566046588512	-0.009389870435043839	2.54745070916276	13.25259609033213	0.2328167722164988	-0.7183926793996428	0.05744674556524641	0.1476428608979273	0.4697363777019595	14.80607270607098
0.08960000000000001	-0.4155817307917431	-10.22124831248366	-6.630149230059461	0.5035665847297963	-1.227398757459696	13.77740908312881	-36.23741326998402	-27.49221838888872	5.905057777021671	22.30993945833911	-31.40754374286947	-1.085345937370904	21.67808508246538	-6.790889128624022	5.753270274632999	-8.779346126408116	-25.14758349476259	-0.06297801722576593	0.1695547560774759	-16.27320512846324	-0.05500454186178196	-7.384230570707444	-2.284615430420482	-0.3751454276336501	0.153912171426441	-3.623289624766022	-1.395699569618063	-10.32674275736848	-87.72221037918993	-1.825448597819545	1.18195131743209	0.002509123872858177	-0.06988236158695363	2.860317487610156	13.13639034517772	-0.1256399281462549	0.220800978883619	-0.1269022231761771	-0.02354282092761	0.5708437736464711	14.37317198728871
0.0991128561131141	0.1692166838269777	9.701352237268312	3.910641339053038	-0.6938403379250389	-0.7280396993904787	-10.43026818567097	-44.28613216682352	-14.24451013940244	-0.2210410258795514	24.3872359376781	-27.96315161355712	-0.7350651200292442	29.82508133687406	-10.73650481830038	18.44577168899959	-15.69340236284726	-17.69304276207629	-0.05050316570364457	-2.166064787286955	-13.97719539545486	-0.05844999749233493	5.796874161656294	-4.667250021236871	-0.4517236753137719	-3.911048333815849	-4.142844043470945	-1.311519638138331	-11.12148676693239	-79.90833403626904	2.985187969645827	0.2883332826598555	-0.1201356530518013	-0.05102581965709391	3.263054818671913	12.21523696830987	-0.02472165326921562	-0.3754754984966457	-0.1349389723670125	0.1165048156305406	0.7021653022605437	13.2060289543557
0.1160558844730551	-1.060131102463178	-3.176576844356305	-3.78712012251917	-0.06443895355899087	-0.8628665913146847	2.806806556565768	-48.16128781004444	-33.59938659240921	6.471671460582034	26.22589869431958	-20.74548489312485	0.2639255376885146	28.00100615220707	-9.180295836379038	16.29093502620735	-26.86588429035712	-30.4481296836172	-0.02938573028507634	-8.154468271204479	-9.507349070163384	-0.05577825790432153	-6.860788032287041	-4.764919092682788	-0.6431472706244414	-2.521384987023088	-5.587843862745693	-2.395819174056316	-13.06845896397344	-64.35972841795035	-1.681154986526835	0.1862925375415362	-0.03367153208316953	-0.07272362223632961	4.891064638496271	10.9023730009959	-0.2326467812606546	0.1816343052611967	-0.2679438284937217	0.1083204441182083	0.829835758461553	10.87069313897134
0.1304312594138309	0.00825067909356747	-2.333521839038514	3.870408206953303	0.3875673741691443	0.2967690457634831	2.281992708065296	-46.64640233313919	-39.32191441306014	7.931577862355947	28.56693417549675	-14.6731271836051	-0.6542897507798708	22.57556586945269	-7.735639102144787	22.53843510389769	-29.66820093863623	-33.61551796799459	-0.03767133464310049	-10.49183764265791	-4.709467498319237	-0.05920902262648146	0.7085503902796664	-3.872203084549991	-0.1685221778613558	-4.470919698727655	-5.709285535137051	-2.012499100287727	-17.64295507448268	-48.65899720028025	1.540857080885977	-0.2578907294450686	-0.03607166465652956	-0.04513803803946363	7.651796199809882	9.211165717578863	-0.0210645356694934	-0.2532494588248721	-0.2127980330661359	0.180843556210382	1.241308154807669	8.622304901082229
0.1344	-2.503266931476762	5.621254791739571	-0.1628185002811895	-0.03596824349943972	-1.287310676470781	-0.6801211860461152	-45.47737710975168	-40.64080137327759	8.899060609752748	22.39871857894995	-17.96044570234596	1.022617488400121	31.02973508668268	-0.8227127637155207	15.66546408548303	-28.62619171225947	-35.13658450152288	-0.04307692184537801	-18.75366405787645	-6.407063382927601	-0.03394687526527614	6.006049903152028	-0.8586517790167445	0.1740673768723663	2.935990191466095	-5.123481800924456	-2.380148862297834	-19.06671469758372	-42.03585666676064	3.170478866916414	1.642451872277709	-0.03825230591663537	-0.09350376110496281	8.25672482378225	8.563904706582143	0.1802752840994507	-0.403034600542451	-0.2214042394475622	-0.1097146313155252	1.39204406910637	7.686104868330622
0.1439128561131141	0.8023978537439511	-1.166729406531625	-1.352679623924011	-0.1733462528168914	0.508658778565291	-0.8457523471786921	-45.80892471549846	-40.2675349033028	7.85064550761318	30.05434286260256	-8.301849625549391	-0.4281512941143166	17.24068459919879	-7.388461162348643	16.23804879731052	-30.11312108531879	-36.00096100336005	-0.04712805353049748	-11.05486668997166	-1.685035111205596	-0.06167099849003904	-1.414814427708107	-2.905219722925866	-0.04369195809367221	-5.296601916436977	-4.799553872088407	-1.425159307824033	-21.82534359775063	-34.45868511409853	1.04254528526474	-1.824975482169287	-0.005664432453686613	-0.000403785907714671	9.280629569468157	7.368796201424494	0.002556162221162415	-0.2214571295471734	-0.1965041992236766	0.4157769584122025	1.734479231067531	6.142203842659439
0.1608558844730551	1.474759467283977	2.971601370397713	0.9162362842267244	0.3473748608742468	0.0931599280625619	-1.058238992260911	-45.11092523605291	-48.92459743579745	9.681906523147031	29.85669551091228	-9.661205612120684	0.7372646264302332	17.18251240810314	-8.953588501343702	18.57131421394915	-31.57753051197822	-41.85233908788622	-0.04536230236738999	-13.0415660548424	-0.1299893190638254	-0.04616313166100704	7.711452990855272	-3.906427090741234	0.03869561955835632	-6.761788026267199	-3.926568288669368	-0.8453105409372885	-24.84048475350721	-13.66226799662224	4.611262999950262	-3.443797876430664	-0.07368267591363675	0.04604673748321253	10.74479047007604	4.607475392955769	0.1114934736054597	-0.6890170993554735	-0.1784666766286578	0.6564548317550125	2.017870001324636	2.853491384686588
0.1752312594138309	1.270427956240239	-3.77567650946234	-1.51506219100528	0.4497868781820316	1.363455795789321	2.779192233081499	-43.58541416401231	-51.03907830257141	9.31529295788885	31.07214844420993	-5.265483313018316	-4.544144211145011	15.64966256779468	-16.80301201550905	7.229734619793007	-31.38874987456892	-43.01229450823385	-0.04224700138042817	-16.94168078691801	5.308646266944887	-0.02270635745792322	4.836237287129636	-4.847074089419464	-0.2072003359392387	-4.656904381928882	-1.249762056805208	0.770460148789993	-26.82785435774598	2.926796795677231	3.828946801256543	-1.62690351752263	-0.08900391100065963	0.05076348498276148	11.98539525842761	0.5454262488513935	0.02372269235608018	-0.623999351470545	0.07218792111763506	0.4152343084364282	2.211776773710003	-0.3474112078286198
0.1792	0.7644153998815728	5.370001585784385	2.930803885645457	-0.2946140503449044	1.460222675361194	-3.146248170281748	-43.40240801886067	-54.87609556989614	10.52984319349266	29.27206067550012	-12.35349646544687	-1.121043635567422	19.88994947235962	-9.537391800683533	14.09123824956096	-30.32864924731647	-45.10992642535247	-0.04374574240155447	-19.62133115815279	1.375400613612063	-0.01891794213578991	2.944440610828034	-2.646242063495226	0.001513208470280691	-2.309719806057675	-3.395670080528527	-0.8716901145740166	-27.19610256352781	-0.1718487575604806	2.334176312538495	0.0964764084644926	-0.03166932692787822	-0.02135612101591804	12.23688249615308	1.236311344212224	0.05946785438522733	-0.3495117597246555	-0.06943200842815665	0.1406026730946631	2.236534626728214	0.09024057658867714
0.1887128561131141	0.3633721424171412	-4.055164340855711	0.02862997387030471	-0.3833706723801988	1.250691657904895	3.815805439568654	-41.34148883572907	-56.78455547338252	10.44801872655634	32.02264595851944	-6.983838365654019	-3.017777144204416	13.38154166639993	-14.19732406517187	9.415884408973088	-30.15208106224678	-46.7537114945574	-0.04381388674997381	-18.57825751793015	3.833602384857393	-0.02434848038485527	2.966831149246344	-6.032336976535271	-0.3282964045019462	-2.517170990097295	-1.829487919422616	0.07832855850766307	-28.19059898950297	-0.2264729976878392	3.106004080998733	-0.9506196983778171	-0.08026156701127507	0.01952053521853553	12.61335226834399	1.085200737622969	-0.04675019848830081	-0.5324990389158668	0.001724339653032541	0.3121625441222997	2.342868767860373	0.08609550283663481
0.2056558844730552	0.4139774010039829	3.439777191416389	-0.4404377109468827	0.03566144967287954	1.204865959281904	-3.143495900370621	-38.62940226091876	-58.29449601417473	10.40366748981956	34.13582015801602	-11.11347296197479	-0.247482847423532	7.828886436491617	-15.02150157406231	10.49243290705093	-28.45895647168867	-48.23946240692376	-0.04303290443876265	-16.12994258311634	0.1720454273960832	-0.0313316213567406	1.155029565901998	-6.649972470795165	-0.463296410152066	-4.883469908275866	-1.738465706468944	0.1817925588055664	-30.17487531569019	1.683766075607334	2.503736508211945	-2.011027228699531	-0.07144449024713184	0.04491171630368368	13.51906976816135	-0.2184017413231764	-0.08262021636522823	-0.4559481486915312	-0.01192159793071232	0.4709557719496694	2.531966863675596	-0.04796370564070146
0.2200312594138309	0.4345503928544403	-3.619684587772437	0.4340516866855084	0.4025016940615771	1.359645482389794	3.184862742126338	-36.26199602614434	-59.09246014390502	10.17325504242237	33.38031098148935	-5.762205782028652	-2.808403787130331	5.745770203001885	-14.0505906668438	8.806946137974148	-26.2191479454416	-48.52343895032136	-0.04346126311297117	-14.38482384116396	2.849165280325543	-0.02954925259963242	-3.859194414608742	-2.247134275731188	-0.1639363886803507	-5.752739738890901	-2.438004214913105	-0.1769127096451413	-32.47006740999128	2.180247202824059	-0.1426280402931429	-0.1761138841037287	0.00951867585229603	0.005975591473763878	14.43500817720498	-0.3100392299454204	-0.006651232616912165	-0.01284937535386553	0.02507421538062944	0.192218122960589	2.816723124225703	-0.1967612726618563
0.224	0.5000737817101886	3.332200654766923	1.975642397710968	-0.8431054422744424	0.4836649323546567	-0.6780003443748051	-37.25349389811589	-60.98539084974926	10.81422818971471	29.1473673762563	-11.25135988680973	-0.2588272125821875	13.41584739602158	-9.902950850511321	11.40898944297593	-24.89899434054179	-49.33723348844138	-0.04312153243723428	-14.87951120590338	-0.02844737701113453	-0.02533441198832267	1.063801526639431	-1.306020235235125	0.08297606213665099	-6.216720345184305	-2.224298536158288	0.06164981177914197	-32.96453196607104	1.351406131924893	1.807915248544985	-0.0942064312952733	-0.006808007592335796	0.01266478765225671	14.63093113958488	-0.1254594495701227	0.1245038541861466	-0.2487404500262918	0.06072211374529844	0.1971227768889829	2.864707739112474	-0.07199258080506914
0.2335128561131141	0.2330565373001292	-0.4934916412572702	-0.5634260974117853	0.2948609042460362	0.9779907824075735	0.2802828946696199	-33.69915643336143	-60.56400096968754	10.23217654833819	32.06075931931623	-8.474245881523739	-1.47607009229317	5.03813067674353	-14.23487038211684	6.903797401678928	-24.38157222034075	-49.36141541529364	-0.04145721950707656	-13.07013310292579	1.174744909622974	-0.0284462926605946	-3.262417758999877	-3.314677480818075	-0.3457915743534564	-4.228962426762262	-1.773792316078317	0.01121199961093922	-34.00913820865026	2.482623638181156	0.1637227847402121	0.1072623039089558	-0.01179020629691562	0.004254382201828546	14.9424688788384	-0.6549992845015686	-0.03969315097744584	-0.05398871201894002	0.05005553422581609	0.1576490591569522	3.018898601417229	-0.2122597022351077
0.2504558844730551	0.2396521972413517	0.6328399370289348	0.5465173517650733	0.3639615110461456	0.6055491785250524	-0.2532100920011366	-30.42671959419475	-59.73160562934135	9.577641829435745	28.78075799605108	-9.742076192064776	-0.362201342018956	6.431518686483855	-17.46070987980976	5.486292956607709	-22.6398500652674	-48.95401818051276	-0.0384541039546187	-11.58656170552724	0.3089706458713739	-0.02673283092231047	-2.548314721838511	-5.274767998285959	-0.7607916909866954	-3.796750979061839	-1.068012071186309	0.2773000396025964	-36.53937828896651	1.406856373430888	0.5279946537172086	0.1644487795802684	-0.05220223117168913	0.009853707652235925	15.77269486732309	-0.1833259417574898	-0.1235565761378322	-0.1089743178297623	0.08327596658277513	0.1592326470049098	3.359463156844432	-0.1426883426089142
0.2648312594138309	-0.09557300146458303	-0.1866253749070182	-0.678775210565986	0.8709936860629526	0.4080341125610403	0.4842265841277396	-28.44465371029768	-58.3515413043872	8.662150155729943	25.58694503440334	-10.88808978103965	-0.4221208725233945	8.533037243346914	-15.76105951016943	3.410447523894431	-20.78908863737239	-46.90416984560515	-0.04015360979272802	-9.988638322932692	0.1054655048434347	-0.02218529823031171	-3.537038701151136	-1.590368254197936	-0.2679103504142336	-3.480108815513929	-1.42780238612841	0.1807150162929768	-38.95772085038116	1.279409468816767	-0.08854990739515863	1.90876128148309	-0.009085247145842756	-0.01980379466618992	16.7972043147497	-0.02348159675358198	0.0008088431380617071	0.03234366148899327	0.1502877960463916	-0.1054364686119036	3.713288396816965	-0.1152348802995459
0.2688	0.1003211031775635	1.418239845826108	3.085766206090019	-0.6276980600034108	-0.8641412917465914	1.235949979402271	-28.98605983151966	-59.20138063856059	8.809336375131721	22.49740686128654	-11.3287092988992	0.7388372130079612	13.86021694838056	-14.2922537723744	7.524005050484424	-19.96334453502905	-47.22578623963608	-0.03876325280194629	-9.432914655650661	-1.038450643021905	-0.01983644312185725	1.342002544866375	-1.356197177096437	-0.06086816516889565	-5.857516512358769	-0.9536768002676199	0.6285056636933134	-39.54722672818456	1.007543184965883	1.938401893856039	1.111971551230327	-0.03039041054824052	0.009954266600563276	17.05861848675418	-0.08061921333405396	0.1016065197172801	-0.2252986468009221	0.1872118289739047	0.02292805314187228	3.790664560442846	-0.07979422598536165
0.2783128561131141	0.1576784794285153	-0.5582143175482277	-0.6268511381975576	0.70312783330332	0.2541397153622142	0.1917604818667726	-26.52622378304823	-59.52023612713528	8.134925065952281	22.1351960602025	-12.5719424279505	1.084269635388577	12.232661972238	-16.54530630734943	2.963001421180106	-19.32938182442645	-46.758597874468	-0.03849730372172439	-8.931366698746958	-1.659190539334206	-0.0174447185100215	-0.3347319767346597	-2.205295318492142	-0.3830843095058364	-0.7096868502243291	-1.56083088364766	-0.1228886165209687	-40.74562804208585	1.595658266802254	1.304911496433073	2.527347204453397	-0.04654304142590393	-0.04068731079707152	17.46457371232992	-0.3873226754665148	0.01433141398184639	-0.1515709473688329	0.1263924804603674	-0.1935357995457689	4.002436292059801	-0.132319653984657
0.2952558844730552	-0.8078152427399985	0.650142685969931	0.9109776879085684	0.7014699504392858	-0.07340851093698575	0.6736144259616097	-24.21006511352275	-57.03593479360345	6.680541867243612	18.10761764848379	-13.33477493442891	2.443180861109793	14.90111106623703	-19.03585484445642	2.869556615473602	-17.72569814567668	-44.82769136528429	-0.03710617997930702	-7.102478431952729	-2.978066766887403	-0.0139681116888142	0.4342623202921847	-3.461624370122184	-0.7556375001534715	-0.9129857772733684	-2.08800623966892	-0.4165077514313058	-43.50348539321659	1.203858336029846	1.775938372521285	2.266899578875913	-0.08142484918945836	-0.04496256753004532	18.5748945592076	-0.2958579507638557	-0.04893927284222178	-0.2250270441270573	0.08293702162434613	-0.1675099124338329	4.472039756362486	-0.09225148194258226
0.3096312594138309	-0.159593607369521	0.6061961838160683	-0.8441045645594019	0.8710174833269537	-0.1511839185930057	-0.4423591448134019	-22.54280614183838	-56.34230299987888	5.460025573020589	15.59023644471022	-14.31933560826382	3.349921443179477	17.75676738962766	-16.82141535620403	2.298204006404721	-16.06851940710042	-43.17125545564361	-0.03986654357156422	-5.309559038714213	-4.141233616475058	-0.0117381269225838	1.285093301767281	-0.4073120135345779	-0.04493336747997756	-0.7351416627847489	-2.203992558404885	-0.3281905389106023	-45.64312185256373	1.294158000125796	2.356467758081771	3.097271420566104	-0.04983350687603677	-0.05251808164417093	19.51291730952202	-0.3866051293818425	0.118518562878026	-0.2689471416323592	0.1376843220776816	-0.3018340112993352	4.922960166383408	-0.052211235743404
0.3136000000000001	0.3437789964302009	0.7081219534223258	2.131808888434201	-0.1737649476405565	-1.431347946679182	2.238057377763027	-22.17966017878473	-56.51216645430399	5.343296439075313	13.03551821523017	-13.47935172526753	3.554407611974529	21.57571405356505	-16.92101404907568	4.414946717821395	-15.55373916265285	-43.40980139498853	-0.03888046833414127	-4.576540813365533	-4.31449123337581	-0.01000698349719642	4.789566208147649	-0.9592799397749018	-0.0591937347922602	-1.282427831425946	-1.19763933712996	0.1409895780647807	-46.13919724750421	1.255081701592019	3.716665087540429	2.862868820083114	-0.07419600841556645	-0.03256543586882586	19.69590319254736	-0.4756654543039472	0.1482413988927455	-0.4404299374721702	0.1929074657106402	-0.252729621308219	5.031265977114765	-0.06298451362553042
0.3231128561131141	-0.3072133336009628	-1.206802338016226	-0.3828543354837748	0.7306884518317931	-0.2361197544906304	0.3582461463792299	-20.57850744126709	-57.59029887250649	4.56116464050881	13.69610531132648	-12.88533834069348	3.743716487945799	19.05068182217747	-15.44276927241321	3.739811202997989	-15.06423939186502	-43.24473886593969	-0.03901284282201815	-4.273248516345349	-4.636523072993898	-0.009153574142372268	3.1204306047163	0.09048169828525734	0.07826180014773432	-0.4035876878050155	-3.826248412677808	-1.007497616649742	-47.24478041515719	1.781391705800283	3.349650372320964	2.843614793126119	-0.06624417820024231	-0.07084023204084491	20.09018810319957	-0.736378040180104	0.1705192704184845	-0.3958457693954879	0.03378067570455424	-0.2921365314853857	5.284817133197132	-0.0927972482459417
0.3400558844730551	-1.067616061325358	1.75085354963056	0.6524531533191407	0.6054302314160598	0.06240513390997648	0.9063995851167377	-17.73538971534111	-54.69342053727854	2.770994475411514	12.30555360967814	-10.58249241701978	3.793412130700735	17.83149145081384	-13.60636127359598	5.303333447652276	-13.42821834502476	-41.39443010780237	-0.03921411357327385	-2.526804707649734	-4.520480597692734	-0.009793205706375485	1.870423741730353	0.2299395818509765	0.05687384066643353	-4.381156435530071	-5.83392122929868	-1.458061258226309	-49.33273107111036	1.580957081232993	3.195416403690396	1.187534156454478	-0.06769291595339977	-0.05856566063888631	20.83453134257985	-0.7101632242758484	0.1628582737679611	-0.3789099775139105	-0.08139980917200218	-0.1067315739386955	5.715980745754901	-0.06511017322334578
0.3544312594138309	-0.2838467916474343	-0.832376098996643	-0.5804674124055202	0.4513903257638283	-0.1248488875543217	-0.2037856602190047	-14.83905128774992	-55.09972832652399	1.609067867853216	11.18204397853422	-8.76436711519024	3.568866687696618	17.4447927791889	-13.29494868497362	4.51131192055884	-11.81781538894978	-41.40828182448127	-0.04088867923579824	-0.7286066941594699	-3.979787906226806	-0.01180864571627679	2.341476379731341	1.659739258299908	0.6395919541353838	-3.928029039240842	-4.118696292017548	-0.7148041382314918	-50.67679883910105	1.713931881410104	3.482278804511397	1.632863483600462	-0.03906065126797303	-0.03778736989137447	21.03055447811628	-0.640259504254867	0.2660444546419377	-0.3828128308912642	0.04639186809140605	-0.1697676797181397	6.028900978888956	-0.06125746131519692
0.3584000000000001	0.9638790825585239	-0.2476024290696019	1.220476677287507	0.2418054821787159	-0.9675105705545661	3.303635317089991	-14.5897027869034	-54.53074418296698	1.295569235826118	7.243629104259873	-8.131617016939652	3.512968327954332	24.19312208173963	-13.21630658557671	5.170280084890706	-11.25687357979813	-41.40106960676311	-0.0403736447777959	0.4875733676940684	-3.912769639207954	-0.009877314945472815	7.042052196261199	0.8364947930707545	0.4915410466496248	-0.5555682216525764	-3.391896263321371	-0.6376271110013384	-50.87893390878455	1.686357100135111	5.248453702711115	2.532288096520233	-0.08246293002670835	-0.05351009833441639	20.93832864137693	-0.6982401666987311	0.2812253631737474	-0.6100724187156451	0.07073287342607422	-0.2690850270041864	6.095206979512198	-0.06580656915075551
0.3679128561131141	-0.9304410816081798	0.07234001555637296	-0.3386252629935855	0.1114931078270551	-0.3507200340586678	-1.198569887225702	-11.62416382096945	-53.91243328053429	0.3255527970285367	8.592888102279796	-6.777476553874944	3.035340018760662	16.84589097787914	-11.75676312348007	4.786629359321211	-10.65485269770638	-40.94775657147931	-0.04044338748750765	1.591078585104487	-3.331515174743104	-0.01259074368112199	1.934073363866017	1.935282905736349	0.718475305611568	-5.323942223118716	-5.443913880608067	-0.9933193760036497	-51.44027861757689	2.09543387604666	3.555786831382544	0.9698759668227172	-0.04196079931182928	-0.04051882742125824	20.87575438587864	-0.8585787629462596	0.2749092213522446	-0.388365610884489	-0.02378595669312999	-0.1224117056468656	6.211042894429519	-0.09627283786919612
0.3848558844730551	-0.9193299799998762	1.551100280668347	0.4200049233945672	0.1065682503995262	0.1467185870150729	1.62659194687172	-6.865750711966323	-51.68713669737174	-1.107231633240043	1.531527489931717	-3.796750445581706	2.304420592539629	19.81364040285068	-10.0417718333193	4.221387277309142	-8.766987915947588	-40.27494397175521	-0.04021480087388437	6.377232453118276	-1.827498048255358	-0.01471168069725643	0.968963080229692	1.494999940767522	0.5282114401434519	-5.854789780152246	-6.248560068420351	-1.081748832339013	-52.04409036988891	1.796677683628189	3.369216009905868	0.6650826195024714	-0.05203640136901633	-0.04726282318633875	20.43327413517777	-0.7120644294003073	0.2285533896556969	-0.3657973872970924	-0.06308099724544744	-0.1285666626591721	6.27264830741769	-0.07318919616873629
0.3992312594138309	-0.1338246661739895	-1.262438553429216	-0.2374507776551729	0.03729118084594774	0.2123888808254719	-0.5802047714285337	-2.359839818902733	-52.54301400185935	-1.909224521781308	-6.153352496342959	-2.74798150141295	1.844088365781698	24.76798016476799	-11.31397202558516	0.6870168643985641	-7.028404264802358	-41.38218514165436	-0.04039573726824076	11.04953897581875	-0.5315253985740053	-0.01914149735274071	2.626930790128556	1.050115222883818	0.6205602883021967	0.2044306723610932	-2.612233889610767	-0.3122293537670519	-52.33250204643733	1.641468870444811	3.901725685510022	2.705620946745197	-0.05165554256423038	-0.04742988283696369	19.75263842807313	-0.5943062767596552	0.2500743214812147	-0.4133742212657979	0.1237511894092447	-0.3676766260183611	6.267021171726245	-0.05387908576459072
0.4032	1.407460762136015	-2.300217418980728	-0.2200898754587599	0.8450402277913298	0.2316959771994789	3.119877391814029	-1.670235049502296	-51.7951732602479	-2.119694999863848	-11.88157632502292	-0.7462051167773271	1.380211552404963	32.593907101641	-10.55978181719671	0.1118571139071615	-6.3405788186206	-41.25768465460884	-0.04067513033816705	13.85089068790885	0.325362852183023	-0.01942972947084579	7.071337874103258	0.3499303551619075	0.4044970913914363	5.818353861426099	-3.165956112144283	-0.5967916061828054	-52.28022896759796	1.743813846240665	5.771280777768717	4.2066878437759	-0.1009196896639618	-0.09814518326630206	19.52705778361566	-0.6823084758536827	0.2633958714472217	-0.6703256690100631	0.0766028479904074	-0.5489010644990816	6.252231091504409	-0.06451548157599292
0.4127128561131141	-0.4612713547501386	1.594046682922724	0.2255705737824466	-0.0365839128119605	0.2663869597482744	-1.686244114749869	2.133190423826806	-49.59605982292966	-2.994208339518339	-14.52895552238984	-0.1401530574495196	0.8674463593851987	28.84575412983734	-8.661269860479619	-0.1208804819615372	-5.486631369376497	-40.50846409136592	-0.04052049977419084	15.86959781342698	1.299045791766886	-0.02276295174130324	2.625687951463448	0.5593550550827895	0.3729880893980082	0.6090081412753725	-3.219776853266938	-0.4149851009736582	-52.2076921066118	1.664312972988757	4.000845831336594	2.811391822265503	-0.06836524180391404	-0.0596680123306433	19.03341434495182	-0.6386161045448751	0.2088460366129349	-0.4275823913268185	0.09165436003995707	-0.4280152945129477	6.18231745916131	-0.06894858529741252
0.4296558844730551	-0.05515714066098809	-0.4740249417036205	0.03042986481636088	0.6852685278575681	0.9903254061269422	2.389854595284206	7.776858567493084	-49.77202396974455	-3.458638657444168	-24.82525597655134	2.039846270902322	0.2791538805855129	32.72072168225111	-7.006506834115012	-2.517714306127449	-3.496463956392506	-41.2416002975119	-0.04069463113793794	21.41367398518037	2.779866863749422	-0.02436821528312524	0.1120165312039282	-0.1883980107546705	-0.06149969233135379	1.088825225527393	-3.295303945422312	-0.382994763420591	-51.82022630323524	1.47911542122196	2.993836872197481	3.004809157121845	-0.0667318134736411	-0.06820209131704696	18.145352099404	-0.6840989102130184	0.1131496564611089	-0.2961000391587481	0.08426543902734179	-0.5028198599799431	5.914709329739478	-0.06692925933501348
0.4440312594138309	-0.1825841428017227	-0.07546792473446305	0.626731432818587	0.70423552173866	0.009612213245361545	0.06434102404929831	12.35013590783376	-50.63813812978587	-3.962327209289163	-32.97478455893946	2.300689637662196	-0.2283680233226315	37.04338719371744	-4.583606002352351	-4.180147939254381	-1.808977235254532	-42.28722693019382	-0.04191169409120262	25.32134503065895	3.624826015856893	-0.02562186452026797	2.411042462845929	-1.004448707094539	-0.2325270371502893	5.413276507958884	-1.529010238432138	-0.1271833546703145	-51.70039077980864	0.7210548550515335	3.837593893108225	3.966063230569838	-0.08469462582760887	-0.07056617273880628	17.44106929691817	-0.5428768904966613	0.1135879413411087	-0.4061818875979287	0.1358666390342066	-0.5787709573336225	5.76459256634248	0.004028309447950604
0.448	2.079461570096036	-5.205055599865742	-1.538313392160001	1.192884715046791	-0.6355162661736244	-0.8801656140162706	12.8605646064871	-50.80899306500942	-3.940734027296417	-33.48623501537177	2.303444183074165	0.02801892225567659	38.8653861668815	-8.497486315611528	-6.360684278315402	-1.188885281460999	-42.38643087779214	-0.04265294650912857	25.67184272557186	3.273512029998569	-0.02639688343558479	5.064414896794261	-1.476640378912598	-0.4353053110255105	9.76295695232937	-2.347636623982165	-0.3112864399569357	-51.59011832895335	0.755225737067571	5.20257284777549	5.161267380078732	-0.1187256307998605	-0.1167984952564723	17.25567334367977	-0.6161396904486902	0.1234574405720469	-0.6004500711051781	0.09014867266858678	-0.7265179652425946	5.713079690888081	-0.008999378992778608
0.457512856113114	0.05623004185914482	2.176336294484739	0.6150937231036016	0.731896818315823	-0.6213559095029382	1.7425776022416	16.10948583389533	-47.71867775463034	-4.43928925576406	-38.33812911321144	4.10159577022438	-0.6512751516875177	39.06626009294995	-2.51069149002477	-4.730003832257218	-0.3143674312558753	-41.23530075165791	-0.04254961787942873	27.61849192585648	4.166354207001341	-0.02487780575993959	1.829705813229473	-1.240056122172107	-0.4200328297435237	4.972789431713489	-2.104795507010938	-0.1630551990369269	-51.6107672048261	0.9332142002134548	3.513353815177676	3.891710066406299	-0.08645677039917758	-0.07508985792644332	16.98378627890203	-0.6723536712062954	0.07540657414507995	-0.3569605649028085	0.107301982681856	-0.6089239497612463	5.62128210507184	-0.04290852600643121
0.4744558844730551	0.5029080673422328	-3.436944623226245	-0.5051276841926944	0.9547137622665005	-1.091784303169106	0.3372304221718068	20.40975214821547	-50.53106703764225	-4.058186801226293	-41.80748261402157	2.92385474691337	-0.6432086072845973	37.4749833352889	-3.690747538024339	-8.228456124800402	1.664142872413644	-42.83265622472255	-0.04419527635246998	28.66706836838095	3.040605262498445	-0.02384303743749739	-0.2333646637721577	-1.71622958190077	-0.8345167873623063	7.725057520956063	-2.057296327736842	-0.141300010089591	-52.51019272442738	0.3811756218546074	2.31840873693856	5.009182433579897	-0.07708466979344723	-0.1004698851408438	16.86374872772078	-0.7634199107051526	-0.01926591556654323	-0.193026476149271	0.1196292032095414	-0.7848749741118374	5.602819927035665	-0.005363435058396107
0.4888312594138309	0.0256682941499804	2.200463705461633	0.4061478361745381	0.4889445380172628	-0.9397426518211773	3.163567049474281	22.14762547138057	-48.85873097358852	-4.810487178175487	-40.93606869901209	1.192614092207314	0.4551375564980402	36.06787475647944	-1.59284482770775	-6.977309542581073	3.591683693661389	-41.52519931021011	-0.046136957318366	27.40297340329604	1.883678422488946	-0.02292960762052221	2.342679162918411	-1.68817491784786	-0.5598768244693122	6.771604573503339	-2.07880479334931	-0.1338007843900768	-54.10747255113156	-0.4091163941912666	3.458277430004495	3.828475023625278	-0.08736682401100211	-0.08076906689909721	16.95391795535787	-0.459110919746148	0.0522521707291623	-0.3425527366229251	0.05972674654940537	-0.5681267024843425	5.858139617592615	0.06298218942342947
0.4928	1.929155817391234	-6.342423329910312	-2.17611318106248	1.432727458680127	-0.7691207107054083	-3.210160782180896	21.91263369259865	-49.93080943223971	-4.798163290490397	-39.78823105180106	0.19422980476247	0.8396075014196223	36.20113543961956	-9.119424775681502	-9.759090846660213	3.80298823563623	-41.75784164320291	-0.04490271089847837	26.63623924113941	1.371245840840137	-0.02263589056649276	4.904195834460647	-2.37383107595735	-0.9255526209534497	9.183655544085729	-2.367322871862525	-0.1804052904230296	-54.55241609923165	-0.146867668287342	4.820213407016327	4.631818660739299	-0.1238175985066805	-0.1042706988861623	16.9374071970764	-0.4497624729913951	0.04421125787446709	-0.5406853002515092	0.05720553859483493	-0.6745643175230599	5.930042734544895	0.02705526847216471
0.502312856113114	-0.1867007429694709	0.630380868844955	0.9900414290840374	0.6165121576720054	-1.460930371964082	2.188054328427611	23.6361903410212	-50.19617576453888	-4.53587239444923	-38.95699790316505	-1.66818758256487	0.7648896889406922	33.23451727529323	-4.968274431687154	-8.680859705444318	4.961394612791231	-41.93058394431431	-0.04498014569814877	25.36896204922323	0.4746441500264116	-0.02245525794234623	1.8851110745088	-2.039717500697318	-0.7788724271861003	6.601829235511084	-1.893024630150262	-0.09653284815792984	-56.0327093375452	0.4722885841883261	2.987114848225556	3.807950551847137	-0.08325047031123822	-0.07648899183286119	17.17112255042741	-0.6801695816172401	0.01008037862744794	-0.2723687540706446	0.07045315983936237	-0.5716643213590933	6.149600256583404	-0.02122113004429702
0.519255884473055	0.5707491220951049	-2.710728180916823	-1.102266261090143	1.008837111730422	-1.545520810232063	0.1946323252132274	24.51181854192325	-50.0903652494472	-4.397007453393996	-33.65399219787413	-2.694903753117396	0.9138973055649222	28.13335981691104	-9.869453285217649	-11.79509646182541	5.963288947572821	-41.21023898007859	-0.04346851150715844	21.71101698164246	-0.1538067421885455	-0.02410824232310985	0.3208997344470297	-2.521390386220315	-1.176683644299178	9.421034434756418	-0.8017198281419677	-0.01174653111254154	-59.42959547382591	0.2250323372028642	1.761639581729176	4.897072700128407	-0.06955700325781897	-0.09072733489893484	17.85045810547549	-0.626006575103679	-0.07897881385644426	-0.1040020915779821	0.1323361689188345	-0.7035117185738361	6.77989013659539	0.01126744741424685
0.5336312594138308	0.2955140757994563	0.7271516163810432	0.7297658281056291	0.607143691200875	-0.8049746192394878	2.401596145480717	23.67563578152926	-50.9146566818897	-4.799771461227124	-29.33114346048111	-8.277330767051934	3.183295289811412	25.32376006788108	-11.21801183525507	-10.10572807080269	6.636281388663521	-40.06295447584399	-0.04302321061663224	18.67636297274555	-2.604049598141995	-0.02491874898421196	4.4043669522139	-2.909236835652896	-1.294084064504807	6.128358542058214	-1.245699134992496	-0.07630703439828396	-62.96994693637983	-0.3344867950524713	3.783442234028844	3.034618386508426	-0.1107041034038727	-0.0628620708778749	18.57088288826512	-0.138969798771964	-0.03426263942523701	-0.4013509572088264	0.05925365947115539	-0.4112216515298922	7.487766394886016	0.05042536531776706
0.5376	0.9655501985216581	-4.805699111113134	0.7503887854455202	0.7290974019878789	-0.09758266143819583	1.738243624000063	22.60844955221167	-51.52671576273825	-4.818326496707448	-27.18711464723721	-6.585607022172986	2.398838808886229	25.21496929048325	-13.70770555617251	-9.259431118666802	6.336647034120166	-40.11938094223028	-0.0405019607931557	17.12854363286958	-2.046931332432147	-0.0243950993303909	7.326546977951009	-2.848067220953593	-1.253965551617959	6.439566059385951	-1.636889129620493	-0.09916378463248016	-63.98029701235825	0.2923142567964025	4.774047726808487	3.378284936305562	-0.1302415415743149	-0.06977827649809605	18.7192551817725	-0.3400687463529958	-0.008911389724885574	-0.5417173207406361	0.0604402556043734	-0.4822078860359236	7.703180677294224	-0.007524495284317504
0.547112856113114	0.3050727024032192	3.100947597301269	-0.02023258418128879	0.6513718262225794	-1.68788973585157	-1.790947386107451	23.38227205316715	-49.97442354889234	-4.640592305512307	-26.11586351276229	-13.17340714774292	4.739825998083898	23.35477340113584	-15.33022907489553	-11.67208298796818	6.839314934528492	-38.65411563124868	-0.04122439619252012	16.50738392927433	-4.886854502567357	-0.02741662340833988	4.354811221927414	-2.856316901180001	-1.197539255499933	7.110587325002591	-1.16123299757892	-0.09745129374591771	-66.48437265163801	-0.8512679239760361	3.600089427708427	3.207316182316661	-0.1018877542340154	-0.0697009417844324	19.35008933410341	0.07430575290116653	-0.02498536854836311	-0.3659318223038371	0.05545075769880611	-0.4162141221648003	8.213473003967975	0.0876760586634876
0.5640558844730551	0.3181266107268215	-3.867912971133008	-0.1665277087372694	0.6700408524872685	-1.626251271521255	4.029309117096361	22.62250141850634	-50.18898504939089	-4.359153529202739	-20.45598345390695	-10.68014960825415	4.048987484620785	14.70040012158982	-17.78560526272846	-10.67121500487704	6.977429709420218	-37.11768355707345	-0.03862202073418926	12.80246552687267	-3.314921462237204	-0.02778055645164628	1.182432478383055	-2.941097159417322	-1.33031730941654	-2.62887441512115	-1.0559639342488	0.04913074789358926	-70.88393192095776	0.5606283340160281	2.217381257101002	-0.5163243793864182	-0.07490444854230646	0.02444651240340003	20.32070113528201	-0.109278976671582	-0.07481179596440951	-0.1737693429956944	0.03229204407581706	0.09074383263004852	9.140180957311404	-0.04111123981515576
0.5784312594138308	-1.125934345615832	8.271449915014419	1.061605455770372	-0.6925163632430085	-0.7471022027175422	-8.226985196233567	22.16191000621552	-47.73336469593637	-4.798605052760797	-19.19781830764595	-17.909686413444	3.965736452242236	14.63561273439862	-8.684273071957637	-10.31743294236505	7.019943633208185	-34.00242891012447	-0.04085288047754401	7.599845989474163	-7.323195041554323	-0.01975755699290201	3.796105232839222	-2.902643663652764	-1.384858285792755	-5.881591562526308	-3.916097809710221	-0.2609087319806961	-73.74201183796724	1.635836926230059	3.958703592799609	-2.128689385702478	-0.1125663180894146	0.02639984925622404	20.81035297014336	-0.745661497725569	-0.03315033843581957	-0.4433554946686155	-0.1253361332313572	0.2961747439122427	9.778110614423785	-0.1791289653822825
0.5823999999999999	0.5930972823901826	-5.409390147669308	-0.6704212281851238	0.1641623164324102	-0.4464844146829705	2.300711040730754	20.76427452872269	-48.07227220110079	-4.539727493836387	-23.8027452251221	-6.672929366443181	1.546053001010667	21.79745730995457	-9.750885458559377	-8.540412536655186	6.720998797052503	-34.22163198972727	-0.03849090698225857	12.63587086123654	-2.79030317435505	-0.02827657307849464	8.300316551824187	-2.848687780974594	-1.577140435312884	1.092253050088626	-3.602029896842536	-0.3386222984376634	-74.3259091975569	1.429434800216502	4.781390498660829	0.884011051207294	-0.1396012021844522	-0.04282611662673758	20.83660212292824	-0.4969428367101375	-0.05695627026387864	-0.5752863783777594	-0.07965431567080719	-0.1350571254074654	9.930504059826887	-0.1367198090632057
0.5919128561131139	0.01453091075425661	-0.68435366390456	0.3484370670171681	-0.1659137867597735	-1.257222336744633	3.768078463777027	22.46552882589515	-46.36287931470306	-4.228193089020032	-21.0473811257377	-4.476592222542404	-0.5728550666177861	10.43393277143512	-0.9928285824778957	-6.661598151301754	7.061585325621779	-32.47030776845327	-0.04312833087632503	12.96578751043189	-1.362293277986413	-0.04306577549694268	-6.179609567693573	-0.8196514460152203	-0.1638933675845855	-2.395076825843479	-2.163899586162244	-0.212688341817491	-75.75324031205811	2.804628790798961	-0.170580307523844	-0.4617633756028012	-0.002350543509029669	-0.01137668066107234	21.0227855846042	-0.4900237880864846	-0.0004475719084133462	0.1809575658171068	-0.04769451190001722	0.07352790848488525	10.22390487455345	-0.103615360782767
0.6088558844730551	0.1589443531191321	-3.538640708411346	-1.649921071937149	0.4672031199762623	-0.601542523069611	0.2852353280811091	23.68363764849951	-41.9621897848312	-2.795882402635703	-25.72848087133276	-4.114083983923424	-1.092090735647948	11.53508026716426	2.523776688968788	-9.535916863191074	7.338683721202958	-28.87184211373484	-0.04922975987830341	9.816396958863441	-1.74436341910782	-0.05451850843378316	-12.43232134502966	0.2389916218003907	0.4296215231098142	12.29319266238309	-0.5251694269478799	-0.4129000354213325	-75.84204453464197	4.021154651735732	-3.216722805911816	4.921779389902463	0.06667709129321409	-0.1543738980971754	20.94818212568399	0.08582267521068448	-0.02742838699880977	0.6376764856508579	0.008000716465507193	-0.6173178936759925	10.15210474445988	-0.04068439373181215
0.6232312594138308	1.017950309266304	9.310253020816072	2.76118508799266	0.1705505591015388	0.1120440201573842	-6.778470754913593	23.96056737228739	-37.3786633023227	-2.858468320652908	-32.98638717402853	-13.88389774190941	0.6701366777890394	21.49197986314433	8.756472916337168	-7.780208112374591	6.993592773315383	-25.0923231606946	-0.05043677106349523	4.487181082664726	-6.752644592543875	-0.05090641733453424	-5.640694703599581	-0.02972102216077999	0.5068587453234062	13.00002909821512	-0.8908740426264952	-0.453874934841937	-73.66040948559144	5.113622538810784	-0.8569636525649228	5.857435084652408	0.0186177624681938	-0.1727066544051286	19.97319668494405	0.2743644463395185	0.03905859806145889	0.2865062026156621	0.01323689427114101	-0.8081930085266941	9.94922926404567	-0.04342096623317679
0.6272	0.4895204291088326	2.110123186441782	5.952258504738075	1.110934222572683	1.20896093920453	-3.245916603663509	22.42127700328788	-35.98918660797326	-2.339894515125508	-33.02739093604599	-12.19572277562706	0.03636493575382449	22.18890613885976	4.892856923342482	-3.469272407690322	6.289409272174348	-24.30615506629675	-0.04654101491350512	2.265964390054297	-6.846790876419606	-0.0475946533311257	2.874279154372868	-1.795708599624808	-1.020484326126636	-1.801085128047648	-2.429485472495357	-0.2514651179572081	-72.65006606923802	5.401646474536813	1.516133968342565	0.301013832676216	-0.06887722757145701	-0.02818760397851031	19.63203509188949	0.0203912726768759	-0.1023084323235589	-0.1144588442626041	-0.05103298556676333	-0.08171687745164377	9.825998640690946	-0.0427372437652061
0.636712856113114	1.571859198324496	-8.013983304683087	-4.116895096923075	0.8595903926979371	-0.1755223765874803	7.567202319901758	25.02172663279215	-32.31344509991473	-1.639829241807369	-34.46655541773082	-1.755641641462125	-2.445328140483876	18.47285860788016	9.224856512713124	-12.27481039233562	5.387041246856133	-21.79278137221976	-0.05216913125952186	-0.1596372782220836	-1.890037896735554	-0.05424950013085466	-9.716953201372458	-0.1276317362475856	0.476237324742611	16.83202902869001	-0.9714720776713972	-0.5521837267155703	-70.02969552503741	4.945827245178545	-2.207344929685324	7.070271236718149	0.04501950615327399	-0.2100830590801504	18.95735019379442	0.03765873178754997	0.002666320301218708	0.4964917099339615	-0.002146646745031566	-0.9594431727332405	9.446611415339902	-0.1970880958772024
0.6536558844730551	0.8120071763118482	1.828028391228006	3.656556003574343	0.6113856714626955	-0.03249731388780219	-2.909626919576153	25.556630393265	-26.42222563713162	-0.008243866372745323	-46.2679204623405	-20.5789698407946	2.585173331068169	24.91927112147167	7.831645703914757	-9.364610752096583	2.659847838395287	-17.51745050354132	-0.05289681902767452	-0.4470338496560955	-15.24163380146396	-0.05181716136846501	-8.790736751498041	-1.188762894351383	-0.3079922455722148	6.191822275504112	-0.5608127696146229	-0.2848090649026653	-63.21420640212724	-6.194567506222581	-2.050728605286297	3.532021513445136	0.02190357383548236	-0.1073881451147806	17.27878394472345	1.738747247042724	-0.09542986005755766	0.4710375362463777	0.02830593416974935	-0.5076519962522871	8.417423879765126	0.2262301105410095
0.6680312594138309	-0.1486643315414362	-4.709460692979733	-4.042551981506763	0.6600678661168367	-0.1939350577181358	4.290259104147086	26.24581551729075	-20.855232100784	-0.3482243534486158	-52.61087324910133	-19.06439584222476	3.374737103503696	30.93125702453763	10.2581251906222	-15.98608760471611	0.3429751113806017	-12.85084002913451	-0.05277549449774239	-8.745207861792474	-15.83885585005074	-0.02779495220776085	-1.082324898720258	-2.839348025126541	-1.295778274482103	2.257447917795938	-5.144869069848538	-0.582772376375414	-56.01093264488427	-8.789087927252186	1.498143744599387	1.646520465968155	-0.07025189236620616	-0.08580622196875209	15.37826842370943	2.819405155027721	-0.1145381508516769	-0.07935314663074847	-0.1595391864376317	-0.3011778171018089	7.547990893754283	0.4646984033583682
0.672	0.1375417001420907	2.91567861008163	4.461147674979084	0.5443342631281993	-0.9863282836646476	0.5024407858823317	23.83035300154178	-20.08062832399435	0.3567198127077815	-50.46388692067136	-28.34888770950475	6.024850926131451	33.76123444735216	5.72655752763257	-9.516562055120678	-0.9827353751112122	-12.64004607489623	-0.04734184247386923	-9.100642792878336	-20.66989457276216	-0.03131272714202866	4.898464974612801	-3.201493677011521	-1.854993647471357	-0.7549290207777392	-3.615474609933861	-0.3502183532508829	-53.7780099724728	-9.253383102805923	2.704400527413491	0.8139452621253864	-0.1113282266439002	-0.04478475223189873	14.82007014236609	3.070373277532503	-0.173309355653513	-0.297540529651418	-0.08520562194667175	-0.1866054538511912	7.285852570115294	0.5050900307638039
0.6815128561131141	0.3452618025046092	0.351547316884279	-0.4715713661658548	1.331647439458941	-0.3973985674687697	-0.9043869789842711	26.65187615980468	-18.93194341909618	0.5181258897279397	-52.19493496987251	-32.25757206613869	8.184929539839715	28.46977406249167	5.097754019519789	-15.37563697299024	-1.613840678262675	-10.54375617458933	-0.05256822088558641	-10.97322982864262	-23.75574108852784	-0.02885147489439657	-4.526286881685898	-2.285703081819857	-0.7463790309964808	2.818361279339905	-3.550717214576399	-0.4112907468814694	-49.11415946360773	-11.66437690775613	-0.06363226942822571	2.205085275348116	-0.02245839386308471	-0.0798752722818241	13.75612184579961	3.992401716905873	-0.08289149432971253	0.1782435996814093	-0.07101916434896373	-0.3806160168469844	6.762581071661792	0.7389888674766727
0.6984558844730551	-0.1234062106604483	0.8505024924423426	1.187618957051189	1.777963198770131	-1.504789789792312	-0.2089241572839944	25.54537927531139	-12.89808211076091	0.7396631173291852	-50.14424444208284	-38.05338338045192	9.841291656883524	27.01862720024991	0.3791766729311417	-13.18890571357722	-5.807670030327293	-6.426420472096416	-0.04728287792640462	-13.65879963869381	-27.286758837194	-0.03206102502631793	-2.666149316055214	-2.549279493803737	-1.003608585786376	3.896273831986226	-1.662910474392521	-0.2446958361018086	-39.67946475871758	-15.62383326666032	-0.4094106633187885	2.981913810436522	-0.02169944422909728	-0.07941829952866616	11.94466259263592	5.283413681452219	-0.1337477507452517	0.2174371094067403	0.02501138023882605	-0.4842153350552487	5.816698402493743	1.096363886577435
0.712831259413831	-0.6745478209905507	0.7902001998607573	-1.532243178892814	1.48245113786194	-0.423701231757093	-2.661280792476699	25.74760709242047	-12.99841510873253	-0.09065548797146539	-48.98905846585297	-42.99222384548369	11.19392641747401	24.70811682647738	3.917521297048808	-12.44702982550939	-7.527613717592187	-4.185062801665814	-0.04841324056526055	-14.71647153366865	-30.23986707106111	-0.03483424284523059	-0.8772586811086862	-2.137329141961981	-0.6548907551804356	1.809105560271293	-3.005894062102644	-0.3118459996216787	-31.24906511954611	-18.89103542238937	0.915348340930524	1.915516726439605	-0.04044766203819539	-0.05777478601329397	9.941489874192644	6.531037354175142	-0.05314610262870093	0.02517482853655032	-0.03533971343082454	-0.3356357564915381	4.98390560367824	1.373990824266462
0.7168000000000001	1.738860712781857	1.576002307347441	0.8043370144316065	1.093224737133557	-0.9077806962176851	2.936563551458324	22.69140993141804	-11.74622205830339	0.6186009013509994	-48.80895240533312	-45.47967160663781	11.40220293978978	30.60270442361979	1.749066705909607	-10.66258834604065	-8.362328257323401	-4.119219881899484	-0.04372059717186053	-14.69315458171948	-31.36350518521232	-0.03495349610887765	2.821325748586616	-3.146214357667596	-1.604986408204955	-0.8716275443021295	-2.252914983385196	-0.1561770139112509	-28.37758440163167	-19.69618492656313	2.196499395298414	0.9085989035324089	-0.09029522254057298	-0.02157257865308574	9.22139413567813	6.842345162785957	-0.1472677070590376	-0.1990013843579145	-0.004599163384940232	-0.182368569899881	4.626686310290227	1.449315738178255
0.7263128561131141	0.6669249495208653	-0.2976816157897624	-0.1239696875160398	1.519966428234738	-0.7223176878111417	-0.9820051034468982	27.05520644008329	-10.51611226530487	0.4584103879870325	-47.43564656125992	-46.72206474095821	11.06618816941863	20.283576386312	4.063389363177713	-12.77709540701733	-5.948243786379583	-2.102724067390886	-0.05542086049350405	-15.19789897162109	-31.69547031869899	-0.03849108852418682	-2.807572286544599	-2.293057223225746	-0.8984166913715326	2.179670959356911	-2.54522124272187	-0.3012260968644034	-21.55002809993845	-21.2088429409833	-0.05818605278236753	2.100038858291448	-0.02642781757560274	-0.06007098824122092	7.428599300640248	7.472159241789814	-0.1099815496092472	0.1645654162002923	-0.01632181441545928	-0.3566765857336563	3.749911414647392	1.588011308153184
0.7432558844730551	0.753897794927763	-1.558109416761552	-0.2908739352342269	1.390561766759568	-0.5466122082493712	2.203195607015765	24.09192964980405	-7.067249262293113	0.2854616500519471	-45.12872124457519	-52.72072259377322	11.3643619818457	22.46480659656065	0.8066458405592893	-12.11315474118216	-6.054138854996942	0.3441494975955948	-0.04554268069257517	-15.87840744851909	-34.31525961503839	-0.03914493129057325	-0.3746674152872092	-2.818284366581948	-1.400770405950198	7.23761510339604	-1.485099920725021	-0.3960719929093968	-9.413820016220972	-23.36526840070895	-0.3212984175001938	4.020332232858348	-0.03335026629897167	-0.1091436393080519	3.999222457048162	8.578983385266675	-0.1899870413959454	0.176367586638512	0.01476723055876102	-0.5994683152776664	1.846656137540661	1.704225190498384
0.757631259413831	0.1755100933683451	2.10501066727696	-0.3433696449978823	1.022030677645251	0.5551942565061836	-4.642489209093437	23.91856479641774	-6.423907859030129	-1.62181859005335	-43.31755566999257	-58.8992272522442	11.45496790297883	20.65948645226401	5.136121617639787	-7.813010276429395	-6.783201463513331	2.892478955000297	-0.03543691088921107	-15.38453786644831	-37.21591659652332	-0.03868471683469101	-1.615493301578589	-1.452168515518085	-0.2332537568345451	2.665926684352145	-3.348461374487327	-0.5396465208105035	-2.012992199215057	-25.49694127781767	0.3512121117169824	1.848058377320061	-0.01801188277613491	-0.07277788241041366	2.068579984551128	9.339650737025467	-0.0148677514918331	0.1152865651628807	-0.07831184528344476	-0.2858070460321535	0.5173208430373745	1.850246611972013
0.7616000000000002	1.080492460913636	-1.723472639383038	2.179949199091	0.641741525905335	0.8973172332352988	8.783443727733772	21.05683527637202	-8.732537071034786	0.06715164614344404	-41.56920331664217	-59.98365156545452	11.31761224497416	25.0394883600979	1.819671326364674	-5.371376588334241	-10.86388056114591	0.4877863509264901	-0.02092854542689482	-15.47094802815127	-37.99435608125853	-0.0393508383975457	2.30160219799789	-2.321862378481512	-0.8602976607901205	-0.1440039889344989	-1.512163017245996	-0.1553513222830986	-0.07064274212756133	-26.14719176900758	1.440753358716298	1.260962028572202	-0.05525947440776077	-0.02734573037957865	1.469376488236332	9.431506877038561	-0.07101970153065762	-0.06867622998425099	0.02955718068327917	-0.1963428407206089	0.1973173279466367	1.916491197944987
0.7711128561131142	0.5217690096754524	-0.4529667142565293	-1.352544296474979	0.4896839675942957	0.06246762446374987	-1.988712319911773	27.68141397814973	-6.509386354243444	-1.205764845026573	-41.03638600188962	-61.11475078210063	10.81824170111513	15.74713247948904	4.532192277099844	-9.336644899636701	-8.518702099331961	1.723829801383464	-0.03337169356127598	-14.94283195801682	-38.60124592673911	-0.04208293172961237	-4.76306191657961	-1.066024769780419	0.1519657147982291	5.790114068428636	-4.360084678589867	-0.8816861911379237	1.306463317492683	-27.59363662711354	-1.66690500410084	2.751703314782191	0.0330241651835988	-0.1166860915401353	0.4439583184185849	9.90383878901614	-0.0161151315526977	0.4408622128649713	-0.1399751708399529	-0.3990631519423257	-0.1134880210900491	2.054873499156824
0.7880558844730552	0.2281648879632066	-2.237540914362941	1.458895190589613	0.7359745317329605	0.2036079688819541	5.090322856466987	29.08660747724914	-9.70987862914161	0.4671454289677195	-38.9855544901298	-67.07003185681565	10.59957204466891	13.81722486126046	3.110683865442118	-8.972381914629654	-9.384161819990345	-1.281095473955297	-0.03307999145468789	-14.99657069623552	-41.92675958117802	-0.04242841776562609	-4.471236597568796	-1.753715187030096	-0.4196224369186744	4.546639870730787	-5.320243705603947	-1.079285688620348	1.907000843062302	-30.05742822326909	-2.494514559641662	2.192556963019099	0.03777296556916926	-0.1163410779063255	-0.5890333088881385	10.31627386811803	-0.1084064599481287	0.5561996355687899	-0.1824594361251972	-0.3140782040966683	-0.1441590834058001	2.292570256575904
0.802431259413831	-0.03588898882816594	2.807686035807343	-1.642604137500607	0.3210353183190549	0.3323963175327549	-6.216069392521334	29.58339944079026	-6.756224543888978	-2.234054289578217	-37.30912307543989	-68.72915175029372	10.06783453330348	12.60244756877037	3.836706869213251	-8.209539724751345	-9.804318479466628	1.176501179636497	-0.03085240011770015	-14.33518898389185	-42.73891282028212	-0.04215585847691188	-3.58503845834856	-2.169108049101632	-0.8628884000483162	-2.638390323655434	-3.73175200005037	-0.4281063009499635	1.502627301318449	-32.75383245917481	0.6041837622139582	-0.1076324192681481	-0.03123561930322774	-0.01710301534983204	-0.3325985159120557	10.76177443061996	-0.06053460019265813	0.09993335313788822	-0.06107345076335623	0.03344427925579133	-0.1144580551411648	2.639789470546018
0.8064000000000002	-0.09310111527683063	-0.5807385383720765	2.959471163109701	-0.4814269300750063	0.1450047552432352	8.51346025714076	26.22044107689382	-11.25912714040635	0.3381666328371815	-35.69244981807556	-70.3564574199214	9.793135800909978	15.29357773118726	2.968362871169054	-4.907762569208728	-11.36409893849794	-1.720359657794557	-0.02387085789239462	-14.0848524444025	-43.51875015048287	-0.04337975076468096	-1.382376062084888	-2.350421175713231	-0.8934973785697704	-5.336750065505481	-2.850960274527539	-0.1365409428112034	1.76444782795068	-33.60328979386923	1.405913327961541	-0.6436514377307163	-0.0483183053951339	0.01444125428624099	-0.4679692272434972	10.72825292425232	-0.04387345539854157	-0.01858447079840269	0.006542570071536668	0.09866057081178356	-0.1328213944324249	2.771301047742639
0.8159128561131141	-0.2536472561646619	-1.218238295123721	-0.9789297011408459	0.5914404251185523	0.6972454269258037	-1.320823113001843	29.937338805255	-9.443762294661285	-1.044382204628408	-35.10479155316738	-69.56369242227461	9.297396943971346	10.57512365979363	3.71978016966646	-7.673622171165805	-10.10542104776518	-0.2791379309964436	-0.02903640331449206	-13.39819927292923	-43.20054001375122	-0.043784815066065	-4.287557709674331	-1.940175426691642	-0.7070001777895676	-1.08169636384099	-4.583706067594159	-0.7004307403693981	1.91877480546629	-35.19445705162477	-0.4750023151095869	0.355156683765843	-0.005102436433620211	-0.04504476192009749	-0.577501447768661	11.0075242164792	-0.07012597109168578	0.2645958504592089	-0.1085149320073694	-0.03155568539212899	-0.1539845911835797	3.03274444574284
0.8328558844730553	-0.7725550789283204	0.8925682940172028	1.216758220201923	0.6567895893868823	1.139302034465345	2.265368277478935	28.31122577252469	-10.59593752285386	-0.2191819084068194	-32.78582569397221	-72.14803182683194	8.665542224768132	11.54295952785673	4.474145085359985	-5.315461409612309	-10.45521596050829	-1.022199721946735	-0.02538305732604483	-12.78007468455894	-44.48536142964281	-0.04223292757645825	-3.530988370809844	-2.098970080182645	-0.9200949471920215	-1.926346613576715	-5.395243783955546	-0.8671811205844596	1.534536228381723	-37.61740346638234	-1.118191155267975	0.002110414299163588	0.003659571953215063	-0.04971649313894608	-0.3824612863118927	10.96712103595546	-0.1139466434130294	0.3494713761294339	-0.1465856571653473	0.01396286214482293	-0.134454528379329	3.488254750760583
0.8472312594138312	-0.1900675902469047	-1.090372139734781	-1.103555172184867	0.7570531596686667	0.9246537720246124	-1.914850999624903	26.80253748788944	-11.55951107965511	-0.7780090848683501	-30.53294450112717	-68.68492430893858	7.561231292530196	12.64627140449688	5.707648216847177	-4.615542857659061	-9.839305771726105	-0.6596423929923887	-0.02253636753018598	-11.47713365498124	-42.5589611920764	-0.04158774974638876	-3.057215647813206	-1.534084159540199	-0.5469202743088404	-3.335145994972815	-2.911064127153474	-0.2363522965940907	1.238920412457158	-39.85419208587082	2.0337765512689	0.1915510636205638	-0.04602120106613816	-0.01003797433329257	-0.2416839213669072	10.95675723629378	0.04310867957296487	-0.1038826640357717	0.01208810264496537	0.003089904077708324	-0.08000217672228463	3.987359697183157
0.8512000000000002	-0.6749740966407671	2.06596957413931	0.662405689493326	-1.243531985816491	-0.3852697174284003	3.653752056600727	24.5061679752301	-11.56764889777318	0.1382361077092273	-29.16889059542327	-69.99729747583774	7.225071044024639	13.62435597503636	6.82726196296113	-3.35915079819298	-9.67506347708146	-1.380727820032473	-0.02001842939383972	-10.91891662793321	-43.12882911057942	-0.04239728947499715	-3.326418563082689	-1.205956914828282	-0.2019002552105645	-4.150672103682167	-3.174400270650524	-0.2472145399230716	1.338870421266257	-40.60720419417467	2.085880970294788	-0.1470749860359561	-0.03732999934639308	-0.00344951201971495	-0.2766268286173806	10.81706085215757	0.09236824565613452	-0.09932056876552212	0.0001505924537570467	0.04826979909762927	-0.1000293180292452	4.180758753594885
0.8607128561131143	-0.07233403213335521	-1.752687896319723	-0.5343808493741378	0.5133459614516802	1.172305099517075	-0.3264087460275356	24.47447769717121	-13.04186468428816	0.4161681519817475	-28.21442071965649	-67.87473225488748	6.743429306352985	14.08410806087578	6.831699935839026	-2.736941036612435	-9.249693126856673	-1.856231471036926	-0.01864666425676654	-9.926581226891265	-42.12569790131063	-0.0413098362930423	-1.761802295396173	-1.223232171628448	-0.3331734016206359	-1.277087118325158	-3.412847125373938	-0.499579369010209	1.562719686312595	-41.96106712832706	1.541437213221656	1.048019277446248	-0.03176337977907689	-0.04474543620606472	-0.4774675580707404	10.86907355752271	0.04868900825393086	-0.03007612780169622	-0.01759982026743163	-0.1303953151936978	-0.1076967612039247	4.592841974940575
0.8776558844730553	-0.6466703644208884	2.016103802345393	0.4777960345142863	0.1422507101333639	1.242522430565316	0.5035776259106761	21.34583081140703	-12.74471675936785	1.128306298057693	-25.19022187752327	-67.63398124137913	5.750086996034696	15.31866122461175	8.183538180383604	-0.8158596915786175	-7.961178790402146	-2.317907092180189	-0.01512846677425535	-8.199751679661407	-41.73911551627095	-0.03968652682302667	-1.206388206691154	-1.541744896789868	-0.6556107832067098	-1.634472042922348	-3.126961681647435	-0.4625708974936689	1.334677057301545	-44.40686238233057	1.062160323517689	1.237030802960899	-0.03078097749921276	-0.04815826527892281	-0.4201767532021883	10.6767799888079	-0.005759064886596867	0.02996412081306829	0.006669453164985453	-0.1662477956287832	-0.08574043727134832	5.363662704885323
0.8920312594138311	0.2428362284131573	-2.996178339709522	-0.4730012727983144	0.5293307400061646	0.7338762678371609	0.5327837721572024	19.15428965530062	-13.97496385892306	2.023460793304253	-22.44991381392805	-62.19200443446475	4.582886008302463	16.50033923700877	8.617051806102129	-0.2612953817612954	-6.468208354016474	-3.15221651683103	-0.01304831615668352	-6.058729491491849	-38.8524732139238	-0.03885162291992117	-0.4512094388519107	-0.6832396683862406	-0.03530314785444209	-1.072202561550947	-1.646947495989982	-0.1172640720974926	1.228007424925307	-46.57468767706039	3.842231541262111	1.746021540362177	-0.06492692150971863	-0.03402956505844665	-0.4421648668548511	10.67993622921889	0.175413794867378	-0.3706004866428776	0.09495639839543532	-0.2180965349971517	-0.05197267709888459	6.000005097039658
0.8960000000000002	-0.1065475467777013	0.6859052000237326	-1.470921878470505	-1.283723681261372	-0.8957943044059675	2.200131709327238	17.75085213072126	-12.67768822624202	2.023611312368092	-21.38672673861779	-62.97976810555021	4.148501332263909	16.82805363603209	9.72951837178462	-1.375293605448986	-5.806109325193251	-2.962832784379245	-0.01187857313363424	-5.391335821361402	-39.00306593398397	-0.03908710460732158	-2.081263118334673	-0.06317319149704897	0.4354952773878785	0.7183041491227202	-2.307444658340754	-0.3815536020424265	1.412962039811382	-47.28997684898191	3.268869690867117	2.048649156054606	-0.03735602638169563	-0.05411861658988137	-0.5089615602552453	10.60871103235428	0.2267156647266167	-0.2763297469904717	0.04154694471163198	-0.2519883960610647	-0.08619323637763246	6.20349736141203
0.9055128561131143	0.08371244976182979	-0.08487691945272029	0.2459283767017541	0.0343535977755014	0.7258916471594716	-1.282507757861005	17.19001996088163	-13.66051828406492	2.827724653356323	-19.96467847730219	-63.06639079412018	4.022341059189001	17.06600373419676	8.187667389542669	0.8451929743722952	-5.348243032079737	-3.866246780193483	-0.01043026147769573	-3.955924031365835	-38.91207694760931	-0.03852402165842809	1.129942737652027	-1.621636715882982	-0.6517420921745357	-0.02579414022557305	-1.152560862425993	-0.1304705593881723	1.624806024017721	-48.68934867447078	3.703009137115081	2.515751412182847	-0.08257522004062218	-0.05375681014128453	-0.7260992014466471	10.67871121506062	0.08630628952992424	-0.3633219144377263	0.1207265657876239	-0.335930755009801	-0.08865491703150231	6.628255208646554
0.9224558844730553	-0.3218153482610653	0.4751732026116314	-0.5140282583097879	-0.216916561843508	0.4801875587947393	0.6447394524478227	15.4073737999764	-11.94062423437813	3.128474824986376	-16.94434297729529	-60.17151868228481	2.771733845811341	15.85375492566231	7.391165367651931	-0.3389177598978702	-3.775241302716457	-3.84252288524011	-0.009525987892250291	-1.22038232318512	-36.80429119420222	-0.03774731941760297	-1.351891975772242	-3.210734770940517	-1.58413279020798	-0.6930997302964085	-0.09215856173412573	0.1254966745224722	1.434183516059401	-51.28615792861527	2.513918416387492	2.820753015966884	-0.09098732316500932	-0.04919389194899415	-0.6670665036073156	10.76485951389107	-0.06377101662021545	-0.2271209201480749	0.1883345993565951	-0.3798654874232428	-0.07036362922962168	7.264464672470011
0.9368312594138312	0.24522358852618	-1.032052717106279	0.4307522640927252	0.0766315800586348	-0.3070265828277456	-0.7476315729209659	14.05083102152793	-11.37970936609629	3.646140915850418	-14.69845276982121	-58.54083690751314	2.158785935079193	15.62792063821072	5.524201734805235	0.7187694006194685	-2.38549337422221	-4.093011722308556	-0.009198997490344481	1.18244128237826	-35.84083414432225	-0.03717892268291585	-0.5143180983141898	-2.138722728820285	-0.7813516049927002	-1.730519684085148	0.1594627965204331	0.3684970691367336	1.395896288320542	-53.31208189910069	4.261258194450807	2.006177753571369	-0.09746963374297141	-0.01560509974064686	-0.6628255762932017	10.80285935913546	0.1171766933229896	-0.4879616446693484	0.1982041966244962	-0.2275193264128428	-0.06231500589462403	7.707818028002327
0.9408000000000003	0.9028773010680098	0.4737008294356978	-2.206679044854928	-0.8253464037903164	-1.375778960093498	-0.7782883750473601	12.38812876164366	-10.42060648669094	3.456106341990715	-14.04834205162844	-58.02482637021187	1.694474505304402	18.01827253836083	6.870817484904492	-1.162622710358114	-1.646415484861172	-3.746722717346891	-0.008176544098424223	1.752688844755275	-35.51989454389871	-0.03678355813766031	-0.8723714107557062	-1.46571263930707	-0.4109047092794476	2.821917637344302	-0.4830401877242206	-0.1232786546230222	1.54285832032421	-54.02031759714475	3.67852681468842	3.443720913610054	-0.07284702993105927	-0.06698306883738847	-0.7184290611617605	10.75862295959021	0.1491440342273496	-0.3887931175039839	0.1410140902234757	-0.4242152103037563	-0.08386317674286706	7.850556950802568
0.9503128561131143	-0.1604435417405483	0.2002622071370609	0.650465346952051	-0.3590516373560337	0.08499228375706025	-0.4475103301361827	12.90159612183313	-9.433814077333704	3.316727771849119	-12.70353008495518	-58.08584446382355	1.431645595950856	15.06568058745774	2.692583066545718	0.05713713740640103	-1.54887172972258	-3.632706516595127	-0.007947261892099516	3.264499593889583	-35.11177224731622	-0.03748029640069545	-1.221894832265995	-4.266685009920236	-1.685124345935727	-1.783067793068265	1.2031925968249	0.597626024938364	1.697369256202947	-55.60539563084126	3.68339735771795	2.420881188133502	-0.1259349826964844	-0.02014814010973315	-0.8252174989482893	10.9044631652091	-0.03029725215450088	-0.4516227372903146	0.2484217971743536	-0.2819057223535006	-0.09511517737782413	8.190595926833225
0.9672558844730554	-0.4243933517308847	-0.7175026519074167	-0.879055878947552	-0.4183410064878501	0.121963586744755	-0.4114281368730914	11.01838787532966	-6.123135637516138	2.376714975576408	-10.5464083625613	-55.7791603334266	0.4183143574749244	14.64399535015053	-1.151161044584539	-2.548221997323732	-0.3452940310505895	-2.198295164367825	-0.007434614309700461	5.984874370928393	-33.49281542121965	-0.03769740182336973	-5.171680638983885	-5.767286048920911	-2.084388300783825	-1.559830420416682	2.219662975172835	0.8522697233857705	1.489323219196271	-58.54497093517779	2.072260359056732	2.872450881343326	-0.1220171320694546	-0.02530902666485729	-0.6676160697840559	11.1128044268187	-0.1366248180838789	-0.2853616839230807	0.2934120883248915	-0.3330491830690879	-0.08301287082679366	8.674023822635792
0.9816312594138312	-0.0133611610046529	0.8006410770109114	0.6316643893396077	-0.2928167395481545	-0.3398873629130321	-0.3972795448081072	8.644813378316268	-4.134881351256904	1.75342334460576	-9.116524230222458	-56.56948609404795	-0.07759373536626177	16.44677357690038	-1.914316582620451	0.3323302451172686	1.216256633409353	-0.8432421243382203	-0.007744736267683979	8.18959894019935	-34.11188161104266	-0.037167160087344	-1.484384226016799	-2.271867178740644	-0.4403419340140946	-2.503231874033344	1.538292685433263	0.9556374582834659	1.484578197815543	-60.95407845043425	3.46810449482564	1.666618695918275	-0.07250203400276074	0.009832580322971421	-0.5815752061667641	11.18213202847057	0.1793749076253714	-0.4465174805990592	0.2567891931152945	-0.1252384033582622	-0.08124959256034227	9.077246005763069
0.9856000000000004	1.140084969387029	1.236065397128279	-0.8055718987538952	-0.07450126768955556	-0.3909493237126185	-4.241277706986722	4.297683399718198	-3.072756129095354	1.577899437639996	-8.944342919352438	-55.60442196843635	-0.4692672021898448	23.49404647011667	-0.8830367063576166	0.5436481933741888	4.109244336667501	-0.1023430087010793	-0.00834419799471074	8.457289442031103	-33.80695542197033	-0.03569872362864791	2.899560940485887	-2.555097256324204	-0.4889191269491694	3.658013495836921	1.024112169594263	0.2651083355531072	1.615023437986814	-61.80925305816869	4.407785930366041	4.090545812734627	-0.1034340018794367	-0.06638508104433921	-0.6610359181760207	11.13192404401653	0.1768471910472701	-0.5418971173908885	0.2124612201063585	-0.4752403104601888	-0.09647600973238782	9.210169699569519
0.9951128561131144	-0.9009094241534878	-0.7005870846692528	0.2820930341630943	-1.018799985214201	-0.03712443655962261	0.8114158090343935	2.735175676428203	-1.506536332661143	0.9882503633324569	-7.41705279781043	-54.40326772759083	-0.8374905272190851	20.31902557085775	-4.830082375907939	0.2560682342438014	5.321918683676216	0.9036051769296093	-0.007944089716003673	10.2104266765325	-32.79780389528558	-0.03792805565022561	-1.411909441110164	-3.684972964754697	-0.7400814823391463	-1.497292911384142	1.992056404913555	0.9455877450074439	1.699143076436259	-64.045981581744	3.343805534586787	2.220246123941114	-0.0892466021789467	-0.01166823309146278	-0.724745598697117	11.47913809121688	0.1233746473288227	-0.4793744976357344	0.2557814420791178	-0.1978129034491651	-0.1111075147844665	9.598366037716096
1.012055884473055	-0.8005343386743853	-0.2350098597618001	-0.5580496589253786	-0.9656174559859476	0.2899380867555124	-1.92604999441032	-6.686913351688808	2.539988655291578	0.03783445488701065	-5.317843252576883	-54.22999366206516	-1.367994546442662	26.9960945572697	-8.951153817250175	0.2533341034699585	12.13843370116398	4.020837530588863	-0.01136165506428963	12.77317755800513	-32.48263443924358	-0.03938668044149258	-1.486150313672693	-5.029768820163693	-0.8286901397125068	-1.498650327628953	2.207967181235218	0.9776267007304953	1.179169262503407	-67.87507700510635	3.196896938919116	2.121154391892188	-0.09441709054664291	-0.01834807723063892	-0.5229399181928948	12.01273530344052	0.0827243004069578	-0.5217465989065764	0.2351473942722149	-0.1754870196615385	-0.07622505636849394	10.20227263870914
1.026431259413831	-0.2379314874170149	0.7864780036202406	-0.01806684831209831	-0.5753624281449241	0.4206305259775149	0.4616081592234451	-15.19403871466693	5.243216549847405	-0.5384045476861079	-4.012427826702054	-55.40217297233011	-1.933394182238177	35.66008892193829	-8.496709964477404	3.64747945537241	18.07040599732898	7.08842383502265	-0.01821880804960324	14.41113232394399	-33.48937671257874	-0.03794549438726344	5.865699214842461	-2.479472332960897	0.1400453600311321	0.444622696288007	0.8923125007166829	0.5820981481838539	0.8623116266685711	-70.75403520882497	5.120485857526654	2.3032198500773	-0.05957495652547951	-0.02748815267670059	-0.3649122630689035	12.26042047253083	0.3175301026310394	-0.7091555546447035	0.1805336454023696	-0.1915477838346629	-0.04689948787073159	10.6699465229941
1.0304	1.262906088552413	2.161058256416051	1.970160342184125	0.9552906193344981	0.2874732921721943	-4.90493856946037	-19.51075050219033	5.148885973629145	-0.4625024488761604	-3.315581389279372	-55.44652911527535	-2.207774489844034	43.15702582804271	-8.302372731340744	7.416846511612632	20.3605708369653	7.466105362877403	-0.02003313282417665	14.10579607616925	-33.51718325764593	-0.03753936399234503	15.18926491275987	-4.364797502398454	-0.08696229818343348	4.920116306153059	0.7059951444235693	0.05417722729605901	0.9197487082683852	-71.72903052721692	8.137297651214798	4.401098494299551	-0.1617051121495499	-0.08826475040418441	-0.4501701428917773	12.18573004268621	0.3305592722136535	-1.0729441589545	0.1659420898528518	-0.5002518549205348	-0.05765660899087703	10.82415004756572
1.039912856113114	-0.4980815550276603	-0.1746826701381113	-0.411691654749322	-0.6908899928705292	0.9259031057877678	-0.8654836349736854	-22.03073393085256	8.691853890452325	-1.648467359716355	-2.287020813960583	-53.02061909388997	-2.450185922832627	40.86484393942401	-10.59348525007172	3.435443820821957	22.356296883241	9.783957664031714	-0.02240363540203556	15.46437598672181	-32.13940119545083	-0.03875543930784058	5.739060483233771	-4.305763740941897	-0.03927225827171499	2.133126645045295	0.5524763962657537	0.1850976481068952	0.8013514972430958	-73.97102976097219	5.196922734590338	2.914555897264542	-0.07148543385292128	-0.06011112897279833	-0.442376923468442	12.69034421679762	0.2459813817436241	-0.777349730946043	0.131804312780861	-0.2802336650602507	-0.05378365127243934	11.20903737873709
1.056855884473055	0.6799574945022471	0.5939210506188661	0.4179077809813975	-0.3899028504607838	0.2312836290593623	-1.266257359705236	-28.83967631044019	8.551315956563268	-1.352205938615962	-1.036218458035906	-54.70930986201792	-3.00081567553927	47.9600410126605	-11.99429785586681	4.681101308050257	26.20831046723955	10.46649845051902	-0.02454818964190473	15.75742984177078	-32.5965468376047	-0.0386156376567129	7.817793599189629	-7.026823614293288	-0.1273050822408727	3.501313071593568	-0.08411144648526236	-0.3026278942614584	0.1218519858574041	-77.45863638210247	6.22665172486874	3.072956289490048	-0.1004232470940191	-0.08483287377482635	-0.3224142849023113	13.01332757498974	0.165808252939433	-0.9735398531484948	0.05690064013168332	-0.3015317518591356	-0.003480736929482944	11.75824283427126
1.071231259413831	0.4161655805262683	1.419644411239944	-0.7253132830142641	-0.005331990669468212	0.08856469837667191	-2.054780281108414	-30.93432541193942	9.100264087468341	-1.03716813142468	0.2748993045392238	-53.84574119566642	-3.363664628955665	50.17678744803233	-7.707656080153455	5.361102468582824	26.34976516170939	10.74575464169417	-0.02512486797376027	15.63928138141532	-32.41436227367232	-0.03732166496175811	10.86174070854501	-5.082377028776424	0.2141546565211587	6.544372033093713	-1.267439344212933	-0.8281063963371369	-0.2294315326600321	-80.19852182283361	6.380756133469839	4.512764948654347	-0.07797912195235424	-0.1179298625931432	-0.189351810175696	13.15681655730576	0.2484680956272649	-0.9109951580683163	0.04869655633598649	-0.508425895463348	0.03255187897602344	12.15089085474558
1.075200000000001	1.405501075428347	3.665352431084006	3.33941998965102	1.521348112821201	-0.4479481164749473	-5.248308208394825	-30.71079443850966	6.149455188875269	0.03416372142252921	1.319775753178057	-54.89945364008822	-3.602449377922967	51.92406832622671	-6.627727642190882	10.35460161536243	24.26495585699082	8.602770764883694	-0.02173054602176874	15.01522914625166	-32.47343790419369	-0.03907093968612311	18.68866758554935	-7.026726229442467	0.0738257310738919	8.17640852801585	-1.165114675314508	-0.9946889905995091	0.09647596530435622	-81.19233795204104	9.159483938050181	5.434366655041894	-0.1698192639313085	-0.1423466270142656	-0.3367863411672528	13.09715678283606	0.296671994435406	-1.250167173100926	0.05240804695350013	-0.6410995342491617	-0.006200029434235262	12.29953211928415
1.084712856113115	0.08561625732774303	0.8189552371602754	-0.9058712983734598	0.08084333997938842	-0.3886967795228884	-1.097594865999454	-32.65434425563724	6.561134503082442	-0.1237338260798468	1.866202617342111	-53.38381417313112	-3.623624033612093	51.05747849243446	-5.62193327686801	5.846964076519209	26.30936850559915	9.152040759039682	-0.02292092172888077	15.28501400650424	-31.69028069241394	-0.03759225446099006	7.633814379488289	-6.180941099262879	0.1155248925222871	8.26198077664308	-2.058599811079469	-1.530756124243662	-0.001173788829568617	-83.24034234067994	5.403691346729135	5.174891301275355	-0.06601068734981125	-0.1555051662942301	-0.3640529487456869	13.40225252088735	0.145355862936318	-0.825685058293817	-0.02673613062079466	-0.6094980363477258	-0.000915301427725326	12.60052187211921
1.101655884473056	0.6105955988590566	2.160057446340841	0.2466903742578728	0.5700596599538876	-0.6183908740006814	-2.605294000218343	-31.99135336541887	4.808612828976202	0.4437052800698487	3.299822953054786	-54.63545857464962	-3.93262423598956	48.81759994308998	-4.577421204647075	6.72573364076195	24.58040140693422	7.624453125802994	-0.0186062473091723	14.26935573033465	-31.70793477020445	-0.03663072059497113	3.381208213935674	-6.075489695063445	0.1157722134989281	5.564863657663985	-2.539585984853925	-1.583238721184501	-0.1651617491057019	-86.39601079182094	3.883942519602429	4.014877759890208	-0.0289310438707403	-0.1356553217177045	-0.3837394571686799	13.44821820941836	0.0670975126874819	-0.6484536531178592	-0.06612804009091572	-0.4393161460199633	0.01674331247913391	12.93380445218074
1.116031259413831	-0.4674838231861358	2.075172503210194	-2.126206239164381	0.8557770561813136	0.5575671812835026	-3.111235835932746	-29.05429071704784	-1.156785522356943	3.32790181409964	3.89372233544453	-53.77181727476066	-4.072065895662957	44.21854416517491	2.767321187071795	6.105414274947858	22.12975968190309	3.797307737800873	-0.01751759282271419	13.39449313347099	-30.79595262730668	-0.03574770007207631	3.425202519626478	-3.215565931180834	0.1110038113787756	6.165186909360222	-2.618441036616947	-1.41763636812651	-0.06067700032311757	-88.52618094753373	2.739746333194127	4.619484646100814	-0.02392396767183502	-0.1320776567366586	-0.323725096786072	13.21477215394569	0.1133594867836667	-0.3987795698535017	-0.008881050802838797	-0.5168586405606878	0.01694191229123496	13.23664964044218
1.12	-2.798367124956386	-1.801668592426922	3.116084526328763	9.757586392260837	-2.066691103961091	-1.304048038764805	-23.19977746965597	0.8417222061380143	2.681274347256906	-2.669494406971026	-48.21684769219105	-3.678938121606847	42.55603479372286	3.101768107525388	8.663320892105721	18.98640239829697	4.257008533935424	-0.01747689339277786	17.04273335171484	-28.24900241195429	-0.03539835200754064	7.365843384993923	-3.091509777942809	0.2150222527389649	6.079777023157105	-2.620319561584071	-1.407822073158476	0.1716866163067256	-89.76694676819668	4.047052310950601	4.573042474457059	-0.04210722030656561	-0.13036446070285	-0.2933388661545887	13.68156020125953	0.1948221904019529	-0.5422397895940276	-0.00788293767264317	-0.5108497372996501	0.01039789132006895	13.413338075484
