DataType=double
version=3
OpenSimVersion=4.5
endheader
time	pelvis_tilt	pelvis_list	pelvis_rotation	pelvis_tx	pelvis_ty	pelvis_tz	hip_flexion_r	hip_adduction_r	hip_rotation_r	knee_angle_r	knee_adduction_r	knee_angle_r_beta	ankle_angle_r	subtalar_angle_r	mtp_angle_r	hip_flexion_l	hip_adduction_l	hip_rotation_l	knee_angle_l	knee_adduction_l	knee_angle_l_beta	ankle_angle_l	subtalar_angle_l	mtp_angle_l	lumbar_extension	lumbar_bending	lumbar_rotation	arm_flex_r	arm_add_r	arm_rot_r	elbow_flex_r	pro_sup_r	wrist_flex_r	wrist_dev_r	arm_flex_l	arm_add_l	arm_rot_l	elbow_flex_l	pro_sup_l	wrist_flex_l	wrist_dev_l
0	-0.08203044065214114	0.06889816034589061	0.02848082316852594	1.047761802577917	0.9501080826731328	0.4329063907334257	0.6041339841437718	-0.2393231426237938	0.1318800125447317	0.3742862077736544	0.03879643001440361	0.3484251164524865	-0.0383275330932871	-0.384984220347647	-0.04237228992711711	-0.02672250977189222	0.05854572980295385	-0.0928643254820781	0.1701301947359714	0.09396746454545897	0.1563783269951612	0.2560856641495857	-0.0562624641077705	-0.03539987579571074	-0.2017843030184536	-0.01671153675623751	0.06247601866307927	-0.210790684386432	-0.1661225742003514	-0.4759779960058643	0.2351362584450197	1.570796326969429	0	0	0.507375683015403	-0.3314988015297102	-0.0451534638809673	1.407580708390527	1.570796326969429	0	0
0.009512856113114032	-0.08623487362293143	0.06724594103249493	0.0308743173490704	1.049565282114387	0.9481034866131806	0.4347447877741679	0.6031607399566907	-0.2349448064256404	0.1201840111199794	0.3766425927985102	0.03879643001440362	0.3352255525811833	-0.03825831912407299	-0.3884247318444641	-0.04634331927269813	-0.03026461423390858	0.05335017971750673	-0.09335557583439308	0.1767339289134119	0.093967464545459	0.1608688073584537	0.2659242989289374	-0.04974671527554467	-0.03746291171731607	-0.1938373565694986	-0.01801004894179473	0.05792216554847969	-0.2313007125852872	-0.1665055387112712	-0.4705375401984395	0.2440561544647475	1.570796326969429	0	0	0.5282275917789236	-0.3294850617022925	-0.04875499314366956	1.438542162346714	1.570796326969429	0	0
0.02645588447305514	-0.09221864211869452	0.06303899498704046	0.03594047599724359	1.053691955259845	0.9448404765487298	0.4382782144470613	0.5973405664671072	-0.2249582664171645	0.1013965925365635	0.3885742490995834	0.03879643001440364	0.3279258688304888	-0.03842980445581559	-0.3950211919842541	-0.05238566893293951	-0.03629311828338694	0.04200547248006194	-0.09379269462219583	0.1938101788399066	0.09396746454545904	0.1763614874309316	0.2828109956154946	-0.04020841775918207	-0.04213271197690689	-0.1788231199125647	-0.01887813344659089	0.04943155400420304	-0.2686975574412271	-0.167061261253613	-0.4540615399716005	0.2603975748384152	1.570796326969429	0	0	0.5570648529797382	-0.3250112002260271	-0.05549114376304768	1.489661121145935	1.570796326969429	0	0
0.04083125941383081	-0.09521405318291645	0.05841729265030268	0.04102790440266201	1.058063294555131	0.9424750212407532	0.4414398653601774	0.5871179896207952	-0.2148719929170547	0.0933453153945998	0.4019810280277621	0.03879643001440364	0.3361017332090348	-0.04050398751136636	-0.4002883873910803	-0.05646273905475752	-0.04123136968985447	0.03079424468601933	-0.09218123100547448	0.2142612317063462	0.09396746454545907	0.1983482882394516	0.2959408239453745	-0.03662004057180382	-0.04696804833355157	-0.1662336737559511	-0.01793785162896261	0.04176331494949612	-0.3004484206934392	-0.1674013359134776	-0.4355681879814428	0.2700941136221369	1.57079632696943	0	0	0.5710631134708957	-0.3201640828286476	-0.06173671470477896	1.528248109056022	1.57079632696943	0	0
0.04479999999999995	-0.09573958909435064	0.05701790171528003	0.04254272496623163	1.059358118437201	0.9418781142900035	0.4423334235925124	0.5834082582035245	-0.2119357587059998	0.09349403079982524	0.4051627028770746	0.03879643001440364	0.3403153175072408	-0.04129062779245379	-0.4013458275898789	-0.05744236013205151	-0.04239338236429474	0.02753203502280887	-0.09139523594532756	0.2208578385831866	0.09396746454545907	0.2060214459245196	0.2985604850134381	-0.03696690054415336	-0.04801575938399611	-0.1628775912181698	-0.01745911731552091	0.03956762685844821	-0.3082618273956189	-0.1674966614994454	-0.4306918010792005	0.2717122012296501	1.570796326969431	0	0	0.5739773421124497	-0.318704631914578	-0.06340130923740012	1.538653724282568	1.570796326969431	0	0
0.05431285611311398	-0.09680923695839176	0.05335342401345976	0.04637350912156658	1.062584802548065	0.9404976729035254	0.4445308944375572	0.5730297952665617	-0.20467269487758	0.09556780100458769	0.4097200413005361	0.03879643001440364	0.3532275253426	-0.04034855034682067	-0.4061157518205121	-0.06066245682305708	-0.04462267411771881	0.01929094380562326	-0.08884390817211599	0.2382481819589907	0.09396746454545908	0.2274597179529609	0.3049487500150229	-0.03886576708616954	-0.05090698023569235	-0.1547542711991671	-0.01595383384683136	0.03417737656873677	-0.3254153830793508	-0.1677511271310516	-0.4187882134258066	0.2751856152602383	1.570796326969431	0	0	0.5795744446557082	-0.3150099051357155	-0.06727259909922317	1.563229867025055	1.570796326969431	0	0
0.07125588447305514	-0.09768795026081628	0.04564281141619384	0.05168908295035149	1.068398778146806	0.938442046012756	0.448832795842981	0.5534965239290983	-0.1894172965340284	0.1007139578136195	0.4177442562804495	0.03879643001440362	0.3833153567823612	-0.02456652921233994	-0.4240149788528744	-0.06932545969442583	-0.04613964418670463	0.003266136961226157	-0.08352292297832484	0.2753003982174856	0.09396746454545898	0.2769414838037666	0.3121670666398865	-0.04940030928660261	-0.06029835259098396	-0.1411268919065389	-0.01194509442016221	0.02397423873260321	-0.3420463054273007	-0.1678732695300385	-0.4000542901069851	0.2776071040609036	1.570796326969429	0	0	0.5809177794464911	-0.307457584111656	-0.0745920822163596	1.602402962726246	1.570796326969429	0	0
0.08563125941383082	-0.09767076219989808	0.03728441835397029	0.05349005296246014	1.073033302827836	0.9373187175401033	0.452992017696015	0.5405488755826499	-0.1728946015996951	0.1036852486613625	0.4324241593476286	0.03879643001440364	0.412026053934314	0.0007433399387840045	-0.4422992090782952	-0.07526433228505505	-0.04322780297150602	-0.0124791284152824	-0.08022544912361081	0.315106911481059	0.09396746454545904	0.3308064363104889	0.3137361524388089	-0.06465434322932367	-0.0740929431126565	-0.1307699739470141	-0.006718681416625873	0.01489311862012086	-0.3392098256917789	-0.1673444852287478	-0.3879530177557243	0.2757068657472812	1.570796326969429	0	0	0.5729944049535398	-0.3001102567674593	-0.08155477059745732	1.629275721025686	1.570796326969429	0	0
0.08960000000000001	-0.09769770632529838	0.03460889648740362	0.05363636747225022	1.074229477672596	0.9371244261109131	0.4542173473849059	0.5378560349394373	-0.1677355172271672	0.1046846261187168	0.4375592868155457	0.03879643001440364	0.4199149394272091	0.008477807165186993	-0.445977889915595	-0.07555515633112403	-0.04132418389846654	-0.01733103935056063	-0.0798888973024643	0.3278422372097597	0.09396746454545905	0.3476083824678753	0.3132172504678798	-0.06925227914976761	-0.07838089341491887	-0.1279820076433577	-0.00495420329412191	0.01241332613625202	-0.3364090811878138	-0.1671138028179418	-0.3851887576999747	0.2749789799393384	1.570796326969429	0	0	0.5702341231886965	-0.2980216231737601	-0.08347901835759136	1.636036119659544	1.570796326969429	0	0
0.0991128561131141	-0.09759446655582389	0.02792801084241735	0.05389127238295648	1.077075701221311	0.9368432135856719	0.4572047528111056	0.5317301600194129	-0.1548524457472301	0.1070079725636376	0.4508645630585534	0.03879643001440362	0.4380457699112437	0.02772067190620861	-0.4561884070308109	-0.0775755904292372	-0.03541015585869373	-0.02936172177805018	-0.07890681196411117	0.3609040021798985	0.09396746454545904	0.3911827230090199	0.3101184338030374	-0.08206539199344601	-0.0882596348129184	-0.1214040264600692	-0.0004731855366027907	0.006681445783113965	-0.3288204861250245	-0.1665399569405996	-0.3789842793037206	0.2716059779802792	1.57079632696943	0	0	0.5616731513169753	-0.2929561348341594	-0.08822471522987947	1.651326779326539	1.57079632696943	0	0
0.1160558844730551	-0.09687352191236362	0.01502971707798242	0.05402394162666908	1.082150772751985	0.9369943341347811	0.4626115146844469	0.518190485349356	-0.1306253808719285	0.1110221882312611	0.4698947788771901	0.03879643001440364	0.4653720532456865	0.05802949352484757	-0.4745212263294159	-0.0813078342658925	-0.02005005533628801	-0.05215422520796056	-0.07661346127563429	0.428524513827068	0.09396746454545907	0.4794281241452035	0.2968822613053972	-0.1107362615701845	-0.1043224656255186	-0.1095531700950903	0.00851329116395903	-0.002348534894366106	-0.3109361037362025	-0.1657781813438205	-0.3720554573458142	0.2603525584842872	1.57079632696943	0	0	0.5409209817289662	-0.2834881777401653	-0.09729611888666558	1.674810169678147	1.57079632696943	0	0
0.1304312594138309	-0.0953383195731318	0.003401954260194008	0.05428522852784353	1.086514810310214	0.937702374927545	0.4670826721269353	0.5003646121503719	-0.1100635566366988	0.1132573483662467	0.4748135641108751	0.03879643001440364	0.4814445210910061	0.0724942730435796	-0.4886139810401093	-0.085465354340535	-0.002840552877504288	-0.07220153604207133	-0.07289629066705226	0.4940066279715155	0.09396746454545905	0.563034013756934	0.2787817307062248	-0.1405115792017978	-0.113236442388175	-0.09969603980456282	0.01718580982501251	-0.008357172213889706	-0.2927059794932162	-0.1657199328965037	-0.3701562930641836	0.2472051431359214	1.57079632696943	0	0	0.5181679687575218	-0.2749728906337555	-0.1053594998251813	1.689598249507785	1.57079632696943	0	0
0.1344	-0.09474490824659181	0.0001379918966408556	0.05449262380348775	1.087706039177999	0.9379717684490344	0.468270729155059	0.4943299483019317	-0.1046017893532403	0.1134803993635977	0.4742467113071378	0.03879643001440364	0.4845776293842117	0.07431429902065173	-0.4920705358153993	-0.0867818078728632	0.002552098867334318	-0.07779084735474102	-0.0716394556187421	0.5130104256889527	0.09396746454545905	0.5871566515903593	0.2723406009727821	-0.1494529316107119	-0.114205054223462	-0.09713554192704121	0.0197358235385173	-0.009729296359397782	-0.2876673950536798	-0.1658246692569639	-0.3697266506888706	0.2438816541663216	1.57079632696943	0	0	0.5113535267636566	-0.272595309537398	-0.1074610145415218	1.692763089072836	1.57079632696943	0	0
0.1439128561131141	-0.09321083225522564	-0.007997937974814271	0.05498518587273262	1.090456853286087	0.9387090122956224	0.4710504530046583	0.4790703027018597	-0.09138915474819889	0.1138319840987654	0.4713076880569399	0.03879643001440363	0.489776957653244	0.07955121697949269	-0.4994361573498149	-0.09051348404645398	0.01682076261948884	-0.09132453353353609	-0.06787125036257362	0.5611803704701316	0.09396746454545903	0.6461754949386566	0.2581114715864818	-0.1728722355353288	-0.1141692305456654	-0.09121927765701288	0.0263934409195017	-0.01267210963140937	-0.2741741393448391	-0.1660840789274762	-0.3682825730829408	0.236532751483608	1.570796326969429	0	0	0.4939601010570684	-0.2668656183985318	-0.1124392030811824	1.698743239591263	1.570796326969429	0	0
0.1608558844730551	-0.08938490053524301	-0.02353848097890605	0.05644475767299655	1.094812976674707	0.9402872257828394	0.4756385387921551	0.4488399163257228	-0.06765768422313376	0.11389118602438	0.4612745762831278	0.03879643001440365	0.4915658001752486	0.09066191332106943	-0.5096371423778903	-0.1014797777002123	0.04784536243009549	-0.1157094678816964	-0.05678832914114053	0.6575144944696694	0.0939674645454591	0.7527490485008804	0.2265469283554976	-0.2189762988792391	-0.09831745608743594	-0.08276800594237108	0.04034379377645769	-0.01646092828306648	-0.247568066287455	-0.1673858200522658	-0.3631536134738064	0.2304313822922993	1.57079632696943	0	0	0.4602846291615776	-0.2561344757405428	-0.120067482786302	1.6986065880679	1.57079632696943	0	0
0.1752312594138309	-0.08473086998006515	-0.03735348097404749	0.05805622456972535	1.097833989356174	0.9417399036457147	0.479159440537502	0.4206584035507588	-0.04755018189555414	0.113790038746617	0.448938451917047	0.03879643001440365	0.4870073248711306	0.09925005808631787	-0.5160285157900418	-0.1145279784753007	0.07816166277183054	-0.1366737979928695	-0.0447618394726459	0.7432490790762063	0.09396746454545901	0.8407928562247766	0.2285756796005443	-0.2638106260895883	-0.07988628792870499	-0.07842397065823761	0.05371558597437767	-0.01836114229286858	-0.22275838339833	-0.1698590848684203	-0.3559755490711742	0.2365571096698906	1.570796326969428	0	0	0.4298183852033431	-0.2461965423899831	-0.1243663081788167	1.68434947879307	1.570796326969428	0	0
0.1792	-0.08333850507768083	-0.04108033054809661	0.05848469063138478	1.098580842663409	0.9421346121102726	0.4800825028344046	0.412653864290944	-0.04217541281981155	0.1137761730679902	0.4449768739897879	0.03879643001440365	0.485015409086006	0.1010806812928162	-0.5176419390812824	-0.1180305450244969	0.08583062461867147	-0.1424812563941242	-0.04226284012092218	0.7617878715654883	0.093967464545459	0.8641866533942432	0.2431211025153731	-0.2783805348094585	-0.07820549706855888	-0.07748330728024425	0.05736722397975724	-0.01881763041895974	-0.2149159012918301	-0.1707737521239652	-0.3536638202613684	0.2404237398032134	1.570796326969428	0	0	0.421509444334949	-0.2433162737660568	-0.1250495654196414	1.678484855620018	1.570796326969428	0	0
0.1887128561131141	-0.07989699868819586	-0.04995993611438734	0.05980153073066014	1.10022797059525	0.9430400343836849	0.482179539507015	0.3934264305166312	-0.02967994090435901	0.1134486475603823	0.4353227293485158	0.03879643001440364	0.4793092799431573	0.1057475770056702	-0.5202326341740925	-0.1266532193085241	0.1047141164119921	-0.1564260903497522	-0.03651374607916795	0.8075578008323051	0.09396746454545898	0.9179741706970704	0.2450751496332894	-0.3035699717866059	-0.06532539877292554	-0.07568617056196299	0.06620495811534323	-0.01975518706196384	-0.197111408965201	-0.1732144185140334	-0.3474898807314603	0.2513132851836141	1.570796326969428	0	0	0.4009764309751567	-0.2362675152834803	-0.1261215386341593	1.662160540586133	1.570796326969428	0	0
0.2056558844730552	-0.07327500002519341	-0.06413851414793939	0.06316722830572807	1.102526440486018	0.9446213765267044	0.485455812239363	0.3590978326061252	-0.01024682202820524	0.1121003047614132	0.4176172132330352	0.03879643001440364	0.467122312274925	0.1138382069204542	-0.5214015763513796	-0.1414093322261594	0.137290004501527	-0.1788398461888509	-0.02674564522964533	0.8727242954344954	0.09396746454545903	1.003582163257851	0.2290797102517673	-0.3215428479018492	-0.02268732623636025	-0.07460473535310692	0.08062146053086193	-0.02121905822105303	-0.1654789137968991	-0.1794809685970663	-0.3345522529702781	0.2823987847996998	1.570796326969429	0	0	0.3657632861019006	-0.2226476405214529	-0.1250067026084508	1.620976643898589	1.570796326969429	0	0
0.2200312594138309	-0.06729073548248084	-0.07367579398313136	0.06731198212440759	1.103725008451096	0.9459452634696781	0.4877323385979219	0.3306016192387442	0.002486790022564388	0.1100332857094278	0.4029746195318427	0.0387964300144036	0.4560561479351946	0.1192838516623549	-0.5198422207669489	-0.1513237820005167	0.165457981699787	-0.193534558442721	-0.01786757944658075	0.9145178020338176	0.09396746454545903	1.063668698373304	0.2168234712592553	-0.3284500605990096	0.02305695701453434	-0.07621089718684922	0.09058257427197554	-0.02229132900974838	-0.140133868354745	-0.186896562747903	-0.3222999494921945	0.3196589151839546	1.570796326969429	0	0	0.3376643950035972	-0.2100540612044476	-0.1211471180903397	1.572542231008635	1.570796326969429	0	0
0.224	-0.06569541501049242	-0.07592579763906397	0.06864588466041457	1.103939992677571	0.9462993375138318	0.4882904894985735	0.3230019389426337	0.005461182776298671	0.1093451493970381	0.3991022204207464	0.0387964300144036	0.4530077597625574	0.1206214089740599	-0.5191172401560689	-0.1532290862291437	0.1735738991847872	-0.196906293838409	-0.015561039268924	0.9243437273280617	0.09396746454545903	1.078003530531132	0.2148811188032668	-0.3319878448945203	0.03408963309572948	-0.0769423270954087	0.09296443384850001	-0.0225436262229687	-0.1334920168611637	-0.189119180695123	-0.3188373431194188	0.3305925410020203	1.570796326969429	0	0	0.3299579832469389	-0.2065320624417467	-0.1198083174625155	1.557739438403309	1.570796326969429	0	0
0.2335128561131141	-0.06188068222878958	-0.08099277907905948	0.07211935651565271	1.104285467394282	0.9471505520677544	0.4895135582853043	0.3051279277747657	0.01207190253517271	0.1075863590446131	0.3901189988139749	0.03879643001440358	0.4458022787441963	0.1242900622830286	-0.5168739134010187	-0.1573370985882089	0.1931211774638825	-0.204309931897092	-0.01027498234180617	0.9441359948044716	0.09396746454545903	1.108215278784868	0.2124493591578942	-0.3379684666738764	0.06115607445887148	-0.0792345220883155	0.09846454159676546	-0.02308024868278967	-0.1179443709676126	-0.1946987893039114	-0.3100974933052717	0.3580037939329102	1.570796326969429	0	0	0.3112858596642754	-0.1979953935534021	-0.1161069465268565	1.520017368629414	1.570796326969429	0	0
0.2504558844730551	-0.05528989485383383	-0.08723940719621399	0.07986777632690541	1.104171683723622	0.9486647038202661	0.4912397803596171	0.2747230254514011	0.02013397590445695	0.1037708558954901	0.3753749657684146	0.03879643001440362	0.4333847925262553	0.131488464915005	-0.5112001467354138	-0.1608985259612499	0.2293482885310277	-0.2126166648365529	-0.001739830475220893	0.9682210746636077	0.09396746454545901	1.147292291014472	0.2166520733662793	-0.3531859613595297	0.09656447215815975	-0.08549654315290413	0.1055221871727817	-0.02432943094624474	-0.09109003113338654	-0.2059540614211555	-0.2950920971136853	0.4097309007911328	1.570796326969429	0	0	0.279784478557451	-0.1823091140421003	-0.1077615432479941	1.443213662372283	1.570796326969429	0	0
0.2648312594138309	-0.05011499608823734	-0.08941616037485868	0.08809032933313361	1.103344075408689	0.949953252385109	0.4923017188284101	0.2503259277840285	0.0230866080021301	0.1000198211848929	0.3635930350822041	0.03879643001440362	0.4230557844559663	0.1369749753172771	-0.5060977006970733	-0.1596698103185663	0.261502850217784	-0.2146014520777055	0.004282118036976181	0.9777616535561254	0.09396746454545896	1.165782531971648	0.2234771240056411	-0.367156959205489	0.1104724667461357	-0.09286449185524973	0.1081834414098293	-0.02594123200624875	-0.0686127867082546	-0.2168409481369361	-0.2845885969885447	0.4552405152374318	1.570796326969429	0	0	0.2560406189179738	-0.1685909628042289	-0.09918595201662829	1.368360677014091	1.570796326969429	0	0
0.2688	-0.04881732842916447	-0.08976745649312595	0.09051615066708402	1.103030848866507	0.9503085230514101	0.492557400498683	0.2437747820816552	0.0236301673504209	0.09901573331226909	0.3602334895993211	0.03879643001440362	0.420177281475399	0.1383647509633802	-0.5050056612006087	-0.1587971791182652	0.2704455621092229	-0.2148204456822947	0.005477717124483039	0.9783899787889119	0.09396746454545897	1.168576321574191	0.224255060145174	-0.3693892004608864	0.1127157865518726	-0.09504882166205708	0.1086347039728189	-0.02643904693979806	-0.06236421252393742	-0.2199213554126943	-0.2820572961362008	0.4676755690459703	1.570796326969428	0	0	0.2498046673998788	-0.1648260177671866	-0.09670656950611377	1.34687429846205	1.570796326969428	0	0
0.2783128561131141	-0.04584022151950429	-0.09027767853058026	0.09654971601998633	1.102141933479397	0.9511543442775902	0.4930978595138953	0.228389591293234	0.02452094312602406	0.09654282158351513	0.352340041120245	0.03879643001440362	0.4131188954103553	0.1419900971887513	-0.5019979703521533	-0.1560786905163652	0.2918664266152147	-0.2147569121350059	0.007747581274642643	0.9767891477763637	0.09396746454545903	1.171311945166582	0.227942888865853	-0.372918776506969	0.1163582343262941	-0.1006761637919642	0.1093834628143864	-0.02770512198655391	-0.04742529743456741	-0.2274456828991742	-0.2760653733936351	0.4978304001309166	1.570796326969429	0	0	0.2350930958104306	-0.1557951892402707	-0.09043674616292971	1.293864125244162	1.570796326969429	0	0
0.2952558844730552	-0.0413597721229111	-0.08973941159677196	0.1080933682995161	1.100068288889026	0.9526203783007792	0.4938569306123198	0.2020520908806648	0.02443565242413414	0.09184948155889616	0.3379090307204566	0.03879643001440364	0.3995195937683619	0.1481955859119212	-0.4967910553425892	-0.1488818162755044	0.3293194463866127	-0.2125484479918631	0.009147667517408354	0.9615312457438693	0.09396746454545901	1.16273899049728	0.2361335711516006	-0.3745329542892636	0.1137918127116643	-0.1116077371308442	0.1090598832202947	-0.03040108418953764	-0.01907299704224336	-0.241204250351496	-0.2678476236338944	0.5518040011231283	1.570796326969429	0	0	0.2122150057001481	-0.1399869913794769	-0.07903385661558875	1.19394059807	1.570796326969429	0	0
0.3096312594138309	-0.03865795359993911	-0.08806549685866306	0.1184081432301546	1.097885233732573	0.9537826998303793	0.494361958951288	0.180823391537307	0.0230537117884301	0.0876436012207962	0.3247605492336024	0.03879643001440364	0.3863096194200766	0.1522405021077507	-0.4933965449519211	-0.1409516984678385	0.3599048112606715	-0.2089934880049483	0.008000593419826549	0.9360587232717186	0.0939674645454591	1.142369676288503	0.2414123717281099	-0.3704091138524593	0.1052725734926263	-0.1212891494344567	0.1072450938027967	-0.0330153088466217	0.007063374012882595	-0.2530029746487867	-0.2643324300854397	0.5981476328964579	1.570796326969431	0	0	0.1967949615299114	-0.1271525656410372	-0.06982674076996413	1.104010048775376	1.570796326969431	0	0
0.3136000000000001	-0.03811206229794503	-0.08763348181017055	0.1212231320770235	1.097247333877634	0.9540860369214151	0.4944946339171973	0.1750942751578789	0.02273830609526644	0.08651937274284643	0.3208561884439816	0.03879643001440363	0.3823091029723429	0.1532569532757729	-0.4926349152063556	-0.13867019553581	0.3680348817433633	-0.208067076971109	0.007341350696340028	0.9270072788296124	0.0939674645454591	1.134663178843068	0.2415543075367886	-0.3677837005859175	0.1034287069222189	-0.1238916244428308	0.1067391003738997	-0.03371208097850882	0.01449121330313571	-0.2561968410812965	-0.2637031524377607	0.6111756778258461	1.570796326969431	0	0	0.1928741819655178	-0.1237488580228251	-0.06739879643923062	1.078853859761157	1.570796326969431	0	0
0.3231128561131141	-0.0370439997075559	-0.08660882420443598	0.1279329462180337	1.09565113029568	0.9547761104467674	0.4947840021127032	0.1615958761288712	0.02198950048952679	0.08377037429821595	0.3113486432621402	0.0387964300144036	0.3719993034195553	0.1557725088806196	-0.4906014339450237	-0.1328351833676229	0.3868317280906169	-0.2056929541232548	0.005413647603045042	0.9020088577185088	0.09396746454545903	1.112542646389564	0.2419898644151474	-0.3590510097532257	0.09863466412425716	-0.1301499208042793	0.1055036142003328	-0.03537982991856102	0.0329856004471821	-0.2638022739488757	-0.2623368170852172	0.6430750983772098	1.57079632696943	0	0	0.1840144221027228	-0.115744637856984	-0.06157215285948767	1.017967794946835	1.57079632696943	0	0
0.3400558844730551	-0.0365192159249134	-0.0851303731259751	0.1391228661334769	1.092642047923984	0.9558171893522879	0.4952524518717217	0.1386677553637947	0.02105613629659675	0.07883726920081581	0.2931401636174971	0.0387964300144036	0.3508486545037596	0.1591195321366664	-0.4872404559628484	-0.122335756960035	0.4177283866453694	-0.2013287320293008	0.0009240583167309764	0.84549960097063	0.09396746454545903	1.060437309502603	0.2419766198206446	-0.3397708408690467	0.09064767465854444	-0.1405924096259026	0.1035943070630016	-0.03779286498685366	0.06807388354809052	-0.276595020319246	-0.2616963785248444	0.703340839248615	1.570796326969429	0	0	0.1699404111773741	-0.1028473375604196	-0.05287888304252054	0.9077512060776665	1.570796326969429	0	0
0.3544312594138309	-0.03764461061568716	-0.08433205680579441	0.1474415026558529	1.09002237284205	0.9564646174686706	0.495619866382341	0.1205635901188203	0.02073586023473456	0.07470687208557381	0.276562646925812	0.03879643001440365	0.3299271837989142	0.1607933478715862	-0.4844667290689638	-0.114352769802133	0.4412727604434278	-0.1973724602310361	-0.002856691555581679	0.7862945266990395	0.09396746454545904	1.003629078277924	0.2371017070363711	-0.3220007583355711	0.08543561420896971	-0.1483015970290714	0.1023606426217825	-0.03888529117360073	0.0989159926247305	-0.2863573419111719	-0.2632816806884322	0.7584966952477608	1.570796326969429	0	0	0.1585769134297733	-0.09371361270456319	-0.0480233720570244	0.8133968711539793	1.570796326969429	0	0
0.3584000000000001	-0.03815888800158579	-0.08424628963188134	0.1495324391833605	1.089312873950745	0.9566062041250574	0.4957136373764899	0.1157119209668178	0.02077315014187459	0.07358267522074653	0.271859126282918	0.03879643001440364	0.3236760643051148	0.1613949533834396	-0.4834288228715408	-0.1123911720565399	0.4472640863643511	-0.1962680589805251	-0.003665380224247242	0.7682904318558562	0.09396746454545904	0.9859666055758773	0.2336438151705513	-0.3167728750722572	0.08460663046422601	-0.1502239602485377	0.102145636511058	-0.03901591600036283	0.1074549932647208	-0.2888752133120088	-0.2637772500371375	0.774314853345023	1.570796326969429	0	0	0.1552239250472508	-0.09144934628240854	-0.04696988402352244	0.7875966680244847	1.570796326969429	0	0
0.3679128561131141	-0.03965908397427997	-0.08425821328500198	0.1542336276213823	1.087612999546308	0.9568712186114535	0.4959118025078042	0.1043093661913846	0.02106384378169337	0.07097380218362662	0.2604083225160971	0.03879643001440364	0.3079120413827463	0.1629722828201832	-0.4807300949055139	-0.1078829721207206	0.4607415933785278	-0.1934952022275089	-0.00495531370073933	0.7226520221328713	0.09396746454545905	0.9403100741581607	0.2252079780887055	-0.3022214774944928	0.08280851743048247	-0.1546221608002257	0.1018638794047331	-0.03912069519048268	0.1286061187537966	-0.2946797673607296	-0.2647276840560707	0.8132571266191089	1.570796326969429	0	0	0.1470476712384743	-0.0863619216878522	-0.04475635193276355	0.725929180972826	1.570796326969429	0	0
0.3848558844730551	-0.04335398110530488	-0.08506691910263545	0.1609347087958129	1.084769685982198	0.9570554999885226	0.4962224648399021	0.08474604345107833	0.02238023585706495	0.06709995902871567	0.2393881351579293	0.03879643001440364	0.2775176601602136	0.1655976786684504	-0.4752933494925479	-0.1033447667669621	0.4814479984061109	-0.1885406289983462	-0.004850352177915392	0.63377268974651	0.09396746454545903	0.8484775010881738	0.2071442095726277	-0.2744286155081345	0.07871421355158616	-0.1612555733171868	0.1020881774195847	-0.03801174879473134	0.1661679269020841	-0.3036024938688567	-0.2666621098725546	0.8864879111958354	1.570796326969428	0	0	0.129291555825838	-0.07931800396047362	-0.04336261920096657	0.6200215274709391	1.570796326969428	0	0
0.3992312594138309	-0.04715707152610744	-0.08633154199662539	0.1648090932143319	1.08266303485903	0.9569168564949879	0.4964475544535272	0.06852064664869889	0.02408185508753132	0.0649003874442757	0.221274927079147	0.03879643001440364	0.2502072575514788	0.167763753573218	-0.4696104839313547	-0.1043635617089845	0.4955569627474471	-0.1844571623920137	-0.001688953644464824	0.5534113953632466	0.09396746454545904	0.762212092564987	0.1864226597071219	-0.2509387369719552	0.07315860720255993	-0.1657680485616084	0.1026569122351264	-0.03566211171826458	0.1966871273213219	-0.309556128611971	-0.268892993439338	0.9517964049968345	1.570796326969429	0	0	0.1098811345600958	-0.07560229699239078	-0.04499873955274317	0.5369164006973389	1.570796326969429	0	0
0.4032	-0.04818875079383216	-0.08675014075970996	0.1656641445030627	1.08213729311644	0.9568371588819073	0.4964916446414659	0.06396175485866165	0.0246002099184747	0.06443733664117277	0.2162990522773635	0.03879643001440362	0.2425657756580658	0.1685734184047253	-0.4676363223143853	-0.1052271485938689	0.4988112121504203	-0.1833467201342996	-0.0001834287816720525	0.5308541651960872	0.09396746454545904	0.737464653864881	0.1788594706704726	-0.2445961890222215	0.07143509945075509	-0.1669183039134746	0.1028539540595795	-0.03486900471854591	0.2051716121518014	-0.3110102642559057	-0.2693637001558705	0.9700887575085894	1.570796326969429	0	0	0.1040595306607099	-0.07482367772824924	-0.04563587972434179	0.5152766317284242	1.570796326969429	0	0
0.4127128561131141	-0.05064175095369078	-0.08788328216648948	0.1673536965646847	1.080936210514432	0.9565621395624238	0.4965559716504384	0.05299036060744189	0.02597135466840216	0.06372626747675549	0.2043961097576419	0.03879643001440361	0.2243070517100583	0.1707071935728683	-0.4628470733301799	-0.1079772501541844	0.5059952848436376	-0.1807943655777121	0.004359214596007324	0.4777935700959519	0.09396746454545905	0.6772355510101513	0.1604570292601376	-0.2277101034724902	0.06697921331246462	-0.1695883274772283	0.1034753519474293	-0.03277548489578086	0.2262773252386014	-0.3142298543155285	-0.2700975169821526	1.014704977609925	1.570796326969429	0	0	0.08968544839149184	-0.07332119419234792	-0.04741397915917316	0.4650635712561259	1.570796326969429	0	0
0.4296558844730551	-0.05437917283756578	-0.09009110317280661	0.1689496504980663	1.079168489952946	0.9558446953422617	0.4965349599545824	0.03249860702938412	0.02858350877738654	0.06417461290965988	0.1834546796861456	0.03879643001440364	0.1929725391427548	0.1753793178453487	-0.4533006447968944	-0.1172188921106036	0.5167177376762355	-0.1768752496197308	0.01437104109369866	0.3919229060764228	0.093967464545459	0.5700195389028211	0.1263217286669459	-0.193370842008394	0.05526113770721224	-0.1743153245474231	0.1046843074419853	-0.02824231084903893	0.2644397561967619	-0.3186895808762136	-0.2708754154802042	1.094929817442927	1.57079632696943	0	0	0.05947498094110137	-0.07232980173173194	-0.05180082434379966	0.3873027732749954	1.57079632696943	0	0
0.4440312594138309	-0.05682925556118217	-0.09189648311436795	0.1690674722424372	1.078112077677541	0.9550232429818473	0.4963398421530406	0.01413196144129547	0.03064799822735017	0.06615704501941345	0.1663081998756512	0.03879643001440363	0.1689269967082804	0.1795665785328091	-0.4444158554063619	-0.128760818664702	0.5246578160703372	-0.1741379236092311	0.02258373080266554	0.3323569452522275	0.09396746454545905	0.4838277634280166	0.098151939352879	-0.1634182490846972	0.04181570262732361	-0.1782333064052159	0.1055954336286925	-0.02370417196260637	0.2954595166199362	-0.3211739152829714	-0.271618974734443	1.162141138772434	1.57079632696943	0	0	0.02790035541323313	-0.07315866655985928	-0.05632526121017236	0.3357553976400567	1.57079632696943	0	0
0.448	-0.05745337602780193	-0.09236999652898847	0.1690022896118173	1.077884987498954	0.9547552952398816	0.4962382718886624	0.009037983083563017	0.03114876144532546	0.06681369951278886	0.1618143724869406	0.03879643001440363	0.162880112389575	0.1807868529660883	-0.4419096862374689	-0.1319209234610572	0.5268255897431711	-0.1734207445243136	0.02440419556912775	0.3183053854411655	0.09396746454545905	0.4614741228091199	0.0903669966869179	-0.155954297457398	0.03819864961735586	-0.1792175501267902	0.1058735601149689	-0.02242243767005169	0.3038029513326937	-0.3217377595700582	-0.2717336676719054	1.180479245926911	1.57079632696943	0	0	0.01861040125744458	-0.07353031199384749	-0.05743631681535953	0.3234304975488466	1.57079632696943	0	0
0.457512856113114	-0.0588978914792327	-0.09343759068421198	0.1686118227215121	1.077430921885629	0.9540254811416735	0.495924575251782	-0.003024084862981946	0.03225381021008846	0.06877480950020928	0.1516598533861322	0.03879643001440361	0.1496515960188401	0.1840171516802274	-0.436247090600529	-0.1396927784223571	0.5319779314889375	-0.1717339805163834	0.02772679365999096	0.288460067433344	0.09396746454545903	0.4113097752077458	0.07422043154865937	-0.1380453039890771	0.02947054476599397	-0.1813657909143492	0.1065466121796154	-0.01928956291708448	0.3243468848716334	-0.3228897371114732	-0.2717337028717651	1.224601053772945	1.570796326969429	0	0	-0.004164931979706729	-0.07468197754133897	-0.05995126722085924	0.2965571526783344	1.570796326969429	0	0
0.4744558844730551	-0.06136793032096167	-0.09488566827165716	0.1672369828025418	1.077027766406847	0.952422774088179	0.4950597966072915	-0.02383164535710652	0.0335247370416854	0.07319996427696115	0.1361603363714856	0.03879643001440362	0.1311917636176944	0.1903010854588295	-0.4272858842426518	-0.1521949556938552	0.5407051231813619	-0.1682238274359836	0.02653119265661193	0.2488822860858252	0.09396746454545904	0.336715071080621	0.05748883715590765	-0.1117988251847516	0.01434543123478968	-0.1841292378119544	0.1076200611102913	-0.01358946527328587	0.361533118357059	-0.324104129669593	-0.2712983527343978	1.30062814071679	1.570796326969429	0	0	-0.04845411037828271	-0.07773984568459164	-0.06320058974070251	0.2627255253970223	1.570796326969429	0	0
0.4888312594138309	-0.06340716371659787	-0.09554643433590027	0.1655447130925657	1.077088364648871	0.9507894685800424	0.4939911723037075	-0.04039462841561048	0.03376745433915628	0.07729476242241112	0.1264074111633621	0.03879643001440368	0.1212637197729959	0.1962275855800557	-0.4205351904780341	-0.1591672898880629	0.5475337520818037	-0.1642170131523711	0.01708433114370433	0.2286036866804069	0.09396746454545905	0.2909460492754369	0.04969752481257596	-0.0990626001273352	0.003186596963693545	-0.1853415506733388	0.1083434061548045	-0.008685689910808446	0.3928839290749422	-0.3242850967734837	-0.2708202899883628	1.360749649251158	1.570796326969429	0	0	-0.0894345612093454	-0.08126825667464585	-0.06416651315813379	0.2491119342321632	1.570796326969429	0	0
0.4928	-0.06397587416171102	-0.09567688888382039	0.1650234168781804	1.077149283656019	0.9503004368675962	0.4936401137482261	-0.04465817225144081	0.03373698198640897	0.07827911899018955	0.1244690181334849	0.03879643001440368	0.1194883791194223	0.1981588861592725	-0.4187205188942501	-0.1601736488244801	0.5493857321074646	-0.1629386197306689	0.01347326498577438	0.2250926411651089	0.09396746454545905	0.2813375882835045	0.04643735783004262	-0.09751278250376169	0.0008435280028833312	-0.185542300404842	0.1085844302229382	-0.007330798294936156	0.4015121832257728	-0.3242474545586685	-0.2705159980739623	1.376769516983104	1.570796326969429	0	0	-0.1007439930024226	-0.0823200437118722	-0.06406462596705025	0.2468669493490377	1.570796326969429	0	0
0.502312856113114	-0.06544275141859175	-0.09581735363105062	0.1635239601362425	1.077384334610209	0.9490451465373473	0.4927280009069546	-0.05422142045579642	0.03343163072123337	0.08070917559249347	0.1211773318874652	0.03879643001440364	0.1169197482865424	0.2033345397651507	-0.4146247347835326	-0.1618619368442143	0.553785335311503	-0.1596512012556685	0.003536491899666058	0.2201429696499765	0.09396746454545907	0.2636256312833621	0.04083401913549746	-0.09378790771026035	-0.004027631502704132	-0.1856364527959692	0.1090425151865229	-0.004064336012122366	0.4228015513441109	-0.3239972583977662	-0.2693611060148576	1.414850427286166	1.570796326969429	0	0	-0.1279240101813788	-0.08502158063226306	-0.06332831629969149	0.2438335997604553	1.570796326969429	0	0
0.519255884473055	-0.06891052559859798	-0.09515252542014932	0.1599952591860065	1.078108236492157	0.9465210735607662	0.4908613297381114	-0.0683369050624093	0.03167471812768714	0.0850618159639662	0.1203330960301141	0.03879643001440363	0.1179505756808617	0.2147858443039869	-0.4083551921071446	-0.1599253861060259	0.5615804149440099	-0.1526539560971714	-0.01929643130001339	0.2226441354651011	0.09396746454545894	0.2495528774285526	0.03875058062358838	-0.09197716788964594	-0.00865662016663764	-0.1840376842415606	0.1089213601232524	0.001840064296457617	0.4616016525538282	-0.322865113585765	-0.2661348100974987	1.478190251203934	1.570796326969429	0	0	-0.1761076331276191	-0.09042132981158847	-0.05966697701742327	0.2474454525666297	1.570796326969429	0	0
0.5336312594138308	-0.07299687826841227	-0.09330413922053278	0.1561676729393985	1.079019584025888	0.9441121175635772	0.4890718846550323	-0.0772146169788534	0.02857828817746643	0.08861327733638455	0.124447704157932	0.03879643001440362	0.1238190352243616	0.2266549285601156	-0.4038977784461343	-0.1532972346097188	0.5679270241545289	-0.1454822700034135	-0.04146403081191921	0.2339310043692716	0.09396746454545897	0.252461656630431	0.04075902640413083	-0.09651842628671237	-0.00770948524932386	-0.1807034187375798	0.1072194726915209	0.006919569012166778	0.4945975419443279	-0.3212151860706327	-0.2630133388135801	1.526458957639847	1.570796326969428	0	0	-0.2154129063983554	-0.095431503237627	-0.05418150545744056	0.2584121529675221	1.570796326969428	0	0
0.5376	-0.07425757486250449	-0.09263783285425248	0.1549899783644546	1.079310419481819	0.943414408673662	0.4885509238681868	-0.07926080770122629	0.02752263759141431	0.08946772574979589	0.1262708527095173	0.03879643001440362	0.1261352837335508	0.230211550188697	-0.4026915367922368	-0.1510368444276692	0.5695190242052486	-0.1434312208099163	-0.04701343611749009	0.2380886433196582	0.09396746454545898	0.2551665650610491	0.04029913049411628	-0.09846207624868053	-0.006622480390093366	-0.1795824984409531	0.1065524871945336	0.008335868021088187	0.503741991598175	-0.3206883156206811	-0.2620906467893059	1.539342195322574	1.570796326969428	0	0	-0.225642758308531	-0.09683132064090838	-0.05238238085881679	0.2618706421335711	1.570796326969428	0	0
0.547112856113114	-0.07748370980741692	-0.09085217269391008	0.1519093019768993	1.080084504443235	0.9416797141480463	0.4872610338999904	-0.08355076129439426	0.02473500700291282	0.09152017468974087	0.1316593366669649	0.0387964300144036	0.1327495981902986	0.2392760167944338	-0.3999287385691053	-0.1450277814534434	0.573008503930091	-0.1385286481110906	-0.05929173503677936	0.2495637568871524	0.09396746454545897	0.2642244020052788	0.0374869130892658	-0.1028307633929818	-0.003437595640510395	-0.1765288001709321	0.1047127868435524	0.01176900170728843	0.5266800130965912	-0.3192933020431338	-0.259503242285692	1.569863780888976	1.570796326969428	0	0	-0.2492533242354202	-0.1002744919074553	-0.04759943367947701	0.2713335129502006	1.570796326969428	0	0
0.5640558844730551	-0.08432185543125928	-0.08626272400573992	0.1451259129911798	1.08171316920383	0.9384300046309689	0.4849250756536714	-0.08867828852207021	0.01814649499279506	0.09584045862760507	0.1447369702898384	0.03879643001440362	0.1476937686854823	0.2564170091034894	-0.3964575753323401	-0.1352517268931681	0.5783772321945195	-0.1295468674653552	-0.07188580536057003	0.2743756740144133	0.09396746454545897	0.2864881169461991	0.01655178958340653	-0.1117987558735915	0.00320833560098909	-0.1697077059105639	0.09928895157923574	0.01827772291352494	0.5683837847681283	-0.316210119266755	-0.254186071583607	1.621633916072549	1.570796326969429	0	0	-0.2870692306664391	-0.1065381775787256	-0.03784078209065726	0.28810133654848	1.570796326969429	0	0
0.5784312594138308	-0.09106967669359195	-0.08084039061824647	0.1377706312532352	1.083390767147138	0.9356012927985095	0.482949156641476	-0.09087638215440502	0.01084719202368902	0.100401485720735	0.1588624007163792	0.03879643001440358	0.1630514314319746	0.2707405509031265	-0.395013276612895	-0.1308612258960593	0.5812200207760665	-0.1217981310980351	-0.06928191086628797	0.2955746915178844	0.09396746454545887	0.3082391550004854	-0.00748491985123298	-0.1210723228008973	0.008381493744421055	-0.1627649074674097	0.09229528678034048	0.02435574868042247	0.6021243976157553	-0.3130011354855038	-0.2496822532985	1.6632942411844	1.570796326969427	0	0	-0.3154671098355283	-0.1117756173400722	-0.02887822699226801	0.2980880074549514	1.570796326969427	0	0
0.5823999999999999	-0.09297214221067282	-0.0792667854308107	0.1354782316138628	1.083910690896775	0.9348250897520244	0.4823927889842918	-0.09131857677435712	0.008708729418430849	0.101674921153425	0.163088308513883	0.03879643001440357	0.1677021664318245	0.2744046568932401	-0.3946873039177659	-0.1305311404431156	0.5813754216473443	-0.1197631430351576	-0.06626212490537364	0.3002626888348288	0.09396746454545887	0.3143573308438608	-0.01151210847434678	-0.1244896562263037	0.009652233470377974	-0.160781486619469	0.0902574559718143	0.02612454916972512	0.6110792791218765	-0.3120587117401907	-0.2484158734632024	1.674942941292582	1.570796326969427	0	0	-0.3230168741458063	-0.1131828930744487	-0.02638711688713296	0.299607598665388	1.570796326969427	0	0
0.5919128561131139	-0.09772184076395275	-0.07551210368819029	0.1298671667676329	1.085206866845031	0.9329797181841819	0.4809883038639265	-0.09178887071888281	0.003475018569483338	0.1045529628529021	0.174056210245999	0.03879643001440357	0.1796237741446834	0.2828385153264795	-0.3938705773357281	-0.1303616475810555	0.581633161806526	-0.1149434905753786	-0.05886957789425584	0.3110763137129364	0.09396746454545891	0.3289052280320409	-0.02320842300443438	-0.1377526730599226	0.01241870449780373	-0.155739432130415	0.08550958961783579	0.03042519621777659	0.6323658324183821	-0.309718882983972	-0.2454344631244976	1.702867489940109	1.570796326969427	0	0	-0.3401868563753924	-0.1165363262299275	-0.02020704966402099	0.3026565389624971	1.570796326969427	0	0
0.6088558844730551	-0.1063570199327092	-0.06875972104364994	0.1205064231795464	1.087551108674083	0.9299370596573777	0.4781832993337217	-0.09081165795052648	-0.006164343439030034	0.1081617948341318	0.1967414143405329	0.03879643001440364	0.2040883399802862	0.2946311337008331	-0.3933076843997325	-0.136957782793567	0.5854203328416588	-0.106597237924086	-0.05029787538503335	0.3367105593362235	0.09396746454545907	0.3537331437803738	-0.04256154443732155	-0.1755929393792016	0.01211600328036631	-0.1464940190605836	0.07741209981724791	0.03836531143307666	0.6615151725671559	-0.3052857949162749	-0.2421190423752431	1.749935170294906	1.57079632696943	0	0	-0.3649351846750495	-0.1218081978502887	-0.009330942853964797	0.3020199573326181	1.57079632696943	0	0
0.6232312594138308	-0.1135610652779777	-0.06269304846941685	0.1142071975475685	1.089426888295289	0.9278181491089823	0.4754173849017614	-0.08750226876809186	-0.01489254767151951	0.1082701235960924	0.2210061934077726	0.03879643001440365	0.2292090763027966	0.3010041926615648	-0.3933309901020651	-0.1482851552232585	0.5920826814946472	-0.09927688187429079	-0.04929524775410664	0.3640667220187392	0.09396746454545908	0.3732100950133992	-0.06143077207590994	-0.214822367720973	0.005720208069342402	-0.1388448306734184	0.0708026874330282	0.04520027840662657	0.6744343030767046	-0.3013190953009591	-0.2420909673827416	1.785298124044219	1.570796326969429	0	0	-0.3766537881430293	-0.1252458828785227	-0.0006951001274375865	0.2967668593426914	1.570796326969429	0	0
0.6272	-0.1154827054086826	-0.06094844576522004	0.1127668943730739	1.089920864441857	0.9273286541204921	0.4745817307681174	-0.08612768016089817	-0.01743748239389401	0.1075130566876178	0.2287939193052902	0.03879643001440364	0.2370519514787201	0.3023561484442935	-0.3930350149662707	-0.1512867812915071	0.5940162187409698	-0.09720325089131183	-0.04978176392584464	0.3720928480800597	0.09396746454545907	0.378278074374543	-0.06452097335206591	-0.2239180337918019	0.003675791631411509	-0.1368101524913339	0.06907845634847196	0.04705961325803964	0.6767098648460839	-0.300209631953614	-0.2422553771227809	1.794490368902605	1.570796326969428	0	0	-0.3783178016068918	-0.1260659187214911	0.001624536308198212	0.2955321675405916	1.570796326969428	0	0
0.636712856113114	-0.1200814495524462	-0.05666292613545044	0.1095063496449625	1.09104758932143	0.9263315073119013	0.472481140311172	-0.08163655828044558	-0.02373782390439813	0.1051319919496056	0.2495806350128471	0.03879643001440362	0.2577674331595384	0.3044953092651393	-0.3928424504198334	-0.1590922180857388	0.5986377966886511	-0.09220772886717071	-0.05215478037548013	0.3927096494677776	0.09396746454545904	0.3897838600223451	-0.0593610403961313	-0.2408066239822461	-0.0008707002083974678	-0.1320991271277805	0.0651021502514576	0.05148051422564116	0.6801200862618989	-0.2975180732744052	-0.2429610961581666	1.815971005847597	1.570796326969428	0	0	-0.3815659172078464	-0.1279258822109267	0.007276504818185668	0.2923682219127252	1.570796326969428	0	0
0.6536558844730551	-0.1277888808127346	-0.0483409413287577	0.1053509704496687	1.09274436766511	0.9253528652411258	0.4683522953357321	-0.06932395757488813	-0.03597988478239424	0.09796475078729035	0.2952175044691979	0.03879643001440364	0.302565945346418	0.3031287107465872	-0.3942815896504325	-0.1753521778386903	0.6057463897462145	-0.08206614035927805	-0.05607172854791844	0.4307867935560388	0.09396746454545907	0.4074801564838444	-0.02402820881747197	-0.2578211578976669	-0.007816401504431424	-0.1249644680175592	0.05817095032329934	0.05894657691595229	0.674164963184926	-0.2926588957718899	-0.2459011796431524	1.850341679351871	1.570796326969429	0	0	-0.3818339524613403	-0.1304799899144923	0.01689531867511395	0.2880378333786152	1.570796326969429	0	0
0.6680312594138309	-0.133255458015332	-0.04062755278446448	0.1033682623087887	1.094014752652754	0.925279229784459	0.4645118329148235	-0.05512108181141789	-0.04740545076747638	0.08931461213051674	0.3427806012737431	0.03879643001440364	0.3499088199633064	0.2962299012312861	-0.3971708907153279	-0.1889502715794574	0.6074870197569442	-0.07179231813727233	-0.0567969122658078	0.4561804949012439	0.09396746454545904	0.4187719948108924	0.0004408097405316225	-0.2671356569951621	-0.01305222415117819	-0.1201648927418216	0.05241173869864377	0.06455173921591255	0.6577238468042419	-0.2885147854011124	-0.2503778657631117	1.875547132419411	1.570796326969429	0	0	-0.3763018014135704	-0.1319779491221941	0.0242432977953715	0.2860158157835726	1.570796326969429	0	0
0.672	-0.1345377075062785	-0.03849032418142317	0.1028468315064747	1.094393433490843	0.925337132111532	0.4634147158316295	-0.0507474653861491	-0.05067575564388787	0.08651714962359641	0.3571727226016276	0.03879643001440364	0.3646276863178333	0.2935458108762191	-0.398075343419061	-0.1917415436615206	0.6065873739409078	-0.0688051804955957	-0.05683808193298651	0.4605974308909125	0.09396746454545904	0.4211581826533685	0.002814061851104305	-0.2703946394620648	-0.01437567296892896	-0.118908108442212	0.05097706846749033	0.06596280571339622	0.6527144241044578	-0.2873679016904524	-0.2516970843000083	1.882312694544604	1.570796326969429	0	0	-0.3743166527665541	-0.1324086314788731	0.02620835849198157	0.285691263029591	1.570796326969429	0	0
0.6815128561131141	-0.1374150779071324	-0.03338267741193478	0.1016455564802055	1.095298899621602	0.9256111517609877	0.4607461532674179	-0.03879255266317688	-0.05865929943968366	0.07980866994621975	0.3946071562658512	0.03879643001440364	0.4028959056930166	0.2854869075834005	-0.4009525372600117	-0.1974994995622535	0.6020437382235009	-0.06145880953192077	-0.05672045248974028	0.4683817019046174	0.09396746454545903	0.4254497303673688	0.01699353156443073	-0.2746254189017028	-0.01665637882412893	-0.1159431718582112	0.04774793868280029	0.0691368583813889	0.6395783433177211	-0.2845875483373643	-0.2551112900724857	1.898311176512396	1.570796326969429	0	0	-0.3683621151575361	-0.133507957699331	0.03096015501802329	0.2857535094632617	1.570796326969429	0	0
0.6984558844730551	-0.1410014007253206	-0.02415609017297325	0.09968080097991575	1.096931653815141	0.9265700034939616	0.4559459198375815	-0.01379129632609882	-0.07353581902118306	0.06781664394431516	0.470014270606095	0.03879643001440361	0.4813079678361907	0.2643872430283751	-0.4092010589165562	-0.2012012823954992	0.5859883597666801	-0.04756502298628926	-0.05537396598615675	0.4705071599006179	0.09396746454545898	0.4278802123822255	0.03969495699269072	-0.2801347838689579	-0.02079472377470272	-0.1116566901291482	0.04222841311355252	0.07379401905266525	0.6099110938410153	-0.2794951350450658	-0.2614255959979346	1.923282659497232	1.570796326969429	0	0	-0.3545995906182736	-0.1358737046637399	0.03896543720784602	0.2911129309909424	1.570796326969429	0	0
0.712831259413831	-0.1423247913308811	-0.01604520618573067	0.09824486627696159	1.098244101117082	0.9278240345070765	0.4518891875500956	0.01055918397211292	-0.08716919811851458	0.05810049723006033	0.5409167152970785	0.03879643001440363	0.5571596762683767	0.2383456521864574	-0.4188721218691935	-0.1954542445701731	0.5661437442762456	-0.03477500976077199	-0.0527412138723688	0.4637600608813265	0.09396746454545903	0.4249269192105249	0.05676415151244862	-0.2852952496245967	-0.02540807024157368	-0.1094351599133262	0.0374055220394116	0.07667015468497855	0.577457767621645	-0.2750171452557699	-0.266720647318725	1.939087136851675	1.570796326969429	0	0	-0.3400627337489587	-0.1383316626388718	0.04513304933215669	0.3029909141180667	1.570796326969429	0	0
0.7168000000000001	-0.1425336224718319	-0.01380556095328012	0.09780122374439683	1.098573893661716	0.9282182221956646	0.4507769534835684	0.017802221172523	-0.09115157702162957	0.05534508723170835	0.5612554039748812	0.03879643001440363	0.5793751852913058	0.2299091457942044	-0.4214883372309223	-0.1922930625426428	0.5601766505021889	-0.03114853975733026	-0.05173774858530725	0.4611972918667127	0.09396746454545904	0.423402369946461	0.06155319819010673	-0.2870456462849032	-0.0267245655865157	-0.1089634825100166	0.03612384246317809	0.07735699461644811	0.5679303425736315	-0.2737508007819232	-0.2680052064499319	1.942738436129853	1.570796326969429	0	0	-0.3358627655741289	-0.1390945481196118	0.04683900243259426	0.3073351738221278	1.570796326969429	0	0
0.7263128561131141	-0.1427449595155143	-0.008488120108873967	0.09669147744406602	1.099310063994308	0.9292415333847485	0.4481455196523304	0.0363981716825309	-0.1008611690474825	0.04941685813291245	0.6124215514192015	0.03879643001440364	0.6344272298679993	0.209693919129319	-0.4279628671300162	-0.1825328725680131	0.5450055652423749	-0.02244446641971585	-0.04905876398654135	0.4537812516010271	0.09396746454545908	0.418719309929407	0.07265828833540988	-0.2913424852093896	-0.02954213785092738	-0.108080008907902	0.03313340589219806	0.0787692414833968	0.5433646233513119	-0.2706685996693118	-0.2712033305914512	1.950715006770616	1.570796326969429	0	0	-0.3253770615342512	-0.1410393574348605	0.05105084377273966	0.3188930241508013	1.570796326969429	0	0
0.7432558844730551	-0.1418776843446741	0.001184031270083392	0.09464102116590449	1.100308055861876	0.9312740700914852	0.4436393831295918	0.07306136471422284	-0.119009228656866	0.04159171435948551	0.7110315069578497	0.03879643001440364	0.7367499582527371	0.1756643342705258	-0.4383829263441106	-0.1522314947108425	0.5159185058954914	-0.006757321470796617	-0.04364587075878913	0.4378584279063517	0.09396746454545898	0.4077763738244887	0.08898263869773451	-0.3000573346442931	-0.03458320265578425	-0.1079356875075002	0.02755972953670036	0.08038570745149122	0.4944531016973355	-0.2649474824941667	-0.2769404989266498	1.958886974678813	1.570796326969429	0	0	-0.3039273749829893	-0.1452603713801774	0.05826614249636676	0.3460680853062952	1.570796326969429	0	0
0.757631259413831	-0.1400368110531657	0.009554765125936511	0.09311402983934362	1.100731001940825	0.9330961447461382	0.4400634494984315	0.1065043910083065	-0.1350074996384298	0.03816785431265981	0.7977372133725217	0.0387964300144036	0.8248386576224215	0.1475755500820304	-0.4438207240761832	-0.1146385854508353	0.4902191274955769	0.006305470601416593	-0.03936479916474964	0.422968777042802	0.09396746454545897	0.3972006992092782	0.09865338818929603	-0.3070361562457198	-0.03924267028097159	-0.1093443758744543	0.02243802102285268	0.08081135869216081	0.4502213915738364	-0.2598384162995828	-0.2819314982913749	1.957853005421968	1.570796326969429	0	0	-0.2816078070093788	-0.1498093621222954	0.06361170023027045	0.3754204672465318	1.570796326969429	0	0
0.7616000000000002	-0.139477049865645	0.01176661669592757	0.09272419014013882	1.10077856229033	0.9335878577277245	0.4391166405297686	0.115806849349056	-0.1394617898093344	0.03740540260429796	0.8207676210604402	0.0387964300144036	0.8489244530262845	0.139323773238947	-0.4442296799103349	-0.1037077703360912	0.4832085086939287	0.009685288192774219	-0.03838346470868945	0.418903520623079	0.09396746454545897	0.3942316126114628	0.1012286442182555	-0.3083253896734581	-0.04041753009901791	-0.1098256455975852	0.02111931331716213	0.08084456289962361	0.43841513898222	-0.2583819718281233	-0.2831812450137061	1.956496971396707	1.570796326969429	0	0	-0.2748203847160652	-0.1512290215990205	0.06500037587764521	0.3838561180137552	1.570796326969429	0	0
0.7711128561131142	-0.1379792318763659	0.01684206843741731	0.09183012849338514	1.100799871816981	0.9347762677790167	0.4369388663654279	0.1381880221569426	-0.1499009692249882	0.03667324266633853	0.8743940402271232	0.03879643001440362	0.9056425424713709	0.1236949625122508	-0.4394113031788414	-0.07764985402174558	0.4665259076678697	0.01730545745398874	-0.03639458580759018	0.4093420140834781	0.09396746454545903	0.3871873781589626	0.1068967485939151	-0.3107895945155306	-0.04297243741718407	-0.1111539441475319	0.01810603469802918	0.08078663121095628	0.4091172145414952	-0.2548098788646891	-0.2859643372656662	1.951403874761143	1.570796326969429	0	0	-0.2574323439271899	-0.1548378303146712	0.06835031930647016	0.4046164756319576	1.570796326969429	0	0
0.7880558844730552	-0.1348144007145669	0.02474135518531757	0.09040560759502217	1.100399934312127	0.936979876871432	0.4334636589796834	0.178404525189836	-0.1665948811200221	0.03875960292654673	0.959689787360622	0.03879643001440364	1.000975382329629	0.1021620143151498	-0.4225577394994408	-0.0356202315709182	0.4374983620575579	0.02856714333688978	-0.03470865470795453	0.3932548435056606	0.09396746454545905	0.3752098103886795	0.1162859620862258	-0.3108196129052147	-0.04685985526633366	-0.1144523557700466	0.01349822875297457	0.08035303304624249	0.3547241997468649	-0.2480312500818267	-0.2893121363791213	1.930419276039233	1.57079632696943	0	0	-0.2204748664568288	-0.162655661462484	0.07313153964053912	0.4412772840890543	1.57079632696943	0	0
0.802431259413831	-0.1315676093053426	0.03019627806974691	0.08924146654741746	1.099629065624716	0.9389818630436575	0.4309754405427051	0.2131907238585246	-0.1781049698055854	0.04359723517093998	1.021203106405319	0.03879643001440361	1.073603152602344	0.08593230205637215	-0.4121045215046827	-0.007723376966934946	0.4131249962184353	0.03557802702082062	-0.03562056696198281	0.3798124858285489	0.09396746454545896	0.3656613958967751	0.1222758640988271	-0.3066845951029564	-0.0493629443889218	-0.1183805330163083	0.01031790494728042	0.07965729974274446	0.3071743752497782	-0.2419226680401929	-0.2909340348057988	1.898282560685504	1.570796326969427	0	0	-0.1835568631776717	-0.1707346328044288	0.07560715987668236	0.4700495447501892	1.570796326969427	0	0
0.8064000000000002	-0.130634057082564	0.03152334334782045	0.08885912128336423	1.09936922971154	0.9395473410151846	0.4303528773350299	0.2228486863148452	-0.1809463472713422	0.04505653830863914	1.036333729777039	0.0387964300144036	1.092019685078007	0.08157316448655849	-0.411220476243712	-0.001404029828534322	0.40639075712165	0.03715726549495056	-0.03623384911372009	0.3760020022333279	0.09396746454545897	0.3630853206338517	0.1235718384950312	-0.305148126928661	-0.04973096301290707	-0.1195553032350426	0.009564579807311794	0.07943818066800745	0.2942978968306498	-0.240215911767201	-0.2913173819966272	1.887844957522924	1.570796326969427	0	0	-0.1730997040985061	-0.173081736007607	0.07620368102439684	0.4773572977859759	1.570796326969427	0	0
0.8159128561131141	-0.128349556789269	0.03444305052005298	0.08786355696306025	1.098646788630724	0.9409333326418791	0.4289724348540387	0.2463044153090012	-0.1872410221883702	0.04895978634424603	1.069501689149256	0.03879643001440362	1.132954209585384	0.07173633059960925	-0.4069719378040944	0.01221507395436107	0.3904063837085885	0.04039601571234413	-0.03828946641033636	0.3669570325561302	0.09396746454545904	0.356917844311412	0.1263586206855956	-0.3005502444738312	-0.05023421632890634	-0.1226266643790237	0.00790923374216866	0.07885089691853439	0.263106976031895	-0.2360759371328019	-0.2920517571889216	1.860504128259584	1.570796326969429	0	0	-0.1473313237711091	-0.1788994276067447	0.0776171533529643	0.494290080523018	1.570796326969429	0	0
0.8328558844730553	-0.1238396296342432	0.03869111331272081	0.08545465155270295	1.097041733561403	0.9435366649610785	0.4269404968448308	0.2885368691113542	-0.1964724814737347	0.05643611689564262	1.117352029662413	0.03879643001440362	1.193714004995972	0.05807244462548997	-0.4029358503480617	0.02631078854306964	0.3618299850250826	0.04410132559349243	-0.04430205511238651	0.3507816133263875	0.09396746454545903	0.3455104078176766	0.1313700893934308	-0.288852099627222	-0.04960249485750835	-0.1292302339204451	0.00552681273484153	0.07786790145270081	0.2088602033992836	-0.2285742674159321	-0.2923400938795638	1.798659349292494	1.570796326969429	0	0	-0.09919400868600586	-0.1901800747483559	0.07912718713562533	0.520309960909449	1.570796326969429	0	0
0.8472312594138312	-0.1195767996581947	0.04137048469446013	0.08261626765676229	1.095401079324157	0.9458757691513648	0.4256247556415267	0.3246419131792602	-0.2025202841144455	0.062788688347167	1.146490952319851	0.03879643001440363	1.232206534643965	0.04766641649709512	-0.4016986680615832	0.02803373739255679	0.3369780177836714	0.04531513143610866	-0.05179654183621819	0.3360482919257569	0.09396746454545904	0.3348220880644299	0.1346536000987811	-0.2762029097648755	-0.04765666466077483	-0.1359314551074797	0.004101298218961116	0.0772311144802714	0.1660268298095808	-0.2221602157790047	-0.2915003279981844	1.730884145910916	1.570796326969429	0	0	-0.05676650079347201	-0.2006748767170072	0.07906868255334612	0.5383071597314014	1.570796326969429	0	0
0.8512000000000002	-0.1184030708612946	0.04199391936796906	0.0817025036774022	1.094920752442089	0.9465305589566497	0.4253062785238382	0.3345942740459883	-0.2040783430932303	0.06433133702097459	1.152509700253348	0.03879643001440363	1.240649920793513	0.04443298661492011	-0.4011690051973937	0.02794314488617823	0.3300244820556903	0.04545665830619286	-0.05410329978732444	0.3317081805935921	0.09396746454545904	0.3316397296344429	0.1353415490596134	-0.2725460650420193	-0.04681861044975438	-0.137839319142537	0.003818107669172376	0.07710008386955114	0.154971303986925	-0.2204019241741622	-0.2911226188969063	1.710617846062481	1.570796326969429	0	0	-0.04518412129393198	-0.2036331328728014	0.0790016625863772	0.5430062034872979	1.570796326969429	0	0
0.8607128561131143	-0.1155767421879485	0.04328911126230606	0.07930321523057622	1.093708349743397	0.9481089442310364	0.4246242719188437	0.3584587294205779	-0.2075424481896918	0.06784648043468293	1.163746129372937	0.03879643001440362	1.256995632324599	0.03751512929224592	-0.4002437407864464	0.0266153712259006	0.3133121179557316	0.04546732456189254	-0.06002005542874908	0.3210917821687927	0.09396746454545904	0.3235397914466266	0.1369544404778311	-0.2632705650878945	-0.04429666387754707	-0.1426343272524955	0.003333124066011244	0.07687642972562311	0.1289999839243756	-0.2161715113558491	-0.2897280312419975	1.659701960070733	1.570796326969429	0	0	-0.01736925179648838	-0.210869250496364	0.07881512288081757	0.5539505405552706	1.570796326969429	0	0
0.8776558844730553	-0.1104242139964105	0.04497080746162605	0.0739585533369783	1.091379310609942	0.9509485921479685	0.423677572125605	0.4002336888500604	-0.2129213690887861	0.07312416544072128	1.171661056253028	0.03879643001440367	1.272473733852829	0.02780802567215339	-0.3996158244245626	0.02120550036789851	0.282936186960849	0.04454421247101945	-0.07173908531445697	0.3008671454146271	0.09396746454545905	0.3073627189847795	0.1396393376052495	-0.2456189932079677	-0.03851687894352019	-0.1518439809157811	0.003141541144691814	0.07707808644755759	0.0882096817408905	-0.2087224916519136	-0.2856559359306912	1.556639262369653	1.570796326969429	0	0	0.0315283405412774	-0.2243079833044601	0.07737784432849268	0.5745702639096383	1.570796326969429	0	0
0.8920312594138311	-0.1060737154279902	0.0458155580572915	0.06837226719815118	1.089264064839043	0.9533336813060546	0.4230985890154741	0.4345518623643357	-0.2167517909127712	0.07670480886518471	1.166217192261811	0.03879643001440364	1.271999892941949	0.02071904407288536	-0.3997661399772788	0.01600605912176371	0.256494011572978	0.04313153455668042	-0.08235341147685848	0.2818861763646897	0.093967464545459	0.2919392047234119	0.1405268519669321	-0.2309678007989414	-0.03352143075428195	-0.1601216885286448	0.003679367718144748	0.07789854917666748	0.0607538974129824	-0.2026017416199357	-0.2812310095150996	1.455744379671427	1.570796326969429	0	0	0.07158927412861879	-0.2361584482044635	0.07460992403021886	0.5953327344029753	1.570796326969429	0	0
0.8960000000000002	-0.1049500321167167	0.04595907763077668	0.06672345815351129	1.088666834759838	0.9539719165875145	0.422957090476109	0.4438213744193601	-0.217760373247591	0.07750862805561434	1.162778922865736	0.03879643001440363	1.269692611959782	0.01853071728027897	-0.3995567379105918	0.01526779107340531	0.2491778468686953	0.04272684679054309	-0.08517181354120734	0.2763651280257122	0.093967464545459	0.2874402049593636	0.1404667671189883	-0.2272509310934225	-0.03222625497035039	-0.1623786959119238	0.003974390435891579	0.07820422846081294	0.0542687785939924	-0.2009471690957047	-0.2799245190758765	1.426759400014658	1.570796326969429	0	0	0.08228300036645891	-0.2394442278691614	0.07373762160070617	0.6018038813632473	1.570796326969429	0	0
0.9055128561131143	-0.1023400819258568	0.04614473429683444	0.06260926934948106	1.08719992233569	0.9554555427079013	0.422663895172682	0.4655348117913117	-0.2199417081019405	0.0792649213313432	1.151274510339014	0.03879643001440363	1.260370023063517	0.01403476821551412	-0.399006567353095	0.01349986711520831	0.2317017784083497	0.04166985964916994	-0.09185840008618318	0.2629652947724915	0.09396746454545904	0.2763081340576269	0.1403138192042155	-0.2184276369005015	-0.02884448263954061	-0.167862156985946	0.004917015730580974	0.07907632930000186	0.04015567885589894	-0.1970019156075578	-0.2764251655953822	1.355640648354846	1.570796326969429	0	0	0.1076685548405285	-0.2473960565733627	0.07152410462481942	0.6182563365338216	1.570796326969429	0	0
0.9224558844730553	-0.09826330740411544	0.04603699915339278	0.05484616783784796	1.084460618941144	0.9578872277930918	0.4222432009704006	0.502255003886567	-0.2231728353018879	0.08195393510245505	1.119243219593761	0.03879643001440364	1.230693520263177	0.009765314395546787	-0.3993740514092363	0.01244023977708782	0.2012191452524701	0.03979405664656643	-0.1030574936387636	0.2386750508675179	0.09396746454545898	0.255632176550097	0.1394521309899473	-0.2040000213501872	-0.0237674930288186	-0.1776077067525448	0.007339873137241423	0.08107389379736381	0.0218466653294053	-0.1903475664568373	-0.2711772299199728	1.221250620767082	1.570796326969429	0	0	0.1506572192203754	-0.2615304539581698	0.06596392137081393	0.65539998460829	1.570796326969429	0	0
0.9368312594138312	-0.09563031838109361	0.04568915316555024	0.04812129215892301	1.082026665425578	0.959664396041125	0.4219501714793404	0.5312425770738863	-0.2253085643783339	0.08442301140798671	1.080699021895811	0.0387964300144036	1.192674910283138	0.007675307449464999	-0.4008196283449438	0.01447186382646265	0.1764756208004781	0.03846738626375204	-0.1115527749556359	0.2180059663421813	0.09396746454545893	0.2377877741603824	0.1378635631040267	-0.193666352343431	-0.02165148611131109	-0.1856213875010139	0.009942421579180943	0.08301383028890452	0.01268372540423252	-0.1852644917723837	-0.2697060255166097	1.1002144295484	1.570796326969429	0	0	0.1839934948057549	-0.2731933094321168	0.05925201234632604	0.6962618576525474	1.570796326969429	0	0
0.9408000000000003	-0.09506656276619452	0.0455733522394761	0.04630357353041746	1.081348239370356	0.9600965174918312	0.4218759463930156	0.5388578545786731	-0.2258082993023811	0.0852363880350155	1.068295727043503	0.03879643001440359	1.180154472712768	0.006749313217598057	-0.4009043263169826	0.01557530610518326	0.1698813084658298	0.03817407638411995	-0.1136468274760789	0.2123731072350876	0.09396746454545893	0.2328915795917144	0.1374145347403444	-0.1910691400940888	-0.02132794902132226	-0.1877373154251716	0.0107339451902345	0.08354399897180927	0.01077472145129024	-0.1839379954041759	-0.2698109698569407	1.066681474431764	1.570796326969428	0	0	0.1927220183667348	-0.2763268952242579	0.05727093195246045	0.7085680986972629	1.570796326969428	0	0
0.9503128561131143	-0.09392465415640637	0.0452767077076997	0.04199789379168483	1.079700443674912	0.9610249241897756	0.4217271069676792	0.5562305157459537	-0.2267348446077865	0.08758638938286083	1.03551150236146	0.03879643001440359	1.146678000285356	0.005377653518231038	-0.4008909999948774	0.0184236010558155	0.1544714787999564	0.03755842201865613	-0.118353789230182	0.1990406393543483	0.09396746454545893	0.2213141524241892	0.1359012308722183	-0.1854620313071031	-0.02054200173368172	-0.1927626557828453	0.01271062122986774	0.08482041181939722	0.007250718240684711	-0.1808541722200748	-0.2707613190564275	0.9859605613887013	1.570796326969427	0	0	0.2131876418750422	-0.283749520346936	0.05239191484094615	0.7396047593211825	1.570796326969427	0	0
0.9672558844730554	-0.09300672498378822	0.04529628941105231	0.03508665621638456	1.07674309432023	0.9622392086769035	0.4214909647498394	0.5841840445079736	-0.2283635404127122	0.09329881753134948	0.9668441862351547	0.03879643001440364	1.075504380959868	0.003830243711966247	-0.4015479256807345	0.02328417639345411	0.1289519243779179	0.03753587967168198	-0.1247498990022566	0.1764259724750991	0.09396746454545901	0.2016062582937705	0.1332080865528959	-0.1775272632066761	-0.0206818006510065	-0.2010844047317772	0.01581639220824885	0.08665398362316253	0.002394478972267911	-0.176111876094164	-0.2788093037477642	0.8434498178424248	1.570796326969429	0	0	0.2467185594530283	-0.2959962775704639	0.04232355828964581	0.8023753149833818	1.570796326969429	0	0
0.9816312594138312	-0.09345389581317652	0.04621414424882738	0.03029718542125583	1.07427680503404	0.9627857472039326	0.4213248281365101	0.6047209097734049	-0.2300816184599011	0.1002262786810817	0.898920836966241	0.03879643001440365	1.004627728990982	-0.001020031491762219	-0.4011206931094638	0.02651769017083528	0.1094606698943585	0.03884162156568415	-0.1280404943817147	0.1587586147790985	0.09396746454545904	0.1862109172814109	0.1312173346734573	-0.1727106460294164	-0.02265912590304849	-0.2072926483682431	0.0175495660790109	0.08744258295262085	-0.002993088203850747	-0.1730271813488451	-0.2935442556870917	0.7266145802833653	1.57079632696943	0	0	0.2717280967168962	-0.3050114698775186	0.03242271300968104	0.8624378879101974	1.57079632696943	0	0
0.9856000000000004	-0.0937310738354275	0.04657407104077251	0.02912424274914992	1.07361442606528	0.9628586917832863	0.4213001932772423	0.6097941109048668	-0.2305134209582013	0.1026036878453777	0.8787109378097547	0.03879643001440364	0.9835808195940687	-0.00360370733583612	-0.4000900194494496	0.02731413171178452	0.1043880559715162	0.03932465084527916	-0.1286876975769941	0.1542019375269351	0.09396746454545904	0.1822218645842423	0.1309319210401217	-0.1714522688302177	-0.02320362819909981	-0.20887858238547	0.01790635191953256	0.08753818139213976	-0.004965701747774554	-0.1722817782587754	-0.2984329783217695	0.6956197342065865	1.57079632696943	0	0	0.2782582212362104	-0.3073063998027968	0.02972711833142678	0.8793495575607425	1.57079632696943	0	0
0.9951128561131144	-0.09461985522506672	0.04757288476886327	0.02655682649241211	1.072044157533429	0.9628970938604077	0.4212917723514634	0.6208174240671647	-0.231380567849526	0.1091789260008105	0.8279200465468431	0.03879643001440363	0.9309289469079557	-0.00955874219077163	-0.3965928276451332	0.02882831175659776	0.09276381815449822	0.0406388576956123	-0.1297325196684751	0.1437554359081532	0.09396746454545901	0.1731731384401618	0.1299702572239851	-0.1692929961487654	-0.02432467926675595	-0.2125093859882712	0.01856722458731376	0.08759125726953325	-0.00976999960520672	-0.170659374703211	-0.3116089641210604	0.6229241433505049	1.570796326969429	0	0	0.2935940581052089	-0.3125406323667976	0.02336355406585319	0.9208941459924064	1.570796326969429	0	0
1.012055884473055	-0.09699182828363853	0.05055500927336959	0.02339997126686724	1.069433184926261	0.96246156204776	0.4214195776413772	0.6366730689248699	-0.2336176076595643	0.1236632127679552	0.7320608704466146	0.03879643001440364	0.8314015585006146	-0.02128545236447851	-0.3893143664632793	0.02770215114787738	0.07405195886818053	0.04426564858617654	-0.1289540964747024	0.1275792619573195	0.09396746454545898	0.1590155841446902	0.1292744141179443	-0.1678211929994012	-0.02603552810116366	-0.217968057551658	0.01821608502091714	0.08652466815864782	-0.02255704338336992	-0.1686207383904739	-0.3414048068432405	0.5053810868204701	1.570796326969429	0	0	0.3197511465307617	-0.3202093612141267	0.01189495353235058	0.9963200915043385	1.570796326969429	0	0
1.026431259413831	-0.09954242786254662	0.05430252143854807	0.0222965597252181	1.067511600320532	0.9616026392646081	0.4217180724452049	0.6468214545209438	-0.2364491328209327	0.1381640486962782	0.6500276952728227	0.03879643001440364	0.7443320890384558	-0.03405341604923168	-0.383021274524027	0.02279457522587507	0.06009783520336137	0.04839359031464792	-0.1260736791900013	0.1171381288548409	0.09396746454545903	0.1491699088366374	0.1311260528982115	-0.1676355440394796	-0.02727647422849523	-0.2213861507478075	0.01620457233201054	0.0842817561122385	-0.03915341291202618	-0.1678049614432043	-0.3714801040006916	0.4211477807411877	1.570796326969429	0	0	0.3410582867057524	-0.3247803030728835	0.00221041132506051	1.059608850400866	1.570796326969429	0	0
1.0304	-0.1002468192174664	0.05536024386917648	0.02216397875521458	1.067037164750426	0.9612963334300224	0.4218567041198416	0.6491795403145876	-0.2371415107546831	0.1424134437135121	0.6281606046548542	0.03879643001440364	0.7203700719591937	-0.03839166156131291	-0.3810742727630768	0.02127751503627684	0.05646969208132496	0.04944599220899724	-0.1251930342016385	0.1148772451663785	0.09396746454545903	0.146828408894505	0.1322749599794034	-0.1672867359623516	-0.02742782800446904	-0.2221555322043903	0.01551925099008217	0.08351878262826683	-0.04425168987987585	-0.1676656713765565	-0.3797024245020145	0.4002475011641247	1.570796326969429	0	0	0.3469874682934583	-0.3258238094147919	-0.0002682692805899109	1.076627902099793	1.570796326969429	0	0
1.039912856113114	-0.1019507182477255	0.05796351689748971	0.02211431848107306	1.065995848661303	0.9604495542963093	0.4222915586593551	0.6542840765497449	-0.2387065772814955	0.1525695026967633	0.5780912951908554	0.03879643001440362	0.6638165295100444	-0.04812699324104358	-0.3763297441027893	0.01704171784630557	0.04815575227473651	0.05188413928565728	-0.1227928366723542	0.1103369630518806	0.09396746454545903	0.1419169351228956	0.1353272492748288	-0.1670106977436517	-0.0273594391133845	-0.2236341325321951	0.01357767044876573	0.0814628394066379	-0.05652118179714721	-0.1674933625116814	-0.3999561330661454	0.3536485092211027	1.570796326969429	0	0	0.3614464795057551	-0.3280004691804898	-0.00591572803645361	1.117522866191591	1.570796326969429	0	0
1.056855884473055	-0.1050373475172801	0.06275331875420075	0.02328617183779587	1.064584953519508	0.9585786011661894	0.4234293300848254	0.6622824884469145	-0.2413002492605499	0.1672984052993699	0.5014582994826426	0.03879643001440362	0.5690426014778315	-0.06208869773205875	-0.3696434282249277	0.006564778080484679	0.03459998550183044	0.05568925955560856	-0.1175866429695019	0.1057904135261672	0.09396746454545896	0.1357720275154592	0.1438227445693984	-0.1659505821695044	-0.02648346787754301	-0.2245820244080105	0.009097588884915818	0.07680624518547872	-0.08240343295672534	-0.1677975522670072	-0.4338194885870575	0.2886350222927462	1.570796326969429	0	0	0.388999500987278	-0.330274083383964	-0.01520860919439267	1.187315650375353	1.570796326969429	0	0
1.071231259413831	-0.1076978762869246	0.06655679819823609	0.02546900992184212	1.063908225944687	0.9567108208962741	0.4247899161308271	0.668711563533228	-0.2427356692489145	0.1730718041204865	0.452622854462644	0.03879643001440364	0.4982183860502796	-0.07259577472728368	-0.366682963794484	-0.004143419901207893	0.02402621184937012	0.05779202853929771	-0.1130659840475315	0.1051644583574277	0.09396746454545896	0.1333966318787044	0.1542646231542258	-0.16301293236651	-0.02601300859171774	-0.2233811061867133	0.004635752333280417	0.0719506210960148	-0.1091200424737549	-0.1686303481914485	-0.4569012265343728	0.2533299919514265	1.570796326969429	0	0	0.414715709875432	-0.3305197633774801	-0.02241692200433093	1.242235967064173	1.570796326969429	0	0
1.075200000000001	-0.108419081140062	0.06740529356877828	0.02614111761239663	1.06380187013683	0.9561685635694956	0.4252453305570871	0.670485664911051	-0.2427178899450846	0.1733323503037818	0.4420296161100089	0.03879643001440364	0.4806540979456614	-0.07616093461534898	-0.3661165948559839	-0.006806741750809634	0.02116327096780293	0.05800136880236358	-0.111969314576587	0.1053417736556767	0.09396746454545896	0.1332335462958228	0.1573695801931764	-0.1618567222021073	-0.0259815200151309	-0.2227392724153544	0.003452280775335068	0.07056147982091228	-0.116529372990091	-0.1689019113158167	-0.4619820721027415	0.2460135364923512	1.570796326969429	0	0	0.4222209727571914	-0.3304374102357557	-0.02422833488297379	1.256982520597731	1.570796326969429	0	0
1.084712856113115	-0.1101778732189865	0.06928486767306326	0.02795497615654587	1.063685337800633	0.9548371573076407	0.4264549206045538	0.6746192006012359	-0.2421658761946053	0.1723487995702587	0.4211981627284149	0.03879643001440363	0.4425326366608183	-0.0833363785533571	-0.3651582735342992	-0.01347539927425978	0.01452511145126104	0.05811007588224095	-0.1094090084340863	0.1064611984517944	0.09396746454545897	0.1337630868912836	0.1651125461545574	-0.1588864333770055	-0.02589143043448171	-0.2206332553991661	0.0005175280452913945	0.06708160545079817	-0.1339671425520093	-0.1696657498526753	-0.4731045556057125	0.2322968073156863	1.570796326969429	0	0	0.4410171772603125	-0.3299742513134684	-0.02824381308298315	1.292241188544138	1.570796326969429	0	0
1.101655884473056	-0.1138101283714172	0.07132564611138328	0.03210218619125307	1.064063646551942	0.952360620975775	0.4290165355136422	0.681654591849255	-0.2387564540379641	0.1620880700746091	0.4004869631309685	0.03879643001440365	0.3897446357837214	-0.09097363605670644	-0.3658781913170122	-0.0257215938299909	0.003586209395508133	0.05599470593042061	-0.1052831172170032	0.1106321758377721	0.09396746454545904	0.1381463777315065	0.1805497551195849	-0.1511397522592184	-0.0280458835818773	-0.2141554595873123	-0.004182128544185549	0.06054175407706474	-0.1668166421903914	-0.1713812084530039	-0.4838488192268787	0.222971511769263	1.57079632696943	0	0	0.4776775054793607	-0.3279819799230748	-0.03490008792828339	1.353145850065006	1.57079632696943	0	0
1.116031259413831	-0.1173740518083077	0.0715274723471072	0.03653387940187629	1.065086626613833	0.9502089597456311	0.4315689517629293	0.6864537129218593	-0.2332867800878766	0.1461349762978948	0.3971476612422571	0.03879643001440363	0.3608457915977786	-0.09431729209574866	-0.3703144917042297	-0.03483987332266454	-0.005468219140585484	0.05157030392537783	-0.1029729187700609	0.1153347843781433	0.09396746454545901	0.1456927549941688	0.1946868328036387	-0.1409257992292236	-0.03213407617031699	-0.2057351659897059	-0.007247263694720561	0.05473068692503447	-0.1975459048153736	-0.173152148378361	-0.4826642095969148	0.2286723337567906	1.570796326969429	0	0	0.5114745077965939	-0.325043976275711	-0.04025833015555527	1.402000765952777	1.570796326969429	0	0
1.12	-0.1183487125957039	0.07136014319646011	0.03782537104964619	1.065487109722197	0.949624109825036	0.4323323545149347	0.687335875554729	-0.2313353270931325	0.1416454912048577	0.3977832103435727	0.03879643001440362	0.3554362130447108	-0.09529533910099	-0.3720912539244759	-0.03667119464776093	-0.008147810955067281	0.0499550902244198	-0.1025992725884229	0.1165635715305153	0.093967464545459	0.1484462017454991	0.1985368794229843	-0.1375011830221698	-0.03308969094615009	-0.20305150225423	-0.007933350989656822	0.05310741542761764	-0.2059837486659765	-0.1736579574027629	-0.4812668882517007	0.2313804556776057	1.570796326969429	0	0	0.5210827508689491	-0.3241151888776884	-0.04161208686354689	1.415252095120905	1.570796326969429	0	0
